<?xml version="1.0" encoding="UTF-8"?>
<!-- track-length = 18836 filtered ascend = 413 plain-ascend = 0 cost=40302 energy=.1kwh time=1h 29m 44s -->
<gpx 
 xmlns="http://www.topografix.com/GPX/1/1" 
 xmlns:xsi="http://www.w3.org/2001/XMLSchema-instance" 
 xsi:schemaLocation="http://www.topografix.com/GPX/1/1 http://www.topografix.com/GPX/1/1/gpx.xsd" 
 creator="BRouter-1.7.9" version="1.1"><wpt lat="39.90662" lon="3.08272"><name>Gran Café 1919</name><sym>Restaurant</sym></wpt><wpt lat="39.90887" lon="3.08132"><name>Cultural</name><sym>Restaurant</sym></wpt><wpt lat="39.91173" lon="3.09246"><name>Store Formentor</name><sym>Restaurant</sym></wpt><wpt lat="39.9072" lon="3.082"><name>Café</name><sym>Restaurant</sym></wpt><wpt lat="39.90859" lon="3.08501"><name>Cappuccino</name><sym>Restaurant</sym></wpt><wpt lat="39.90637" lon="3.08193"><name>Wattstyle</name><sym>Bike Trail</sym></wpt><wpt lat="39.90709" lon="3.08267"><name>Bike island</name><sym>Bike Trail</sym></wpt><wpt lat="39.91093" lon="3.08727"><name>Holibikes Cafeteria</name><sym>Restaurant</sym></wpt>
 <trk>
  <src>brouter_fastbike-lowtraffic_0</src>
  <type>bike</type>
  <trkseg>
   <trkpt lon="3.083068" lat="39.908298"><ele>2.0</ele><sym>pass_place</sym><type>Via</type></trkpt>
   <trkpt lon="3.083480" lat="39.908057"><ele>2.0</ele><sym>left</sym></trkpt>
   <trkpt lon="3.083892" lat="39.908468"><ele>1.75</ele></trkpt>
   <trkpt lon="3.084594" lat="39.909169"><ele>1.0</ele></trkpt>
   <trkpt lon="3.085036" lat="39.909597"><ele>1.0</ele></trkpt>
   <trkpt lon="3.085185" lat="39.909741"><ele>1.0</ele></trkpt>
   <trkpt lon="3.086128" lat="39.910393"><ele>1.25</ele></trkpt>
   <trkpt lon="3.086355" lat="39.910541"><ele>1.0</ele></trkpt>
   <trkpt lon="3.087295" lat="39.911066"><ele>1.0</ele></trkpt>
   <trkpt lon="3.087534" lat="39.911195"><ele>1.25</ele></trkpt>
   <trkpt lon="3.087604" lat="39.911229"><ele>1.25</ele></trkpt>
   <trkpt lon="3.087685" lat="39.911258"><ele>1.25</ele></trkpt>
   <trkpt lon="3.088873" lat="39.911594"><ele>1.0</ele></trkpt>
   <trkpt lon="3.089053" lat="39.911627"><ele>1.0</ele></trkpt>
   <trkpt lon="3.089131" lat="39.911628"><ele>1.0</ele></trkpt>
   <trkpt lon="3.089918" lat="39.911657"><ele>1.0</ele></trkpt>
   <trkpt lon="3.090822" lat="39.911683"><ele>1.0</ele></trkpt>
   <trkpt lon="3.091602" lat="39.911707"><ele>2.0</ele></trkpt>
   <trkpt lon="3.091734" lat="39.911702"><ele>2.0</ele></trkpt>
   <trkpt lon="3.091833" lat="39.911686"><ele>2.0</ele></trkpt>
   <trkpt lon="3.092342" lat="39.911577"><ele>1.75</ele></trkpt>
   <trkpt lon="3.092469" lat="39.911551"><ele>1.75</ele></trkpt>
   <trkpt lon="3.092953" lat="39.911445"><ele>2.0</ele></trkpt>
   <trkpt lon="3.095277" lat="39.910951"><ele>3.0</ele></trkpt>
   <trkpt lon="3.096269" lat="39.910739"><ele>3.75</ele></trkpt>
   <trkpt lon="3.096908" lat="39.910603"><ele>4.0</ele></trkpt>
   <trkpt lon="3.097074" lat="39.910576"><ele>4.0</ele></trkpt>
   <trkpt lon="3.097277" lat="39.910547"><ele>3.75</ele></trkpt>
   <trkpt lon="3.097507" lat="39.910514"><ele>3.75</ele></trkpt>
   <trkpt lon="3.097845" lat="39.910474"><ele>3.5</ele></trkpt>
   <trkpt lon="3.098336" lat="39.910410"><ele>3.0</ele></trkpt>
   <trkpt lon="3.098407" lat="39.910406"><ele>3.0</ele></trkpt>
   <trkpt lon="3.098477" lat="39.910412"><ele>3.0</ele></trkpt>
   <trkpt lon="3.098525" lat="39.910424"><ele>3.0</ele></trkpt>
   <trkpt lon="3.098602" lat="39.910477"><ele>3.0</ele></trkpt>
   <trkpt lon="3.098620" lat="39.910506"><ele>3.0</ele></trkpt>
   <trkpt lon="3.099444" lat="39.912412"><ele>8.5</ele></trkpt>
   <trkpt lon="3.099466" lat="39.912463"><ele>8.75</ele></trkpt>
   <trkpt lon="3.099635" lat="39.912679"><ele>9.5</ele><sym>roundabout_e1</sym></trkpt>
   <trkpt lon="3.099692" lat="39.912705"><ele>9.5</ele></trkpt>
   <trkpt lon="3.099756" lat="39.912711"><ele>9.75</ele></trkpt>
   <trkpt lon="3.099835" lat="39.912702"><ele>9.5</ele></trkpt>
   <trkpt lon="3.100081" lat="39.912654"><ele>9.5</ele><sym>pass_place</sym><type>Shaping</type></trkpt>
   <trkpt lon="3.100084" lat="39.912654"><ele>9.5</ele></trkpt>
   <trkpt lon="3.100427" lat="39.912576"><ele>9.25</ele></trkpt>
   <trkpt lon="3.101521" lat="39.912323"><ele>8.5</ele></trkpt>
   <trkpt lon="3.101743" lat="39.912277"><ele>9.25</ele></trkpt>
   <trkpt lon="3.101932" lat="39.912256"><ele>10.0</ele></trkpt>
   <trkpt lon="3.102116" lat="39.912261"><ele>10.5</ele></trkpt>
   <trkpt lon="3.102309" lat="39.912306"><ele>11.0</ele></trkpt>
   <trkpt lon="3.102467" lat="39.912375"><ele>11.25</ele></trkpt>
   <trkpt lon="3.102604" lat="39.912487"><ele>12.25</ele></trkpt>
   <trkpt lon="3.102683" lat="39.912576"><ele>12.75</ele></trkpt>
   <trkpt lon="3.103047" lat="39.913087"><ele>16.0</ele></trkpt>
   <trkpt lon="3.104263" lat="39.914829"><ele>28.75</ele></trkpt>
   <trkpt lon="3.104333" lat="39.914880"><ele>29.25</ele></trkpt>
   <trkpt lon="3.104397" lat="39.914901"><ele>29.75</ele></trkpt>
   <trkpt lon="3.104479" lat="39.914904"><ele>30.25</ele></trkpt>
   <trkpt lon="3.104555" lat="39.914884"><ele>31.5</ele></trkpt>
   <trkpt lon="3.104618" lat="39.914847"><ele>32.5</ele></trkpt>
   <trkpt lon="3.104659" lat="39.914789"><ele>33.25</ele></trkpt>
   <trkpt lon="3.104666" lat="39.914712"><ele>34.0</ele></trkpt>
   <trkpt lon="3.104373" lat="39.913624"><ele>40.25</ele></trkpt>
   <trkpt lon="3.104091" lat="39.912505"><ele>42.0</ele></trkpt>
   <trkpt lon="3.104063" lat="39.912241"><ele>43.0</ele></trkpt>
   <trkpt lon="3.104097" lat="39.911609"><ele>43.75</ele></trkpt>
   <trkpt lon="3.104129" lat="39.911550"><ele>44.25</ele></trkpt>
   <trkpt lon="3.104200" lat="39.911518"><ele>46.5</ele></trkpt>
   <trkpt lon="3.104270" lat="39.911521"><ele>49.5</ele></trkpt>
   <trkpt lon="3.104329" lat="39.911554"><ele>52.0</ele></trkpt>
   <trkpt lon="3.104355" lat="39.911611"><ele>53.75</ele></trkpt>
   <trkpt lon="3.104368" lat="39.912016"><ele>54.0</ele></trkpt>
   <trkpt lon="3.104391" lat="39.912276"><ele>54.0</ele></trkpt>
   <trkpt lon="3.104455" lat="39.912502"><ele>56.25</ele></trkpt>
   <trkpt lon="3.104567" lat="39.912700"><ele>58.25</ele></trkpt>
   <trkpt lon="3.104838" lat="39.913024"><ele>61.75</ele></trkpt>
   <trkpt lon="3.104893" lat="39.913153"><ele>63.0</ele></trkpt>
   <trkpt lon="3.104938" lat="39.913364"><ele>64.25</ele></trkpt>
   <trkpt lon="3.105008" lat="39.913581"><ele>66.5</ele></trkpt>
   <trkpt lon="3.105127" lat="39.913762"><ele>67.75</ele></trkpt>
   <trkpt lon="3.105526" lat="39.914227"><ele>70.25</ele></trkpt>
   <trkpt lon="3.105803" lat="39.914536"><ele>72.75</ele></trkpt>
   <trkpt lon="3.105893" lat="39.914610"><ele>73.75</ele></trkpt>
   <trkpt lon="3.106380" lat="39.914955"><ele>78.0</ele></trkpt>
   <trkpt lon="3.107388" lat="39.915860"><ele>87.5</ele></trkpt>
   <trkpt lon="3.107865" lat="39.916214"><ele>90.75</ele></trkpt>
   <trkpt lon="3.107924" lat="39.916285"><ele>91.5</ele></trkpt>
   <trkpt lon="3.107946" lat="39.916344"><ele>91.5</ele></trkpt>
   <trkpt lon="3.107944" lat="39.916409"><ele>91.5</ele></trkpt>
   <trkpt lon="3.107922" lat="39.916477"><ele>92.5</ele></trkpt>
   <trkpt lon="3.107864" lat="39.916552"><ele>93.0</ele></trkpt>
   <trkpt lon="3.107025" lat="39.917198"><ele>99.5</ele></trkpt>
   <trkpt lon="3.106946" lat="39.917236"><ele>99.75</ele></trkpt>
   <trkpt lon="3.106852" lat="39.917250"><ele>101.0</ele></trkpt>
   <trkpt lon="3.106748" lat="39.917246"><ele>101.5</ele></trkpt>
   <trkpt lon="3.106320" lat="39.917151"><ele>102.25</ele></trkpt>
   <trkpt lon="3.106020" lat="39.917105"><ele>103.25</ele><sym>pass_place</sym><type>Shaping</type></trkpt>
   <trkpt lon="3.105913" lat="39.917101"><ele>103.25</ele></trkpt>
   <trkpt lon="3.105804" lat="39.917121"><ele>103.75</ele></trkpt>
   <trkpt lon="3.105720" lat="39.917163"><ele>103.75</ele></trkpt>
   <trkpt lon="3.105660" lat="39.917227"><ele>104.75</ele></trkpt>
   <trkpt lon="3.105625" lat="39.917310"><ele>104.75</ele></trkpt>
   <trkpt lon="3.105630" lat="39.917382"><ele>106.0</ele></trkpt>
   <trkpt lon="3.105657" lat="39.917491"><ele>109.25</ele></trkpt>
   <trkpt lon="3.105827" lat="39.917848"><ele>110.25</ele></trkpt>
   <trkpt lon="3.106300" lat="39.918493"><ele>118.25</ele></trkpt>
   <trkpt lon="3.106473" lat="39.918812"><ele>119.75</ele></trkpt>
   <trkpt lon="3.106887" lat="39.919452"><ele>125.25</ele></trkpt>
   <trkpt lon="3.106968" lat="39.919628"><ele>128.25</ele></trkpt>
   <trkpt lon="3.106995" lat="39.919774"><ele>129.5</ele></trkpt>
   <trkpt lon="3.107024" lat="39.920990"><ele>140.0</ele></trkpt>
   <trkpt lon="3.107052" lat="39.921151"><ele>140.75</ele></trkpt>
   <trkpt lon="3.107214" lat="39.921578"><ele>144.5</ele></trkpt>
   <trkpt lon="3.107266" lat="39.921760"><ele>146.0</ele></trkpt>
   <trkpt lon="3.107348" lat="39.922210"><ele>149.75</ele></trkpt>
   <trkpt lon="3.107391" lat="39.922328"><ele>150.0</ele></trkpt>
   <trkpt lon="3.107652" lat="39.922853"><ele>155.5</ele></trkpt>
   <trkpt lon="3.107701" lat="39.922990"><ele>156.0</ele></trkpt>
   <trkpt lon="3.107812" lat="39.923474"><ele>160.75</ele></trkpt>
   <trkpt lon="3.107811" lat="39.923584"><ele>160.5</ele></trkpt>
   <trkpt lon="3.107772" lat="39.923716"><ele>160.75</ele></trkpt>
   <trkpt lon="3.107489" lat="39.924274"><ele>163.75</ele></trkpt>
   <trkpt lon="3.107480" lat="39.924357"><ele>164.25</ele></trkpt>
   <trkpt lon="3.107510" lat="39.924440"><ele>166.0</ele></trkpt>
   <trkpt lon="3.107567" lat="39.924499"><ele>166.0</ele></trkpt>
   <trkpt lon="3.107655" lat="39.924560"><ele>166.75</ele></trkpt>
   <trkpt lon="3.108339" lat="39.924842"><ele>175.5</ele></trkpt>
   <trkpt lon="3.108414" lat="39.924899"><ele>176.25</ele></trkpt>
   <trkpt lon="3.108463" lat="39.924966"><ele>175.75</ele></trkpt>
   <trkpt lon="3.108489" lat="39.925043"><ele>175.5</ele></trkpt>
   <trkpt lon="3.108480" lat="39.925244"><ele>176.5</ele></trkpt>
   <trkpt lon="3.108491" lat="39.925339"><ele>176.5</ele></trkpt>
   <trkpt lon="3.108516" lat="39.925405"><ele>176.75</ele></trkpt>
   <trkpt lon="3.108564" lat="39.925462"><ele>177.5</ele></trkpt>
   <trkpt lon="3.108679" lat="39.925546"><ele>179.5</ele></trkpt>
   <trkpt lon="3.108848" lat="39.925636"><ele>181.0</ele></trkpt>
   <trkpt lon="3.109224" lat="39.925804"><ele>184.25</ele></trkpt>
   <trkpt lon="3.109294" lat="39.925859"><ele>184.5</ele></trkpt>
   <trkpt lon="3.109341" lat="39.925923"><ele>185.25</ele></trkpt>
   <trkpt lon="3.109359" lat="39.925999"><ele>185.5</ele></trkpt>
   <trkpt lon="3.109343" lat="39.926171"><ele>185.0</ele></trkpt>
   <trkpt lon="3.109345" lat="39.926330"><ele>186.25</ele></trkpt>
   <trkpt lon="3.109366" lat="39.926434"><ele>186.75</ele></trkpt>
   <trkpt lon="3.109406" lat="39.926504"><ele>187.25</ele></trkpt>
   <trkpt lon="3.109476" lat="39.926581"><ele>188.25</ele></trkpt>
   <trkpt lon="3.109703" lat="39.926767"><ele>191.5</ele></trkpt>
   <trkpt lon="3.109743" lat="39.926817"><ele>192.25</ele></trkpt>
   <trkpt lon="3.109756" lat="39.926869"><ele>192.5</ele></trkpt>
   <trkpt lon="3.109738" lat="39.926933"><ele>192.25</ele></trkpt>
   <trkpt lon="3.109645" lat="39.927086"><ele>191.75</ele></trkpt>
   <trkpt lon="3.109626" lat="39.927174"><ele>192.25</ele></trkpt>
   <trkpt lon="3.109658" lat="39.927287"><ele>193.5</ele></trkpt>
   <trkpt lon="3.109857" lat="39.927712"><ele>197.75</ele></trkpt>
   <trkpt lon="3.109996" lat="39.928044"><ele>200.75</ele></trkpt>
   <trkpt lon="3.110010" lat="39.928100"><ele>201.25</ele></trkpt>
   <trkpt lon="3.110021" lat="39.928432"><ele>204.25</ele></trkpt>
   <trkpt lon="3.110047" lat="39.928511"><ele>205.0</ele></trkpt>
   <trkpt lon="3.110102" lat="39.928577"><ele>205.75</ele></trkpt>
   <trkpt lon="3.110332" lat="39.928704"><ele>206.75</ele></trkpt>
   <trkpt lon="3.110484" lat="39.928780"><ele>207.75</ele></trkpt>
   <trkpt lon="3.110561" lat="39.928817"><ele>208.0</ele><sym>pass_place</sym><type>Shaping</type></trkpt>
   <trkpt lon="3.110688" lat="39.928877"><ele>208.0</ele></trkpt>
   <trkpt lon="3.110770" lat="39.928888"><ele>208.0</ele></trkpt>
   <trkpt lon="3.110855" lat="39.928874"><ele>207.75</ele></trkpt>
   <trkpt lon="3.111030" lat="39.928782"><ele>207.75</ele></trkpt>
   <trkpt lon="3.111131" lat="39.928726"><ele>208.0</ele></trkpt>
   <trkpt lon="3.111198" lat="39.928703"><ele>207.75</ele></trkpt>
   <trkpt lon="3.111283" lat="39.928693"><ele>207.25</ele></trkpt>
   <trkpt lon="3.111390" lat="39.928700"><ele>206.0</ele></trkpt>
   <trkpt lon="3.111830" lat="39.928793"><ele>203.0</ele></trkpt>
   <trkpt lon="3.112257" lat="39.928936"><ele>200.0</ele></trkpt>
   <trkpt lon="3.112969" lat="39.929099"><ele>198.5</ele></trkpt>
   <trkpt lon="3.113003" lat="39.929126"><ele>197.25</ele></trkpt>
   <trkpt lon="3.113016" lat="39.929161"><ele>195.0</ele></trkpt>
   <trkpt lon="3.113013" lat="39.929182"><ele>193.75</ele></trkpt>
   <trkpt lon="3.113002" lat="39.929198"><ele>193.0</ele></trkpt>
   <trkpt lon="3.112981" lat="39.929212"><ele>192.25</ele></trkpt>
   <trkpt lon="3.112920" lat="39.929224"><ele>191.5</ele></trkpt>
   <trkpt lon="3.112882" lat="39.929221"><ele>191.5</ele></trkpt>
   <trkpt lon="3.112472" lat="39.929137"><ele>192.0</ele></trkpt>
   <trkpt lon="3.112338" lat="39.929122"><ele>192.25</ele></trkpt>
   <trkpt lon="3.111950" lat="39.929094"><ele>191.5</ele></trkpt>
   <trkpt lon="3.111865" lat="39.929109"><ele>191.75</ele></trkpt>
   <trkpt lon="3.111804" lat="39.929139"><ele>191.25</ele></trkpt>
   <trkpt lon="3.111768" lat="39.929179"><ele>190.75</ele></trkpt>
   <trkpt lon="3.111760" lat="39.929198"><ele>191.0</ele></trkpt>
   <trkpt lon="3.111763" lat="39.929235"><ele>191.25</ele></trkpt>
   <trkpt lon="3.111772" lat="39.929253"><ele>191.25</ele></trkpt>
   <trkpt lon="3.111808" lat="39.929289"><ele>190.5</ele></trkpt>
   <trkpt lon="3.111836" lat="39.929302"><ele>190.0</ele></trkpt>
   <trkpt lon="3.111883" lat="39.929312"><ele>188.75</ele></trkpt>
   <trkpt lon="3.112758" lat="39.929372"><ele>185.0</ele></trkpt>
   <trkpt lon="3.113274" lat="39.929405"><ele>180.5</ele></trkpt>
   <trkpt lon="3.113372" lat="39.929400"><ele>180.25</ele></trkpt>
   <trkpt lon="3.113541" lat="39.929378"><ele>179.25</ele></trkpt>
   <trkpt lon="3.113658" lat="39.929372"><ele>179.25</ele></trkpt>
   <trkpt lon="3.113728" lat="39.929380"><ele>179.5</ele></trkpt>
   <trkpt lon="3.114155" lat="39.929521"><ele>175.0</ele></trkpt>
   <trkpt lon="3.114228" lat="39.929527"><ele>174.5</ele></trkpt>
   <trkpt lon="3.114407" lat="39.929511"><ele>174.75</ele></trkpt>
   <trkpt lon="3.114466" lat="39.929521"><ele>174.5</ele></trkpt>
   <trkpt lon="3.114523" lat="39.929544"><ele>174.75</ele></trkpt>
   <trkpt lon="3.114591" lat="39.929595"><ele>174.25</ele></trkpt>
   <trkpt lon="3.114799" lat="39.929880"><ele>170.5</ele></trkpt>
   <trkpt lon="3.115028" lat="39.930110"><ele>166.5</ele></trkpt>
   <trkpt lon="3.115109" lat="39.930181"><ele>165.75</ele></trkpt>
   <trkpt lon="3.115464" lat="39.930396"><ele>164.75</ele></trkpt>
   <trkpt lon="3.115513" lat="39.930417"><ele>164.75</ele></trkpt>
   <trkpt lon="3.115567" lat="39.930431"><ele>165.0</ele></trkpt>
   <trkpt lon="3.115622" lat="39.930437"><ele>164.25</ele></trkpt>
   <trkpt lon="3.115894" lat="39.930418"><ele>163.75</ele></trkpt>
   <trkpt lon="3.116063" lat="39.930422"><ele>163.5</ele></trkpt>
   <trkpt lon="3.116130" lat="39.930432"><ele>163.25</ele></trkpt>
   <trkpt lon="3.116209" lat="39.930451"><ele>163.0</ele></trkpt>
   <trkpt lon="3.116741" lat="39.930629"><ele>157.25</ele></trkpt>
   <trkpt lon="3.116813" lat="39.930644"><ele>157.0</ele></trkpt>
   <trkpt lon="3.116894" lat="39.930653"><ele>157.5</ele></trkpt>
   <trkpt lon="3.117053" lat="39.930650"><ele>157.5</ele></trkpt>
   <trkpt lon="3.117638" lat="39.930551"><ele>158.25</ele></trkpt>
   <trkpt lon="3.117887" lat="39.930487"><ele>158.0</ele></trkpt>
   <trkpt lon="3.118183" lat="39.930370"><ele>158.5</ele></trkpt>
   <trkpt lon="3.118264" lat="39.930347"><ele>159.0</ele></trkpt>
   <trkpt lon="3.118341" lat="39.930332"><ele>159.25</ele></trkpt>
   <trkpt lon="3.118431" lat="39.930326"><ele>159.25</ele></trkpt>
   <trkpt lon="3.118529" lat="39.930328"><ele>158.75</ele></trkpt>
   <trkpt lon="3.119220" lat="39.930363"><ele>158.5</ele></trkpt>
   <trkpt lon="3.119605" lat="39.930360"><ele>161.0</ele></trkpt>
   <trkpt lon="3.119670" lat="39.930368"><ele>161.25</ele></trkpt>
   <trkpt lon="3.119978" lat="39.930475"><ele>160.0</ele></trkpt>
   <trkpt lon="3.120055" lat="39.930489"><ele>159.5</ele></trkpt>
   <trkpt lon="3.120218" lat="39.930501"><ele>159.75</ele></trkpt>
   <trkpt lon="3.120300" lat="39.930515"><ele>159.5</ele></trkpt>
   <trkpt lon="3.120668" lat="39.930645"><ele>154.25</ele></trkpt>
   <trkpt lon="3.120744" lat="39.930659"><ele>153.5</ele></trkpt>
   <trkpt lon="3.120834" lat="39.930667"><ele>153.5</ele></trkpt>
   <trkpt lon="3.120939" lat="39.930670"><ele>149.75</ele></trkpt>
   <trkpt lon="3.121033" lat="39.930659"><ele>147.5</ele></trkpt>
   <trkpt lon="3.121079" lat="39.930643"><ele>147.25</ele></trkpt>
   <trkpt lon="3.121178" lat="39.930586"><ele>150.0</ele></trkpt>
   <trkpt lon="3.121214" lat="39.930571"><ele>151.0</ele></trkpt>
   <trkpt lon="3.121257" lat="39.930563"><ele>151.25</ele></trkpt>
   <trkpt lon="3.121355" lat="39.930567"><ele>150.0</ele></trkpt>
   <trkpt lon="3.121516" lat="39.930592"><ele>149.5</ele></trkpt>
   <trkpt lon="3.121559" lat="39.930606"><ele>149.25</ele></trkpt>
   <trkpt lon="3.121588" lat="39.930625"><ele>148.5</ele></trkpt>
   <trkpt lon="3.121658" lat="39.930692"><ele>146.25</ele></trkpt>
   <trkpt lon="3.121699" lat="39.930761"><ele>143.5</ele></trkpt>
   <trkpt lon="3.121733" lat="39.930857"><ele>139.5</ele></trkpt>
   <trkpt lon="3.121758" lat="39.930905"><ele>138.0</ele></trkpt>
   <trkpt lon="3.121890" lat="39.931060"><ele>136.25</ele></trkpt>
   <trkpt lon="3.121913" lat="39.931083"><ele>136.5</ele></trkpt>
   <trkpt lon="3.121992" lat="39.931106"><ele>136.75</ele></trkpt>
   <trkpt lon="3.122075" lat="39.931100"><ele>136.75</ele></trkpt>
   <trkpt lon="3.122111" lat="39.931089"><ele>136.75</ele></trkpt>
   <trkpt lon="3.122168" lat="39.931052"><ele>137.0</ele></trkpt>
   <trkpt lon="3.122189" lat="39.931022"><ele>137.25</ele></trkpt>
   <trkpt lon="3.122269" lat="39.930849"><ele>137.25</ele></trkpt>
   <trkpt lon="3.122312" lat="39.930774"><ele>137.0</ele></trkpt>
   <trkpt lon="3.122368" lat="39.930710"><ele>136.25</ele></trkpt>
   <trkpt lon="3.122768" lat="39.930354"><ele>132.75</ele></trkpt>
   <trkpt lon="3.122825" lat="39.930318"><ele>132.75</ele></trkpt>
   <trkpt lon="3.122881" lat="39.930296"><ele>132.75</ele></trkpt>
   <trkpt lon="3.123012" lat="39.930271"><ele>132.0</ele></trkpt>
   <trkpt lon="3.123087" lat="39.930268"><ele>131.5</ele></trkpt>
   <trkpt lon="3.123545" lat="39.930293"><ele>128.25</ele></trkpt>
   <trkpt lon="3.123796" lat="39.930296"><ele>127.0</ele></trkpt>
   <trkpt lon="3.123993" lat="39.930284"><ele>126.25</ele></trkpt>
   <trkpt lon="3.124453" lat="39.930233"><ele>127.5</ele></trkpt>
   <trkpt lon="3.124585" lat="39.930229"><ele>128.25</ele></trkpt>
   <trkpt lon="3.124680" lat="39.930246"><ele>127.25</ele></trkpt>
   <trkpt lon="3.124736" lat="39.930282"><ele>124.75</ele></trkpt>
   <trkpt lon="3.124750" lat="39.930301"><ele>123.75</ele></trkpt>
   <trkpt lon="3.124753" lat="39.930322"><ele>122.5</ele></trkpt>
   <trkpt lon="3.124749" lat="39.930341"><ele>121.5</ele></trkpt>
   <trkpt lon="3.124733" lat="39.930360"><ele>120.25</ele></trkpt>
   <trkpt lon="3.124706" lat="39.930376"><ele>119.25</ele></trkpt>
   <trkpt lon="3.124667" lat="39.930388"><ele>118.25</ele></trkpt>
   <trkpt lon="3.124622" lat="39.930394"><ele>117.75</ele></trkpt>
   <trkpt lon="3.124320" lat="39.930376"><ele>118.25</ele></trkpt>
   <trkpt lon="3.124249" lat="39.930377"><ele>118.25</ele></trkpt>
   <trkpt lon="3.124171" lat="39.930385"><ele>118.0</ele></trkpt>
   <trkpt lon="3.124069" lat="39.930405"><ele>117.75</ele></trkpt>
   <trkpt lon="3.123551" lat="39.930535"><ele>115.25</ele></trkpt>
   <trkpt lon="3.123249" lat="39.930622"><ele>114.25</ele></trkpt>
   <trkpt lon="3.123207" lat="39.930638"><ele>114.5</ele></trkpt>
   <trkpt lon="3.123126" lat="39.930695"><ele>114.75</ele></trkpt>
   <trkpt lon="3.123088" lat="39.930745"><ele>114.75</ele></trkpt>
   <trkpt lon="3.123076" lat="39.930778"><ele>114.25</ele></trkpt>
   <trkpt lon="3.123076" lat="39.930809"><ele>113.75</ele></trkpt>
   <trkpt lon="3.123083" lat="39.930845"><ele>113.0</ele></trkpt>
   <trkpt lon="3.123139" lat="39.930999"><ele>111.25</ele><sym>pass_place</sym><type>Shaping</type></trkpt>
   <trkpt lon="3.123140" lat="39.931002"><ele>111.25</ele></trkpt>
   <trkpt lon="3.123154" lat="39.931085"><ele>110.75</ele></trkpt>
   <trkpt lon="3.123150" lat="39.931122"><ele>110.75</ele></trkpt>
   <trkpt lon="3.123052" lat="39.931422"><ele>109.0</ele></trkpt>
   <trkpt lon="3.123048" lat="39.931462"><ele>109.0</ele></trkpt>
   <trkpt lon="3.123060" lat="39.931537"><ele>108.75</ele></trkpt>
   <trkpt lon="3.123074" lat="39.931575"><ele>108.5</ele></trkpt>
   <trkpt lon="3.123119" lat="39.931641"><ele>107.5</ele></trkpt>
   <trkpt lon="3.123157" lat="39.931677"><ele>106.5</ele></trkpt>
   <trkpt lon="3.123237" lat="39.931731"><ele>105.0</ele></trkpt>
   <trkpt lon="3.123328" lat="39.931765"><ele>105.25</ele></trkpt>
   <trkpt lon="3.124455" lat="39.931978"><ele>98.25</ele></trkpt>
   <trkpt lon="3.124711" lat="39.932046"><ele>96.0</ele></trkpt>
   <trkpt lon="3.124800" lat="39.932076"><ele>94.75</ele></trkpt>
   <trkpt lon="3.124878" lat="39.932112"><ele>94.0</ele></trkpt>
   <trkpt lon="3.124995" lat="39.932178"><ele>93.25</ele></trkpt>
   <trkpt lon="3.125042" lat="39.932217"><ele>93.25</ele></trkpt>
   <trkpt lon="3.125086" lat="39.932270"><ele>92.5</ele></trkpt>
   <trkpt lon="3.125161" lat="39.932403"><ele>91.5</ele></trkpt>
   <trkpt lon="3.125188" lat="39.932470"><ele>91.25</ele></trkpt>
   <trkpt lon="3.125229" lat="39.932697"><ele>89.5</ele></trkpt>
   <trkpt lon="3.125248" lat="39.933300"><ele>82.75</ele></trkpt>
   <trkpt lon="3.125261" lat="39.933387"><ele>80.25</ele></trkpt>
   <trkpt lon="3.125295" lat="39.933480"><ele>76.75</ele></trkpt>
   <trkpt lon="3.125368" lat="39.933568"><ele>75.25</ele></trkpt>
   <trkpt lon="3.125427" lat="39.933603"><ele>77.0</ele></trkpt>
   <trkpt lon="3.125501" lat="39.933628"><ele>80.25</ele></trkpt>
   <trkpt lon="3.125544" lat="39.933634"><ele>82.5</ele></trkpt>
   <trkpt lon="3.125631" lat="39.933632"><ele>83.0</ele></trkpt>
   <trkpt lon="3.125728" lat="39.933609"><ele>82.25</ele></trkpt>
   <trkpt lon="3.125819" lat="39.933576"><ele>81.25</ele></trkpt>
   <trkpt lon="3.125979" lat="39.933505"><ele>80.75</ele></trkpt>
   <trkpt lon="3.126648" lat="39.933140"><ele>75.5</ele></trkpt>
   <trkpt lon="3.126805" lat="39.933042"><ele>75.0</ele></trkpt>
   <trkpt lon="3.126876" lat="39.932986"><ele>74.25</ele></trkpt>
   <trkpt lon="3.127249" lat="39.932656"><ele>69.5</ele></trkpt>
   <trkpt lon="3.127325" lat="39.932601"><ele>69.25</ele></trkpt>
   <trkpt lon="3.127664" lat="39.932393"><ele>67.25</ele></trkpt>
   <trkpt lon="3.127806" lat="39.932319"><ele>65.75</ele></trkpt>
   <trkpt lon="3.127857" lat="39.932302"><ele>65.25</ele></trkpt>
   <trkpt lon="3.128022" lat="39.932268"><ele>65.25</ele></trkpt>
   <trkpt lon="3.128726" lat="39.932148"><ele>60.5</ele></trkpt>
   <trkpt lon="3.128825" lat="39.932145"><ele>60.0</ele></trkpt>
   <trkpt lon="3.128906" lat="39.932160"><ele>59.75</ele></trkpt>
   <trkpt lon="3.128947" lat="39.932176"><ele>59.5</ele></trkpt>
   <trkpt lon="3.129517" lat="39.932497"><ele>56.0</ele></trkpt>
   <trkpt lon="3.130180" lat="39.932770"><ele>51.0</ele></trkpt>
   <trkpt lon="3.130358" lat="39.932852"><ele>49.25</ele></trkpt>
   <trkpt lon="3.130464" lat="39.932921"><ele>48.0</ele></trkpt>
   <trkpt lon="3.130519" lat="39.932970"><ele>47.5</ele></trkpt>
   <trkpt lon="3.130619" lat="39.933092"><ele>48.0</ele></trkpt>
   <trkpt lon="3.130640" lat="39.933109"><ele>48.0</ele></trkpt>
   <trkpt lon="3.130670" lat="39.933122"><ele>48.0</ele></trkpt>
   <trkpt lon="3.130702" lat="39.933124"><ele>47.75</ele></trkpt>
   <trkpt lon="3.130730" lat="39.933119"><ele>47.5</ele></trkpt>
   <trkpt lon="3.130781" lat="39.933092"><ele>46.75</ele></trkpt>
   <trkpt lon="3.130808" lat="39.933054"><ele>46.0</ele></trkpt>
   <trkpt lon="3.130809" lat="39.933032"><ele>45.75</ele></trkpt>
   <trkpt lon="3.130805" lat="39.933010"><ele>45.25</ele></trkpt>
   <trkpt lon="3.130765" lat="39.932951"><ele>44.5</ele></trkpt>
   <trkpt lon="3.130673" lat="39.932866"><ele>43.5</ele></trkpt>
   <trkpt lon="3.130123" lat="39.932479"><ele>41.0</ele></trkpt>
   <trkpt lon="3.129895" lat="39.932269"><ele>38.5</ele></trkpt>
   <trkpt lon="3.129576" lat="39.931954"><ele>35.75</ele></trkpt>
   <trkpt lon="3.129528" lat="39.931896"><ele>35.5</ele></trkpt>
   <trkpt lon="3.129281" lat="39.931481"><ele>31.5</ele></trkpt>
   <trkpt lon="3.129256" lat="39.931399"><ele>30.5</ele></trkpt>
   <trkpt lon="3.129255" lat="39.931354"><ele>30.0</ele></trkpt>
   <trkpt lon="3.129263" lat="39.931315"><ele>30.0</ele></trkpt>
   <trkpt lon="3.129457" lat="39.931037"><ele>27.25</ele></trkpt>
   <trkpt lon="3.130179" lat="39.930107"><ele>20.5</ele></trkpt>
   <trkpt lon="3.130226" lat="39.930047"><ele>20.25</ele></trkpt>
   <trkpt lon="3.130315" lat="39.929951"><ele>19.5</ele></trkpt>
   <trkpt lon="3.130355" lat="39.929921"><ele>19.0</ele></trkpt>
   <trkpt lon="3.130407" lat="39.929890"><ele>18.5</ele></trkpt>
   <trkpt lon="3.130532" lat="39.929846"><ele>17.5</ele></trkpt>
   <trkpt lon="3.132551" lat="39.929373"><ele>8.75</ele></trkpt>
   <trkpt lon="3.132890" lat="39.929288"><ele>6.75</ele></trkpt>
   <trkpt lon="3.133455" lat="39.929136"><ele>4.25</ele></trkpt>
   <trkpt lon="3.133528" lat="39.929128"><ele>4.0</ele></trkpt>
   <trkpt lon="3.133644" lat="39.929145"><ele>3.75</ele></trkpt>
   <trkpt lon="3.133711" lat="39.929175"><ele>3.5</ele><sym>right</sym></trkpt>
   <trkpt lon="3.133752" lat="39.929146"><ele>3.25</ele></trkpt>
   <trkpt lon="3.133824" lat="39.929096"><ele>2.75</ele></trkpt>
   <trkpt lon="3.133928" lat="39.929036"><ele>2.5</ele></trkpt>
   <trkpt lon="3.134379" lat="39.928911"><ele>2.0</ele></trkpt>
   <trkpt lon="3.134627" lat="39.928831"><ele>3.0</ele></trkpt>
   <trkpt lon="3.134793" lat="39.928746"><ele>3.25</ele><sym>straight</sym></trkpt>
   <trkpt lon="3.135007" lat="39.928651"><ele>4.25</ele></trkpt>
   <trkpt lon="3.135009" lat="39.928649"><ele>4.5</ele><sym>pass_place</sym><type>Shaping</type></trkpt>
   <trkpt lon="3.135080" lat="39.928612"><ele>4.5</ele></trkpt>
   <trkpt lon="3.135450" lat="39.928448"><ele>6.75</ele></trkpt>
   <trkpt lon="3.135642" lat="39.928381"><ele>7.5</ele></trkpt>
   <trkpt lon="3.135817" lat="39.928349"><ele>8.25</ele></trkpt>
   <trkpt lon="3.136046" lat="39.928329"><ele>7.75</ele></trkpt>
   <trkpt lon="3.136340" lat="39.928326"><ele>7.0</ele></trkpt>
   <trkpt lon="3.136794" lat="39.928351"><ele>5.5</ele></trkpt>
   <trkpt lon="3.137089" lat="39.928375"><ele>4.25</ele></trkpt>
   <trkpt lon="3.137199" lat="39.928384"><ele>4.0</ele></trkpt>
   <trkpt lon="3.138571" lat="39.928443"><ele>3.75</ele><sym>right</sym></trkpt>
   <trkpt lon="3.138570" lat="39.928394"><ele>3.75</ele></trkpt>
   <trkpt lon="3.138570" lat="39.928314"><ele>3.75</ele></trkpt>
   <trkpt lon="3.138574" lat="39.928116"><ele>3.75</ele></trkpt>
   <trkpt lon="3.140214" lat="39.927724"><ele>3.75</ele></trkpt>
   <trkpt lon="3.140723" lat="39.927595"><ele>3.75</ele></trkpt>
   <trkpt lon="3.141042" lat="39.927495"><ele>3.75</ele></trkpt>
   <trkpt lon="3.141201" lat="39.927433"><ele>3.75</ele></trkpt>
   <trkpt lon="3.141436" lat="39.927437"><ele>3.75</ele><sym>pass_place</sym><type>Shaping</type></trkpt>
   <trkpt lon="3.141436" lat="39.927437"><ele>3.75</ele></trkpt>
   <trkpt lon="3.141201" lat="39.927433"><ele>3.75</ele></trkpt>
   <trkpt lon="3.141042" lat="39.927495"><ele>3.75</ele></trkpt>
   <trkpt lon="3.140723" lat="39.927595"><ele>3.75</ele></trkpt>
   <trkpt lon="3.140214" lat="39.927724"><ele>3.75</ele></trkpt>
   <trkpt lon="3.138574" lat="39.928116"><ele>3.75</ele></trkpt>
   <trkpt lon="3.138570" lat="39.928314"><ele>3.75</ele></trkpt>
   <trkpt lon="3.138570" lat="39.928394"><ele>3.75</ele></trkpt>
   <trkpt lon="3.138571" lat="39.928443"><ele>3.75</ele><sym>left</sym></trkpt>
   <trkpt lon="3.137199" lat="39.928384"><ele>4.0</ele></trkpt>
   <trkpt lon="3.137089" lat="39.928375"><ele>4.25</ele></trkpt>
   <trkpt lon="3.136794" lat="39.928351"><ele>5.5</ele></trkpt>
   <trkpt lon="3.136340" lat="39.928326"><ele>7.0</ele></trkpt>
   <trkpt lon="3.136046" lat="39.928329"><ele>7.75</ele></trkpt>
   <trkpt lon="3.135817" lat="39.928349"><ele>8.25</ele></trkpt>
   <trkpt lon="3.135642" lat="39.928381"><ele>7.5</ele></trkpt>
   <trkpt lon="3.135450" lat="39.928448"><ele>6.75</ele></trkpt>
   <trkpt lon="3.135080" lat="39.928612"><ele>4.5</ele></trkpt>
   <trkpt lon="3.135007" lat="39.928651"><ele>4.25</ele></trkpt>
   <trkpt lon="3.134793" lat="39.928746"><ele>3.25</ele><sym>straight</sym></trkpt>
   <trkpt lon="3.134627" lat="39.928831"><ele>3.0</ele></trkpt>
   <trkpt lon="3.134379" lat="39.928911"><ele>2.0</ele></trkpt>
   <trkpt lon="3.133928" lat="39.929036"><ele>2.5</ele></trkpt>
   <trkpt lon="3.133824" lat="39.929096"><ele>2.75</ele></trkpt>
   <trkpt lon="3.133752" lat="39.929146"><ele>3.25</ele></trkpt>
   <trkpt lon="3.133711" lat="39.929175"><ele>3.5</ele><sym>left_slight</sym></trkpt>
   <trkpt lon="3.133644" lat="39.929145"><ele>3.75</ele></trkpt>
   <trkpt lon="3.133528" lat="39.929128"><ele>4.0</ele></trkpt>
   <trkpt lon="3.133455" lat="39.929136"><ele>4.25</ele></trkpt>
   <trkpt lon="3.132890" lat="39.929288"><ele>6.75</ele></trkpt>
   <trkpt lon="3.132551" lat="39.929373"><ele>8.75</ele></trkpt>
   <trkpt lon="3.130532" lat="39.929846"><ele>17.5</ele></trkpt>
   <trkpt lon="3.130407" lat="39.929890"><ele>18.5</ele></trkpt>
   <trkpt lon="3.130355" lat="39.929921"><ele>19.0</ele></trkpt>
   <trkpt lon="3.130315" lat="39.929951"><ele>19.5</ele></trkpt>
   <trkpt lon="3.130226" lat="39.930047"><ele>20.25</ele></trkpt>
   <trkpt lon="3.130179" lat="39.930107"><ele>20.5</ele></trkpt>
   <trkpt lon="3.129457" lat="39.931037"><ele>27.25</ele></trkpt>
   <trkpt lon="3.129263" lat="39.931315"><ele>30.0</ele></trkpt>
   <trkpt lon="3.129255" lat="39.931354"><ele>30.0</ele></trkpt>
   <trkpt lon="3.129256" lat="39.931399"><ele>30.5</ele></trkpt>
   <trkpt lon="3.129281" lat="39.931481"><ele>31.5</ele></trkpt>
   <trkpt lon="3.129528" lat="39.931896"><ele>35.5</ele></trkpt>
   <trkpt lon="3.129576" lat="39.931954"><ele>35.75</ele></trkpt>
   <trkpt lon="3.129895" lat="39.932269"><ele>38.5</ele></trkpt>
   <trkpt lon="3.130123" lat="39.932479"><ele>41.0</ele></trkpt>
   <trkpt lon="3.130673" lat="39.932866"><ele>43.5</ele></trkpt>
   <trkpt lon="3.130765" lat="39.932951"><ele>44.5</ele></trkpt>
   <trkpt lon="3.130805" lat="39.933010"><ele>45.25</ele></trkpt>
   <trkpt lon="3.130809" lat="39.933032"><ele>45.75</ele></trkpt>
   <trkpt lon="3.130808" lat="39.933054"><ele>46.0</ele></trkpt>
   <trkpt lon="3.130781" lat="39.933092"><ele>46.75</ele></trkpt>
   <trkpt lon="3.130730" lat="39.933119"><ele>47.5</ele></trkpt>
   <trkpt lon="3.130702" lat="39.933124"><ele>47.75</ele></trkpt>
   <trkpt lon="3.130670" lat="39.933122"><ele>48.0</ele></trkpt>
   <trkpt lon="3.130640" lat="39.933109"><ele>48.0</ele></trkpt>
   <trkpt lon="3.130619" lat="39.933092"><ele>48.0</ele></trkpt>
   <trkpt lon="3.130519" lat="39.932970"><ele>47.5</ele></trkpt>
   <trkpt lon="3.130464" lat="39.932921"><ele>48.0</ele></trkpt>
   <trkpt lon="3.130358" lat="39.932852"><ele>49.25</ele></trkpt>
   <trkpt lon="3.130180" lat="39.932770"><ele>51.0</ele></trkpt>
   <trkpt lon="3.129517" lat="39.932497"><ele>56.0</ele></trkpt>
   <trkpt lon="3.128947" lat="39.932176"><ele>59.5</ele></trkpt>
   <trkpt lon="3.128906" lat="39.932160"><ele>59.75</ele></trkpt>
   <trkpt lon="3.128825" lat="39.932145"><ele>60.0</ele></trkpt>
   <trkpt lon="3.128726" lat="39.932148"><ele>60.5</ele></trkpt>
   <trkpt lon="3.128022" lat="39.932268"><ele>65.25</ele></trkpt>
   <trkpt lon="3.127857" lat="39.932302"><ele>65.25</ele></trkpt>
   <trkpt lon="3.127806" lat="39.932319"><ele>65.75</ele></trkpt>
   <trkpt lon="3.127664" lat="39.932393"><ele>67.25</ele></trkpt>
   <trkpt lon="3.127325" lat="39.932601"><ele>69.25</ele><sym>pass_place</sym><type>Shaping</type></trkpt>
   <trkpt lon="3.127249" lat="39.932656"><ele>69.5</ele></trkpt>
   <trkpt lon="3.126876" lat="39.932986"><ele>74.25</ele></trkpt>
   <trkpt lon="3.126805" lat="39.933042"><ele>75.0</ele></trkpt>
   <trkpt lon="3.126648" lat="39.933140"><ele>75.5</ele></trkpt>
   <trkpt lon="3.125979" lat="39.933505"><ele>80.75</ele></trkpt>
   <trkpt lon="3.125819" lat="39.933576"><ele>81.25</ele></trkpt>
   <trkpt lon="3.125728" lat="39.933609"><ele>82.25</ele></trkpt>
   <trkpt lon="3.125631" lat="39.933632"><ele>83.0</ele></trkpt>
   <trkpt lon="3.125544" lat="39.933634"><ele>82.5</ele></trkpt>
   <trkpt lon="3.125501" lat="39.933628"><ele>80.25</ele></trkpt>
   <trkpt lon="3.125427" lat="39.933603"><ele>77.0</ele></trkpt>
   <trkpt lon="3.125368" lat="39.933568"><ele>75.25</ele></trkpt>
   <trkpt lon="3.125295" lat="39.933480"><ele>76.75</ele></trkpt>
   <trkpt lon="3.125261" lat="39.933387"><ele>80.25</ele></trkpt>
   <trkpt lon="3.125248" lat="39.933300"><ele>82.75</ele></trkpt>
   <trkpt lon="3.125229" lat="39.932697"><ele>89.5</ele></trkpt>
   <trkpt lon="3.125188" lat="39.932470"><ele>91.25</ele></trkpt>
   <trkpt lon="3.125161" lat="39.932403"><ele>91.5</ele></trkpt>
   <trkpt lon="3.125086" lat="39.932270"><ele>92.5</ele></trkpt>
   <trkpt lon="3.125042" lat="39.932217"><ele>93.25</ele></trkpt>
   <trkpt lon="3.124995" lat="39.932178"><ele>93.25</ele></trkpt>
   <trkpt lon="3.124878" lat="39.932112"><ele>94.0</ele></trkpt>
   <trkpt lon="3.124800" lat="39.932076"><ele>94.75</ele></trkpt>
   <trkpt lon="3.124711" lat="39.932046"><ele>96.0</ele></trkpt>
   <trkpt lon="3.124455" lat="39.931978"><ele>98.25</ele></trkpt>
   <trkpt lon="3.123328" lat="39.931765"><ele>105.25</ele></trkpt>
   <trkpt lon="3.123237" lat="39.931731"><ele>105.0</ele></trkpt>
   <trkpt lon="3.123157" lat="39.931677"><ele>106.5</ele></trkpt>
   <trkpt lon="3.123119" lat="39.931641"><ele>107.5</ele></trkpt>
   <trkpt lon="3.123074" lat="39.931575"><ele>108.5</ele></trkpt>
   <trkpt lon="3.123060" lat="39.931537"><ele>108.75</ele></trkpt>
   <trkpt lon="3.123048" lat="39.931462"><ele>109.0</ele></trkpt>
   <trkpt lon="3.123052" lat="39.931422"><ele>109.0</ele></trkpt>
   <trkpt lon="3.123150" lat="39.931122"><ele>110.75</ele></trkpt>
   <trkpt lon="3.123154" lat="39.931085"><ele>110.75</ele></trkpt>
   <trkpt lon="3.123140" lat="39.931002"><ele>111.25</ele></trkpt>
   <trkpt lon="3.123083" lat="39.930845"><ele>113.0</ele></trkpt>
   <trkpt lon="3.123076" lat="39.930809"><ele>113.75</ele></trkpt>
   <trkpt lon="3.123076" lat="39.930778"><ele>114.25</ele></trkpt>
   <trkpt lon="3.123088" lat="39.930745"><ele>114.75</ele></trkpt>
   <trkpt lon="3.123126" lat="39.930695"><ele>114.75</ele></trkpt>
   <trkpt lon="3.123207" lat="39.930638"><ele>114.5</ele></trkpt>
   <trkpt lon="3.123249" lat="39.930622"><ele>114.25</ele></trkpt>
   <trkpt lon="3.123551" lat="39.930535"><ele>115.25</ele></trkpt>
   <trkpt lon="3.124069" lat="39.930405"><ele>117.75</ele></trkpt>
   <trkpt lon="3.124171" lat="39.930385"><ele>118.0</ele></trkpt>
   <trkpt lon="3.124249" lat="39.930377"><ele>118.25</ele></trkpt>
   <trkpt lon="3.124320" lat="39.930376"><ele>118.25</ele></trkpt>
   <trkpt lon="3.124622" lat="39.930394"><ele>117.75</ele></trkpt>
   <trkpt lon="3.124667" lat="39.930388"><ele>118.25</ele></trkpt>
   <trkpt lon="3.124706" lat="39.930376"><ele>119.25</ele></trkpt>
   <trkpt lon="3.124733" lat="39.930360"><ele>120.25</ele></trkpt>
   <trkpt lon="3.124749" lat="39.930341"><ele>121.5</ele></trkpt>
   <trkpt lon="3.124753" lat="39.930322"><ele>122.5</ele></trkpt>
   <trkpt lon="3.124750" lat="39.930301"><ele>123.75</ele></trkpt>
   <trkpt lon="3.124736" lat="39.930282"><ele>124.75</ele></trkpt>
   <trkpt lon="3.124680" lat="39.930246"><ele>127.25</ele></trkpt>
   <trkpt lon="3.124585" lat="39.930229"><ele>128.25</ele></trkpt>
   <trkpt lon="3.124453" lat="39.930233"><ele>127.5</ele></trkpt>
   <trkpt lon="3.123993" lat="39.930284"><ele>126.25</ele></trkpt>
   <trkpt lon="3.123796" lat="39.930296"><ele>127.0</ele></trkpt>
   <trkpt lon="3.123545" lat="39.930293"><ele>128.25</ele></trkpt>
   <trkpt lon="3.123087" lat="39.930268"><ele>131.5</ele></trkpt>
   <trkpt lon="3.123012" lat="39.930271"><ele>132.0</ele></trkpt>
   <trkpt lon="3.122881" lat="39.930296"><ele>132.75</ele></trkpt>
   <trkpt lon="3.122825" lat="39.930318"><ele>132.75</ele></trkpt>
   <trkpt lon="3.122768" lat="39.930354"><ele>132.75</ele></trkpt>
   <trkpt lon="3.122368" lat="39.930710"><ele>136.25</ele></trkpt>
   <trkpt lon="3.122312" lat="39.930774"><ele>137.0</ele></trkpt>
   <trkpt lon="3.122269" lat="39.930849"><ele>137.25</ele></trkpt>
   <trkpt lon="3.122189" lat="39.931022"><ele>137.25</ele></trkpt>
   <trkpt lon="3.122168" lat="39.931052"><ele>137.0</ele></trkpt>
   <trkpt lon="3.122111" lat="39.931089"><ele>136.75</ele></trkpt>
   <trkpt lon="3.122075" lat="39.931100"><ele>136.75</ele></trkpt>
   <trkpt lon="3.121992" lat="39.931106"><ele>136.75</ele></trkpt>
   <trkpt lon="3.121913" lat="39.931083"><ele>136.5</ele></trkpt>
   <trkpt lon="3.121890" lat="39.931060"><ele>136.25</ele></trkpt>
   <trkpt lon="3.121758" lat="39.930905"><ele>138.0</ele></trkpt>
   <trkpt lon="3.121733" lat="39.930857"><ele>139.5</ele></trkpt>
   <trkpt lon="3.121699" lat="39.930761"><ele>143.5</ele></trkpt>
   <trkpt lon="3.121658" lat="39.930692"><ele>146.25</ele></trkpt>
   <trkpt lon="3.121588" lat="39.930625"><ele>148.5</ele></trkpt>
   <trkpt lon="3.121559" lat="39.930606"><ele>149.25</ele></trkpt>
   <trkpt lon="3.121516" lat="39.930592"><ele>149.5</ele></trkpt>
   <trkpt lon="3.121355" lat="39.930567"><ele>150.0</ele></trkpt>
   <trkpt lon="3.121257" lat="39.930563"><ele>151.25</ele></trkpt>
   <trkpt lon="3.121214" lat="39.930571"><ele>151.0</ele></trkpt>
   <trkpt lon="3.121178" lat="39.930586"><ele>150.0</ele></trkpt>
   <trkpt lon="3.121079" lat="39.930643"><ele>147.25</ele></trkpt>
   <trkpt lon="3.121033" lat="39.930659"><ele>147.5</ele></trkpt>
   <trkpt lon="3.120939" lat="39.930670"><ele>149.75</ele></trkpt>
   <trkpt lon="3.120834" lat="39.930667"><ele>153.5</ele></trkpt>
   <trkpt lon="3.120744" lat="39.930659"><ele>153.5</ele></trkpt>
   <trkpt lon="3.120668" lat="39.930645"><ele>154.25</ele></trkpt>
   <trkpt lon="3.120300" lat="39.930515"><ele>159.5</ele></trkpt>
   <trkpt lon="3.120218" lat="39.930501"><ele>159.75</ele></trkpt>
   <trkpt lon="3.120055" lat="39.930489"><ele>159.5</ele></trkpt>
   <trkpt lon="3.119978" lat="39.930475"><ele>160.0</ele></trkpt>
   <trkpt lon="3.119670" lat="39.930368"><ele>161.25</ele></trkpt>
   <trkpt lon="3.119605" lat="39.930360"><ele>161.0</ele></trkpt>
   <trkpt lon="3.119220" lat="39.930363"><ele>158.5</ele></trkpt>
   <trkpt lon="3.118529" lat="39.930328"><ele>158.75</ele></trkpt>
   <trkpt lon="3.118431" lat="39.930326"><ele>159.25</ele></trkpt>
   <trkpt lon="3.118341" lat="39.930332"><ele>159.25</ele></trkpt>
   <trkpt lon="3.118264" lat="39.930347"><ele>159.0</ele></trkpt>
   <trkpt lon="3.118183" lat="39.930370"><ele>158.5</ele></trkpt>
   <trkpt lon="3.117887" lat="39.930487"><ele>158.0</ele></trkpt>
   <trkpt lon="3.117638" lat="39.930551"><ele>158.25</ele></trkpt>
   <trkpt lon="3.117053" lat="39.930650"><ele>157.5</ele></trkpt>
   <trkpt lon="3.116894" lat="39.930653"><ele>157.5</ele></trkpt>
   <trkpt lon="3.116813" lat="39.930644"><ele>157.0</ele></trkpt>
   <trkpt lon="3.116741" lat="39.930629"><ele>157.25</ele></trkpt>
   <trkpt lon="3.116209" lat="39.930451"><ele>163.0</ele></trkpt>
   <trkpt lon="3.116130" lat="39.930432"><ele>163.25</ele></trkpt>
   <trkpt lon="3.116063" lat="39.930422"><ele>163.5</ele></trkpt>
   <trkpt lon="3.115894" lat="39.930418"><ele>163.75</ele></trkpt>
   <trkpt lon="3.115622" lat="39.930437"><ele>164.25</ele></trkpt>
   <trkpt lon="3.115567" lat="39.930431"><ele>165.0</ele></trkpt>
   <trkpt lon="3.115513" lat="39.930417"><ele>164.75</ele></trkpt>
   <trkpt lon="3.115464" lat="39.930396"><ele>164.75</ele></trkpt>
   <trkpt lon="3.115109" lat="39.930181"><ele>165.75</ele></trkpt>
   <trkpt lon="3.115028" lat="39.930110"><ele>166.5</ele></trkpt>
   <trkpt lon="3.114799" lat="39.929880"><ele>170.5</ele></trkpt>
   <trkpt lon="3.114591" lat="39.929595"><ele>174.25</ele><sym>pass_place</sym><type>Shaping</type></trkpt>
   <trkpt lon="3.114523" lat="39.929544"><ele>174.75</ele></trkpt>
   <trkpt lon="3.114466" lat="39.929521"><ele>174.5</ele></trkpt>
   <trkpt lon="3.114407" lat="39.929511"><ele>174.75</ele></trkpt>
   <trkpt lon="3.114228" lat="39.929527"><ele>174.5</ele></trkpt>
   <trkpt lon="3.114155" lat="39.929521"><ele>175.0</ele></trkpt>
   <trkpt lon="3.113728" lat="39.929380"><ele>179.5</ele></trkpt>
   <trkpt lon="3.113658" lat="39.929372"><ele>179.25</ele></trkpt>
   <trkpt lon="3.113541" lat="39.929378"><ele>179.25</ele></trkpt>
   <trkpt lon="3.113372" lat="39.929400"><ele>180.25</ele></trkpt>
   <trkpt lon="3.113274" lat="39.929405"><ele>180.5</ele></trkpt>
   <trkpt lon="3.112758" lat="39.929372"><ele>185.0</ele></trkpt>
   <trkpt lon="3.111883" lat="39.929312"><ele>188.75</ele></trkpt>
   <trkpt lon="3.111836" lat="39.929302"><ele>190.0</ele></trkpt>
   <trkpt lon="3.111808" lat="39.929289"><ele>190.5</ele></trkpt>
   <trkpt lon="3.111772" lat="39.929253"><ele>191.25</ele></trkpt>
   <trkpt lon="3.111763" lat="39.929235"><ele>191.25</ele></trkpt>
   <trkpt lon="3.111760" lat="39.929198"><ele>191.0</ele></trkpt>
   <trkpt lon="3.111768" lat="39.929179"><ele>190.75</ele></trkpt>
   <trkpt lon="3.111804" lat="39.929139"><ele>191.25</ele></trkpt>
   <trkpt lon="3.111865" lat="39.929109"><ele>191.75</ele></trkpt>
   <trkpt lon="3.111950" lat="39.929094"><ele>191.5</ele></trkpt>
   <trkpt lon="3.112338" lat="39.929122"><ele>192.25</ele></trkpt>
   <trkpt lon="3.112472" lat="39.929137"><ele>192.0</ele></trkpt>
   <trkpt lon="3.112882" lat="39.929221"><ele>191.5</ele></trkpt>
   <trkpt lon="3.112920" lat="39.929224"><ele>191.5</ele></trkpt>
   <trkpt lon="3.112981" lat="39.929212"><ele>192.25</ele></trkpt>
   <trkpt lon="3.113002" lat="39.929198"><ele>193.0</ele></trkpt>
   <trkpt lon="3.113013" lat="39.929182"><ele>193.75</ele></trkpt>
   <trkpt lon="3.113016" lat="39.929161"><ele>195.0</ele></trkpt>
   <trkpt lon="3.113003" lat="39.929126"><ele>197.25</ele></trkpt>
   <trkpt lon="3.112969" lat="39.929099"><ele>198.5</ele></trkpt>
   <trkpt lon="3.112257" lat="39.928936"><ele>200.0</ele></trkpt>
   <trkpt lon="3.111830" lat="39.928793"><ele>203.0</ele></trkpt>
   <trkpt lon="3.111390" lat="39.928700"><ele>206.0</ele></trkpt>
   <trkpt lon="3.111283" lat="39.928693"><ele>207.25</ele></trkpt>
   <trkpt lon="3.111198" lat="39.928703"><ele>207.75</ele></trkpt>
   <trkpt lon="3.111131" lat="39.928726"><ele>208.0</ele></trkpt>
   <trkpt lon="3.111030" lat="39.928782"><ele>207.75</ele></trkpt>
   <trkpt lon="3.110855" lat="39.928874"><ele>207.75</ele></trkpt>
   <trkpt lon="3.110770" lat="39.928888"><ele>208.0</ele></trkpt>
   <trkpt lon="3.110688" lat="39.928877"><ele>208.0</ele></trkpt>
   <trkpt lon="3.110484" lat="39.928780"><ele>207.75</ele></trkpt>
   <trkpt lon="3.110332" lat="39.928704"><ele>206.75</ele></trkpt>
   <trkpt lon="3.110102" lat="39.928577"><ele>205.75</ele></trkpt>
   <trkpt lon="3.110047" lat="39.928511"><ele>205.0</ele></trkpt>
   <trkpt lon="3.110021" lat="39.928432"><ele>204.25</ele></trkpt>
   <trkpt lon="3.110010" lat="39.928100"><ele>201.25</ele></trkpt>
   <trkpt lon="3.109996" lat="39.928044"><ele>200.75</ele></trkpt>
   <trkpt lon="3.109857" lat="39.927712"><ele>197.75</ele></trkpt>
   <trkpt lon="3.109658" lat="39.927287"><ele>193.5</ele></trkpt>
   <trkpt lon="3.109626" lat="39.927174"><ele>192.25</ele></trkpt>
   <trkpt lon="3.109645" lat="39.927086"><ele>191.75</ele></trkpt>
   <trkpt lon="3.109738" lat="39.926933"><ele>192.25</ele></trkpt>
   <trkpt lon="3.109756" lat="39.926869"><ele>192.5</ele></trkpt>
   <trkpt lon="3.109743" lat="39.926817"><ele>192.25</ele></trkpt>
   <trkpt lon="3.109703" lat="39.926767"><ele>191.5</ele></trkpt>
   <trkpt lon="3.109476" lat="39.926581"><ele>188.25</ele></trkpt>
   <trkpt lon="3.109406" lat="39.926504"><ele>187.25</ele></trkpt>
   <trkpt lon="3.109366" lat="39.926434"><ele>186.75</ele></trkpt>
   <trkpt lon="3.109345" lat="39.926330"><ele>186.25</ele></trkpt>
   <trkpt lon="3.109343" lat="39.926171"><ele>185.0</ele></trkpt>
   <trkpt lon="3.109359" lat="39.925999"><ele>185.5</ele></trkpt>
   <trkpt lon="3.109341" lat="39.925923"><ele>185.25</ele></trkpt>
   <trkpt lon="3.109294" lat="39.925859"><ele>184.5</ele></trkpt>
   <trkpt lon="3.109224" lat="39.925804"><ele>184.25</ele></trkpt>
   <trkpt lon="3.108848" lat="39.925636"><ele>181.0</ele></trkpt>
   <trkpt lon="3.108679" lat="39.925546"><ele>179.5</ele></trkpt>
   <trkpt lon="3.108564" lat="39.925462"><ele>177.5</ele></trkpt>
   <trkpt lon="3.108516" lat="39.925405"><ele>176.75</ele></trkpt>
   <trkpt lon="3.108491" lat="39.925339"><ele>176.5</ele></trkpt>
   <trkpt lon="3.108480" lat="39.925244"><ele>176.5</ele></trkpt>
   <trkpt lon="3.108489" lat="39.925043"><ele>175.5</ele></trkpt>
   <trkpt lon="3.108463" lat="39.924966"><ele>175.75</ele></trkpt>
   <trkpt lon="3.108414" lat="39.924899"><ele>176.25</ele></trkpt>
   <trkpt lon="3.108339" lat="39.924842"><ele>175.5</ele></trkpt>
   <trkpt lon="3.107655" lat="39.924560"><ele>166.75</ele></trkpt>
   <trkpt lon="3.107567" lat="39.924499"><ele>166.0</ele></trkpt>
   <trkpt lon="3.107510" lat="39.924440"><ele>166.0</ele></trkpt>
   <trkpt lon="3.107480" lat="39.924357"><ele>164.25</ele></trkpt>
   <trkpt lon="3.107489" lat="39.924274"><ele>163.75</ele></trkpt>
   <trkpt lon="3.107772" lat="39.923716"><ele>160.75</ele></trkpt>
   <trkpt lon="3.107811" lat="39.923584"><ele>160.5</ele></trkpt>
   <trkpt lon="3.107812" lat="39.923474"><ele>160.75</ele></trkpt>
   <trkpt lon="3.107701" lat="39.922990"><ele>156.0</ele></trkpt>
   <trkpt lon="3.107652" lat="39.922853"><ele>155.5</ele></trkpt>
   <trkpt lon="3.107391" lat="39.922328"><ele>150.0</ele></trkpt>
   <trkpt lon="3.107348" lat="39.922210"><ele>149.75</ele></trkpt>
   <trkpt lon="3.107266" lat="39.921760"><ele>146.0</ele></trkpt>
   <trkpt lon="3.107214" lat="39.921578"><ele>144.5</ele></trkpt>
   <trkpt lon="3.107052" lat="39.921151"><ele>140.75</ele></trkpt>
   <trkpt lon="3.107024" lat="39.920990"><ele>140.0</ele></trkpt>
   <trkpt lon="3.106995" lat="39.919774"><ele>129.5</ele></trkpt>
   <trkpt lon="3.106968" lat="39.919628"><ele>128.25</ele></trkpt>
   <trkpt lon="3.106887" lat="39.919452"><ele>125.25</ele></trkpt>
   <trkpt lon="3.106473" lat="39.918812"><ele>119.75</ele><sym>pass_place</sym><type>Shaping</type></trkpt>
   <trkpt lon="3.106300" lat="39.918493"><ele>118.25</ele></trkpt>
   <trkpt lon="3.105827" lat="39.917848"><ele>110.25</ele></trkpt>
   <trkpt lon="3.105657" lat="39.917491"><ele>109.25</ele></trkpt>
   <trkpt lon="3.105630" lat="39.917382"><ele>106.0</ele></trkpt>
   <trkpt lon="3.105625" lat="39.917310"><ele>104.75</ele></trkpt>
   <trkpt lon="3.105660" lat="39.917227"><ele>104.75</ele></trkpt>
   <trkpt lon="3.105720" lat="39.917163"><ele>103.75</ele></trkpt>
   <trkpt lon="3.105804" lat="39.917121"><ele>103.75</ele></trkpt>
   <trkpt lon="3.105913" lat="39.917101"><ele>103.25</ele></trkpt>
   <trkpt lon="3.106020" lat="39.917105"><ele>103.25</ele></trkpt>
   <trkpt lon="3.106320" lat="39.917151"><ele>102.25</ele></trkpt>
   <trkpt lon="3.106748" lat="39.917246"><ele>101.5</ele></trkpt>
   <trkpt lon="3.106852" lat="39.917250"><ele>101.0</ele></trkpt>
   <trkpt lon="3.106946" lat="39.917236"><ele>99.75</ele></trkpt>
   <trkpt lon="3.107025" lat="39.917198"><ele>99.5</ele></trkpt>
   <trkpt lon="3.107864" lat="39.916552"><ele>93.0</ele></trkpt>
   <trkpt lon="3.107922" lat="39.916477"><ele>92.5</ele></trkpt>
   <trkpt lon="3.107944" lat="39.916409"><ele>91.5</ele></trkpt>
   <trkpt lon="3.107946" lat="39.916344"><ele>91.5</ele></trkpt>
   <trkpt lon="3.107924" lat="39.916285"><ele>91.5</ele></trkpt>
   <trkpt lon="3.107865" lat="39.916214"><ele>90.75</ele></trkpt>
   <trkpt lon="3.107388" lat="39.915860"><ele>87.5</ele></trkpt>
   <trkpt lon="3.106380" lat="39.914955"><ele>78.0</ele></trkpt>
   <trkpt lon="3.105893" lat="39.914610"><ele>73.75</ele></trkpt>
   <trkpt lon="3.105803" lat="39.914536"><ele>72.75</ele></trkpt>
   <trkpt lon="3.105526" lat="39.914227"><ele>70.25</ele></trkpt>
   <trkpt lon="3.105127" lat="39.913762"><ele>67.75</ele></trkpt>
   <trkpt lon="3.105008" lat="39.913581"><ele>66.5</ele></trkpt>
   <trkpt lon="3.104938" lat="39.913364"><ele>64.25</ele></trkpt>
   <trkpt lon="3.104893" lat="39.913153"><ele>63.0</ele></trkpt>
   <trkpt lon="3.104838" lat="39.913024"><ele>61.75</ele></trkpt>
   <trkpt lon="3.104567" lat="39.912700"><ele>58.25</ele></trkpt>
   <trkpt lon="3.104455" lat="39.912502"><ele>56.25</ele></trkpt>
   <trkpt lon="3.104391" lat="39.912276"><ele>54.0</ele></trkpt>
   <trkpt lon="3.104368" lat="39.912016"><ele>54.0</ele></trkpt>
   <trkpt lon="3.104355" lat="39.911611"><ele>53.75</ele></trkpt>
   <trkpt lon="3.104329" lat="39.911554"><ele>52.0</ele></trkpt>
   <trkpt lon="3.104270" lat="39.911521"><ele>49.5</ele></trkpt>
   <trkpt lon="3.104200" lat="39.911518"><ele>46.5</ele></trkpt>
   <trkpt lon="3.104129" lat="39.911550"><ele>44.25</ele></trkpt>
   <trkpt lon="3.104097" lat="39.911609"><ele>43.75</ele></trkpt>
   <trkpt lon="3.104063" lat="39.912241"><ele>43.0</ele></trkpt>
   <trkpt lon="3.104091" lat="39.912505"><ele>42.0</ele></trkpt>
   <trkpt lon="3.104373" lat="39.913624"><ele>40.25</ele></trkpt>
   <trkpt lon="3.104666" lat="39.914712"><ele>34.0</ele></trkpt>
   <trkpt lon="3.104659" lat="39.914789"><ele>33.25</ele></trkpt>
   <trkpt lon="3.104618" lat="39.914847"><ele>32.5</ele></trkpt>
   <trkpt lon="3.104555" lat="39.914884"><ele>31.5</ele></trkpt>
   <trkpt lon="3.104479" lat="39.914904"><ele>30.25</ele></trkpt>
   <trkpt lon="3.104397" lat="39.914901"><ele>29.75</ele></trkpt>
   <trkpt lon="3.104333" lat="39.914880"><ele>29.25</ele></trkpt>
   <trkpt lon="3.104263" lat="39.914829"><ele>28.75</ele></trkpt>
   <trkpt lon="3.103047" lat="39.913087"><ele>16.0</ele></trkpt>
   <trkpt lon="3.102683" lat="39.912576"><ele>12.75</ele></trkpt>
   <trkpt lon="3.102604" lat="39.912487"><ele>12.25</ele><sym>pass_place</sym><type>Shaping</type></trkpt>
   <trkpt lon="3.102467" lat="39.912375"><ele>11.25</ele></trkpt>
   <trkpt lon="3.102309" lat="39.912306"><ele>11.0</ele></trkpt>
   <trkpt lon="3.102116" lat="39.912261"><ele>10.5</ele></trkpt>
   <trkpt lon="3.101932" lat="39.912256"><ele>10.0</ele></trkpt>
   <trkpt lon="3.101743" lat="39.912277"><ele>9.25</ele></trkpt>
   <trkpt lon="3.101521" lat="39.912323"><ele>8.5</ele></trkpt>
   <trkpt lon="3.100427" lat="39.912576"><ele>9.25</ele></trkpt>
   <trkpt lon="3.100084" lat="39.912654"><ele>9.5</ele></trkpt>
   <trkpt lon="3.099846" lat="39.912781"><ele>10.0</ele></trkpt>
   <trkpt lon="3.099801" lat="39.912816"><ele>10.0</ele></trkpt>
   <trkpt lon="3.099743" lat="39.912890"><ele>10.25</ele><sym>roundabout_e4</sym></trkpt>
   <trkpt lon="3.099678" lat="39.912948"><ele>10.5</ele></trkpt>
   <trkpt lon="3.099585" lat="39.912973"><ele>10.5</ele></trkpt>
   <trkpt lon="3.099519" lat="39.912969"><ele>10.5</ele></trkpt>
   <trkpt lon="3.099460" lat="39.912950"><ele>10.5</ele></trkpt>
   <trkpt lon="3.099412" lat="39.912917"><ele>10.25</ele></trkpt>
   <trkpt lon="3.099394" lat="39.912896"><ele>10.0</ele></trkpt>
   <trkpt lon="3.099372" lat="39.912853"><ele>10.0</ele></trkpt>
   <trkpt lon="3.099368" lat="39.912826"><ele>9.75</ele></trkpt>
   <trkpt lon="3.099376" lat="39.912777"><ele>9.75</ele></trkpt>
   <trkpt lon="3.099405" lat="39.912733"><ele>9.5</ele></trkpt>
   <trkpt lon="3.099448" lat="39.912659"><ele>9.5</ele></trkpt>
   <trkpt lon="3.099458" lat="39.912628"><ele>9.25</ele></trkpt>
   <trkpt lon="3.099468" lat="39.912526"><ele>9.0</ele></trkpt>
   <trkpt lon="3.099466" lat="39.912463"><ele>8.75</ele></trkpt>
   <trkpt lon="3.099444" lat="39.912412"><ele>8.5</ele></trkpt>
   <trkpt lon="3.098620" lat="39.910506"><ele>3.0</ele></trkpt>
   <trkpt lon="3.098602" lat="39.910477"><ele>3.0</ele></trkpt>
   <trkpt lon="3.098525" lat="39.910424"><ele>3.0</ele></trkpt>
   <trkpt lon="3.098477" lat="39.910412"><ele>3.0</ele></trkpt>
   <trkpt lon="3.098407" lat="39.910406"><ele>3.0</ele></trkpt>
   <trkpt lon="3.098336" lat="39.910410"><ele>3.0</ele></trkpt>
   <trkpt lon="3.097845" lat="39.910474"><ele>3.5</ele></trkpt>
   <trkpt lon="3.097507" lat="39.910514"><ele>3.75</ele></trkpt>
   <trkpt lon="3.097277" lat="39.910547"><ele>3.75</ele></trkpt>
   <trkpt lon="3.097074" lat="39.910576"><ele>4.0</ele></trkpt>
   <trkpt lon="3.096908" lat="39.910603"><ele>4.0</ele></trkpt>
   <trkpt lon="3.096269" lat="39.910739"><ele>3.75</ele></trkpt>
   <trkpt lon="3.095277" lat="39.910951"><ele>3.0</ele></trkpt>
   <trkpt lon="3.092953" lat="39.911445"><ele>2.0</ele></trkpt>
   <trkpt lon="3.092469" lat="39.911551"><ele>1.75</ele></trkpt>
   <trkpt lon="3.092342" lat="39.911577"><ele>1.75</ele></trkpt>
   <trkpt lon="3.091833" lat="39.911686"><ele>2.0</ele></trkpt>
   <trkpt lon="3.091734" lat="39.911702"><ele>2.0</ele></trkpt>
   <trkpt lon="3.091602" lat="39.911707"><ele>2.0</ele></trkpt>
   <trkpt lon="3.090822" lat="39.911683"><ele>1.0</ele></trkpt>
   <trkpt lon="3.089918" lat="39.911657"><ele>1.0</ele></trkpt>
   <trkpt lon="3.089131" lat="39.911628"><ele>1.0</ele></trkpt>
   <trkpt lon="3.089053" lat="39.911627"><ele>1.0</ele></trkpt>
   <trkpt lon="3.088873" lat="39.911594"><ele>1.0</ele></trkpt>
   <trkpt lon="3.087685" lat="39.911258"><ele>1.25</ele></trkpt>
   <trkpt lon="3.087604" lat="39.911229"><ele>1.25</ele></trkpt>
   <trkpt lon="3.087534" lat="39.911195"><ele>1.25</ele></trkpt>
   <trkpt lon="3.087295" lat="39.911066"><ele>1.0</ele></trkpt>
   <trkpt lon="3.086355" lat="39.910541"><ele>1.0</ele></trkpt>
   <trkpt lon="3.086128" lat="39.910393"><ele>1.25</ele></trkpt>
   <trkpt lon="3.085186" lat="39.909742"><ele>1.0</ele><sym>pass_place</sym><type>Shaping</type></trkpt>
   <trkpt lon="3.085185" lat="39.909741"><ele>1.0</ele><sym>right</sym></trkpt>
   <trkpt lon="3.084323" lat="39.910233"><ele>3.0</ele><sym>left</sym></trkpt>
   <trkpt lon="3.083753" lat="39.909670"><ele>2.0</ele><sym>right</sym></trkpt>
   <trkpt lon="3.083664" lat="39.909723"><ele>2.0</ele><sym>left</sym></trkpt>
   <trkpt lon="3.083585" lat="39.909646"><ele>2.0</ele></trkpt>
   <trkpt lon="3.082953" lat="39.909036"><ele>2.25</ele></trkpt>
   <trkpt lon="3.082523" lat="39.908618"><ele>2.0</ele><sym>left</sym></trkpt>
   <trkpt lon="3.083068" lat="39.908298"><ele>2.0</ele><sym>pass_place</sym><type>Via</type></trkpt>
  </trkseg>
 </trk>
</gpx>
