<?xml version="1.0" encoding="UTF-8"?>
<!-- track-length = 20944 filtered ascend = 333 plain-ascend = 0 cost=62605 energy=.1kwh time=1h 27m 56s -->
<gpx 
 xmlns="http://www.topografix.com/GPX/1/1" 
 xmlns:xsi="http://www.w3.org/2001/XMLSchema-instance" 
 xsi:schemaLocation="http://www.topografix.com/GPX/1/1 http://www.topografix.com/GPX/1/1/gpx.xsd" 
 creator="BRouter-1.7.9" version="1.1"><wpt lat="39.87799" lon="3.01484"><name>Cafe di Calvari</name><sym>Restaurant</sym></wpt><wpt lat="39.87653" lon="3.01817"><name>Can Moreno</name><sym>Restaurant</sym></wpt><wpt lat="39.87719" lon="3.01647"><name>L&#x27;Illa</name><sym>Restaurant</sym></wpt><wpt lat="39.90662" lon="3.08272"><name>Gran Café 1919</name><sym>Restaurant</sym></wpt><wpt lat="39.90887" lon="3.08132"><name>Cultural</name><sym>Restaurant</sym></wpt><wpt lat="39.88219" lon="3.01538"><name>El Perrito</name><sym>Restaurant</sym></wpt><wpt lat="39.87757" lon="3.01946"><name>Meam si Torn</name><sym>Bike Trail</sym></wpt><wpt lat="39.90813" lon="3.08053"><name>Dolç Sa Pobla</name><sym>Restaurant</sym></wpt><wpt lat="39.88685" lon="3.03075"><name>Polígono</name><sym>Restaurant</sym></wpt><wpt lat="39.87455" lon="3.01933"><name>Monument</name><sym>Restaurant</sym></wpt><wpt lat="39.87398" lon="3.01893"><name>Cas Fusteret</name><sym>Restaurant</sym></wpt><wpt lat="39.90484" lon="3.0779"><name>Café</name><sym>Restaurant</sym></wpt><wpt lat="39.88173" lon="3.01945"><name>Can Toni</name><sym>Restaurant</sym></wpt><wpt lat="39.90509" lon="3.08175"><name>Ca les Monges</name><sym>Restaurant</sym></wpt><wpt lat="39.88103" lon="3.0177"><name>Palma</name><sym>Restaurant</sym></wpt><wpt lat="39.88125" lon="3.01795"><name>Can Vallori</name><sym>Restaurant</sym></wpt><wpt lat="39.90867" lon="3.0811"><name>Bike shop</name><sym>Bike Trail</sym></wpt><wpt lat="39.90141" lon="3.06892"><name>Stefan&#x27;s</name><sym>Restaurant</sym></wpt><wpt lat="39.9053" lon="3.07748"><name>Juanito</name><sym>Restaurant</sym></wpt><wpt lat="39.90512" lon="3.07703"><name>March</name><sym>Bike Trail</sym></wpt><wpt lat="39.90859" lon="3.08501"><name>Cappuccino</name><sym>Restaurant</sym></wpt><wpt lat="39.90469" lon="3.07843"><name>Mallorca Bike Lounge/The Bike Rooms</name><sym>Bike Trail</sym></wpt><wpt lat="39.90637" lon="3.08193"><name>Wattstyle</name><sym>Bike Trail</sym></wpt><wpt lat="39.90709" lon="3.08267"><name>Bike island</name><sym>Bike Trail</sym></wpt><wpt lat="39.877" lon="3.01623"><name>Drinking water</name><sym>Drinking Water</sym></wpt><wpt lat="39.87425" lon="3.01663"><name>Drinking water</name><sym>Drinking Water</sym></wpt><wpt lat="39.88129" lon="3.01567"><name>Drinking water</name><sym>Drinking Water</sym></wpt><wpt lat="39.90568" lon="3.08155"><name>Dixto. Healthy Fastfood Restaurant - Cafe</name><sym>Restaurant</sym></wpt>
 <trk>
  <src>brouter_fastbike-lowtraffic_0</src>
  <type>bike</type>
  <trkseg>
   <trkpt lon="3.083068" lat="39.908298"><ele>2.0</ele><sym>pass_place</sym><type>Via</type></trkpt>
   <trkpt lon="3.083480" lat="39.908057"><ele>2.0</ele><sym>left</sym></trkpt>
   <trkpt lon="3.083892" lat="39.908468"><ele>1.75</ele><sym>left</sym></trkpt>
   <trkpt lon="3.082953" lat="39.909036"><ele>2.25</ele></trkpt>
   <trkpt lon="3.082124" lat="39.909551"><ele>4.0</ele></trkpt>
   <trkpt lon="3.082040" lat="39.909600"><ele>4.25</ele></trkpt>
   <trkpt lon="3.081347" lat="39.910011"><ele>6.0</ele><sym>left</sym></trkpt>
   <trkpt lon="3.081129" lat="39.909799"><ele>5.75</ele></trkpt>
   <trkpt lon="3.080902" lat="39.909580"><ele>5.75</ele></trkpt>
   <trkpt lon="3.080155" lat="39.908875"><ele>4.75</ele></trkpt>
   <trkpt lon="3.079789" lat="39.908529"><ele>4.0</ele></trkpt>
   <trkpt lon="3.079738" lat="39.908481"><ele>4.0</ele></trkpt>
   <trkpt lon="3.079491" lat="39.908229"><ele>4.0</ele></trkpt>
   <trkpt lon="3.079393" lat="39.908108"><ele>4.0</ele></trkpt>
   <trkpt lon="3.079306" lat="39.907983"><ele>4.0</ele></trkpt>
   <trkpt lon="3.079201" lat="39.907801"><ele>4.0</ele></trkpt>
   <trkpt lon="3.079120" lat="39.907631"><ele>4.0</ele></trkpt>
   <trkpt lon="3.079063" lat="39.907487"><ele>3.75</ele></trkpt>
   <trkpt lon="3.079019" lat="39.907352"><ele>3.25</ele></trkpt>
   <trkpt lon="3.078977" lat="39.907167"><ele>3.0</ele></trkpt>
   <trkpt lon="3.078963" lat="39.907037"><ele>3.0</ele></trkpt>
   <trkpt lon="3.078947" lat="39.906744"><ele>3.0</ele></trkpt>
   <trkpt lon="3.078962" lat="39.906457"><ele>3.0</ele></trkpt>
   <trkpt lon="3.078984" lat="39.906294"><ele>2.5</ele></trkpt>
   <trkpt lon="3.079022" lat="39.906141"><ele>2.0</ele></trkpt>
   <trkpt lon="3.079086" lat="39.905985"><ele>2.0</ele></trkpt>
   <trkpt lon="3.079248" lat="39.905663"><ele>2.0</ele><sym>right</sym></trkpt>
   <trkpt lon="3.078474" lat="39.905430"><ele>2.0</ele></trkpt>
   <trkpt lon="3.077831" lat="39.905235"><ele>2.0</ele></trkpt>
   <trkpt lon="3.077545" lat="39.905149"><ele>2.0</ele></trkpt>
   <trkpt lon="3.077151" lat="39.905030"><ele>1.75</ele></trkpt>
   <trkpt lon="3.076983" lat="39.904980"><ele>1.75</ele></trkpt>
   <trkpt lon="3.076896" lat="39.904953"><ele>1.75</ele></trkpt>
   <trkpt lon="3.076349" lat="39.904788"><ele>2.0</ele></trkpt>
   <trkpt lon="3.076198" lat="39.904743"><ele>2.0</ele></trkpt>
   <trkpt lon="3.075970" lat="39.904674"><ele>2.5</ele></trkpt>
   <trkpt lon="3.075738" lat="39.904635"><ele>3.0</ele></trkpt>
   <trkpt lon="3.075630" lat="39.904643"><ele>3.0</ele></trkpt>
   <trkpt lon="3.075596" lat="39.904651"><ele>3.0</ele></trkpt>
   <trkpt lon="3.075569" lat="39.904666"><ele>3.0</ele><sym>roundabout_e1</sym></trkpt>
   <trkpt lon="3.075531" lat="39.904700"><ele>3.0</ele></trkpt>
   <trkpt lon="3.075435" lat="39.904751"><ele>3.0</ele></trkpt>
   <trkpt lon="3.075380" lat="39.904767"><ele>3.0</ele></trkpt>
   <trkpt lon="3.075322" lat="39.904776"><ele>3.0</ele></trkpt>
   <trkpt lon="3.075206" lat="39.904772"><ele>3.0</ele></trkpt>
   <trkpt lon="3.075182" lat="39.904767"><ele>3.0</ele></trkpt>
   <trkpt lon="3.075128" lat="39.904752"><ele>3.0</ele></trkpt>
   <trkpt lon="3.075033" lat="39.904702"><ele>3.0</ele></trkpt>
   <trkpt lon="3.074994" lat="39.904669"><ele>3.0</ele></trkpt>
   <trkpt lon="3.074940" lat="39.904592"><ele>3.0</ele></trkpt>
   <trkpt lon="3.074892" lat="39.904505"><ele>3.25</ele></trkpt>
   <trkpt lon="3.074824" lat="39.904408"><ele>3.5</ele></trkpt>
   <trkpt lon="3.074777" lat="39.904368"><ele>3.5</ele></trkpt>
   <trkpt lon="3.074720" lat="39.904331"><ele>3.5</ele></trkpt>
   <trkpt lon="3.074578" lat="39.904263"><ele>3.0</ele></trkpt>
   <trkpt lon="3.074549" lat="39.904254"><ele>3.0</ele></trkpt>
   <trkpt lon="3.073759" lat="39.904015"><ele>3.75</ele><sym>right</sym></trkpt>
   <trkpt lon="3.073735" lat="39.904060"><ele>3.5</ele><sym>left</sym></trkpt>
   <trkpt lon="3.071443" lat="39.903361"><ele>5.0</ele></trkpt>
   <trkpt lon="3.070205" lat="39.902984"><ele>5.75</ele></trkpt>
   <trkpt lon="3.069771" lat="39.902851"><ele>6.0</ele><sym>pass_place</sym><type>Shaping</type></trkpt>
   <trkpt lon="3.069564" lat="39.902842"><ele>6.25</ele></trkpt>
   <trkpt lon="3.069272" lat="39.902856"><ele>6.75</ele></trkpt>
   <trkpt lon="3.069211" lat="39.902845"><ele>6.75</ele></trkpt>
   <trkpt lon="3.069153" lat="39.902827"><ele>7.0</ele></trkpt>
   <trkpt lon="3.069111" lat="39.902786"><ele>7.0</ele></trkpt>
   <trkpt lon="3.069044" lat="39.902661"><ele>7.0</ele></trkpt>
   <trkpt lon="3.068999" lat="39.902626"><ele>7.0</ele><sym>right_slight</sym></trkpt>
   <trkpt lon="3.067510" lat="39.902172"><ele>7.75</ele></trkpt>
   <trkpt lon="3.066911" lat="39.902000"><ele>8.0</ele></trkpt>
   <trkpt lon="3.064139" lat="39.901163"><ele>9.75</ele></trkpt>
   <trkpt lon="3.063427" lat="39.900948"><ele>10.0</ele></trkpt>
   <trkpt lon="3.062209" lat="39.900588"><ele>11.0</ele></trkpt>
   <trkpt lon="3.062141" lat="39.900567"><ele>11.0</ele></trkpt>
   <trkpt lon="3.061179" lat="39.900275"><ele>12.0</ele></trkpt>
   <trkpt lon="3.060392" lat="39.900040"><ele>12.75</ele></trkpt>
   <trkpt lon="3.059803" lat="39.899864"><ele>13.0</ele></trkpt>
   <trkpt lon="3.058941" lat="39.899600"><ele>13.75</ele></trkpt>
   <trkpt lon="3.057889" lat="39.899300"><ele>14.25</ele></trkpt>
   <trkpt lon="3.057588" lat="39.899213"><ele>14.75</ele></trkpt>
   <trkpt lon="3.057072" lat="39.899039"><ele>15.0</ele></trkpt>
   <trkpt lon="3.054294" lat="39.898214"><ele>17.0</ele></trkpt>
   <trkpt lon="3.053236" lat="39.897900"><ele>17.5</ele></trkpt>
   <trkpt lon="3.052244" lat="39.897606"><ele>18.5</ele></trkpt>
   <trkpt lon="3.051512" lat="39.897384"><ele>19.0</ele></trkpt>
   <trkpt lon="3.049506" lat="39.896781"><ele>21.0</ele><sym>stay_left</sym></trkpt>
   <trkpt lon="3.049508" lat="39.896778"><ele>21.0</ele><sym>pass_place</sym><type>Shaping</type></trkpt>
   <trkpt lon="3.049506" lat="39.896781"><ele>21.0</ele></trkpt>
   <trkpt lon="3.048383" lat="39.896446"><ele>21.75</ele></trkpt>
   <trkpt lon="3.047978" lat="39.896330"><ele>22.0</ele></trkpt>
   <trkpt lon="3.046735" lat="39.895929"><ele>22.75</ele></trkpt>
   <trkpt lon="3.045799" lat="39.895628"><ele>24.5</ele></trkpt>
   <trkpt lon="3.043667" lat="39.894881"><ele>30.25</ele></trkpt>
   <trkpt lon="3.040069" lat="39.893620"><ele>30.0</ele></trkpt>
   <trkpt lon="3.039694" lat="39.893488"><ele>30.25</ele></trkpt>
   <trkpt lon="3.039007" lat="39.893251"><ele>30.25</ele></trkpt>
   <trkpt lon="3.037279" lat="39.892711"><ele>31.25</ele><sym>stay_left</sym></trkpt>
   <trkpt lon="3.037066" lat="39.892643"><ele>30.5</ele><sym>straight</sym></trkpt>
   <trkpt lon="3.036886" lat="39.892595"><ele>30.25</ele><sym>stay_right</sym></trkpt>
   <trkpt lon="3.036434" lat="39.892459"><ele>30.75</ele></trkpt>
   <trkpt lon="3.036126" lat="39.892356"><ele>30.75</ele></trkpt>
   <trkpt lon="3.035845" lat="39.892265"><ele>31.0</ele></trkpt>
   <trkpt lon="3.035352" lat="39.892075"><ele>31.0</ele></trkpt>
   <trkpt lon="3.034813" lat="39.891852"><ele>31.75</ele></trkpt>
   <trkpt lon="3.034322" lat="39.891601"><ele>32.0</ele></trkpt>
   <trkpt lon="3.034097" lat="39.891465"><ele>32.0</ele></trkpt>
   <trkpt lon="3.033818" lat="39.891281"><ele>32.75</ele></trkpt>
   <trkpt lon="3.033549" lat="39.891107"><ele>33.0</ele></trkpt>
   <trkpt lon="3.033274" lat="39.890889"><ele>33.0</ele></trkpt>
   <trkpt lon="3.032528" lat="39.890276"><ele>34.0</ele></trkpt>
   <trkpt lon="3.031680" lat="39.889579"><ele>35.0</ele></trkpt>
   <trkpt lon="3.031051" lat="39.889060"><ele>36.0</ele></trkpt>
   <trkpt lon="3.031049" lat="39.889059"><ele>36.0</ele><sym>pass_place</sym><type>Shaping</type></trkpt>
   <trkpt lon="3.030806" lat="39.888851"><ele>36.0</ele></trkpt>
   <trkpt lon="3.030447" lat="39.888545"><ele>37.0</ele></trkpt>
   <trkpt lon="3.029698" lat="39.887942"><ele>38.0</ele></trkpt>
   <trkpt lon="3.029164" lat="39.887542"><ele>38.75</ele></trkpt>
   <trkpt lon="3.028636" lat="39.887215"><ele>38.75</ele></trkpt>
   <trkpt lon="3.027842" lat="39.886787"><ele>40.0</ele></trkpt>
   <trkpt lon="3.027369" lat="39.886582"><ele>40.25</ele><sym>straight</sym></trkpt>
   <trkpt lon="3.025641" lat="39.885888"><ele>42.0</ele></trkpt>
   <trkpt lon="3.024151" lat="39.885310"><ele>43.75</ele></trkpt>
   <trkpt lon="3.023682" lat="39.885128"><ele>44.0</ele></trkpt>
   <trkpt lon="3.023440" lat="39.885057"><ele>44.0</ele></trkpt>
   <trkpt lon="3.022471" lat="39.884827"><ele>45.25</ele><sym>straight</sym></trkpt>
   <trkpt lon="3.022214" lat="39.884754"><ele>45.0</ele><sym>straight</sym></trkpt>
   <trkpt lon="3.021778" lat="39.884604"><ele>46.0</ele><sym>left_slight</sym></trkpt>
   <trkpt lon="3.021749" lat="39.884519"><ele>46.0</ele><sym>right_slight</sym></trkpt>
   <trkpt lon="3.021682" lat="39.884498"><ele>46.0</ele></trkpt>
   <trkpt lon="3.021195" lat="39.884331"><ele>46.25</ele></trkpt>
   <trkpt lon="3.020734" lat="39.884213"><ele>46.75</ele><sym>left_slight</sym></trkpt>
   <trkpt lon="3.020631" lat="39.884118"><ele>47.0</ele></trkpt>
   <trkpt lon="3.020605" lat="39.884034"><ele>47.0</ele><sym>left_slight</sym></trkpt>
   <trkpt lon="3.020758" lat="39.883887"><ele>47.0</ele><sym>right</sym></trkpt>
   <trkpt lon="3.020736" lat="39.883854"><ele>47.0</ele></trkpt>
   <trkpt lon="3.020703" lat="39.883796"><ele>47.0</ele></trkpt>
   <trkpt lon="3.020676" lat="39.883777"><ele>47.0</ele></trkpt>
   <trkpt lon="3.020236" lat="39.883521"><ele>47.0</ele></trkpt>
   <trkpt lon="3.019992" lat="39.883306"><ele>47.0</ele></trkpt>
   <trkpt lon="3.019715" lat="39.882951"><ele>48.0</ele></trkpt>
   <trkpt lon="3.019586" lat="39.882748"><ele>47.75</ele></trkpt>
   <trkpt lon="3.019418" lat="39.882410"><ele>47.5</ele></trkpt>
   <trkpt lon="3.019431" lat="39.882237"><ele>47.0</ele></trkpt>
   <trkpt lon="3.019490" lat="39.882047"><ele>47.5</ele></trkpt>
   <trkpt lon="3.019493" lat="39.882016"><ele>47.75</ele><sym>right_slight</sym></trkpt>
   <trkpt lon="3.019456" lat="39.881925"><ele>48.0</ele></trkpt>
   <trkpt lon="3.019249" lat="39.881512"><ele>50.0</ele><sym>right_slight</sym></trkpt>
   <trkpt lon="3.018078" lat="39.881196"><ele>50.0</ele></trkpt>
   <trkpt lon="3.017612" lat="39.881059"><ele>50.0</ele></trkpt>
   <trkpt lon="3.016867" lat="39.880851"><ele>51.0</ele></trkpt>
   <trkpt lon="3.016038" lat="39.880631"><ele>52.0</ele></trkpt>
   <trkpt lon="3.015501" lat="39.880472"><ele>52.25</ele><sym>left</sym></trkpt>
   <trkpt lon="3.015850" lat="39.879963"><ele>53.0</ele></trkpt>
   <trkpt lon="3.015851" lat="39.879961"><ele>53.0</ele><sym>pass_place</sym><type>Shaping</type></trkpt>
   <trkpt lon="3.016033" lat="39.879780"><ele>53.0</ele></trkpt>
   <trkpt lon="3.016104" lat="39.879599"><ele>53.0</ele></trkpt>
   <trkpt lon="3.016110" lat="39.879560"><ele>53.0</ele></trkpt>
   <trkpt lon="3.016150" lat="39.879473"><ele>52.75</ele><sym>right_slight</sym></trkpt>
   <trkpt lon="3.016141" lat="39.879353"><ele>52.0</ele></trkpt>
   <trkpt lon="3.016074" lat="39.879193"><ele>51.5</ele></trkpt>
   <trkpt lon="3.016017" lat="39.879022"><ele>52.0</ele></trkpt>
   <trkpt lon="3.016031" lat="39.878797"><ele>51.5</ele><sym>left_slight</sym></trkpt>
   <trkpt lon="3.016259" lat="39.878496"><ele>49.75</ele></trkpt>
   <trkpt lon="3.016508" lat="39.878271"><ele>47.75</ele><sym>left</sym></trkpt>
   <trkpt lon="3.016620" lat="39.878348"><ele>47.25</ele><sym>right</sym></trkpt>
   <trkpt lon="3.016941" lat="39.878213"><ele>44.5</ele></trkpt>
   <trkpt lon="3.016996" lat="39.878134"><ele>44.0</ele></trkpt>
   <trkpt lon="3.017055" lat="39.878028"><ele>43.75</ele></trkpt>
   <trkpt lon="3.017210" lat="39.877758"><ele>43.0</ele></trkpt>
   <trkpt lon="3.017415" lat="39.877395"><ele>42.5</ele></trkpt>
   <trkpt lon="3.017593" lat="39.877110"><ele>42.0</ele></trkpt>
   <trkpt lon="3.017887" lat="39.876711"><ele>42.0</ele></trkpt>
   <trkpt lon="3.018144" lat="39.876367"><ele>41.75</ele><sym>right</sym></trkpt>
   <trkpt lon="3.017335" lat="39.876034"><ele>42.0</ele><sym>left</sym></trkpt>
   <trkpt lon="3.017629" lat="39.875744"><ele>42.0</ele></trkpt>
   <trkpt lon="3.017761" lat="39.875612"><ele>41.75</ele></trkpt>
   <trkpt lon="3.017953" lat="39.875422"><ele>42.0</ele></trkpt>
   <trkpt lon="3.018321" lat="39.875059"><ele>42.0</ele><sym>straight</sym></trkpt>
   <trkpt lon="3.018688" lat="39.874704"><ele>42.0</ele><sym>right</sym></trkpt>
   <trkpt lon="3.018618" lat="39.874643"><ele>42.0</ele><sym>left_slight</sym></trkpt>
   <trkpt lon="3.018600" lat="39.874593"><ele>42.0</ele></trkpt>
   <trkpt lon="3.018617" lat="39.874537"><ele>42.0</ele></trkpt>
   <trkpt lon="3.019120" lat="39.874028"><ele>43.0</ele></trkpt>
   <trkpt lon="3.019147" lat="39.873984"><ele>43.0</ele><sym>right_slight</sym></trkpt>
   <trkpt lon="3.019093" lat="39.873943"><ele>43.0</ele></trkpt>
   <trkpt lon="3.019067" lat="39.873862"><ele>43.25</ele></trkpt>
   <trkpt lon="3.018767" lat="39.873623"><ele>43.75</ele></trkpt>
   <trkpt lon="3.018329" lat="39.873364"><ele>44.75</ele></trkpt>
   <trkpt lon="3.016891" lat="39.872508"><ele>47.75</ele></trkpt>
   <trkpt lon="3.016875" lat="39.872498"><ele>48.0</ele><sym>left</sym></trkpt>
   <trkpt lon="3.016924" lat="39.872451"><ele>48.25</ele></trkpt>
   <trkpt lon="3.017438" lat="39.871964"><ele>55.0</ele></trkpt>
   <trkpt lon="3.017532" lat="39.871904"><ele>56.5</ele></trkpt>
   <trkpt lon="3.018012" lat="39.871596"><ele>62.75</ele><sym>right</sym></trkpt>
   <trkpt lon="3.018005" lat="39.871524"><ele>64.0</ele></trkpt>
   <trkpt lon="3.017939" lat="39.871454"><ele>64.5</ele></trkpt>
   <trkpt lon="3.017499" lat="39.871205"><ele>66.75</ele></trkpt>
   <trkpt lon="3.017388" lat="39.871130"><ele>66.5</ele></trkpt>
   <trkpt lon="3.017027" lat="39.870801"><ele>67.25</ele></trkpt>
   <trkpt lon="3.017024" lat="39.870766"><ele>68.0</ele></trkpt>
   <trkpt lon="3.017254" lat="39.870629"><ele>73.0</ele></trkpt>
   <trkpt lon="3.017266" lat="39.870601"><ele>73.5</ele></trkpt>
   <trkpt lon="3.017174" lat="39.870488"><ele>75.0</ele></trkpt>
   <trkpt lon="3.016919" lat="39.870245"><ele>78.5</ele></trkpt>
   <trkpt lon="3.016896" lat="39.870210"><ele>79.0</ele></trkpt>
   <trkpt lon="3.016910" lat="39.870192"><ele>79.5</ele></trkpt>
   <trkpt lon="3.016983" lat="39.870182"><ele>80.75</ele></trkpt>
   <trkpt lon="3.017229" lat="39.870240"><ele>82.0</ele></trkpt>
   <trkpt lon="3.017379" lat="39.870264"><ele>83.0</ele></trkpt>
   <trkpt lon="3.017500" lat="39.870259"><ele>84.5</ele></trkpt>
   <trkpt lon="3.017662" lat="39.870292"><ele>85.25</ele></trkpt>
   <trkpt lon="3.017724" lat="39.870292"><ele>86.0</ele></trkpt>
   <trkpt lon="3.017755" lat="39.870264"><ele>87.0</ele></trkpt>
   <trkpt lon="3.017758" lat="39.870235"><ele>88.0</ele></trkpt>
   <trkpt lon="3.017729" lat="39.870192"><ele>88.75</ele></trkpt>
   <trkpt lon="3.017608" lat="39.870142"><ele>89.25</ele></trkpt>
   <trkpt lon="3.017423" lat="39.870080"><ele>89.0</ele></trkpt>
   <trkpt lon="3.017415" lat="39.870048"><ele>90.0</ele><sym>left_sharp</sym></trkpt>
   <trkpt lon="3.017449" lat="39.870032"><ele>91.0</ele></trkpt>
   <trkpt lon="3.017562" lat="39.870058"><ele>91.5</ele></trkpt>
   <trkpt lon="3.017610" lat="39.870048"><ele>92.25</ele></trkpt>
   <trkpt lon="3.017762" lat="39.869903"><ele>96.5</ele></trkpt>
   <trkpt lon="3.017905" lat="39.869789"><ele>99.75</ele></trkpt>
   <trkpt lon="3.017753" lat="39.869660"><ele>101.25</ele></trkpt>
   <trkpt lon="3.017668" lat="39.869564"><ele>102.25</ele></trkpt>
   <trkpt lon="3.017607" lat="39.869329"><ele>104.75</ele></trkpt>
   <trkpt lon="3.017612" lat="39.869253"><ele>106.0</ele></trkpt>
   <trkpt lon="3.017579" lat="39.869143"><ele>107.0</ele></trkpt>
   <trkpt lon="3.017596" lat="39.869112"><ele>108.25</ele></trkpt>
   <trkpt lon="3.017637" lat="39.869102"><ele>109.25</ele></trkpt>
   <trkpt lon="3.017706" lat="39.869151"><ele>109.75</ele></trkpt>
   <trkpt lon="3.017797" lat="39.869266"><ele>110.25</ele></trkpt>
   <trkpt lon="3.017915" lat="39.869376"><ele>111.75</ele></trkpt>
   <trkpt lon="3.017981" lat="39.869424"><ele>112.0</ele></trkpt>
   <trkpt lon="3.018214" lat="39.869540"><ele>112.0</ele><sym>pass_place</sym><type>Shaping</type></trkpt>
   <trkpt lon="3.018216" lat="39.869541"><ele>112.0</ele></trkpt>
   <trkpt lon="3.018214" lat="39.869500"><ele>113.25</ele></trkpt>
   <trkpt lon="3.018176" lat="39.869459"><ele>114.0</ele></trkpt>
   <trkpt lon="3.018028" lat="39.869384"><ele>114.0</ele></trkpt>
   <trkpt lon="3.018031" lat="39.869345"><ele>115.25</ele></trkpt>
   <trkpt lon="3.018066" lat="39.869326"><ele>116.5</ele></trkpt>
   <trkpt lon="3.018320" lat="39.869435"><ele>117.0</ele></trkpt>
   <trkpt lon="3.018342" lat="39.869395"><ele>118.75</ele></trkpt>
   <trkpt lon="3.018336" lat="39.869366"><ele>119.75</ele></trkpt>
   <trkpt lon="3.018222" lat="39.869237"><ele>122.25</ele></trkpt>
   <trkpt lon="3.018184" lat="39.869168"><ele>123.5</ele></trkpt>
   <trkpt lon="3.018180" lat="39.869112"><ele>124.75</ele><sym>left_sharp</sym></trkpt>
   <trkpt lon="3.018244" lat="39.869097"><ele>126.5</ele></trkpt>
   <trkpt lon="3.018316" lat="39.869115"><ele>127.75</ele></trkpt>
   <trkpt lon="3.018739" lat="39.869288"><ele>131.75</ele></trkpt>
   <trkpt lon="3.019102" lat="39.869407"><ele>136.0</ele></trkpt>
   <trkpt lon="3.019218" lat="39.869461"><ele>137.25</ele></trkpt>
   <trkpt lon="3.019273" lat="39.869507"><ele>137.5</ele></trkpt>
   <trkpt lon="3.019324" lat="39.869506"><ele>139.5</ele></trkpt>
   <trkpt lon="3.019345" lat="39.869467"><ele>142.0</ele></trkpt>
   <trkpt lon="3.019311" lat="39.869412"><ele>143.0</ele></trkpt>
   <trkpt lon="3.019181" lat="39.869317"><ele>142.5</ele></trkpt>
   <trkpt lon="3.019023" lat="39.869153"><ele>145.25</ele></trkpt>
   <trkpt lon="3.018917" lat="39.868965"><ele>147.75</ele></trkpt>
   <trkpt lon="3.018619" lat="39.868516"><ele>152.5</ele></trkpt>
   <trkpt lon="3.018576" lat="39.868422"><ele>153.25</ele></trkpt>
   <trkpt lon="3.018551" lat="39.868293"><ele>155.25</ele></trkpt>
   <trkpt lon="3.018490" lat="39.868119"><ele>157.5</ele></trkpt>
   <trkpt lon="3.018447" lat="39.868062"><ele>157.25</ele></trkpt>
   <trkpt lon="3.018457" lat="39.868028"><ele>158.75</ele></trkpt>
   <trkpt lon="3.018560" lat="39.868089"><ele>161.0</ele></trkpt>
   <trkpt lon="3.018801" lat="39.868393"><ele>163.0</ele></trkpt>
   <trkpt lon="3.019053" lat="39.868532"><ele>167.25</ele></trkpt>
   <trkpt lon="3.019243" lat="39.868688"><ele>169.75</ele></trkpt>
   <trkpt lon="3.019385" lat="39.868827"><ele>171.25</ele></trkpt>
   <trkpt lon="3.019406" lat="39.868844"><ele>171.75</ele></trkpt>
   <trkpt lon="3.019433" lat="39.868851"><ele>172.5</ele></trkpt>
   <trkpt lon="3.019463" lat="39.868836"><ele>174.75</ele></trkpt>
   <trkpt lon="3.019470" lat="39.868808"><ele>176.25</ele></trkpt>
   <trkpt lon="3.019441" lat="39.868707"><ele>177.5</ele></trkpt>
   <trkpt lon="3.019422" lat="39.868608"><ele>180.0</ele></trkpt>
   <trkpt lon="3.019385" lat="39.868520"><ele>182.0</ele></trkpt>
   <trkpt lon="3.019322" lat="39.868395"><ele>184.25</ele></trkpt>
   <trkpt lon="3.019127" lat="39.868156"><ele>185.5</ele></trkpt>
   <trkpt lon="3.019141" lat="39.868130"><ele>187.25</ele></trkpt>
   <trkpt lon="3.019283" lat="39.868210"><ele>190.75</ele></trkpt>
   <trkpt lon="3.019334" lat="39.868213"><ele>193.25</ele></trkpt>
   <trkpt lon="3.019340" lat="39.868192"><ele>194.5</ele></trkpt>
   <trkpt lon="3.019230" lat="39.868100"><ele>193.25</ele></trkpt>
   <trkpt lon="3.019179" lat="39.868034"><ele>193.5</ele></trkpt>
   <trkpt lon="3.019145" lat="39.867937"><ele>196.25</ele></trkpt>
   <trkpt lon="3.019118" lat="39.867892"><ele>197.0</ele></trkpt>
   <trkpt lon="3.019150" lat="39.867868"><ele>199.75</ele></trkpt>
   <trkpt lon="3.019233" lat="39.867900"><ele>202.25</ele></trkpt>
   <trkpt lon="3.019348" lat="39.867990"><ele>204.25</ele></trkpt>
   <trkpt lon="3.019354" lat="39.867934"><ele>206.75</ele><sym>pass_place</sym><type>Shaping</type></trkpt>
   <trkpt lon="3.019305" lat="39.867879"><ele>206.75</ele></trkpt>
   <trkpt lon="3.019220" lat="39.867810"><ele>205.75</ele></trkpt>
   <trkpt lon="3.019074" lat="39.867723"><ele>203.0</ele></trkpt>
   <trkpt lon="3.018930" lat="39.867543"><ele>207.5</ele></trkpt>
   <trkpt lon="3.018907" lat="39.867473"><ele>208.5</ele></trkpt>
   <trkpt lon="3.018910" lat="39.867443"><ele>207.75</ele></trkpt>
   <trkpt lon="3.018950" lat="39.867432"><ele>208.5</ele></trkpt>
   <trkpt lon="3.019019" lat="39.867460"><ele>211.75</ele></trkpt>
   <trkpt lon="3.019184" lat="39.867597"><ele>214.0</ele></trkpt>
   <trkpt lon="3.019233" lat="39.867657"><ele>213.0</ele></trkpt>
   <trkpt lon="3.019286" lat="39.867701"><ele>213.25</ele></trkpt>
   <trkpt lon="3.019329" lat="39.867714"><ele>214.5</ele></trkpt>
   <trkpt lon="3.019366" lat="39.867687"><ele>217.0</ele></trkpt>
   <trkpt lon="3.019218" lat="39.867486"><ele>219.0</ele></trkpt>
   <trkpt lon="3.019212" lat="39.867458"><ele>217.75</ele></trkpt>
   <trkpt lon="3.019232" lat="39.867428"><ele>217.0</ele></trkpt>
   <trkpt lon="3.019315" lat="39.867437"><ele>219.5</ele></trkpt>
   <trkpt lon="3.019448" lat="39.867471"><ele>225.0</ele></trkpt>
   <trkpt lon="3.019706" lat="39.867513"><ele>230.75</ele></trkpt>
   <trkpt lon="3.019823" lat="39.867512"><ele>231.25</ele></trkpt>
   <trkpt lon="3.019902" lat="39.867548"><ele>233.25</ele></trkpt>
   <trkpt lon="3.020123" lat="39.867593"><ele>238.75</ele></trkpt>
   <trkpt lon="3.020128" lat="39.867608"><ele>240.0</ele></trkpt>
   <trkpt lon="3.019890" lat="39.867653"><ele>238.5</ele></trkpt>
   <trkpt lon="3.019859" lat="39.867671"><ele>238.25</ele></trkpt>
   <trkpt lon="3.019931" lat="39.867699"><ele>242.25</ele></trkpt>
   <trkpt lon="3.020052" lat="39.867698"><ele>246.25</ele></trkpt>
   <trkpt lon="3.020044" lat="39.867727"><ele>248.25</ele></trkpt>
   <trkpt lon="3.019965" lat="39.867757"><ele>247.5</ele></trkpt>
   <trkpt lon="3.019936" lat="39.867792"><ele>247.5</ele></trkpt>
   <trkpt lon="3.019936" lat="39.867813"><ele>248.0</ele></trkpt>
   <trkpt lon="3.019957" lat="39.867833"><ele>249.75</ele></trkpt>
   <trkpt lon="3.020193" lat="39.867801"><ele>257.25</ele></trkpt>
   <trkpt lon="3.020226" lat="39.867822"><ele>259.0</ele></trkpt>
   <trkpt lon="3.020113" lat="39.868019"><ele>262.25</ele></trkpt>
   <trkpt lon="3.020102" lat="39.868054"><ele>263.25</ele></trkpt>
   <trkpt lon="3.020190" lat="39.868088"><ele>265.75</ele></trkpt>
   <trkpt lon="3.020265" lat="39.868072"><ele>268.25</ele></trkpt>
   <trkpt lon="3.020337" lat="39.868004"><ele>268.5</ele></trkpt>
   <trkpt lon="3.020502" lat="39.867939"><ele>270.0</ele></trkpt>
   <trkpt lon="3.020544" lat="39.867939"><ele>271.25</ele></trkpt>
   <trkpt lon="3.020569" lat="39.868034"><ele>276.25</ele></trkpt>
   <trkpt lon="3.020514" lat="39.868158"><ele>276.25</ele></trkpt>
   <trkpt lon="3.020517" lat="39.868222"><ele>276.75</ele></trkpt>
   <trkpt lon="3.020554" lat="39.868277"><ele>278.5</ele></trkpt>
   <trkpt lon="3.020637" lat="39.868372"><ele>281.0</ele></trkpt>
   <trkpt lon="3.020653" lat="39.868379"><ele>281.5</ele></trkpt>
   <trkpt lon="3.020691" lat="39.868370"><ele>283.25</ele></trkpt>
   <trkpt lon="3.020695" lat="39.868358"><ele>283.5</ele></trkpt>
   <trkpt lon="3.020679" lat="39.868309"><ele>283.0</ele></trkpt>
   <trkpt lon="3.020700" lat="39.868249"><ele>283.0</ele></trkpt>
   <trkpt lon="3.020779" lat="39.868153"><ele>284.0</ele></trkpt>
   <trkpt lon="3.020898" lat="39.868095"><ele>285.75</ele></trkpt>
   <trkpt lon="3.021127" lat="39.868079"><ele>288.75</ele></trkpt>
   <trkpt lon="3.021235" lat="39.868087"><ele>289.0</ele></trkpt>
   <trkpt lon="3.021237" lat="39.868097"><ele>289.5</ele></trkpt>
   <trkpt lon="3.021104" lat="39.868161"><ele>291.25</ele></trkpt>
   <trkpt lon="3.021019" lat="39.868235"><ele>291.5</ele></trkpt>
   <trkpt lon="3.020988" lat="39.868334"><ele>293.25</ele></trkpt>
   <trkpt lon="3.021000" lat="39.868432"><ele>294.0</ele></trkpt>
   <trkpt lon="3.021030" lat="39.868519"><ele>295.5</ele><sym>right_slight</sym></trkpt>
   <trkpt lon="3.021096" lat="39.868626"><ele>298.0</ele></trkpt>
   <trkpt lon="3.021112" lat="39.868628"><ele>298.5</ele></trkpt>
   <trkpt lon="3.021125" lat="39.868612"><ele>299.25</ele></trkpt>
   <trkpt lon="3.021167" lat="39.868516"><ele>299.5</ele></trkpt>
   <trkpt lon="3.021223" lat="39.868459"><ele>300.0</ele></trkpt>
   <trkpt lon="3.021278" lat="39.868454"><ele>301.0</ele></trkpt>
   <trkpt lon="3.021318" lat="39.868462"><ele>301.75</ele></trkpt>
   <trkpt lon="3.021348" lat="39.868483"><ele>302.75</ele></trkpt>
   <trkpt lon="3.021368" lat="39.868510"><ele>303.5</ele></trkpt>
   <trkpt lon="3.021382" lat="39.868565"><ele>305.0</ele></trkpt>
   <trkpt lon="3.021488" lat="39.868747"><ele>306.75</ele></trkpt>
   <trkpt lon="3.021546" lat="39.868812"><ele>307.75</ele></trkpt>
   <trkpt lon="3.021599" lat="39.868858"><ele>309.0</ele></trkpt>
   <trkpt lon="3.021612" lat="39.868862"><ele>309.25</ele></trkpt>
   <trkpt lon="3.021624" lat="39.868858"><ele>309.75</ele></trkpt>
   <trkpt lon="3.021634" lat="39.868843"><ele>310.0</ele></trkpt>
   <trkpt lon="3.021689" lat="39.868666"><ele>311.25</ele></trkpt>
   <trkpt lon="3.021717" lat="39.868661"><ele>311.5</ele></trkpt>
   <trkpt lon="3.021762" lat="39.868695"><ele>312.5</ele></trkpt>
   <trkpt lon="3.021819" lat="39.868814"><ele>314.5</ele><sym>right</sym></trkpt>
   <trkpt lon="3.021953" lat="39.868740"><ele>316.25</ele></trkpt>
   <trkpt lon="3.022259" lat="39.868764"><ele>320.0</ele><sym>u-turn</sym><type>Via</type></trkpt>
   <trkpt lon="3.021953" lat="39.868740"><ele>316.25</ele><sym>right_slight</sym></trkpt>
   <trkpt lon="3.021819" lat="39.868814"><ele>314.5</ele><sym>left</sym></trkpt>
   <trkpt lon="3.021762" lat="39.868695"><ele>312.5</ele></trkpt>
   <trkpt lon="3.021717" lat="39.868661"><ele>311.5</ele></trkpt>
   <trkpt lon="3.021689" lat="39.868666"><ele>311.25</ele></trkpt>
   <trkpt lon="3.021634" lat="39.868843"><ele>310.0</ele></trkpt>
   <trkpt lon="3.021624" lat="39.868858"><ele>309.75</ele></trkpt>
   <trkpt lon="3.021612" lat="39.868862"><ele>309.25</ele></trkpt>
   <trkpt lon="3.021599" lat="39.868858"><ele>309.0</ele></trkpt>
   <trkpt lon="3.021546" lat="39.868812"><ele>307.75</ele></trkpt>
   <trkpt lon="3.021488" lat="39.868747"><ele>306.75</ele></trkpt>
   <trkpt lon="3.021382" lat="39.868565"><ele>305.0</ele></trkpt>
   <trkpt lon="3.021368" lat="39.868510"><ele>303.5</ele></trkpt>
   <trkpt lon="3.021348" lat="39.868483"><ele>302.75</ele></trkpt>
   <trkpt lon="3.021318" lat="39.868462"><ele>301.75</ele></trkpt>
   <trkpt lon="3.021278" lat="39.868454"><ele>301.0</ele></trkpt>
   <trkpt lon="3.021223" lat="39.868459"><ele>300.0</ele></trkpt>
   <trkpt lon="3.021167" lat="39.868516"><ele>299.5</ele></trkpt>
   <trkpt lon="3.021125" lat="39.868612"><ele>299.25</ele></trkpt>
   <trkpt lon="3.021112" lat="39.868628"><ele>298.5</ele></trkpt>
   <trkpt lon="3.021096" lat="39.868626"><ele>298.0</ele></trkpt>
   <trkpt lon="3.021030" lat="39.868519"><ele>295.5</ele></trkpt>
   <trkpt lon="3.021000" lat="39.868432"><ele>294.0</ele></trkpt>
   <trkpt lon="3.020988" lat="39.868334"><ele>293.25</ele></trkpt>
   <trkpt lon="3.021019" lat="39.868235"><ele>291.5</ele></trkpt>
   <trkpt lon="3.021104" lat="39.868161"><ele>291.25</ele></trkpt>
   <trkpt lon="3.021237" lat="39.868097"><ele>289.5</ele></trkpt>
   <trkpt lon="3.021235" lat="39.868087"><ele>289.0</ele></trkpt>
   <trkpt lon="3.021127" lat="39.868079"><ele>288.75</ele></trkpt>
   <trkpt lon="3.020898" lat="39.868095"><ele>285.75</ele></trkpt>
   <trkpt lon="3.020779" lat="39.868153"><ele>284.0</ele></trkpt>
   <trkpt lon="3.020700" lat="39.868249"><ele>283.0</ele></trkpt>
   <trkpt lon="3.020679" lat="39.868309"><ele>283.0</ele></trkpt>
   <trkpt lon="3.020695" lat="39.868358"><ele>283.5</ele></trkpt>
   <trkpt lon="3.020691" lat="39.868370"><ele>283.25</ele></trkpt>
   <trkpt lon="3.020653" lat="39.868379"><ele>281.5</ele></trkpt>
   <trkpt lon="3.020637" lat="39.868372"><ele>281.0</ele></trkpt>
   <trkpt lon="3.020554" lat="39.868277"><ele>278.5</ele></trkpt>
   <trkpt lon="3.020517" lat="39.868222"><ele>276.75</ele></trkpt>
   <trkpt lon="3.020514" lat="39.868158"><ele>276.25</ele></trkpt>
   <trkpt lon="3.020569" lat="39.868034"><ele>276.25</ele></trkpt>
   <trkpt lon="3.020544" lat="39.867939"><ele>271.25</ele></trkpt>
   <trkpt lon="3.020502" lat="39.867939"><ele>270.0</ele></trkpt>
   <trkpt lon="3.020337" lat="39.868004"><ele>268.5</ele></trkpt>
   <trkpt lon="3.020265" lat="39.868072"><ele>268.25</ele></trkpt>
   <trkpt lon="3.020190" lat="39.868088"><ele>265.75</ele></trkpt>
   <trkpt lon="3.020102" lat="39.868054"><ele>263.25</ele></trkpt>
   <trkpt lon="3.020113" lat="39.868019"><ele>262.25</ele></trkpt>
   <trkpt lon="3.020226" lat="39.867822"><ele>259.0</ele></trkpt>
   <trkpt lon="3.020193" lat="39.867801"><ele>257.25</ele></trkpt>
   <trkpt lon="3.019957" lat="39.867833"><ele>249.75</ele></trkpt>
   <trkpt lon="3.019936" lat="39.867813"><ele>248.0</ele></trkpt>
   <trkpt lon="3.019936" lat="39.867792"><ele>247.5</ele></trkpt>
   <trkpt lon="3.019965" lat="39.867757"><ele>247.5</ele></trkpt>
   <trkpt lon="3.020044" lat="39.867727"><ele>248.25</ele></trkpt>
   <trkpt lon="3.020052" lat="39.867698"><ele>246.25</ele></trkpt>
   <trkpt lon="3.019931" lat="39.867699"><ele>242.25</ele></trkpt>
   <trkpt lon="3.019859" lat="39.867671"><ele>238.25</ele></trkpt>
   <trkpt lon="3.019890" lat="39.867653"><ele>238.5</ele></trkpt>
   <trkpt lon="3.020128" lat="39.867608"><ele>240.0</ele></trkpt>
   <trkpt lon="3.020123" lat="39.867593"><ele>238.75</ele></trkpt>
   <trkpt lon="3.019902" lat="39.867548"><ele>233.25</ele></trkpt>
   <trkpt lon="3.019823" lat="39.867512"><ele>231.25</ele></trkpt>
   <trkpt lon="3.019706" lat="39.867513"><ele>230.75</ele></trkpt>
   <trkpt lon="3.019448" lat="39.867471"><ele>225.0</ele></trkpt>
   <trkpt lon="3.019315" lat="39.867437"><ele>219.5</ele></trkpt>
   <trkpt lon="3.019232" lat="39.867428"><ele>217.0</ele></trkpt>
   <trkpt lon="3.019212" lat="39.867458"><ele>217.75</ele></trkpt>
   <trkpt lon="3.019218" lat="39.867486"><ele>219.0</ele></trkpt>
   <trkpt lon="3.019366" lat="39.867687"><ele>217.0</ele></trkpt>
   <trkpt lon="3.019329" lat="39.867714"><ele>214.5</ele></trkpt>
   <trkpt lon="3.019286" lat="39.867701"><ele>213.25</ele></trkpt>
   <trkpt lon="3.019233" lat="39.867657"><ele>213.0</ele></trkpt>
   <trkpt lon="3.019184" lat="39.867597"><ele>214.0</ele></trkpt>
   <trkpt lon="3.019019" lat="39.867460"><ele>211.75</ele></trkpt>
   <trkpt lon="3.018950" lat="39.867432"><ele>208.5</ele></trkpt>
   <trkpt lon="3.018910" lat="39.867443"><ele>207.75</ele></trkpt>
   <trkpt lon="3.018907" lat="39.867473"><ele>208.5</ele></trkpt>
   <trkpt lon="3.018930" lat="39.867543"><ele>207.5</ele></trkpt>
   <trkpt lon="3.019074" lat="39.867723"><ele>203.0</ele></trkpt>
   <trkpt lon="3.019220" lat="39.867810"><ele>205.75</ele></trkpt>
   <trkpt lon="3.019305" lat="39.867879"><ele>206.75</ele></trkpt>
   <trkpt lon="3.019354" lat="39.867934"><ele>206.75</ele></trkpt>
   <trkpt lon="3.019348" lat="39.867990"><ele>204.25</ele></trkpt>
   <trkpt lon="3.019233" lat="39.867900"><ele>202.25</ele></trkpt>
   <trkpt lon="3.019150" lat="39.867868"><ele>199.75</ele></trkpt>
   <trkpt lon="3.019118" lat="39.867892"><ele>197.0</ele></trkpt>
   <trkpt lon="3.019145" lat="39.867937"><ele>196.25</ele></trkpt>
   <trkpt lon="3.019179" lat="39.868034"><ele>193.5</ele></trkpt>
   <trkpt lon="3.019230" lat="39.868100"><ele>193.25</ele></trkpt>
   <trkpt lon="3.019340" lat="39.868192"><ele>194.5</ele></trkpt>
   <trkpt lon="3.019334" lat="39.868213"><ele>193.25</ele></trkpt>
   <trkpt lon="3.019283" lat="39.868210"><ele>190.75</ele></trkpt>
   <trkpt lon="3.019141" lat="39.868130"><ele>187.25</ele></trkpt>
   <trkpt lon="3.019127" lat="39.868156"><ele>185.5</ele></trkpt>
   <trkpt lon="3.019322" lat="39.868395"><ele>184.25</ele></trkpt>
   <trkpt lon="3.019385" lat="39.868520"><ele>182.0</ele></trkpt>
   <trkpt lon="3.019422" lat="39.868608"><ele>180.0</ele></trkpt>
   <trkpt lon="3.019441" lat="39.868707"><ele>177.5</ele></trkpt>
   <trkpt lon="3.019470" lat="39.868808"><ele>176.25</ele></trkpt>
   <trkpt lon="3.019463" lat="39.868836"><ele>174.75</ele></trkpt>
   <trkpt lon="3.019433" lat="39.868851"><ele>172.5</ele></trkpt>
   <trkpt lon="3.019406" lat="39.868844"><ele>171.75</ele></trkpt>
   <trkpt lon="3.019385" lat="39.868827"><ele>171.25</ele></trkpt>
   <trkpt lon="3.019243" lat="39.868688"><ele>169.75</ele></trkpt>
   <trkpt lon="3.019053" lat="39.868532"><ele>167.25</ele></trkpt>
   <trkpt lon="3.018801" lat="39.868393"><ele>163.0</ele></trkpt>
   <trkpt lon="3.018560" lat="39.868089"><ele>161.0</ele></trkpt>
   <trkpt lon="3.018457" lat="39.868028"><ele>158.75</ele></trkpt>
   <trkpt lon="3.018447" lat="39.868062"><ele>157.25</ele></trkpt>
   <trkpt lon="3.018490" lat="39.868119"><ele>157.5</ele></trkpt>
   <trkpt lon="3.018551" lat="39.868293"><ele>155.25</ele></trkpt>
   <trkpt lon="3.018576" lat="39.868422"><ele>153.25</ele></trkpt>
   <trkpt lon="3.018619" lat="39.868516"><ele>152.5</ele></trkpt>
   <trkpt lon="3.018917" lat="39.868965"><ele>147.75</ele></trkpt>
   <trkpt lon="3.019023" lat="39.869153"><ele>145.25</ele></trkpt>
   <trkpt lon="3.019181" lat="39.869317"><ele>142.5</ele></trkpt>
   <trkpt lon="3.019311" lat="39.869412"><ele>143.0</ele></trkpt>
   <trkpt lon="3.019345" lat="39.869467"><ele>142.0</ele></trkpt>
   <trkpt lon="3.019324" lat="39.869506"><ele>139.5</ele></trkpt>
   <trkpt lon="3.019273" lat="39.869507"><ele>137.5</ele></trkpt>
   <trkpt lon="3.019218" lat="39.869461"><ele>137.25</ele></trkpt>
   <trkpt lon="3.019102" lat="39.869407"><ele>136.0</ele></trkpt>
   <trkpt lon="3.018739" lat="39.869288"><ele>131.75</ele></trkpt>
   <trkpt lon="3.018316" lat="39.869115"><ele>127.75</ele></trkpt>
   <trkpt lon="3.018244" lat="39.869097"><ele>126.5</ele></trkpt>
   <trkpt lon="3.018180" lat="39.869112"><ele>124.75</ele><sym>right_sharp</sym></trkpt>
   <trkpt lon="3.018184" lat="39.869168"><ele>123.5</ele></trkpt>
   <trkpt lon="3.018222" lat="39.869237"><ele>122.25</ele></trkpt>
   <trkpt lon="3.018336" lat="39.869366"><ele>119.75</ele></trkpt>
   <trkpt lon="3.018342" lat="39.869395"><ele>118.75</ele></trkpt>
   <trkpt lon="3.018320" lat="39.869435"><ele>117.0</ele></trkpt>
   <trkpt lon="3.018066" lat="39.869326"><ele>116.5</ele></trkpt>
   <trkpt lon="3.018031" lat="39.869345"><ele>115.25</ele></trkpt>
   <trkpt lon="3.018028" lat="39.869384"><ele>114.0</ele></trkpt>
   <trkpt lon="3.018176" lat="39.869459"><ele>114.0</ele></trkpt>
   <trkpt lon="3.018212" lat="39.869497"><ele>113.25</ele><sym>pass_place</sym><type>Shaping</type></trkpt>
   <trkpt lon="3.018214" lat="39.869500"><ele>113.25</ele></trkpt>
   <trkpt lon="3.018216" lat="39.869541"><ele>112.0</ele></trkpt>
   <trkpt lon="3.017981" lat="39.869424"><ele>112.0</ele></trkpt>
   <trkpt lon="3.017915" lat="39.869376"><ele>111.75</ele></trkpt>
   <trkpt lon="3.017797" lat="39.869266"><ele>110.25</ele></trkpt>
   <trkpt lon="3.017706" lat="39.869151"><ele>109.75</ele></trkpt>
   <trkpt lon="3.017637" lat="39.869102"><ele>109.25</ele></trkpt>
   <trkpt lon="3.017596" lat="39.869112"><ele>108.25</ele></trkpt>
   <trkpt lon="3.017579" lat="39.869143"><ele>107.0</ele></trkpt>
   <trkpt lon="3.017612" lat="39.869253"><ele>106.0</ele></trkpt>
   <trkpt lon="3.017607" lat="39.869329"><ele>104.75</ele></trkpt>
   <trkpt lon="3.017668" lat="39.869564"><ele>102.25</ele></trkpt>
   <trkpt lon="3.017753" lat="39.869660"><ele>101.25</ele></trkpt>
   <trkpt lon="3.017905" lat="39.869789"><ele>99.75</ele></trkpt>
   <trkpt lon="3.017762" lat="39.869903"><ele>96.5</ele></trkpt>
   <trkpt lon="3.017610" lat="39.870048"><ele>92.25</ele></trkpt>
   <trkpt lon="3.017562" lat="39.870058"><ele>91.5</ele></trkpt>
   <trkpt lon="3.017449" lat="39.870032"><ele>91.0</ele></trkpt>
   <trkpt lon="3.017415" lat="39.870048"><ele>90.0</ele><sym>right_sharp</sym></trkpt>
   <trkpt lon="3.017423" lat="39.870080"><ele>89.0</ele></trkpt>
   <trkpt lon="3.017608" lat="39.870142"><ele>89.25</ele></trkpt>
   <trkpt lon="3.017729" lat="39.870192"><ele>88.75</ele></trkpt>
   <trkpt lon="3.017758" lat="39.870235"><ele>88.0</ele></trkpt>
   <trkpt lon="3.017755" lat="39.870264"><ele>87.0</ele></trkpt>
   <trkpt lon="3.017724" lat="39.870292"><ele>86.0</ele></trkpt>
   <trkpt lon="3.017662" lat="39.870292"><ele>85.25</ele></trkpt>
   <trkpt lon="3.017500" lat="39.870259"><ele>84.5</ele></trkpt>
   <trkpt lon="3.017379" lat="39.870264"><ele>83.0</ele></trkpt>
   <trkpt lon="3.017229" lat="39.870240"><ele>82.0</ele></trkpt>
   <trkpt lon="3.016983" lat="39.870182"><ele>80.75</ele></trkpt>
   <trkpt lon="3.016910" lat="39.870192"><ele>79.5</ele></trkpt>
   <trkpt lon="3.016896" lat="39.870210"><ele>79.0</ele></trkpt>
   <trkpt lon="3.016919" lat="39.870245"><ele>78.5</ele></trkpt>
   <trkpt lon="3.017174" lat="39.870488"><ele>75.0</ele></trkpt>
   <trkpt lon="3.017266" lat="39.870601"><ele>73.5</ele></trkpt>
   <trkpt lon="3.017254" lat="39.870629"><ele>73.0</ele></trkpt>
   <trkpt lon="3.017024" lat="39.870766"><ele>68.0</ele></trkpt>
   <trkpt lon="3.017027" lat="39.870801"><ele>67.25</ele></trkpt>
   <trkpt lon="3.017388" lat="39.871130"><ele>66.5</ele></trkpt>
   <trkpt lon="3.017499" lat="39.871205"><ele>66.75</ele></trkpt>
   <trkpt lon="3.017939" lat="39.871454"><ele>64.5</ele></trkpt>
   <trkpt lon="3.018005" lat="39.871524"><ele>64.0</ele></trkpt>
   <trkpt lon="3.018012" lat="39.871596"><ele>62.75</ele><sym>left_slight</sym></trkpt>
   <trkpt lon="3.017532" lat="39.871904"><ele>56.5</ele></trkpt>
   <trkpt lon="3.017438" lat="39.871964"><ele>55.0</ele></trkpt>
   <trkpt lon="3.016924" lat="39.872451"><ele>48.25</ele></trkpt>
   <trkpt lon="3.016875" lat="39.872498"><ele>48.0</ele><sym>right</sym></trkpt>
   <trkpt lon="3.016891" lat="39.872508"><ele>47.75</ele></trkpt>
   <trkpt lon="3.018329" lat="39.873364"><ele>44.75</ele></trkpt>
   <trkpt lon="3.018767" lat="39.873623"><ele>43.75</ele></trkpt>
   <trkpt lon="3.018995" lat="39.873744"><ele>44.0</ele></trkpt>
   <trkpt lon="3.019231" lat="39.873890"><ele>43.0</ele></trkpt>
   <trkpt lon="3.019577" lat="39.874091"><ele>43.0</ele></trkpt>
   <trkpt lon="3.019764" lat="39.874205"><ele>42.75</ele></trkpt>
   <trkpt lon="3.019861" lat="39.874269"><ele>42.5</ele><sym>left_slight</sym></trkpt>
   <trkpt lon="3.019865" lat="39.874422"><ele>42.0</ele></trkpt>
   <trkpt lon="3.019901" lat="39.874558"><ele>41.5</ele></trkpt>
   <trkpt lon="3.020271" lat="39.874845"><ele>40.5</ele></trkpt>
   <trkpt lon="3.020431" lat="39.875325"><ele>39.0</ele></trkpt>
   <trkpt lon="3.020330" lat="39.875411"><ele>39.25</ele></trkpt>
   <trkpt lon="3.020171" lat="39.875609"><ele>40.0</ele></trkpt>
   <trkpt lon="3.019879" lat="39.875982"><ele>40.0</ele><sym>straight</sym></trkpt>
   <trkpt lon="3.019505" lat="39.876457"><ele>41.0</ele></trkpt>
   <trkpt lon="3.019221" lat="39.876819"><ele>41.0</ele><sym>right</sym></trkpt>
   <trkpt lon="3.019694" lat="39.877063"><ele>41.0</ele><sym>left</sym></trkpt>
   <trkpt lon="3.019465" lat="39.877395"><ele>42.0</ele></trkpt>
   <trkpt lon="3.019183" lat="39.877777"><ele>42.75</ele></trkpt>
   <trkpt lon="3.018812" lat="39.878369"><ele>44.0</ele></trkpt>
   <trkpt lon="3.018537" lat="39.878735"><ele>45.75</ele></trkpt>
   <trkpt lon="3.018396" lat="39.878975"><ele>46.75</ele><sym>left_slight</sym></trkpt>
   <trkpt lon="3.018349" lat="39.879036"><ele>47.0</ele></trkpt>
   <trkpt lon="3.018075" lat="39.879173"><ele>48.0</ele></trkpt>
   <trkpt lon="3.017978" lat="39.879195"><ele>48.25</ele><sym>left_slight</sym></trkpt>
   <trkpt lon="3.017714" lat="39.879034"><ele>47.0</ele><sym>right</sym></trkpt>
   <trkpt lon="3.017436" lat="39.879303"><ele>48.75</ele></trkpt>
   <trkpt lon="3.017053" lat="39.879691"><ele>50.75</ele><sym>left</sym></trkpt>
   <trkpt lon="3.016619" lat="39.879599"><ele>51.25</ele><sym>pass_place</sym><type>Shaping</type></trkpt>
   <trkpt lon="3.016616" lat="39.879599"><ele>51.25</ele><sym>left</sym></trkpt>
   <trkpt lon="3.017055" lat="39.879098"><ele>47.5</ele></trkpt>
   <trkpt lon="3.017308" lat="39.878819"><ele>45.5</ele><sym>left</sym></trkpt>
   <trkpt lon="3.017656" lat="39.879003"><ele>46.75</ele></trkpt>
   <trkpt lon="3.017714" lat="39.879034"><ele>47.0</ele></trkpt>
   <trkpt lon="3.017978" lat="39.879195"><ele>48.25</ele><sym>right_slight</sym></trkpt>
   <trkpt lon="3.018075" lat="39.879173"><ele>48.0</ele><sym>left</sym></trkpt>
   <trkpt lon="3.018508" lat="39.879573"><ele>50.75</ele></trkpt>
   <trkpt lon="3.018802" lat="39.879827"><ele>51.5</ele></trkpt>
   <trkpt lon="3.018905" lat="39.879918"><ele>52.0</ele></trkpt>
   <trkpt lon="3.018953" lat="39.879968"><ele>52.75</ele><sym>left_slight</sym></trkpt>
   <trkpt lon="3.018948" lat="39.880683"><ele>51.75</ele></trkpt>
   <trkpt lon="3.019113" lat="39.881114"><ele>50.75</ele></trkpt>
   <trkpt lon="3.019249" lat="39.881512"><ele>50.0</ele></trkpt>
   <trkpt lon="3.019456" lat="39.881925"><ele>48.0</ele></trkpt>
   <trkpt lon="3.019493" lat="39.882016"><ele>47.75</ele><sym>left_slight</sym></trkpt>
   <trkpt lon="3.019490" lat="39.882047"><ele>47.5</ele></trkpt>
   <trkpt lon="3.019431" lat="39.882237"><ele>47.0</ele></trkpt>
   <trkpt lon="3.019418" lat="39.882410"><ele>47.5</ele></trkpt>
   <trkpt lon="3.019586" lat="39.882748"><ele>47.75</ele></trkpt>
   <trkpt lon="3.019715" lat="39.882951"><ele>48.0</ele></trkpt>
   <trkpt lon="3.019992" lat="39.883306"><ele>47.0</ele></trkpt>
   <trkpt lon="3.020236" lat="39.883521"><ele>47.0</ele></trkpt>
   <trkpt lon="3.020676" lat="39.883777"><ele>47.0</ele></trkpt>
   <trkpt lon="3.020703" lat="39.883796"><ele>47.0</ele></trkpt>
   <trkpt lon="3.020736" lat="39.883854"><ele>47.0</ele></trkpt>
   <trkpt lon="3.020758" lat="39.883887"><ele>47.0</ele><sym>right_slight</sym></trkpt>
   <trkpt lon="3.020819" lat="39.883887"><ele>47.0</ele></trkpt>
   <trkpt lon="3.020976" lat="39.883924"><ele>47.0</ele></trkpt>
   <trkpt lon="3.021354" lat="39.884098"><ele>46.0</ele></trkpt>
   <trkpt lon="3.021823" lat="39.884313"><ele>46.0</ele></trkpt>
   <trkpt lon="3.022010" lat="39.884383"><ele>45.75</ele></trkpt>
   <trkpt lon="3.022085" lat="39.884394"><ele>45.5</ele></trkpt>
   <trkpt lon="3.022157" lat="39.884408"><ele>45.25</ele></trkpt>
   <trkpt lon="3.022218" lat="39.884406"><ele>45.0</ele><sym>roundabout_e3</sym></trkpt>
   <trkpt lon="3.022227" lat="39.884401"><ele>45.0</ele></trkpt>
   <trkpt lon="3.022294" lat="39.884357"><ele>45.0</ele></trkpt>
   <trkpt lon="3.022422" lat="39.884331"><ele>45.0</ele></trkpt>
   <trkpt lon="3.022515" lat="39.884343"><ele>45.0</ele></trkpt>
   <trkpt lon="3.022561" lat="39.884359"><ele>45.0</ele></trkpt>
   <trkpt lon="3.022634" lat="39.884407"><ele>45.0</ele></trkpt>
   <trkpt lon="3.022685" lat="39.884481"><ele>44.75</ele></trkpt>
   <trkpt lon="3.022825" lat="39.884638"><ele>44.75</ele></trkpt>
   <trkpt lon="3.023002" lat="39.884762"><ele>45.0</ele></trkpt>
   <trkpt lon="3.023053" lat="39.884786"><ele>45.0</ele></trkpt>
   <trkpt lon="3.023357" lat="39.884928"><ele>44.0</ele></trkpt>
   <trkpt lon="3.023372" lat="39.884935"><ele>44.0</ele></trkpt>
   <trkpt lon="3.023705" lat="39.885068"><ele>44.0</ele></trkpt>
   <trkpt lon="3.024187" lat="39.885260"><ele>43.75</ele></trkpt>
   <trkpt lon="3.026125" lat="39.886035"><ele>41.75</ele></trkpt>
   <trkpt lon="3.027400" lat="39.886544"><ele>40.25</ele></trkpt>
   <trkpt lon="3.027696" lat="39.886656"><ele>40.0</ele></trkpt>
   <trkpt lon="3.028077" lat="39.886831"><ele>39.75</ele><sym>right_slight</sym></trkpt>
   <trkpt lon="3.028203" lat="39.886848"><ele>39.75</ele></trkpt>
   <trkpt lon="3.028567" lat="39.887015"><ele>39.0</ele></trkpt>
   <trkpt lon="3.028626" lat="39.887042"><ele>38.75</ele></trkpt>
   <trkpt lon="3.028831" lat="39.887133"><ele>38.25</ele></trkpt>
   <trkpt lon="3.029154" lat="39.887306"><ele>38.75</ele></trkpt>
   <trkpt lon="3.029489" lat="39.887434"><ele>38.75</ele></trkpt>
   <trkpt lon="3.030143" lat="39.887685"><ele>38.0</ele><sym>left_slight</sym></trkpt>
   <trkpt lon="3.030172" lat="39.887782"><ele>38.0</ele><sym>right_slight</sym></trkpt>
   <trkpt lon="3.030195" lat="39.887848"><ele>38.0</ele></trkpt>
   <trkpt lon="3.030294" lat="39.888067"><ele>37.75</ele></trkpt>
   <trkpt lon="3.030452" lat="39.888334"><ele>37.0</ele><sym>stay_right</sym></trkpt>
   <trkpt lon="3.030509" lat="39.888425"><ele>37.0</ele></trkpt>
   <trkpt lon="3.030593" lat="39.888507"><ele>36.75</ele><sym>pass_place</sym><type>Shaping</type></trkpt>
   <trkpt lon="3.030658" lat="39.888597"><ele>36.75</ele></trkpt>
   <trkpt lon="3.031101" lat="39.888976"><ele>36.0</ele></trkpt>
   <trkpt lon="3.031519" lat="39.889301"><ele>35.25</ele><sym>straight</sym></trkpt>
   <trkpt lon="3.031647" lat="39.889407"><ele>35.0</ele></trkpt>
   <trkpt lon="3.031833" lat="39.889560"><ele>35.0</ele></trkpt>
   <trkpt lon="3.033225" lat="39.890714"><ele>33.0</ele></trkpt>
   <trkpt lon="3.033839" lat="39.891173"><ele>32.75</ele></trkpt>
   <trkpt lon="3.034215" lat="39.891411"><ele>32.0</ele></trkpt>
   <trkpt lon="3.034483" lat="39.891564"><ele>32.0</ele></trkpt>
   <trkpt lon="3.035067" lat="39.891844"><ele>31.25</ele></trkpt>
   <trkpt lon="3.035261" lat="39.891926"><ele>31.0</ele></trkpt>
   <trkpt lon="3.035910" lat="39.892177"><ele>30.75</ele></trkpt>
   <trkpt lon="3.036483" lat="39.892350"><ele>30.25</ele></trkpt>
   <trkpt lon="3.037130" lat="39.892564"><ele>30.25</ele></trkpt>
   <trkpt lon="3.037987" lat="39.892822"><ele>30.75</ele></trkpt>
   <trkpt lon="3.039039" lat="39.893159"><ele>29.75</ele><sym>straight</sym></trkpt>
   <trkpt lon="3.039898" lat="39.893460"><ele>29.25</ele></trkpt>
   <trkpt lon="3.040963" lat="39.893827"><ele>29.5</ele></trkpt>
   <trkpt lon="3.042175" lat="39.894262"><ele>29.25</ele></trkpt>
   <trkpt lon="3.042442" lat="39.894356"><ele>28.5</ele></trkpt>
   <trkpt lon="3.043118" lat="39.894596"><ele>29.5</ele></trkpt>
   <trkpt lon="3.044120" lat="39.894956"><ele>27.5</ele></trkpt>
   <trkpt lon="3.044636" lat="39.895127"><ele>26.5</ele></trkpt>
   <trkpt lon="3.045506" lat="39.895428"><ele>24.5</ele></trkpt>
   <trkpt lon="3.046837" lat="39.895853"><ele>22.75</ele></trkpt>
   <trkpt lon="3.046896" lat="39.895859"><ele>22.75</ele></trkpt>
   <trkpt lon="3.047433" lat="39.896028"><ele>22.75</ele></trkpt>
   <trkpt lon="3.048115" lat="39.896252"><ele>22.0</ele></trkpt>
   <trkpt lon="3.049438" lat="39.896651"><ele>21.0</ele><sym>pass_place</sym><type>Shaping</type></trkpt>
   <trkpt lon="3.049443" lat="39.896653"><ele>21.0</ele></trkpt>
   <trkpt lon="3.049624" lat="39.896708"><ele>21.0</ele></trkpt>
   <trkpt lon="3.051707" lat="39.897333"><ele>19.0</ele></trkpt>
   <trkpt lon="3.054343" lat="39.898125"><ele>17.0</ele></trkpt>
   <trkpt lon="3.057164" lat="39.898960"><ele>14.75</ele><sym>straight</sym></trkpt>
   <trkpt lon="3.059062" lat="39.899547"><ele>13.75</ele><sym>straight</sym></trkpt>
   <trkpt lon="3.061040" lat="39.900139"><ele>12.0</ele></trkpt>
   <trkpt lon="3.062043" lat="39.900437"><ele>11.25</ele></trkpt>
   <trkpt lon="3.063939" lat="39.901004"><ele>10.0</ele></trkpt>
   <trkpt lon="3.065448" lat="39.901461"><ele>9.0</ele></trkpt>
   <trkpt lon="3.065790" lat="39.901566"><ele>8.5</ele></trkpt>
   <trkpt lon="3.066812" lat="39.901873"><ele>8.0</ele></trkpt>
   <trkpt lon="3.066902" lat="39.901892"><ele>8.0</ele></trkpt>
   <trkpt lon="3.067045" lat="39.901906"><ele>8.0</ele><sym>right_slight</sym></trkpt>
   <trkpt lon="3.067064" lat="39.901897"><ele>8.0</ele></trkpt>
   <trkpt lon="3.067195" lat="39.901865"><ele>8.0</ele></trkpt>
   <trkpt lon="3.068135" lat="39.902136"><ele>7.0</ele></trkpt>
   <trkpt lon="3.068414" lat="39.902216"><ele>6.75</ele></trkpt>
   <trkpt lon="3.068639" lat="39.902294"><ele>7.0</ele></trkpt>
   <trkpt lon="3.069219" lat="39.902468"><ele>7.0</ele><sym>pass_place</sym><type>Shaping</type></trkpt>
   <trkpt lon="3.069222" lat="39.902469"><ele>7.0</ele><sym>straight</sym></trkpt>
   <trkpt lon="3.069348" lat="39.902507"><ele>7.0</ele></trkpt>
   <trkpt lon="3.069444" lat="39.902546"><ele>7.0</ele></trkpt>
   <trkpt lon="3.069559" lat="39.902621"><ele>6.5</ele></trkpt>
   <trkpt lon="3.069684" lat="39.902691"><ele>6.0</ele><sym>stay_left</sym></trkpt>
   <trkpt lon="3.069835" lat="39.902769"><ele>6.0</ele></trkpt>
   <trkpt lon="3.069998" lat="39.902831"><ele>6.0</ele></trkpt>
   <trkpt lon="3.070483" lat="39.902971"><ele>5.5</ele></trkpt>
   <trkpt lon="3.071081" lat="39.903154"><ele>5.0</ele></trkpt>
   <trkpt lon="3.072921" lat="39.903715"><ele>4.0</ele></trkpt>
   <trkpt lon="3.073412" lat="39.903862"><ele>4.0</ele></trkpt>
   <trkpt lon="3.074571" lat="39.904203"><ele>3.0</ele></trkpt>
   <trkpt lon="3.074751" lat="39.904239"><ele>3.0</ele></trkpt>
   <trkpt lon="3.074822" lat="39.904240"><ele>3.0</ele></trkpt>
   <trkpt lon="3.074880" lat="39.904222"><ele>3.0</ele></trkpt>
   <trkpt lon="3.075066" lat="39.904162"><ele>3.0</ele></trkpt>
   <trkpt lon="3.075188" lat="39.904156"><ele>3.0</ele><sym>straight</sym></trkpt>
   <trkpt lon="3.075240" lat="39.904157"><ele>3.0</ele></trkpt>
   <trkpt lon="3.075311" lat="39.904133"><ele>3.0</ele><sym>left</sym></trkpt>
   <trkpt lon="3.075378" lat="39.904212"><ele>3.0</ele></trkpt>
   <trkpt lon="3.075428" lat="39.904250"><ele>3.0</ele><sym>roundabout_e1</sym></trkpt>
   <trkpt lon="3.075524" lat="39.904298"><ele>3.0</ele></trkpt>
   <trkpt lon="3.075563" lat="39.904331"><ele>3.0</ele></trkpt>
   <trkpt lon="3.075618" lat="39.904407"><ele>3.0</ele></trkpt>
   <trkpt lon="3.075633" lat="39.904450"><ele>3.0</ele></trkpt>
   <trkpt lon="3.075693" lat="39.904519"><ele>3.0</ele></trkpt>
   <trkpt lon="3.075740" lat="39.904561"><ele>3.0</ele></trkpt>
   <trkpt lon="3.075805" lat="39.904602"><ele>3.0</ele></trkpt>
   <trkpt lon="3.075970" lat="39.904674"><ele>2.5</ele></trkpt>
   <trkpt lon="3.076198" lat="39.904743"><ele>2.0</ele></trkpt>
   <trkpt lon="3.076349" lat="39.904788"><ele>2.0</ele></trkpt>
   <trkpt lon="3.076896" lat="39.904953"><ele>1.75</ele></trkpt>
   <trkpt lon="3.076983" lat="39.904980"><ele>1.75</ele></trkpt>
   <trkpt lon="3.077151" lat="39.905030"><ele>1.75</ele></trkpt>
   <trkpt lon="3.077545" lat="39.905149"><ele>2.0</ele></trkpt>
   <trkpt lon="3.077831" lat="39.905235"><ele>2.0</ele></trkpt>
   <trkpt lon="3.078474" lat="39.905430"><ele>2.0</ele></trkpt>
   <trkpt lon="3.079248" lat="39.905663"><ele>2.0</ele></trkpt>
   <trkpt lon="3.079872" lat="39.905851"><ele>2.0</ele></trkpt>
   <trkpt lon="3.080157" lat="39.905938"><ele>2.0</ele><sym>left</sym></trkpt>
   <trkpt lon="3.080063" lat="39.906142"><ele>2.0</ele></trkpt>
   <trkpt lon="3.080014" lat="39.906287"><ele>2.0</ele></trkpt>
   <trkpt lon="3.079964" lat="39.906510"><ele>2.0</ele></trkpt>
   <trkpt lon="3.079947" lat="39.906642"><ele>2.0</ele></trkpt>
   <trkpt lon="3.079948" lat="39.906726"><ele>2.25</ele></trkpt>
   <trkpt lon="3.079977" lat="39.906951"><ele>3.0</ele></trkpt>
   <trkpt lon="3.080009" lat="39.907085"><ele>3.0</ele></trkpt>
   <trkpt lon="3.080053" lat="39.907218"><ele>3.0</ele></trkpt>
   <trkpt lon="3.080158" lat="39.907457"><ele>3.0</ele></trkpt>
   <trkpt lon="3.080335" lat="39.907784"><ele>2.75</ele></trkpt>
   <trkpt lon="3.080445" lat="39.907928"><ele>3.0</ele></trkpt>
   <trkpt lon="3.080526" lat="39.908010"><ele>3.0</ele></trkpt>
   <trkpt lon="3.080933" lat="39.908403"><ele>3.25</ele></trkpt>
   <trkpt lon="3.081285" lat="39.908743"><ele>4.0</ele></trkpt>
   <trkpt lon="3.081684" lat="39.909122"><ele>3.0</ele><sym>right</sym></trkpt>
   <trkpt lon="3.082523" lat="39.908618"><ele>2.0</ele></trkpt>
   <trkpt lon="3.083068" lat="39.908298"><ele>2.0</ele><sym>pass_place</sym><type>Via</type></trkpt>
  </trkseg>
 </trk>
</gpx>
