<?xml version="1.0" encoding="UTF-8"?>
<!-- track-length = 21280 filtered ascend = 79 plain-ascend = 0 cost=27918 energy=.1kwh time=1h 1m 55s -->
<gpx 
 xmlns="http://www.topografix.com/GPX/1/1" 
 xmlns:xsi="http://www.w3.org/2001/XMLSchema-instance" 
 xsi:schemaLocation="http://www.topografix.com/GPX/1/1 http://www.topografix.com/GPX/1/1/gpx.xsd" 
 creator="BRouter-1.7.9" version="1.1"><wpt lat="39.87799" lon="3.01484"><name>Cafe di Calvari</name><sym>Restaurant</sym></wpt><wpt lat="39.87719" lon="3.01647"><name>L&#x27;Illa</name><sym>Restaurant</sym></wpt><wpt lat="39.90662" lon="3.08272"><name>Gran Café 1919</name><sym>Restaurant</sym></wpt><wpt lat="39.90887" lon="3.08132"><name>Cultural</name><sym>Restaurant</sym></wpt><wpt lat="39.88219" lon="3.01538"><name>El Perrito</name><sym>Restaurant</sym></wpt><wpt lat="39.87757" lon="3.01946"><name>Meam si Torn</name><sym>Bike Trail</sym></wpt><wpt lat="39.90813" lon="3.08053"><name>Dolç Sa Pobla</name><sym>Restaurant</sym></wpt><wpt lat="39.88685" lon="3.03075"><name>Polígono</name><sym>Restaurant</sym></wpt><wpt lat="39.90484" lon="3.0779"><name>Café</name><sym>Restaurant</sym></wpt><wpt lat="39.88173" lon="3.01945"><name>Can Toni</name><sym>Restaurant</sym></wpt><wpt lat="39.90509" lon="3.08175"><name>Ca les Monges</name><sym>Restaurant</sym></wpt><wpt lat="39.88103" lon="3.0177"><name>Palma</name><sym>Restaurant</sym></wpt><wpt lat="39.88125" lon="3.01795"><name>Can Vallori</name><sym>Restaurant</sym></wpt><wpt lat="39.90867" lon="3.0811"><name>Bike shop</name><sym>Bike Trail</sym></wpt><wpt lat="39.90141" lon="3.06892"><name>Stefan&#x27;s</name><sym>Restaurant</sym></wpt><wpt lat="39.9053" lon="3.07748"><name>Juanito</name><sym>Restaurant</sym></wpt><wpt lat="39.90512" lon="3.07703"><name>March</name><sym>Bike Trail</sym></wpt><wpt lat="39.90859" lon="3.08501"><name>Cappuccino</name><sym>Restaurant</sym></wpt><wpt lat="39.90469" lon="3.07843"><name>Mallorca Bike Lounge/The Bike Rooms</name><sym>Bike Trail</sym></wpt><wpt lat="39.90637" lon="3.08193"><name>Wattstyle</name><sym>Bike Trail</sym></wpt><wpt lat="39.90709" lon="3.08267"><name>Bike island</name><sym>Bike Trail</sym></wpt><wpt lat="39.877" lon="3.01623"><name>Drinking water</name><sym>Drinking Water</sym></wpt><wpt lat="39.88129" lon="3.01567"><name>Drinking water</name><sym>Drinking Water</sym></wpt><wpt lat="39.90568" lon="3.08155"><name>Dixto. Healthy Fastfood Restaurant - Cafe</name><sym>Restaurant</sym></wpt>
 <trk>
  <src>brouter_fastbike-lowtraffic_0</src>
  <type>bike</type>
  <trkseg>
   <trkpt lon="3.083068" lat="39.908298"><ele>2.0</ele><sym>pass_place</sym><type>Via</type></trkpt>
   <trkpt lon="3.083480" lat="39.908057"><ele>2.0</ele><sym>left</sym></trkpt>
   <trkpt lon="3.083892" lat="39.908468"><ele>1.75</ele><sym>left</sym></trkpt>
   <trkpt lon="3.082953" lat="39.909036"><ele>2.25</ele></trkpt>
   <trkpt lon="3.082124" lat="39.909551"><ele>4.0</ele></trkpt>
   <trkpt lon="3.082040" lat="39.909600"><ele>4.25</ele></trkpt>
   <trkpt lon="3.081347" lat="39.910011"><ele>6.0</ele><sym>left</sym></trkpt>
   <trkpt lon="3.081129" lat="39.909799"><ele>5.75</ele></trkpt>
   <trkpt lon="3.080902" lat="39.909580"><ele>5.75</ele></trkpt>
   <trkpt lon="3.080155" lat="39.908875"><ele>4.75</ele></trkpt>
   <trkpt lon="3.079789" lat="39.908529"><ele>4.0</ele></trkpt>
   <trkpt lon="3.079738" lat="39.908481"><ele>4.0</ele></trkpt>
   <trkpt lon="3.079491" lat="39.908229"><ele>4.0</ele></trkpt>
   <trkpt lon="3.079393" lat="39.908108"><ele>4.0</ele></trkpt>
   <trkpt lon="3.079306" lat="39.907983"><ele>4.0</ele></trkpt>
   <trkpt lon="3.079201" lat="39.907801"><ele>4.0</ele></trkpt>
   <trkpt lon="3.079120" lat="39.907631"><ele>4.0</ele></trkpt>
   <trkpt lon="3.079063" lat="39.907487"><ele>3.75</ele></trkpt>
   <trkpt lon="3.079019" lat="39.907352"><ele>3.25</ele></trkpt>
   <trkpt lon="3.078977" lat="39.907167"><ele>3.0</ele></trkpt>
   <trkpt lon="3.078963" lat="39.907037"><ele>3.0</ele></trkpt>
   <trkpt lon="3.078947" lat="39.906744"><ele>3.0</ele></trkpt>
   <trkpt lon="3.078962" lat="39.906457"><ele>3.0</ele></trkpt>
   <trkpt lon="3.078984" lat="39.906294"><ele>2.5</ele></trkpt>
   <trkpt lon="3.079022" lat="39.906141"><ele>2.0</ele></trkpt>
   <trkpt lon="3.079086" lat="39.905985"><ele>2.0</ele></trkpt>
   <trkpt lon="3.079248" lat="39.905663"><ele>2.0</ele><sym>right</sym></trkpt>
   <trkpt lon="3.078474" lat="39.905430"><ele>2.0</ele></trkpt>
   <trkpt lon="3.077831" lat="39.905235"><ele>2.0</ele></trkpt>
   <trkpt lon="3.077545" lat="39.905149"><ele>2.0</ele></trkpt>
   <trkpt lon="3.077151" lat="39.905030"><ele>1.75</ele></trkpt>
   <trkpt lon="3.076983" lat="39.904980"><ele>1.75</ele></trkpt>
   <trkpt lon="3.076896" lat="39.904953"><ele>1.75</ele></trkpt>
   <trkpt lon="3.076349" lat="39.904788"><ele>2.0</ele></trkpt>
   <trkpt lon="3.076198" lat="39.904743"><ele>2.0</ele></trkpt>
   <trkpt lon="3.075970" lat="39.904674"><ele>2.5</ele></trkpt>
   <trkpt lon="3.075738" lat="39.904635"><ele>3.0</ele></trkpt>
   <trkpt lon="3.075630" lat="39.904643"><ele>3.0</ele></trkpt>
   <trkpt lon="3.075596" lat="39.904651"><ele>3.0</ele></trkpt>
   <trkpt lon="3.075569" lat="39.904666"><ele>3.0</ele><sym>roundabout_e1</sym></trkpt>
   <trkpt lon="3.075531" lat="39.904700"><ele>3.0</ele></trkpt>
   <trkpt lon="3.075435" lat="39.904751"><ele>3.0</ele></trkpt>
   <trkpt lon="3.075380" lat="39.904767"><ele>3.0</ele></trkpt>
   <trkpt lon="3.075322" lat="39.904776"><ele>3.0</ele></trkpt>
   <trkpt lon="3.075206" lat="39.904772"><ele>3.0</ele></trkpt>
   <trkpt lon="3.075182" lat="39.904767"><ele>3.0</ele></trkpt>
   <trkpt lon="3.075128" lat="39.904752"><ele>3.0</ele></trkpt>
   <trkpt lon="3.075033" lat="39.904702"><ele>3.0</ele></trkpt>
   <trkpt lon="3.074994" lat="39.904669"><ele>3.0</ele></trkpt>
   <trkpt lon="3.074940" lat="39.904592"><ele>3.0</ele></trkpt>
   <trkpt lon="3.074892" lat="39.904505"><ele>3.25</ele></trkpt>
   <trkpt lon="3.074824" lat="39.904408"><ele>3.5</ele></trkpt>
   <trkpt lon="3.074777" lat="39.904368"><ele>3.5</ele></trkpt>
   <trkpt lon="3.074720" lat="39.904331"><ele>3.5</ele></trkpt>
   <trkpt lon="3.074578" lat="39.904263"><ele>3.0</ele></trkpt>
   <trkpt lon="3.074549" lat="39.904254"><ele>3.0</ele></trkpt>
   <trkpt lon="3.073759" lat="39.904015"><ele>3.75</ele><sym>right</sym></trkpt>
   <trkpt lon="3.073735" lat="39.904060"><ele>3.5</ele><sym>left</sym></trkpt>
   <trkpt lon="3.071443" lat="39.903361"><ele>5.0</ele></trkpt>
   <trkpt lon="3.070205" lat="39.902984"><ele>5.75</ele></trkpt>
   <trkpt lon="3.069771" lat="39.902851"><ele>6.0</ele><sym>pass_place</sym><type>Shaping</type></trkpt>
   <trkpt lon="3.069564" lat="39.902842"><ele>6.25</ele></trkpt>
   <trkpt lon="3.069272" lat="39.902856"><ele>6.75</ele></trkpt>
   <trkpt lon="3.069211" lat="39.902845"><ele>6.75</ele></trkpt>
   <trkpt lon="3.069153" lat="39.902827"><ele>7.0</ele></trkpt>
   <trkpt lon="3.069111" lat="39.902786"><ele>7.0</ele></trkpt>
   <trkpt lon="3.069044" lat="39.902661"><ele>7.0</ele></trkpt>
   <trkpt lon="3.068999" lat="39.902626"><ele>7.0</ele><sym>right_slight</sym></trkpt>
   <trkpt lon="3.067510" lat="39.902172"><ele>7.75</ele></trkpt>
   <trkpt lon="3.066911" lat="39.902000"><ele>8.0</ele></trkpt>
   <trkpt lon="3.064139" lat="39.901163"><ele>9.75</ele></trkpt>
   <trkpt lon="3.063427" lat="39.900948"><ele>10.0</ele></trkpt>
   <trkpt lon="3.062209" lat="39.900588"><ele>11.0</ele></trkpt>
   <trkpt lon="3.062141" lat="39.900567"><ele>11.0</ele></trkpt>
   <trkpt lon="3.061179" lat="39.900275"><ele>12.0</ele></trkpt>
   <trkpt lon="3.060392" lat="39.900040"><ele>12.75</ele></trkpt>
   <trkpt lon="3.059803" lat="39.899864"><ele>13.0</ele></trkpt>
   <trkpt lon="3.058941" lat="39.899600"><ele>13.75</ele></trkpt>
   <trkpt lon="3.057889" lat="39.899300"><ele>14.25</ele></trkpt>
   <trkpt lon="3.057588" lat="39.899213"><ele>14.75</ele></trkpt>
   <trkpt lon="3.057072" lat="39.899039"><ele>15.0</ele></trkpt>
   <trkpt lon="3.054294" lat="39.898214"><ele>17.0</ele></trkpt>
   <trkpt lon="3.053236" lat="39.897900"><ele>17.5</ele></trkpt>
   <trkpt lon="3.052244" lat="39.897606"><ele>18.5</ele></trkpt>
   <trkpt lon="3.051512" lat="39.897384"><ele>19.0</ele></trkpt>
   <trkpt lon="3.049506" lat="39.896781"><ele>21.0</ele><sym>stay_left</sym></trkpt>
   <trkpt lon="3.049508" lat="39.896778"><ele>21.0</ele><sym>pass_place</sym><type>Shaping</type></trkpt>
   <trkpt lon="3.049506" lat="39.896781"><ele>21.0</ele></trkpt>
   <trkpt lon="3.048383" lat="39.896446"><ele>21.75</ele></trkpt>
   <trkpt lon="3.047978" lat="39.896330"><ele>22.0</ele></trkpt>
   <trkpt lon="3.046735" lat="39.895929"><ele>22.75</ele></trkpt>
   <trkpt lon="3.045799" lat="39.895628"><ele>24.5</ele></trkpt>
   <trkpt lon="3.043667" lat="39.894881"><ele>30.25</ele></trkpt>
   <trkpt lon="3.040069" lat="39.893620"><ele>30.0</ele></trkpt>
   <trkpt lon="3.039694" lat="39.893488"><ele>30.25</ele></trkpt>
   <trkpt lon="3.039007" lat="39.893251"><ele>30.25</ele></trkpt>
   <trkpt lon="3.037279" lat="39.892711"><ele>31.25</ele><sym>stay_left</sym></trkpt>
   <trkpt lon="3.037066" lat="39.892643"><ele>30.5</ele><sym>straight</sym></trkpt>
   <trkpt lon="3.036886" lat="39.892595"><ele>30.25</ele><sym>stay_right</sym></trkpt>
   <trkpt lon="3.036434" lat="39.892459"><ele>30.75</ele></trkpt>
   <trkpt lon="3.036126" lat="39.892356"><ele>30.75</ele></trkpt>
   <trkpt lon="3.035845" lat="39.892265"><ele>31.0</ele></trkpt>
   <trkpt lon="3.035352" lat="39.892075"><ele>31.0</ele></trkpt>
   <trkpt lon="3.034813" lat="39.891852"><ele>31.75</ele></trkpt>
   <trkpt lon="3.034322" lat="39.891601"><ele>32.0</ele></trkpt>
   <trkpt lon="3.034097" lat="39.891465"><ele>32.0</ele></trkpt>
   <trkpt lon="3.033818" lat="39.891281"><ele>32.75</ele></trkpt>
   <trkpt lon="3.033549" lat="39.891107"><ele>33.0</ele></trkpt>
   <trkpt lon="3.033274" lat="39.890889"><ele>33.0</ele></trkpt>
   <trkpt lon="3.032528" lat="39.890276"><ele>34.0</ele></trkpt>
   <trkpt lon="3.031680" lat="39.889579"><ele>35.0</ele></trkpt>
   <trkpt lon="3.031051" lat="39.889060"><ele>36.0</ele></trkpt>
   <trkpt lon="3.031049" lat="39.889059"><ele>36.0</ele><sym>pass_place</sym><type>Shaping</type></trkpt>
   <trkpt lon="3.030806" lat="39.888851"><ele>36.0</ele></trkpt>
   <trkpt lon="3.030447" lat="39.888545"><ele>37.0</ele></trkpt>
   <trkpt lon="3.029698" lat="39.887942"><ele>38.0</ele></trkpt>
   <trkpt lon="3.029164" lat="39.887542"><ele>38.75</ele></trkpt>
   <trkpt lon="3.028636" lat="39.887215"><ele>38.75</ele></trkpt>
   <trkpt lon="3.027842" lat="39.886787"><ele>40.0</ele></trkpt>
   <trkpt lon="3.027369" lat="39.886582"><ele>40.25</ele><sym>straight</sym></trkpt>
   <trkpt lon="3.025641" lat="39.885888"><ele>42.0</ele></trkpt>
   <trkpt lon="3.024151" lat="39.885310"><ele>43.75</ele></trkpt>
   <trkpt lon="3.023682" lat="39.885128"><ele>44.0</ele></trkpt>
   <trkpt lon="3.023440" lat="39.885057"><ele>44.0</ele></trkpt>
   <trkpt lon="3.022471" lat="39.884827"><ele>45.25</ele><sym>straight</sym></trkpt>
   <trkpt lon="3.022214" lat="39.884754"><ele>45.0</ele><sym>straight</sym></trkpt>
   <trkpt lon="3.021778" lat="39.884604"><ele>46.0</ele><sym>left_slight</sym></trkpt>
   <trkpt lon="3.021749" lat="39.884519"><ele>46.0</ele><sym>right_slight</sym></trkpt>
   <trkpt lon="3.021682" lat="39.884498"><ele>46.0</ele></trkpt>
   <trkpt lon="3.021195" lat="39.884331"><ele>46.25</ele></trkpt>
   <trkpt lon="3.020734" lat="39.884213"><ele>46.75</ele><sym>left_slight</sym></trkpt>
   <trkpt lon="3.020631" lat="39.884118"><ele>47.0</ele></trkpt>
   <trkpt lon="3.020605" lat="39.884034"><ele>47.0</ele><sym>left_slight</sym></trkpt>
   <trkpt lon="3.020758" lat="39.883887"><ele>47.0</ele><sym>right</sym></trkpt>
   <trkpt lon="3.020736" lat="39.883854"><ele>47.0</ele></trkpt>
   <trkpt lon="3.020703" lat="39.883796"><ele>47.0</ele></trkpt>
   <trkpt lon="3.020676" lat="39.883777"><ele>47.0</ele></trkpt>
   <trkpt lon="3.020236" lat="39.883521"><ele>47.0</ele></trkpt>
   <trkpt lon="3.019992" lat="39.883306"><ele>47.0</ele></trkpt>
   <trkpt lon="3.019715" lat="39.882951"><ele>48.0</ele></trkpt>
   <trkpt lon="3.019586" lat="39.882748"><ele>47.75</ele></trkpt>
   <trkpt lon="3.019418" lat="39.882410"><ele>47.5</ele></trkpt>
   <trkpt lon="3.019431" lat="39.882237"><ele>47.0</ele></trkpt>
   <trkpt lon="3.019490" lat="39.882047"><ele>47.5</ele></trkpt>
   <trkpt lon="3.019493" lat="39.882016"><ele>47.75</ele><sym>right_slight</sym></trkpt>
   <trkpt lon="3.019456" lat="39.881925"><ele>48.0</ele></trkpt>
   <trkpt lon="3.019249" lat="39.881512"><ele>50.0</ele><sym>right_slight</sym></trkpt>
   <trkpt lon="3.018078" lat="39.881196"><ele>50.0</ele></trkpt>
   <trkpt lon="3.017612" lat="39.881059"><ele>50.0</ele></trkpt>
   <trkpt lon="3.016867" lat="39.880851"><ele>51.0</ele></trkpt>
   <trkpt lon="3.016038" lat="39.880631"><ele>52.0</ele></trkpt>
   <trkpt lon="3.015501" lat="39.880472"><ele>52.25</ele><sym>left</sym></trkpt>
   <trkpt lon="3.015850" lat="39.879963"><ele>53.0</ele></trkpt>
   <trkpt lon="3.015851" lat="39.879961"><ele>53.0</ele><sym>pass_place</sym><type>Shaping</type></trkpt>
   <trkpt lon="3.016033" lat="39.879780"><ele>53.0</ele></trkpt>
   <trkpt lon="3.016104" lat="39.879599"><ele>53.0</ele></trkpt>
   <trkpt lon="3.016110" lat="39.879560"><ele>53.0</ele></trkpt>
   <trkpt lon="3.016150" lat="39.879473"><ele>52.75</ele><sym>right_slight</sym></trkpt>
   <trkpt lon="3.016141" lat="39.879353"><ele>52.0</ele></trkpt>
   <trkpt lon="3.016074" lat="39.879193"><ele>51.5</ele></trkpt>
   <trkpt lon="3.016017" lat="39.879022"><ele>52.0</ele><sym>right</sym></trkpt>
   <trkpt lon="3.015858" lat="39.879055"><ele>54.25</ele><sym>u-turn</sym><type>Via</type></trkpt>
   <trkpt lon="3.016017" lat="39.879022"><ele>52.0</ele><sym>right</sym></trkpt>
   <trkpt lon="3.016031" lat="39.878797"><ele>51.5</ele><sym>left_slight</sym></trkpt>
   <trkpt lon="3.016259" lat="39.878496"><ele>49.75</ele></trkpt>
   <trkpt lon="3.016508" lat="39.878271"><ele>47.75</ele><sym>left</sym></trkpt>
   <trkpt lon="3.016620" lat="39.878348"><ele>47.25</ele></trkpt>
   <trkpt lon="3.016739" lat="39.878471"><ele>46.5</ele></trkpt>
   <trkpt lon="3.016980" lat="39.878640"><ele>45.75</ele></trkpt>
   <trkpt lon="3.017233" lat="39.878782"><ele>45.5</ele></trkpt>
   <trkpt lon="3.017308" lat="39.878819"><ele>45.5</ele></trkpt>
   <trkpt lon="3.017656" lat="39.879003"><ele>46.75</ele></trkpt>
   <trkpt lon="3.017714" lat="39.879034"><ele>47.0</ele></trkpt>
   <trkpt lon="3.017978" lat="39.879195"><ele>48.25</ele><sym>right_slight</sym></trkpt>
   <trkpt lon="3.018075" lat="39.879173"><ele>48.0</ele><sym>left</sym></trkpt>
   <trkpt lon="3.018508" lat="39.879573"><ele>50.75</ele></trkpt>
   <trkpt lon="3.018802" lat="39.879827"><ele>51.5</ele></trkpt>
   <trkpt lon="3.018905" lat="39.879918"><ele>52.0</ele></trkpt>
   <trkpt lon="3.018953" lat="39.879968"><ele>52.75</ele><sym>left_slight</sym></trkpt>
   <trkpt lon="3.018948" lat="39.880683"><ele>51.75</ele></trkpt>
   <trkpt lon="3.019113" lat="39.881114"><ele>50.75</ele></trkpt>
   <trkpt lon="3.019249" lat="39.881512"><ele>50.0</ele></trkpt>
   <trkpt lon="3.019456" lat="39.881925"><ele>48.0</ele></trkpt>
   <trkpt lon="3.019493" lat="39.882016"><ele>47.75</ele><sym>left_slight</sym></trkpt>
   <trkpt lon="3.019490" lat="39.882047"><ele>47.5</ele></trkpt>
   <trkpt lon="3.019431" lat="39.882237"><ele>47.0</ele></trkpt>
   <trkpt lon="3.019418" lat="39.882410"><ele>47.5</ele></trkpt>
   <trkpt lon="3.019586" lat="39.882748"><ele>47.75</ele></trkpt>
   <trkpt lon="3.019715" lat="39.882951"><ele>48.0</ele></trkpt>
   <trkpt lon="3.019992" lat="39.883306"><ele>47.0</ele></trkpt>
   <trkpt lon="3.020236" lat="39.883521"><ele>47.0</ele></trkpt>
   <trkpt lon="3.020676" lat="39.883777"><ele>47.0</ele></trkpt>
   <trkpt lon="3.020703" lat="39.883796"><ele>47.0</ele></trkpt>
   <trkpt lon="3.020736" lat="39.883854"><ele>47.0</ele></trkpt>
   <trkpt lon="3.020758" lat="39.883887"><ele>47.0</ele><sym>right_slight</sym></trkpt>
   <trkpt lon="3.020819" lat="39.883887"><ele>47.0</ele></trkpt>
   <trkpt lon="3.020976" lat="39.883924"><ele>47.0</ele></trkpt>
   <trkpt lon="3.021354" lat="39.884098"><ele>46.0</ele></trkpt>
   <trkpt lon="3.021823" lat="39.884313"><ele>46.0</ele></trkpt>
   <trkpt lon="3.022010" lat="39.884383"><ele>45.75</ele></trkpt>
   <trkpt lon="3.022085" lat="39.884394"><ele>45.5</ele></trkpt>
   <trkpt lon="3.022157" lat="39.884408"><ele>45.25</ele></trkpt>
   <trkpt lon="3.022218" lat="39.884406"><ele>45.0</ele><sym>roundabout_e5</sym></trkpt>
   <trkpt lon="3.022227" lat="39.884401"><ele>45.0</ele></trkpt>
   <trkpt lon="3.022294" lat="39.884357"><ele>45.0</ele></trkpt>
   <trkpt lon="3.022422" lat="39.884331"><ele>45.0</ele></trkpt>
   <trkpt lon="3.022515" lat="39.884343"><ele>45.0</ele></trkpt>
   <trkpt lon="3.022561" lat="39.884359"><ele>45.0</ele></trkpt>
   <trkpt lon="3.022634" lat="39.884407"><ele>45.0</ele></trkpt>
   <trkpt lon="3.022685" lat="39.884481"><ele>44.75</ele></trkpt>
   <trkpt lon="3.022690" lat="39.884578"><ele>45.0</ele></trkpt>
   <trkpt lon="3.022647" lat="39.884657"><ele>45.0</ele></trkpt>
   <trkpt lon="3.022581" lat="39.884708"><ele>45.0</ele></trkpt>
   <trkpt lon="3.022529" lat="39.884730"><ele>45.0</ele></trkpt>
   <trkpt lon="3.022396" lat="39.884744"><ele>45.0</ele></trkpt>
   <trkpt lon="3.022384" lat="39.884742"><ele>45.0</ele></trkpt>
   <trkpt lon="3.022306" lat="39.884724"><ele>45.0</ele></trkpt>
   <trkpt lon="3.022248" lat="39.884695"><ele>45.0</ele></trkpt>
   <trkpt lon="3.022177" lat="39.884620"><ele>45.0</ele></trkpt>
   <trkpt lon="3.022118" lat="39.884615"><ele>45.25</ele></trkpt>
   <trkpt lon="3.022030" lat="39.884607"><ele>45.5</ele></trkpt>
   <trkpt lon="3.021822" lat="39.884542"><ele>46.0</ele></trkpt>
   <trkpt lon="3.021749" lat="39.884519"><ele>46.0</ele></trkpt>
   <trkpt lon="3.021682" lat="39.884498"><ele>46.0</ele><sym>right</sym></trkpt>
   <trkpt lon="3.021330" lat="39.884915"><ele>46.0</ele></trkpt>
   <trkpt lon="3.020902" lat="39.885388"><ele>47.25</ele><sym>right</sym></trkpt>
   <trkpt lon="3.021291" lat="39.885849"><ele>47.0</ele></trkpt>
   <trkpt lon="3.021817" lat="39.886453"><ele>46.25</ele></trkpt>
   <trkpt lon="3.021930" lat="39.886552"><ele>46.0</ele></trkpt>
   <trkpt lon="3.022257" lat="39.886887"><ele>45.0</ele></trkpt>
   <trkpt lon="3.022430" lat="39.887057"><ele>45.0</ele></trkpt>
   <trkpt lon="3.022582" lat="39.887196"><ele>44.5</ele></trkpt>
   <trkpt lon="3.022757" lat="39.887373"><ele>44.0</ele></trkpt>
   <trkpt lon="3.022806" lat="39.887462"><ele>44.0</ele></trkpt>
   <trkpt lon="3.022794" lat="39.887510"><ele>44.0</ele></trkpt>
   <trkpt lon="3.022780" lat="39.887571"><ele>44.0</ele></trkpt>
   <trkpt lon="3.023225" lat="39.887924"><ele>43.0</ele></trkpt>
   <trkpt lon="3.023987" lat="39.888565"><ele>42.75</ele></trkpt>
   <trkpt lon="3.024263" lat="39.888801"><ele>42.75</ele></trkpt>
   <trkpt lon="3.024376" lat="39.888901"><ele>43.0</ele><sym>pass_place</sym><type>Shaping</type></trkpt>
   <trkpt lon="3.024378" lat="39.888902"><ele>43.0</ele></trkpt>
   <trkpt lon="3.024436" lat="39.889134"><ele>43.0</ele></trkpt>
   <trkpt lon="3.024491" lat="39.889357"><ele>42.75</ele><sym>right_slight</sym></trkpt>
   <trkpt lon="3.024772" lat="39.889510"><ele>42.0</ele></trkpt>
   <trkpt lon="3.025419" lat="39.889829"><ele>41.25</ele></trkpt>
   <trkpt lon="3.025751" lat="39.889979"><ele>41.0</ele></trkpt>
   <trkpt lon="3.025816" lat="39.890004"><ele>40.75</ele></trkpt>
   <trkpt lon="3.026546" lat="39.890452"><ele>39.75</ele></trkpt>
   <trkpt lon="3.027013" lat="39.890805"><ele>38.75</ele></trkpt>
   <trkpt lon="3.027484" lat="39.891178"><ele>38.0</ele></trkpt>
   <trkpt lon="3.027824" lat="39.891434"><ele>37.0</ele></trkpt>
   <trkpt lon="3.028108" lat="39.891681"><ele>36.75</ele></trkpt>
   <trkpt lon="3.028514" lat="39.891934"><ele>36.0</ele></trkpt>
   <trkpt lon="3.028738" lat="39.892172"><ele>35.5</ele></trkpt>
   <trkpt lon="3.029131" lat="39.892768"><ele>35.0</ele></trkpt>
   <trkpt lon="3.029436" lat="39.893085"><ele>35.0</ele></trkpt>
   <trkpt lon="3.029699" lat="39.893370"><ele>34.0</ele></trkpt>
   <trkpt lon="3.029899" lat="39.893591"><ele>34.0</ele></trkpt>
   <trkpt lon="3.030077" lat="39.893776"><ele>33.75</ele></trkpt>
   <trkpt lon="3.030661" lat="39.894392"><ele>33.0</ele></trkpt>
   <trkpt lon="3.031114" lat="39.894795"><ele>32.0</ele></trkpt>
   <trkpt lon="3.031187" lat="39.894873"><ele>32.0</ele></trkpt>
   <trkpt lon="3.031711" lat="39.895371"><ele>31.5</ele></trkpt>
   <trkpt lon="3.031801" lat="39.895465"><ele>31.5</ele></trkpt>
   <trkpt lon="3.032166" lat="39.895752"><ele>30.75</ele></trkpt>
   <trkpt lon="3.032406" lat="39.895920"><ele>30.0</ele></trkpt>
   <trkpt lon="3.032618" lat="39.896073"><ele>30.0</ele></trkpt>
   <trkpt lon="3.032951" lat="39.896375"><ele>29.5</ele></trkpt>
   <trkpt lon="3.033034" lat="39.896475"><ele>29.25</ele></trkpt>
   <trkpt lon="3.033349" lat="39.896677"><ele>29.75</ele></trkpt>
   <trkpt lon="3.033423" lat="39.896704"><ele>29.5</ele></trkpt>
   <trkpt lon="3.033738" lat="39.896972"><ele>28.25</ele><sym>left_slight</sym></trkpt>
   <trkpt lon="3.033999" lat="39.897652"><ele>27.5</ele></trkpt>
   <trkpt lon="3.034110" lat="39.897910"><ele>27.75</ele></trkpt>
   <trkpt lon="3.034492" lat="39.898802"><ele>27.5</ele></trkpt>
   <trkpt lon="3.034556" lat="39.899064"><ele>28.75</ele></trkpt>
   <trkpt lon="3.034561" lat="39.899351"><ele>30.5</ele></trkpt>
   <trkpt lon="3.034591" lat="39.899499"><ele>31.25</ele></trkpt>
   <trkpt lon="3.034662" lat="39.899629"><ele>31.5</ele></trkpt>
   <trkpt lon="3.034802" lat="39.899803"><ele>32.75</ele></trkpt>
   <trkpt lon="3.035069" lat="39.900046"><ele>32.25</ele></trkpt>
   <trkpt lon="3.035644" lat="39.900494"><ele>31.25</ele></trkpt>
   <trkpt lon="3.036509" lat="39.901119"><ele>30.25</ele></trkpt>
   <trkpt lon="3.036603" lat="39.901213"><ele>30.75</ele></trkpt>
   <trkpt lon="3.036716" lat="39.901366"><ele>31.75</ele></trkpt>
   <trkpt lon="3.036773" lat="39.901508"><ele>32.5</ele><sym>pass_place</sym><type>Shaping</type></trkpt>
   <trkpt lon="3.036774" lat="39.901510"><ele>32.5</ele></trkpt>
   <trkpt lon="3.036798" lat="39.901660"><ele>33.25</ele></trkpt>
   <trkpt lon="3.036792" lat="39.901786"><ele>33.75</ele></trkpt>
   <trkpt lon="3.036626" lat="39.902241"><ele>32.25</ele></trkpt>
   <trkpt lon="3.036597" lat="39.902365"><ele>32.0</ele></trkpt>
   <trkpt lon="3.036601" lat="39.902572"><ele>32.0</ele></trkpt>
   <trkpt lon="3.036616" lat="39.902659"><ele>31.75</ele></trkpt>
   <trkpt lon="3.036833" lat="39.903407"><ele>31.5</ele></trkpt>
   <trkpt lon="3.036919" lat="39.903636"><ele>29.25</ele></trkpt>
   <trkpt lon="3.037017" lat="39.903833"><ele>28.25</ele></trkpt>
   <trkpt lon="3.037128" lat="39.903998"><ele>27.75</ele></trkpt>
   <trkpt lon="3.037303" lat="39.904197"><ele>27.25</ele></trkpt>
   <trkpt lon="3.037397" lat="39.904288"><ele>26.75</ele></trkpt>
   <trkpt lon="3.037600" lat="39.904483"><ele>26.5</ele></trkpt>
   <trkpt lon="3.037700" lat="39.904612"><ele>26.25</ele></trkpt>
   <trkpt lon="3.037804" lat="39.904827"><ele>25.5</ele></trkpt>
   <trkpt lon="3.037827" lat="39.904932"><ele>25.25</ele></trkpt>
   <trkpt lon="3.037827" lat="39.905237"><ele>23.25</ele></trkpt>
   <trkpt lon="3.037803" lat="39.905378"><ele>22.5</ele></trkpt>
   <trkpt lon="3.037593" lat="39.905901"><ele>20.75</ele></trkpt>
   <trkpt lon="3.037570" lat="39.906006"><ele>20.75</ele></trkpt>
   <trkpt lon="3.037584" lat="39.906165"><ele>20.5</ele></trkpt>
   <trkpt lon="3.037671" lat="39.906308"><ele>20.5</ele></trkpt>
   <trkpt lon="3.037867" lat="39.906550"><ele>20.25</ele></trkpt>
   <trkpt lon="3.037956" lat="39.906704"><ele>20.0</ele></trkpt>
   <trkpt lon="3.038062" lat="39.906937"><ele>20.0</ele></trkpt>
   <trkpt lon="3.038291" lat="39.907621"><ele>19.0</ele></trkpt>
   <trkpt lon="3.038571" lat="39.908196"><ele>19.0</ele></trkpt>
   <trkpt lon="3.038741" lat="39.908473"><ele>19.0</ele></trkpt>
   <trkpt lon="3.038830" lat="39.908619"><ele>19.0</ele></trkpt>
   <trkpt lon="3.039208" lat="39.909069"><ele>18.5</ele></trkpt>
   <trkpt lon="3.039499" lat="39.909450"><ele>18.75</ele></trkpt>
   <trkpt lon="3.039779" lat="39.910166"><ele>19.25</ele></trkpt>
   <trkpt lon="3.039993" lat="39.910571"><ele>20.0</ele></trkpt>
   <trkpt lon="3.040408" lat="39.911227"><ele>18.5</ele></trkpt>
   <trkpt lon="3.040623" lat="39.911721"><ele>18.5</ele></trkpt>
   <trkpt lon="3.040760" lat="39.911956"><ele>18.0</ele></trkpt>
   <trkpt lon="3.040814" lat="39.912020"><ele>18.0</ele></trkpt>
   <trkpt lon="3.040899" lat="39.912095"><ele>18.0</ele></trkpt>
   <trkpt lon="3.041126" lat="39.912248"><ele>18.75</ele></trkpt>
   <trkpt lon="3.041314" lat="39.912345"><ele>18.5</ele></trkpt>
   <trkpt lon="3.042092" lat="39.912802"><ele>19.0</ele></trkpt>
   <trkpt lon="3.042247" lat="39.912895"><ele>18.75</ele></trkpt>
   <trkpt lon="3.043352" lat="39.913465"><ele>20.25</ele></trkpt>
   <trkpt lon="3.043764" lat="39.913696"><ele>21.75</ele></trkpt>
   <trkpt lon="3.044170" lat="39.914016"><ele>24.0</ele></trkpt>
   <trkpt lon="3.044565" lat="39.914370"><ele>26.0</ele></trkpt>
   <trkpt lon="3.045261" lat="39.914995"><ele>25.75</ele></trkpt>
   <trkpt lon="3.045560" lat="39.915208"><ele>25.5</ele></trkpt>
   <trkpt lon="3.045797" lat="39.915340"><ele>26.0</ele></trkpt>
   <trkpt lon="3.045798" lat="39.915340"><ele>25.5</ele><sym>pass_place</sym><type>Shaping</type></trkpt>
   <trkpt lon="3.046045" lat="39.915423"><ele>25.5</ele></trkpt>
   <trkpt lon="3.046842" lat="39.915629"><ele>26.25</ele></trkpt>
   <trkpt lon="3.047188" lat="39.915735"><ele>27.0</ele></trkpt>
   <trkpt lon="3.047790" lat="39.916013"><ele>30.25</ele></trkpt>
   <trkpt lon="3.048527" lat="39.916373"><ele>33.25</ele></trkpt>
   <trkpt lon="3.049423" lat="39.916810"><ele>35.25</ele></trkpt>
   <trkpt lon="3.049765" lat="39.916970"><ele>36.0</ele></trkpt>
   <trkpt lon="3.050148" lat="39.917120"><ele>36.0</ele><sym>u-turn</sym><type>Via</type></trkpt>
   <trkpt lon="3.049765" lat="39.916970"><ele>36.0</ele></trkpt>
   <trkpt lon="3.049423" lat="39.916810"><ele>35.25</ele></trkpt>
   <trkpt lon="3.048527" lat="39.916373"><ele>33.25</ele></trkpt>
   <trkpt lon="3.047790" lat="39.916013"><ele>30.25</ele></trkpt>
   <trkpt lon="3.047188" lat="39.915735"><ele>27.0</ele></trkpt>
   <trkpt lon="3.046842" lat="39.915629"><ele>26.25</ele></trkpt>
   <trkpt lon="3.046045" lat="39.915423"><ele>25.5</ele></trkpt>
   <trkpt lon="3.045797" lat="39.915340"><ele>26.0</ele></trkpt>
   <trkpt lon="3.045560" lat="39.915208"><ele>25.5</ele></trkpt>
   <trkpt lon="3.045261" lat="39.914995"><ele>25.75</ele></trkpt>
   <trkpt lon="3.044565" lat="39.914370"><ele>26.0</ele></trkpt>
   <trkpt lon="3.044170" lat="39.914016"><ele>24.0</ele></trkpt>
   <trkpt lon="3.043764" lat="39.913696"><ele>21.75</ele></trkpt>
   <trkpt lon="3.043352" lat="39.913465"><ele>20.25</ele></trkpt>
   <trkpt lon="3.042247" lat="39.912895"><ele>18.75</ele></trkpt>
   <trkpt lon="3.042092" lat="39.912802"><ele>19.0</ele></trkpt>
   <trkpt lon="3.041314" lat="39.912345"><ele>18.5</ele></trkpt>
   <trkpt lon="3.041126" lat="39.912248"><ele>18.75</ele></trkpt>
   <trkpt lon="3.040899" lat="39.912095"><ele>18.0</ele></trkpt>
   <trkpt lon="3.040814" lat="39.912020"><ele>18.0</ele></trkpt>
   <trkpt lon="3.040760" lat="39.911956"><ele>18.0</ele></trkpt>
   <trkpt lon="3.040623" lat="39.911721"><ele>18.5</ele></trkpt>
   <trkpt lon="3.040408" lat="39.911227"><ele>18.5</ele></trkpt>
   <trkpt lon="3.039993" lat="39.910571"><ele>20.0</ele></trkpt>
   <trkpt lon="3.039779" lat="39.910166"><ele>19.25</ele></trkpt>
   <trkpt lon="3.039499" lat="39.909450"><ele>18.75</ele></trkpt>
   <trkpt lon="3.039208" lat="39.909069"><ele>18.5</ele></trkpt>
   <trkpt lon="3.038830" lat="39.908619"><ele>19.0</ele></trkpt>
   <trkpt lon="3.038741" lat="39.908473"><ele>19.0</ele></trkpt>
   <trkpt lon="3.038571" lat="39.908196"><ele>19.0</ele></trkpt>
   <trkpt lon="3.038291" lat="39.907621"><ele>19.0</ele></trkpt>
   <trkpt lon="3.038062" lat="39.906937"><ele>20.0</ele></trkpt>
   <trkpt lon="3.037956" lat="39.906704"><ele>20.0</ele></trkpt>
   <trkpt lon="3.037867" lat="39.906550"><ele>20.25</ele></trkpt>
   <trkpt lon="3.037671" lat="39.906308"><ele>20.5</ele></trkpt>
   <trkpt lon="3.037584" lat="39.906165"><ele>20.5</ele></trkpt>
   <trkpt lon="3.037570" lat="39.906006"><ele>20.75</ele></trkpt>
   <trkpt lon="3.037593" lat="39.905901"><ele>20.75</ele></trkpt>
   <trkpt lon="3.037802" lat="39.905380"><ele>22.5</ele><sym>pass_place</sym><type>Shaping</type></trkpt>
   <trkpt lon="3.037803" lat="39.905378"><ele>22.5</ele></trkpt>
   <trkpt lon="3.037827" lat="39.905237"><ele>23.25</ele></trkpt>
   <trkpt lon="3.037827" lat="39.904932"><ele>25.25</ele></trkpt>
   <trkpt lon="3.037804" lat="39.904827"><ele>25.5</ele></trkpt>
   <trkpt lon="3.037700" lat="39.904612"><ele>26.25</ele></trkpt>
   <trkpt lon="3.037600" lat="39.904483"><ele>26.5</ele></trkpt>
   <trkpt lon="3.037397" lat="39.904288"><ele>26.75</ele></trkpt>
   <trkpt lon="3.037303" lat="39.904197"><ele>27.25</ele></trkpt>
   <trkpt lon="3.037128" lat="39.903998"><ele>27.75</ele></trkpt>
   <trkpt lon="3.037017" lat="39.903833"><ele>28.25</ele></trkpt>
   <trkpt lon="3.036919" lat="39.903636"><ele>29.25</ele></trkpt>
   <trkpt lon="3.036833" lat="39.903407"><ele>31.5</ele></trkpt>
   <trkpt lon="3.036616" lat="39.902659"><ele>31.75</ele></trkpt>
   <trkpt lon="3.036601" lat="39.902572"><ele>32.0</ele></trkpt>
   <trkpt lon="3.036597" lat="39.902365"><ele>32.0</ele></trkpt>
   <trkpt lon="3.036626" lat="39.902241"><ele>32.25</ele></trkpt>
   <trkpt lon="3.036792" lat="39.901786"><ele>33.75</ele></trkpt>
   <trkpt lon="3.036798" lat="39.901660"><ele>33.25</ele></trkpt>
   <trkpt lon="3.036774" lat="39.901510"><ele>32.5</ele></trkpt>
   <trkpt lon="3.036716" lat="39.901366"><ele>31.75</ele></trkpt>
   <trkpt lon="3.036603" lat="39.901213"><ele>30.75</ele></trkpt>
   <trkpt lon="3.036509" lat="39.901119"><ele>30.25</ele></trkpt>
   <trkpt lon="3.035644" lat="39.900494"><ele>31.25</ele></trkpt>
   <trkpt lon="3.035069" lat="39.900046"><ele>32.25</ele></trkpt>
   <trkpt lon="3.034802" lat="39.899803"><ele>32.75</ele></trkpt>
   <trkpt lon="3.034662" lat="39.899629"><ele>31.5</ele></trkpt>
   <trkpt lon="3.034591" lat="39.899499"><ele>31.25</ele></trkpt>
   <trkpt lon="3.034561" lat="39.899351"><ele>30.5</ele></trkpt>
   <trkpt lon="3.034556" lat="39.899064"><ele>28.75</ele></trkpt>
   <trkpt lon="3.034492" lat="39.898802"><ele>27.5</ele></trkpt>
   <trkpt lon="3.034110" lat="39.897910"><ele>27.75</ele></trkpt>
   <trkpt lon="3.033999" lat="39.897652"><ele>27.5</ele></trkpt>
   <trkpt lon="3.033738" lat="39.896972"><ele>28.25</ele></trkpt>
   <trkpt lon="3.033728" lat="39.896715"><ele>29.5</ele></trkpt>
   <trkpt lon="3.033772" lat="39.896560"><ele>30.0</ele></trkpt>
   <trkpt lon="3.033849" lat="39.896369"><ele>30.0</ele></trkpt>
   <trkpt lon="3.033925" lat="39.896241"><ele>29.75</ele></trkpt>
   <trkpt lon="3.034494" lat="39.895521"><ele>29.5</ele></trkpt>
   <trkpt lon="3.034682" lat="39.895303"><ele>29.75</ele></trkpt>
   <trkpt lon="3.034897" lat="39.895062"><ele>30.0</ele></trkpt>
   <trkpt lon="3.035395" lat="39.894531"><ele>30.0</ele></trkpt>
   <trkpt lon="3.035768" lat="39.894137"><ele>30.0</ele></trkpt>
   <trkpt lon="3.035837" lat="39.894055"><ele>30.0</ele></trkpt>
   <trkpt lon="3.035885" lat="39.893998"><ele>30.0</ele></trkpt>
   <trkpt lon="3.036513" lat="39.893248"><ele>31.0</ele></trkpt>
   <trkpt lon="3.036555" lat="39.893197"><ele>31.0</ele></trkpt>
   <trkpt lon="3.036724" lat="39.893034"><ele>31.5</ele></trkpt>
   <trkpt lon="3.036853" lat="39.892905"><ele>31.5</ele></trkpt>
   <trkpt lon="3.036922" lat="39.892819"><ele>31.25</ele><sym>stay_left</sym></trkpt>
   <trkpt lon="3.036961" lat="39.892775"><ele>31.0</ele></trkpt>
   <trkpt lon="3.037066" lat="39.892643"><ele>30.5</ele></trkpt>
   <trkpt lon="3.037098" lat="39.892607"><ele>30.5</ele><sym>straight</sym></trkpt>
   <trkpt lon="3.037130" lat="39.892564"><ele>30.25</ele><sym>left</sym></trkpt>
   <trkpt lon="3.037987" lat="39.892822"><ele>30.75</ele></trkpt>
   <trkpt lon="3.039039" lat="39.893159"><ele>29.75</ele><sym>straight</sym></trkpt>
   <trkpt lon="3.039898" lat="39.893460"><ele>29.25</ele><sym>pass_place</sym><type>Shaping</type></trkpt>
   <trkpt lon="3.040963" lat="39.893827"><ele>29.5</ele></trkpt>
   <trkpt lon="3.042175" lat="39.894262"><ele>29.25</ele></trkpt>
   <trkpt lon="3.042442" lat="39.894356"><ele>28.5</ele></trkpt>
   <trkpt lon="3.043118" lat="39.894596"><ele>29.5</ele></trkpt>
   <trkpt lon="3.044120" lat="39.894956"><ele>27.5</ele></trkpt>
   <trkpt lon="3.044636" lat="39.895127"><ele>26.5</ele></trkpt>
   <trkpt lon="3.045506" lat="39.895428"><ele>24.5</ele></trkpt>
   <trkpt lon="3.046837" lat="39.895853"><ele>22.75</ele></trkpt>
   <trkpt lon="3.046896" lat="39.895859"><ele>22.75</ele></trkpt>
   <trkpt lon="3.047433" lat="39.896028"><ele>22.75</ele></trkpt>
   <trkpt lon="3.048115" lat="39.896252"><ele>22.0</ele></trkpt>
   <trkpt lon="3.049443" lat="39.896653"><ele>21.0</ele></trkpt>
   <trkpt lon="3.049624" lat="39.896708"><ele>21.0</ele></trkpt>
   <trkpt lon="3.051707" lat="39.897333"><ele>19.0</ele></trkpt>
   <trkpt lon="3.054343" lat="39.898125"><ele>17.0</ele></trkpt>
   <trkpt lon="3.057164" lat="39.898960"><ele>14.75</ele><sym>straight</sym></trkpt>
   <trkpt lon="3.059062" lat="39.899547"><ele>13.75</ele><sym>straight</sym></trkpt>
   <trkpt lon="3.061040" lat="39.900139"><ele>12.0</ele><sym>stay_left</sym></trkpt>
   <trkpt lon="3.061039" lat="39.900139"><ele>12.0</ele><sym>pass_place</sym><type>Shaping</type></trkpt>
   <trkpt lon="3.061040" lat="39.900139"><ele>12.0</ele></trkpt>
   <trkpt lon="3.062043" lat="39.900437"><ele>11.25</ele></trkpt>
   <trkpt lon="3.063939" lat="39.901004"><ele>10.0</ele></trkpt>
   <trkpt lon="3.065448" lat="39.901461"><ele>9.0</ele></trkpt>
   <trkpt lon="3.065790" lat="39.901566"><ele>8.5</ele></trkpt>
   <trkpt lon="3.066812" lat="39.901873"><ele>8.0</ele></trkpt>
   <trkpt lon="3.066902" lat="39.901892"><ele>8.0</ele></trkpt>
   <trkpt lon="3.067045" lat="39.901906"><ele>8.0</ele><sym>right_slight</sym></trkpt>
   <trkpt lon="3.067064" lat="39.901897"><ele>8.0</ele></trkpt>
   <trkpt lon="3.067195" lat="39.901865"><ele>8.0</ele></trkpt>
   <trkpt lon="3.068135" lat="39.902136"><ele>7.0</ele></trkpt>
   <trkpt lon="3.068414" lat="39.902216"><ele>6.75</ele></trkpt>
   <trkpt lon="3.068639" lat="39.902294"><ele>7.0</ele></trkpt>
   <trkpt lon="3.069222" lat="39.902469"><ele>7.0</ele><sym>straight</sym></trkpt>
   <trkpt lon="3.069348" lat="39.902507"><ele>7.0</ele></trkpt>
   <trkpt lon="3.069444" lat="39.902546"><ele>7.0</ele></trkpt>
   <trkpt lon="3.069559" lat="39.902621"><ele>6.5</ele></trkpt>
   <trkpt lon="3.069684" lat="39.902691"><ele>6.0</ele><sym>stay_left</sym></trkpt>
   <trkpt lon="3.069835" lat="39.902769"><ele>6.0</ele></trkpt>
   <trkpt lon="3.069998" lat="39.902831"><ele>6.0</ele></trkpt>
   <trkpt lon="3.070483" lat="39.902971"><ele>5.5</ele></trkpt>
   <trkpt lon="3.071081" lat="39.903154"><ele>5.0</ele></trkpt>
   <trkpt lon="3.072921" lat="39.903715"><ele>4.0</ele></trkpt>
   <trkpt lon="3.073412" lat="39.903862"><ele>4.0</ele></trkpt>
   <trkpt lon="3.074571" lat="39.904203"><ele>3.0</ele></trkpt>
   <trkpt lon="3.074751" lat="39.904239"><ele>3.0</ele></trkpt>
   <trkpt lon="3.074822" lat="39.904240"><ele>3.0</ele></trkpt>
   <trkpt lon="3.074880" lat="39.904222"><ele>3.0</ele></trkpt>
   <trkpt lon="3.075066" lat="39.904162"><ele>3.0</ele></trkpt>
   <trkpt lon="3.075188" lat="39.904156"><ele>3.0</ele><sym>straight</sym></trkpt>
   <trkpt lon="3.075240" lat="39.904157"><ele>3.0</ele></trkpt>
   <trkpt lon="3.075311" lat="39.904133"><ele>3.0</ele><sym>left</sym></trkpt>
   <trkpt lon="3.075378" lat="39.904212"><ele>3.0</ele></trkpt>
   <trkpt lon="3.075428" lat="39.904250"><ele>3.0</ele><sym>roundabout_e1</sym></trkpt>
   <trkpt lon="3.075524" lat="39.904298"><ele>3.0</ele></trkpt>
   <trkpt lon="3.075563" lat="39.904331"><ele>3.0</ele></trkpt>
   <trkpt lon="3.075618" lat="39.904407"><ele>3.0</ele></trkpt>
   <trkpt lon="3.075633" lat="39.904450"><ele>3.0</ele></trkpt>
   <trkpt lon="3.075693" lat="39.904519"><ele>3.0</ele></trkpt>
   <trkpt lon="3.075740" lat="39.904561"><ele>3.0</ele></trkpt>
   <trkpt lon="3.075805" lat="39.904602"><ele>3.0</ele></trkpt>
   <trkpt lon="3.075970" lat="39.904674"><ele>2.5</ele></trkpt>
   <trkpt lon="3.076198" lat="39.904743"><ele>2.0</ele></trkpt>
   <trkpt lon="3.076349" lat="39.904788"><ele>2.0</ele></trkpt>
   <trkpt lon="3.076896" lat="39.904953"><ele>1.75</ele></trkpt>
   <trkpt lon="3.076983" lat="39.904980"><ele>1.75</ele></trkpt>
   <trkpt lon="3.077151" lat="39.905030"><ele>1.75</ele></trkpt>
   <trkpt lon="3.077545" lat="39.905149"><ele>2.0</ele></trkpt>
   <trkpt lon="3.077831" lat="39.905235"><ele>2.0</ele></trkpt>
   <trkpt lon="3.078474" lat="39.905430"><ele>2.0</ele></trkpt>
   <trkpt lon="3.079248" lat="39.905663"><ele>2.0</ele></trkpt>
   <trkpt lon="3.079872" lat="39.905851"><ele>2.0</ele></trkpt>
   <trkpt lon="3.080157" lat="39.905938"><ele>2.0</ele><sym>left</sym></trkpt>
   <trkpt lon="3.080063" lat="39.906140"><ele>2.0</ele><sym>pass_place</sym><type>Shaping</type></trkpt>
   <trkpt lon="3.080063" lat="39.906142"><ele>2.0</ele></trkpt>
   <trkpt lon="3.080014" lat="39.906287"><ele>2.0</ele></trkpt>
   <trkpt lon="3.079964" lat="39.906510"><ele>2.0</ele></trkpt>
   <trkpt lon="3.079947" lat="39.906642"><ele>2.0</ele></trkpt>
   <trkpt lon="3.079948" lat="39.906726"><ele>2.25</ele></trkpt>
   <trkpt lon="3.079977" lat="39.906951"><ele>3.0</ele></trkpt>
   <trkpt lon="3.080009" lat="39.907085"><ele>3.0</ele></trkpt>
   <trkpt lon="3.080053" lat="39.907218"><ele>3.0</ele></trkpt>
   <trkpt lon="3.080158" lat="39.907457"><ele>3.0</ele></trkpt>
   <trkpt lon="3.080335" lat="39.907784"><ele>2.75</ele></trkpt>
   <trkpt lon="3.080445" lat="39.907928"><ele>3.0</ele></trkpt>
   <trkpt lon="3.080526" lat="39.908010"><ele>3.0</ele></trkpt>
   <trkpt lon="3.080933" lat="39.908403"><ele>3.25</ele></trkpt>
   <trkpt lon="3.081285" lat="39.908743"><ele>4.0</ele></trkpt>
   <trkpt lon="3.081684" lat="39.909122"><ele>3.0</ele><sym>right</sym></trkpt>
   <trkpt lon="3.082523" lat="39.908618"><ele>2.0</ele></trkpt>
   <trkpt lon="3.083068" lat="39.908298"><ele>2.0</ele><sym>pass_place</sym><type>Via</type></trkpt>
  </trkseg>
 </trk>
</gpx>
