<?xml version="1.0" encoding="UTF-8"?>
<!-- track-length = 31952 filtered ascend = 235 plain-ascend = 0 cost=53798 energy=.2kwh time=1h 47m 49s -->
<gpx 
 xmlns="http://www.topografix.com/GPX/1/1" 
 xmlns:xsi="http://www.w3.org/2001/XMLSchema-instance" 
 xsi:schemaLocation="http://www.topografix.com/GPX/1/1 http://www.topografix.com/GPX/1/1/gpx.xsd" 
 creator="BRouter-1.7.9" version="1.1"><wpt lat="39.84368" lon="3.13243"><name>Ca na Maganeta</name><sym>Restaurant</sym></wpt><wpt lat="39.84404" lon="3.13275"><name>Corro</name><sym>Restaurant</sym></wpt><wpt lat="39.84228" lon="3.12938"><name>Yute</name><sym>Restaurant</sym></wpt><wpt lat="39.90662" lon="3.08272"><name>Gran Café 1919</name><sym>Restaurant</sym></wpt><wpt lat="39.90887" lon="3.08132"><name>Cultural</name><sym>Restaurant</sym></wpt><wpt lat="39.85225" lon="3.11836"><name>Café</name><sym>Restaurant</sym></wpt><wpt lat="39.86428" lon="3.09096"><name>Hürzeler</name><sym>Bike Trail</sym></wpt><wpt lat="39.85293" lon="3.11914"><name>Sant Sebastià</name><sym>Restaurant</sym></wpt><wpt lat="39.85208" lon="3.11524"><name>niu wave</name><sym>Bike Trail</sym></wpt><wpt lat="39.8516" lon="3.12363"><name>Es Mercat</name><sym>Restaurant</sym></wpt><wpt lat="39.85226" lon="3.12382"><name>Es Passeig</name><sym>Restaurant</sym></wpt><wpt lat="39.90813" lon="3.08053"><name>Dolç Sa Pobla</name><sym>Restaurant</sym></wpt><wpt lat="39.90484" lon="3.0779"><name>Café</name><sym>Restaurant</sym></wpt><wpt lat="39.85408" lon="3.12487"><name>Nákara</name><sym>Restaurant</sym></wpt><wpt lat="39.84439" lon="3.127"><name>la Caña</name><sym>Restaurant</sym></wpt><wpt lat="39.85192" lon="3.11545"><name>Bon Apetit</name><sym>Restaurant</sym></wpt><wpt lat="39.90509" lon="3.08175"><name>Ca les Monges</name><sym>Restaurant</sym></wpt><wpt lat="39.85245" lon="3.11569"><name>Ses Forques</name><sym>Restaurant</sym></wpt><wpt lat="39.90867" lon="3.0811"><name>Bike shop</name><sym>Bike Trail</sym></wpt><wpt lat="39.90859" lon="3.08501"><name>Cappuccino</name><sym>Restaurant</sym></wpt><wpt lat="39.90469" lon="3.07843"><name>Mallorca Bike Lounge/The Bike Rooms</name><sym>Bike Trail</sym></wpt><wpt lat="39.90637" lon="3.08193"><name>Wattstyle</name><sym>Bike Trail</sym></wpt><wpt lat="39.90709" lon="3.08267"><name>Bike island</name><sym>Bike Trail</sym></wpt><wpt lat="39.85132" lon="3.126"><name>Y Punto</name><sym>Restaurant</sym></wpt><wpt lat="39.85318" lon="3.11887"><name>Drinking water</name><sym>Drinking Water</sym></wpt><wpt lat="39.84988" lon="3.12924"><name>s&#x27;Esclat</name><sym>Restaurant</sym></wpt><wpt lat="39.8506" lon="3.12673"><name>Más que café</name><sym>Restaurant</sym></wpt><wpt lat="39.90568" lon="3.08155"><name>Dixto. Healthy Fastfood Restaurant - Cafe</name><sym>Restaurant</sym></wpt><wpt lat="39.86186" lon="3.13954"><name>Can Tomeu</name><sym>Restaurant</sym></wpt>
 <trk>
  <src>brouter_fastbike-lowtraffic_0</src>
  <type>bike</type>
  <trkseg>
   <trkpt lon="3.083068" lat="39.908298"><ele>2.0</ele><sym>pass_place</sym><type>Via</type></trkpt>
   <trkpt lon="3.083480" lat="39.908057"><ele>2.0</ele><sym>left</sym></trkpt>
   <trkpt lon="3.083892" lat="39.908468"><ele>1.75</ele><sym>left</sym></trkpt>
   <trkpt lon="3.082953" lat="39.909036"><ele>2.25</ele></trkpt>
   <trkpt lon="3.082124" lat="39.909551"><ele>4.0</ele></trkpt>
   <trkpt lon="3.082040" lat="39.909600"><ele>4.25</ele></trkpt>
   <trkpt lon="3.081347" lat="39.910011"><ele>6.0</ele><sym>left</sym></trkpt>
   <trkpt lon="3.081129" lat="39.909799"><ele>5.75</ele></trkpt>
   <trkpt lon="3.080902" lat="39.909580"><ele>5.75</ele></trkpt>
   <trkpt lon="3.080155" lat="39.908875"><ele>4.75</ele></trkpt>
   <trkpt lon="3.079789" lat="39.908529"><ele>4.0</ele></trkpt>
   <trkpt lon="3.079738" lat="39.908481"><ele>4.0</ele></trkpt>
   <trkpt lon="3.079491" lat="39.908229"><ele>4.0</ele></trkpt>
   <trkpt lon="3.079393" lat="39.908108"><ele>4.0</ele></trkpt>
   <trkpt lon="3.079306" lat="39.907983"><ele>4.0</ele></trkpt>
   <trkpt lon="3.079201" lat="39.907801"><ele>4.0</ele></trkpt>
   <trkpt lon="3.079120" lat="39.907631"><ele>4.0</ele></trkpt>
   <trkpt lon="3.079063" lat="39.907487"><ele>3.75</ele></trkpt>
   <trkpt lon="3.079019" lat="39.907352"><ele>3.25</ele></trkpt>
   <trkpt lon="3.078977" lat="39.907167"><ele>3.0</ele></trkpt>
   <trkpt lon="3.078963" lat="39.907037"><ele>3.0</ele></trkpt>
   <trkpt lon="3.078947" lat="39.906744"><ele>3.0</ele></trkpt>
   <trkpt lon="3.078962" lat="39.906457"><ele>3.0</ele></trkpt>
   <trkpt lon="3.078984" lat="39.906294"><ele>2.5</ele></trkpt>
   <trkpt lon="3.079022" lat="39.906141"><ele>2.0</ele></trkpt>
   <trkpt lon="3.079086" lat="39.905985"><ele>2.0</ele></trkpt>
   <trkpt lon="3.079248" lat="39.905663"><ele>2.0</ele><sym>left</sym></trkpt>
   <trkpt lon="3.079872" lat="39.905851"><ele>2.0</ele><sym>right</sym></trkpt>
   <trkpt lon="3.079994" lat="39.905754"><ele>2.0</ele></trkpt>
   <trkpt lon="3.080305" lat="39.905507"><ele>1.75</ele></trkpt>
   <trkpt lon="3.080621" lat="39.905259"><ele>1.0</ele></trkpt>
   <trkpt lon="3.080982" lat="39.904978"><ele>1.0</ele></trkpt>
   <trkpt lon="3.081028" lat="39.904943"><ele>1.0</ele></trkpt>
   <trkpt lon="3.081096" lat="39.904889"><ele>1.0</ele></trkpt>
   <trkpt lon="3.081436" lat="39.904619"><ele>1.0</ele></trkpt>
   <trkpt lon="3.081476" lat="39.904600"><ele>1.0</ele></trkpt>
   <trkpt lon="3.081537" lat="39.904587"><ele>1.0</ele></trkpt>
   <trkpt lon="3.081567" lat="39.904577"><ele>1.0</ele><sym>right</sym></trkpt>
   <trkpt lon="3.081521" lat="39.904482"><ele>1.0</ele></trkpt>
   <trkpt lon="3.081005" lat="39.903769"><ele>1.0</ele></trkpt>
   <trkpt lon="3.080877" lat="39.903602"><ele>1.0</ele></trkpt>
   <trkpt lon="3.080592" lat="39.903240"><ele>1.0</ele></trkpt>
   <trkpt lon="3.080531" lat="39.903169"><ele>1.0</ele></trkpt>
   <trkpt lon="3.080269" lat="39.902799"><ele>1.0</ele></trkpt>
   <trkpt lon="3.080256" lat="39.902778"><ele>1.0</ele></trkpt>
   <trkpt lon="3.080143" lat="39.902600"><ele>1.0</ele></trkpt>
   <trkpt lon="3.080041" lat="39.902407"><ele>1.0</ele></trkpt>
   <trkpt lon="3.079970" lat="39.902241"><ele>1.0</ele></trkpt>
   <trkpt lon="3.079848" lat="39.901931"><ele>1.0</ele></trkpt>
   <trkpt lon="3.079731" lat="39.901596"><ele>1.0</ele></trkpt>
   <trkpt lon="3.079637" lat="39.901276"><ele>1.0</ele></trkpt>
   <trkpt lon="3.079616" lat="39.901203"><ele>1.0</ele></trkpt>
   <trkpt lon="3.079556" lat="39.900793"><ele>1.0</ele></trkpt>
   <trkpt lon="3.079487" lat="39.900245"><ele>1.0</ele></trkpt>
   <trkpt lon="3.079478" lat="39.900181"><ele>1.0</ele></trkpt>
   <trkpt lon="3.079400" lat="39.899649"><ele>1.0</ele></trkpt>
   <trkpt lon="3.079365" lat="39.899465"><ele>1.0</ele></trkpt>
   <trkpt lon="3.079281" lat="39.899044"><ele>1.25</ele></trkpt>
   <trkpt lon="3.079279" lat="39.899039"><ele>1.0</ele><sym>pass_place</sym><type>Shaping</type></trkpt>
   <trkpt lon="3.079189" lat="39.898616"><ele>1.0</ele></trkpt>
   <trkpt lon="3.079013" lat="39.897960"><ele>1.0</ele></trkpt>
   <trkpt lon="3.078905" lat="39.897549"><ele>1.0</ele></trkpt>
   <trkpt lon="3.078897" lat="39.897517"><ele>1.0</ele></trkpt>
   <trkpt lon="3.078883" lat="39.897463"><ele>1.0</ele></trkpt>
   <trkpt lon="3.078761" lat="39.896977"><ele>1.0</ele></trkpt>
   <trkpt lon="3.078408" lat="39.895660"><ele>1.0</ele></trkpt>
   <trkpt lon="3.078346" lat="39.895379"><ele>1.0</ele></trkpt>
   <trkpt lon="3.078295" lat="39.895031"><ele>1.0</ele></trkpt>
   <trkpt lon="3.078268" lat="39.893958"><ele>1.0</ele></trkpt>
   <trkpt lon="3.078270" lat="39.893559"><ele>1.0</ele></trkpt>
   <trkpt lon="3.078266" lat="39.892743"><ele>1.5</ele></trkpt>
   <trkpt lon="3.078265" lat="39.892418"><ele>2.0</ele></trkpt>
   <trkpt lon="3.078265" lat="39.892113"><ele>1.5</ele></trkpt>
   <trkpt lon="3.078264" lat="39.891976"><ele>1.25</ele></trkpt>
   <trkpt lon="3.078251" lat="39.890056"><ele>1.25</ele></trkpt>
   <trkpt lon="3.078250" lat="39.889931"><ele>1.25</ele></trkpt>
   <trkpt lon="3.078250" lat="39.889821"><ele>1.25</ele></trkpt>
   <trkpt lon="3.078249" lat="39.889189"><ele>1.25</ele><sym>right_slight</sym></trkpt>
   <trkpt lon="3.078188" lat="39.889135"><ele>1.5</ele><sym>left_slight</sym></trkpt>
   <trkpt lon="3.078193" lat="39.888674"><ele>1.5</ele></trkpt>
   <trkpt lon="3.078294" lat="39.888236"><ele>1.25</ele></trkpt>
   <trkpt lon="3.078461" lat="39.887598"><ele>1.25</ele></trkpt>
   <trkpt lon="3.078504" lat="39.887480"><ele>1.0</ele></trkpt>
   <trkpt lon="3.078702" lat="39.886931"><ele>1.0</ele></trkpt>
   <trkpt lon="3.078937" lat="39.886301"><ele>1.0</ele></trkpt>
   <trkpt lon="3.079104" lat="39.885824"><ele>1.0</ele></trkpt>
   <trkpt lon="3.079596" lat="39.884496"><ele>1.75</ele></trkpt>
   <trkpt lon="3.079624" lat="39.884374"><ele>1.75</ele></trkpt>
   <trkpt lon="3.079636" lat="39.884222"><ele>2.0</ele></trkpt>
   <trkpt lon="3.079628" lat="39.884091"><ele>2.0</ele></trkpt>
   <trkpt lon="3.079576" lat="39.883902"><ele>1.75</ele><sym>right_slight</sym></trkpt>
   <trkpt lon="3.079480" lat="39.883821"><ele>2.0</ele></trkpt>
   <trkpt lon="3.079412" lat="39.883781"><ele>2.25</ele></trkpt>
   <trkpt lon="3.079354" lat="39.883747"><ele>2.5</ele><sym>roundabout_e2</sym></trkpt>
   <trkpt lon="3.079286" lat="39.883737"><ele>2.5</ele></trkpt>
   <trkpt lon="3.079225" lat="39.883712"><ele>2.5</ele></trkpt>
   <trkpt lon="3.079176" lat="39.883675"><ele>2.75</ele></trkpt>
   <trkpt lon="3.079143" lat="39.883628"><ele>2.75</ele></trkpt>
   <trkpt lon="3.079129" lat="39.883577"><ele>2.75</ele></trkpt>
   <trkpt lon="3.079140" lat="39.883513"><ele>2.5</ele></trkpt>
   <trkpt lon="3.079162" lat="39.883473"><ele>2.25</ele></trkpt>
   <trkpt lon="3.079206" lat="39.883431"><ele>2.25</ele></trkpt>
   <trkpt lon="3.079265" lat="39.883402"><ele>2.0</ele></trkpt>
   <trkpt lon="3.079332" lat="39.883387"><ele>2.0</ele></trkpt>
   <trkpt lon="3.079400" lat="39.883387"><ele>2.0</ele><sym>pass_place</sym><type>Shaping</type></trkpt>
   <trkpt lon="3.079402" lat="39.883387"><ele>2.0</ele></trkpt>
   <trkpt lon="3.079468" lat="39.883403"><ele>2.0</ele></trkpt>
   <trkpt lon="3.079614" lat="39.883370"><ele>2.0</ele></trkpt>
   <trkpt lon="3.079791" lat="39.883336"><ele>2.0</ele><sym>right_slight</sym></trkpt>
   <trkpt lon="3.079882" lat="39.883282"><ele>2.5</ele></trkpt>
   <trkpt lon="3.079937" lat="39.883233"><ele>2.75</ele></trkpt>
   <trkpt lon="3.080080" lat="39.883073"><ele>2.5</ele></trkpt>
   <trkpt lon="3.080165" lat="39.882939"><ele>2.25</ele></trkpt>
   <trkpt lon="3.080225" lat="39.882815"><ele>2.5</ele></trkpt>
   <trkpt lon="3.080336" lat="39.882494"><ele>1.75</ele></trkpt>
   <trkpt lon="3.080357" lat="39.882434"><ele>1.5</ele></trkpt>
   <trkpt lon="3.080656" lat="39.881630"><ele>1.5</ele></trkpt>
   <trkpt lon="3.080899" lat="39.880978"><ele>1.5</ele></trkpt>
   <trkpt lon="3.080957" lat="39.880818"><ele>1.75</ele></trkpt>
   <trkpt lon="3.081185" lat="39.880202"><ele>1.75</ele></trkpt>
   <trkpt lon="3.081238" lat="39.880062"><ele>1.5</ele></trkpt>
   <trkpt lon="3.081469" lat="39.879441"><ele>1.25</ele></trkpt>
   <trkpt lon="3.081626" lat="39.879052"><ele>1.25</ele></trkpt>
   <trkpt lon="3.081814" lat="39.878644"><ele>1.25</ele></trkpt>
   <trkpt lon="3.082054" lat="39.878169"><ele>1.25</ele></trkpt>
   <trkpt lon="3.082230" lat="39.877825"><ele>1.5</ele></trkpt>
   <trkpt lon="3.082771" lat="39.876784"><ele>1.5</ele></trkpt>
   <trkpt lon="3.083289" lat="39.875814"><ele>1.75</ele></trkpt>
   <trkpt lon="3.083794" lat="39.874916"><ele>1.5</ele></trkpt>
   <trkpt lon="3.084209" lat="39.874205"><ele>1.25</ele></trkpt>
   <trkpt lon="3.084979" lat="39.872909"><ele>1.0</ele></trkpt>
   <trkpt lon="3.085257" lat="39.872481"><ele>1.0</ele></trkpt>
   <trkpt lon="3.086140" lat="39.871016"><ele>1.5</ele></trkpt>
   <trkpt lon="3.086395" lat="39.870593"><ele>1.0</ele></trkpt>
   <trkpt lon="3.086440" lat="39.870520"><ele>1.0</ele></trkpt>
   <trkpt lon="3.086467" lat="39.870476"><ele>1.0</ele><sym>left</sym></trkpt>
   <trkpt lon="3.086536" lat="39.870491"><ele>1.0</ele><sym>right</sym></trkpt>
   <trkpt lon="3.086892" lat="39.869998"><ele>1.0</ele></trkpt>
   <trkpt lon="3.089739" lat="39.866519"><ele>1.25</ele><sym>pass_place</sym><type>Shaping</type></trkpt>
   <trkpt lon="3.089740" lat="39.866519"><ele>1.25</ele></trkpt>
   <trkpt lon="3.090445" lat="39.865857"><ele>1.25</ele></trkpt>
   <trkpt lon="3.090858" lat="39.865469"><ele>1.25</ele></trkpt>
   <trkpt lon="3.091566" lat="39.865009"><ele>1.25</ele></trkpt>
   <trkpt lon="3.092320" lat="39.864612"><ele>1.25</ele></trkpt>
   <trkpt lon="3.092792" lat="39.864321"><ele>1.25</ele></trkpt>
   <trkpt lon="3.093906" lat="39.863688"><ele>1.25</ele></trkpt>
   <trkpt lon="3.095467" lat="39.862581"><ele>1.5</ele></trkpt>
   <trkpt lon="3.097092" lat="39.861370"><ele>1.5</ele></trkpt>
   <trkpt lon="3.097319" lat="39.861162"><ele>1.5</ele></trkpt>
   <trkpt lon="3.097514" lat="39.860939"><ele>1.5</ele></trkpt>
   <trkpt lon="3.098057" lat="39.860263"><ele>1.5</ele></trkpt>
   <trkpt lon="3.098609" lat="39.859521"><ele>1.5</ele></trkpt>
   <trkpt lon="3.098710" lat="39.859388"><ele>1.5</ele></trkpt>
   <trkpt lon="3.098856" lat="39.859241"><ele>1.5</ele></trkpt>
   <trkpt lon="3.099037" lat="39.859101"><ele>1.5</ele></trkpt>
   <trkpt lon="3.099253" lat="39.858961"><ele>1.5</ele></trkpt>
   <trkpt lon="3.099561" lat="39.858827"><ele>1.5</ele></trkpt>
   <trkpt lon="3.099885" lat="39.858728"><ele>1.5</ele></trkpt>
   <trkpt lon="3.099967" lat="39.858703"><ele>1.5</ele></trkpt>
   <trkpt lon="3.101164" lat="39.858513"><ele>1.75</ele></trkpt>
   <trkpt lon="3.101253" lat="39.858499"><ele>1.75</ele></trkpt>
   <trkpt lon="3.101743" lat="39.858371"><ele>1.75</ele></trkpt>
   <trkpt lon="3.102842" lat="39.858051"><ele>1.5</ele></trkpt>
   <trkpt lon="3.103512" lat="39.857852"><ele>1.5</ele></trkpt>
   <trkpt lon="3.103882" lat="39.857709"><ele>1.5</ele></trkpt>
   <trkpt lon="3.105076" lat="39.857206"><ele>1.5</ele><sym>left</sym></trkpt>
   <trkpt lon="3.105095" lat="39.857226"><ele>1.5</ele><sym>right</sym></trkpt>
   <trkpt lon="3.105149" lat="39.857235"><ele>1.25</ele></trkpt>
   <trkpt lon="3.106240" lat="39.857050"><ele>1.25</ele><sym>pass_place</sym><type>Shaping</type></trkpt>
   <trkpt lon="3.106242" lat="39.857050"><ele>1.25</ele></trkpt>
   <trkpt lon="3.106469" lat="39.856985"><ele>1.0</ele></trkpt>
   <trkpt lon="3.106600" lat="39.856964"><ele>1.0</ele></trkpt>
   <trkpt lon="3.107699" lat="39.856799"><ele>0.75</ele></trkpt>
   <trkpt lon="3.108118" lat="39.856730"><ele>1.0</ele></trkpt>
   <trkpt lon="3.108480" lat="39.856675"><ele>1.0</ele></trkpt>
   <trkpt lon="3.109003" lat="39.856569"><ele>1.0</ele></trkpt>
   <trkpt lon="3.109946" lat="39.856592"><ele>1.0</ele></trkpt>
   <trkpt lon="3.111662" lat="39.856579"><ele>2.0</ele></trkpt>
   <trkpt lon="3.112057" lat="39.856639"><ele>2.0</ele></trkpt>
   <trkpt lon="3.112382" lat="39.856655"><ele>2.0</ele></trkpt>
   <trkpt lon="3.112481" lat="39.856652"><ele>2.0</ele></trkpt>
   <trkpt lon="3.112651" lat="39.856648"><ele>2.5</ele></trkpt>
   <trkpt lon="3.112745" lat="39.856682"><ele>2.75</ele></trkpt>
   <trkpt lon="3.113286" lat="39.856930"><ele>2.0</ele></trkpt>
   <trkpt lon="3.113391" lat="39.856950"><ele>1.75</ele></trkpt>
   <trkpt lon="3.113728" lat="39.856846"><ele>2.0</ele></trkpt>
   <trkpt lon="3.114178" lat="39.856850"><ele>2.0</ele></trkpt>
   <trkpt lon="3.114457" lat="39.856838"><ele>2.0</ele></trkpt>
   <trkpt lon="3.114574" lat="39.856784"><ele>2.0</ele></trkpt>
   <trkpt lon="3.114681" lat="39.856677"><ele>2.0</ele></trkpt>
   <trkpt lon="3.114799" lat="39.856506"><ele>2.0</ele></trkpt>
   <trkpt lon="3.115237" lat="39.855572"><ele>2.0</ele></trkpt>
   <trkpt lon="3.115498" lat="39.855273"><ele>2.0</ele></trkpt>
   <trkpt lon="3.115666" lat="39.855031"><ele>2.25</ele></trkpt>
   <trkpt lon="3.116017" lat="39.854464"><ele>3.0</ele></trkpt>
   <trkpt lon="3.116183" lat="39.854268"><ele>3.5</ele></trkpt>
   <trkpt lon="3.116408" lat="39.853929"><ele>4.0</ele></trkpt>
   <trkpt lon="3.116528" lat="39.853859"><ele>4.0</ele></trkpt>
   <trkpt lon="3.117935" lat="39.853944"><ele>6.5</ele><sym>right</sym></trkpt>
   <trkpt lon="3.118282" lat="39.853421"><ele>9.25</ele><sym>straight</sym></trkpt>
   <trkpt lon="3.118446" lat="39.853175"><ele>10.5</ele></trkpt>
   <trkpt lon="3.118475" lat="39.853132"><ele>10.5</ele><sym>right_slight</sym></trkpt>
   <trkpt lon="3.118466" lat="39.853111"><ele>10.75</ele></trkpt>
   <trkpt lon="3.118439" lat="39.853049"><ele>10.75</ele><sym>left</sym></trkpt>
   <trkpt lon="3.118554" lat="39.853022"><ele>10.75</ele><sym>right_slight</sym></trkpt>
   <trkpt lon="3.118639" lat="39.852953"><ele>10.75</ele></trkpt>
   <trkpt lon="3.118673" lat="39.852875"><ele>10.5</ele></trkpt>
   <trkpt lon="3.118692" lat="39.852832"><ele>10.25</ele></trkpt>
   <trkpt lon="3.118763" lat="39.852692"><ele>10.0</ele></trkpt>
   <trkpt lon="3.118798" lat="39.852625"><ele>10.25</ele></trkpt>
   <trkpt lon="3.118857" lat="39.852570"><ele>10.5</ele></trkpt>
   <trkpt lon="3.118961" lat="39.852489"><ele>10.75</ele></trkpt>
   <trkpt lon="3.119110" lat="39.852398"><ele>10.75</ele></trkpt>
   <trkpt lon="3.119250" lat="39.852329"><ele>11.0</ele></trkpt>
   <trkpt lon="3.119448" lat="39.852243"><ele>11.0</ele></trkpt>
   <trkpt lon="3.119659" lat="39.852080"><ele>11.75</ele></trkpt>
   <trkpt lon="3.119896" lat="39.851786"><ele>12.75</ele></trkpt>
   <trkpt lon="3.119998" lat="39.851614"><ele>14.0</ele></trkpt>
   <trkpt lon="3.120025" lat="39.851574"><ele>14.25</ele></trkpt>
   <trkpt lon="3.120089" lat="39.851473"><ele>14.75</ele></trkpt>
   <trkpt lon="3.120135" lat="39.851406"><ele>14.75</ele></trkpt>
   <trkpt lon="3.120261" lat="39.851235"><ele>14.75</ele></trkpt>
   <trkpt lon="3.120335" lat="39.851171"><ele>15.0</ele></trkpt>
   <trkpt lon="3.120421" lat="39.851136"><ele>15.0</ele></trkpt>
   <trkpt lon="3.120557" lat="39.851101"><ele>14.75</ele></trkpt>
   <trkpt lon="3.120684" lat="39.851103"><ele>14.25</ele></trkpt>
   <trkpt lon="3.120755" lat="39.851119"><ele>14.25</ele></trkpt>
   <trkpt lon="3.120778" lat="39.851125"><ele>14.0</ele></trkpt>
   <trkpt lon="3.121067" lat="39.851185"><ele>13.25</ele></trkpt>
   <trkpt lon="3.121609" lat="39.851296"><ele>12.5</ele></trkpt>
   <trkpt lon="3.121772" lat="39.851331"><ele>12.5</ele></trkpt>
   <trkpt lon="3.121992" lat="39.851377"><ele>12.0</ele></trkpt>
   <trkpt lon="3.122221" lat="39.851423"><ele>11.75</ele></trkpt>
   <trkpt lon="3.122719" lat="39.851519"><ele>11.0</ele><sym>pass_place</sym><type>Shaping</type></trkpt>
   <trkpt lon="3.122725" lat="39.851520"><ele>11.0</ele></trkpt>
   <trkpt lon="3.122818" lat="39.851539"><ele>10.75</ele></trkpt>
   <trkpt lon="3.122934" lat="39.851564"><ele>10.25</ele></trkpt>
   <trkpt lon="3.123158" lat="39.851609"><ele>10.0</ele></trkpt>
   <trkpt lon="3.123615" lat="39.851705"><ele>9.0</ele></trkpt>
   <trkpt lon="3.123730" lat="39.851730"><ele>9.0</ele></trkpt>
   <trkpt lon="3.123885" lat="39.851761"><ele>9.0</ele></trkpt>
   <trkpt lon="3.124892" lat="39.851973"><ele>10.0</ele></trkpt>
   <trkpt lon="3.125031" lat="39.852003"><ele>10.0</ele><sym>right</sym></trkpt>
   <trkpt lon="3.125220" lat="39.851857"><ele>10.5</ele><sym>left</sym></trkpt>
   <trkpt lon="3.125875" lat="39.852229"><ele>13.0</ele></trkpt>
   <trkpt lon="3.125906" lat="39.852248"><ele>13.0</ele></trkpt>
   <trkpt lon="3.125943" lat="39.852271"><ele>13.0</ele></trkpt>
   <trkpt lon="3.126253" lat="39.852437"><ele>13.0</ele></trkpt>
   <trkpt lon="3.126311" lat="39.852471"><ele>13.0</ele></trkpt>
   <trkpt lon="3.126633" lat="39.852664"><ele>11.75</ele></trkpt>
   <trkpt lon="3.127834" lat="39.852872"><ele>11.0</ele></trkpt>
   <trkpt lon="3.128010" lat="39.852901"><ele>11.0</ele></trkpt>
   <trkpt lon="3.128135" lat="39.852922"><ele>10.75</ele></trkpt>
   <trkpt lon="3.128265" lat="39.852948"><ele>10.5</ele></trkpt>
   <trkpt lon="3.128374" lat="39.852970"><ele>10.25</ele></trkpt>
   <trkpt lon="3.128549" lat="39.853013"><ele>10.75</ele></trkpt>
   <trkpt lon="3.129078" lat="39.853194"><ele>11.0</ele></trkpt>
   <trkpt lon="3.129290" lat="39.853284"><ele>11.0</ele></trkpt>
   <trkpt lon="3.129802" lat="39.853402"><ele>11.75</ele></trkpt>
   <trkpt lon="3.130168" lat="39.853502"><ele>12.0</ele></trkpt>
   <trkpt lon="3.130323" lat="39.853573"><ele>12.0</ele></trkpt>
   <trkpt lon="3.130469" lat="39.853662"><ele>12.0</ele></trkpt>
   <trkpt lon="3.130563" lat="39.853729"><ele>12.0</ele></trkpt>
   <trkpt lon="3.130779" lat="39.853918"><ele>11.75</ele></trkpt>
   <trkpt lon="3.130857" lat="39.854003"><ele>11.5</ele></trkpt>
   <trkpt lon="3.131130" lat="39.854395"><ele>11.0</ele></trkpt>
   <trkpt lon="3.131516" lat="39.854998"><ele>11.0</ele></trkpt>
   <trkpt lon="3.131576" lat="39.855072"><ele>11.0</ele></trkpt>
   <trkpt lon="3.131680" lat="39.855176"><ele>11.0</ele></trkpt>
   <trkpt lon="3.131797" lat="39.855278"><ele>11.25</ele></trkpt>
   <trkpt lon="3.131900" lat="39.855358"><ele>11.75</ele></trkpt>
   <trkpt lon="3.132032" lat="39.855438"><ele>12.0</ele></trkpt>
   <trkpt lon="3.132843" lat="39.855804"><ele>15.25</ele></trkpt>
   <trkpt lon="3.133670" lat="39.856062"><ele>17.75</ele></trkpt>
   <trkpt lon="3.133996" lat="39.856254"><ele>17.0</ele></trkpt>
   <trkpt lon="3.134066" lat="39.856317"><ele>16.75</ele></trkpt>
   <trkpt lon="3.134306" lat="39.856538"><ele>15.75</ele></trkpt>
   <trkpt lon="3.135306" lat="39.857382"><ele>16.5</ele></trkpt>
   <trkpt lon="3.136151" lat="39.858032"><ele>17.0</ele></trkpt>
   <trkpt lon="3.136272" lat="39.858148"><ele>17.0</ele></trkpt>
   <trkpt lon="3.136814" lat="39.858672"><ele>17.5</ele></trkpt>
   <trkpt lon="3.137398" lat="39.859342"><ele>17.75</ele></trkpt>
   <trkpt lon="3.137433" lat="39.859383"><ele>17.75</ele></trkpt>
   <trkpt lon="3.137654" lat="39.859591"><ele>18.25</ele></trkpt>
   <trkpt lon="3.137965" lat="39.859827"><ele>18.25</ele></trkpt>
   <trkpt lon="3.138193" lat="39.859977"><ele>19.0</ele></trkpt>
   <trkpt lon="3.138986" lat="39.860432"><ele>20.25</ele><sym>pass_place</sym><type>Shaping</type></trkpt>
   <trkpt lon="3.138988" lat="39.860434"><ele>20.25</ele></trkpt>
   <trkpt lon="3.139261" lat="39.860623"><ele>21.25</ele></trkpt>
   <trkpt lon="3.139408" lat="39.860795"><ele>21.75</ele></trkpt>
   <trkpt lon="3.139658" lat="39.861124"><ele>21.75</ele></trkpt>
   <trkpt lon="3.139865" lat="39.861408"><ele>21.5</ele></trkpt>
   <trkpt lon="3.139952" lat="39.861665"><ele>21.75</ele><sym>right_slight</sym></trkpt>
   <trkpt lon="3.140631" lat="39.861945"><ele>19.5</ele></trkpt>
   <trkpt lon="3.141303" lat="39.862221"><ele>18.25</ele></trkpt>
   <trkpt lon="3.141475" lat="39.862305"><ele>18.0</ele></trkpt>
   <trkpt lon="3.141928" lat="39.862519"><ele>15.0</ele></trkpt>
   <trkpt lon="3.142216" lat="39.862639"><ele>14.5</ele></trkpt>
   <trkpt lon="3.142576" lat="39.862794"><ele>12.75</ele></trkpt>
   <trkpt lon="3.143066" lat="39.863221"><ele>9.75</ele></trkpt>
   <trkpt lon="3.143112" lat="39.863288"><ele>9.25</ele></trkpt>
   <trkpt lon="3.143269" lat="39.863529"><ele>8.25</ele></trkpt>
   <trkpt lon="3.143399" lat="39.863720"><ele>7.25</ele></trkpt>
   <trkpt lon="3.143605" lat="39.864111"><ele>5.25</ele></trkpt>
   <trkpt lon="3.143915" lat="39.864689"><ele>3.0</ele><sym>right_slight</sym></trkpt>
   <trkpt lon="3.144187" lat="39.864737"><ele>2.75</ele></trkpt>
   <trkpt lon="3.144323" lat="39.864767"><ele>3.25</ele></trkpt>
   <trkpt lon="3.144520" lat="39.864859"><ele>3.75</ele></trkpt>
   <trkpt lon="3.144554" lat="39.864885"><ele>3.75</ele></trkpt>
   <trkpt lon="3.145133" lat="39.865329"><ele>3.75</ele></trkpt>
   <trkpt lon="3.145849" lat="39.865878"><ele>3.75</ele></trkpt>
   <trkpt lon="3.146042" lat="39.865946"><ele>5.0</ele></trkpt>
   <trkpt lon="3.146278" lat="39.866027"><ele>5.0</ele></trkpt>
   <trkpt lon="3.146325" lat="39.866044"><ele>4.75</ele></trkpt>
   <trkpt lon="3.148113" lat="39.866664"><ele>8.75</ele></trkpt>
   <trkpt lon="3.148179" lat="39.866692"><ele>9.0</ele></trkpt>
   <trkpt lon="3.148764" lat="39.866942"><ele>15.0</ele></trkpt>
   <trkpt lon="3.149101" lat="39.867129"><ele>16.75</ele></trkpt>
   <trkpt lon="3.149320" lat="39.867291"><ele>20.75</ele></trkpt>
   <trkpt lon="3.149596" lat="39.867582"><ele>24.25</ele></trkpt>
   <trkpt lon="3.149786" lat="39.867954"><ele>25.25</ele></trkpt>
   <trkpt lon="3.150122" lat="39.868215"><ele>29.0</ele></trkpt>
   <trkpt lon="3.150218" lat="39.868289"><ele>29.25</ele></trkpt>
   <trkpt lon="3.151166" lat="39.868999"><ele>28.5</ele></trkpt>
   <trkpt lon="3.151829" lat="39.869496"><ele>26.75</ele></trkpt>
   <trkpt lon="3.152290" lat="39.870063"><ele>24.25</ele></trkpt>
   <trkpt lon="3.152465" lat="39.870201"><ele>23.0</ele></trkpt>
   <trkpt lon="3.152721" lat="39.870346"><ele>19.5</ele></trkpt>
   <trkpt lon="3.152879" lat="39.870504"><ele>17.75</ele></trkpt>
   <trkpt lon="3.152961" lat="39.870624"><ele>16.25</ele></trkpt>
   <trkpt lon="3.153068" lat="39.870814"><ele>13.5</ele></trkpt>
   <trkpt lon="3.153008" lat="39.871051"><ele>11.75</ele></trkpt>
   <trkpt lon="3.152974" lat="39.871232"><ele>10.25</ele></trkpt>
   <trkpt lon="3.153042" lat="39.871315"><ele>8.0</ele></trkpt>
   <trkpt lon="3.153158" lat="39.871316"><ele>6.5</ele></trkpt>
   <trkpt lon="3.153663" lat="39.871163"><ele>3.5</ele><sym>u-turn_right</sym></trkpt>
   <trkpt lon="3.153661" lat="39.871158"><ele>3.75</ele><sym>pass_place</sym><type>Shaping</type></trkpt>
   <trkpt lon="3.153663" lat="39.871163"><ele>3.5</ele></trkpt>
   <trkpt lon="3.153848" lat="39.871105"><ele>3.75</ele></trkpt>
   <trkpt lon="3.154329" lat="39.870974"><ele>4.75</ele></trkpt>
   <trkpt lon="3.154565" lat="39.870955"><ele>5.25</ele></trkpt>
   <trkpt lon="3.154657" lat="39.870948"><ele>5.25</ele></trkpt>
   <trkpt lon="3.155086" lat="39.870968"><ele>8.25</ele></trkpt>
   <trkpt lon="3.155243" lat="39.870945"><ele>9.5</ele></trkpt>
   <trkpt lon="3.155419" lat="39.870872"><ele>10.5</ele></trkpt>
   <trkpt lon="3.155537" lat="39.870778"><ele>11.0</ele></trkpt>
   <trkpt lon="3.155675" lat="39.870626"><ele>13.0</ele></trkpt>
   <trkpt lon="3.155706" lat="39.870591"><ele>13.75</ele></trkpt>
   <trkpt lon="3.155815" lat="39.870532"><ele>14.5</ele></trkpt>
   <trkpt lon="3.155929" lat="39.870520"><ele>15.5</ele></trkpt>
   <trkpt lon="3.156281" lat="39.870571"><ele>17.25</ele></trkpt>
   <trkpt lon="3.156530" lat="39.870607"><ele>18.25</ele></trkpt>
   <trkpt lon="3.156642" lat="39.870605"><ele>19.0</ele></trkpt>
   <trkpt lon="3.157131" lat="39.870560"><ele>23.0</ele></trkpt>
   <trkpt lon="3.157242" lat="39.870577"><ele>23.0</ele></trkpt>
   <trkpt lon="3.157522" lat="39.870676"><ele>23.0</ele></trkpt>
   <trkpt lon="3.157833" lat="39.870802"><ele>24.0</ele></trkpt>
   <trkpt lon="3.157941" lat="39.870858"><ele>24.0</ele></trkpt>
   <trkpt lon="3.158093" lat="39.871004"><ele>23.5</ele></trkpt>
   <trkpt lon="3.158423" lat="39.871268"><ele>24.25</ele></trkpt>
   <trkpt lon="3.158497" lat="39.871297"><ele>24.25</ele></trkpt>
   <trkpt lon="3.158619" lat="39.871292"><ele>25.5</ele></trkpt>
   <trkpt lon="3.159159" lat="39.871185"><ele>22.75</ele></trkpt>
   <trkpt lon="3.159509" lat="39.871223"><ele>22.5</ele></trkpt>
   <trkpt lon="3.159641" lat="39.871260"><ele>22.25</ele><sym>left_slight</sym></trkpt>
   <trkpt lon="3.159724" lat="39.871380"><ele>20.25</ele></trkpt>
   <trkpt lon="3.159938" lat="39.871624"><ele>17.5</ele></trkpt>
   <trkpt lon="3.160284" lat="39.871841"><ele>15.0</ele></trkpt>
   <trkpt lon="3.160417" lat="39.871925"><ele>14.0</ele></trkpt>
   <trkpt lon="3.160634" lat="39.872061"><ele>13.25</ele></trkpt>
   <trkpt lon="3.160801" lat="39.872129"><ele>13.0</ele></trkpt>
   <trkpt lon="3.161104" lat="39.872254"><ele>12.5</ele></trkpt>
   <trkpt lon="3.161619" lat="39.872461"><ele>11.75</ele></trkpt>
   <trkpt lon="3.161833" lat="39.872501"><ele>10.25</ele></trkpt>
   <trkpt lon="3.161929" lat="39.872525"><ele>9.25</ele></trkpt>
   <trkpt lon="3.162149" lat="39.872558"><ele>8.25</ele></trkpt>
   <trkpt lon="3.162396" lat="39.872607"><ele>8.25</ele></trkpt>
   <trkpt lon="3.162666" lat="39.872694"><ele>11.25</ele></trkpt>
   <trkpt lon="3.162924" lat="39.872875"><ele>16.0</ele></trkpt>
   <trkpt lon="3.163198" lat="39.873121"><ele>19.5</ele></trkpt>
   <trkpt lon="3.163340" lat="39.873227"><ele>21.0</ele></trkpt>
   <trkpt lon="3.163457" lat="39.873287"><ele>22.5</ele></trkpt>
   <trkpt lon="3.163595" lat="39.873333"><ele>24.5</ele></trkpt>
   <trkpt lon="3.163686" lat="39.873346"><ele>24.75</ele></trkpt>
   <trkpt lon="3.163905" lat="39.873329"><ele>28.0</ele></trkpt>
   <trkpt lon="3.164640" lat="39.873053"><ele>35.5</ele></trkpt>
   <trkpt lon="3.164785" lat="39.873010"><ele>38.0</ele></trkpt>
   <trkpt lon="3.164835" lat="39.873004"><ele>39.25</ele></trkpt>
   <trkpt lon="3.164888" lat="39.873011"><ele>40.0</ele></trkpt>
   <trkpt lon="3.164960" lat="39.873072"><ele>39.75</ele></trkpt>
   <trkpt lon="3.165073" lat="39.873194"><ele>41.0</ele></trkpt>
   <trkpt lon="3.165096" lat="39.873289"><ele>40.25</ele></trkpt>
   <trkpt lon="3.165099" lat="39.873432"><ele>41.75</ele></trkpt>
   <trkpt lon="3.165019" lat="39.873967"><ele>49.25</ele></trkpt>
   <trkpt lon="3.165024" lat="39.874083"><ele>50.5</ele></trkpt>
   <trkpt lon="3.165068" lat="39.874203"><ele>51.25</ele></trkpt>
   <trkpt lon="3.165086" lat="39.874220"><ele>51.0</ele></trkpt>
   <trkpt lon="3.165189" lat="39.874322"><ele>51.75</ele></trkpt>
   <trkpt lon="3.165336" lat="39.874407"><ele>55.0</ele></trkpt>
   <trkpt lon="3.165538" lat="39.874481"><ele>56.0</ele></trkpt>
   <trkpt lon="3.165862" lat="39.874511"><ele>57.5</ele></trkpt>
   <trkpt lon="3.166230" lat="39.874494"><ele>60.5</ele></trkpt>
   <trkpt lon="3.166458" lat="39.874498"><ele>62.0</ele></trkpt>
   <trkpt lon="3.167177" lat="39.874650"><ele>65.75</ele></trkpt>
   <trkpt lon="3.167235" lat="39.874649"><ele>66.25</ele></trkpt>
   <trkpt lon="3.167270" lat="39.874634"><ele>66.5</ele><sym>right</sym></trkpt>
   <trkpt lon="3.167302" lat="39.874595"><ele>67.25</ele></trkpt>
   <trkpt lon="3.167300" lat="39.874563"><ele>68.0</ele></trkpt>
   <trkpt lon="3.167266" lat="39.874536"><ele>68.25</ele></trkpt>
   <trkpt lon="3.167155" lat="39.874513"><ele>68.5</ele></trkpt>
   <trkpt lon="3.167052" lat="39.874481"><ele>69.0</ele></trkpt>
   <trkpt lon="3.166903" lat="39.874396"><ele>70.25</ele></trkpt>
   <trkpt lon="3.166800" lat="39.874288"><ele>71.25</ele></trkpt>
   <trkpt lon="3.166791" lat="39.874237"><ele>72.25</ele></trkpt>
   <trkpt lon="3.166838" lat="39.874195"><ele>73.5</ele><sym>left_slight</sym></trkpt>
   <trkpt lon="3.166913" lat="39.874189"><ele>74.25</ele></trkpt>
   <trkpt lon="3.166989" lat="39.874193"><ele>74.75</ele></trkpt>
   <trkpt lon="3.167051" lat="39.874205"><ele>74.75</ele></trkpt>
   <trkpt lon="3.167168" lat="39.874211"><ele>75.5</ele></trkpt>
   <trkpt lon="3.167258" lat="39.874206"><ele>76.0</ele></trkpt>
   <trkpt lon="3.167357" lat="39.874187"><ele>76.75</ele></trkpt>
   <trkpt lon="3.167433" lat="39.874153"><ele>78.0</ele></trkpt>
   <trkpt lon="3.167531" lat="39.874085"><ele>80.25</ele></trkpt>
   <trkpt lon="3.167661" lat="39.874014"><ele>81.5</ele></trkpt>
   <trkpt lon="3.167759" lat="39.873972"><ele>82.0</ele></trkpt>
   <trkpt lon="3.167867" lat="39.873941"><ele>83.0</ele></trkpt>
   <trkpt lon="3.167987" lat="39.873953"><ele>83.25</ele></trkpt>
   <trkpt lon="3.168035" lat="39.873988"><ele>83.25</ele></trkpt>
   <trkpt lon="3.168082" lat="39.874128"><ele>83.75</ele></trkpt>
   <trkpt lon="3.168123" lat="39.874230"><ele>84.25</ele></trkpt>
   <trkpt lon="3.168277" lat="39.874433"><ele>86.5</ele></trkpt>
   <trkpt lon="3.168408" lat="39.874544"><ele>87.0</ele></trkpt>
   <trkpt lon="3.168527" lat="39.874620"><ele>87.5</ele></trkpt>
   <trkpt lon="3.168718" lat="39.874685"><ele>89.0</ele></trkpt>
   <trkpt lon="3.168991" lat="39.874758"><ele>90.75</ele></trkpt>
   <trkpt lon="3.169274" lat="39.874804"><ele>92.0</ele></trkpt>
   <trkpt lon="3.169348" lat="39.874805"><ele>92.25</ele></trkpt>
   <trkpt lon="3.169424" lat="39.874797"><ele>93.0</ele></trkpt>
   <trkpt lon="3.169518" lat="39.874767"><ele>93.75</ele><sym>pass_place</sym><type>Shaping</type></trkpt>
   <trkpt lon="3.169522" lat="39.874766"><ele>93.75</ele></trkpt>
   <trkpt lon="3.169674" lat="39.874649"><ele>96.5</ele></trkpt>
   <trkpt lon="3.169758" lat="39.874568"><ele>98.25</ele></trkpt>
   <trkpt lon="3.169826" lat="39.874524"><ele>99.5</ele></trkpt>
   <trkpt lon="3.169910" lat="39.874507"><ele>100.0</ele></trkpt>
   <trkpt lon="3.170194" lat="39.874536"><ele>101.5</ele></trkpt>
   <trkpt lon="3.170451" lat="39.874495"><ele>107.25</ele></trkpt>
   <trkpt lon="3.170560" lat="39.874491"><ele>109.0</ele></trkpt>
   <trkpt lon="3.170656" lat="39.874528"><ele>110.0</ele></trkpt>
   <trkpt lon="3.170864" lat="39.874713"><ele>109.0</ele></trkpt>
   <trkpt lon="3.171059" lat="39.874819"><ele>109.25</ele></trkpt>
   <trkpt lon="3.171223" lat="39.874877"><ele>109.0</ele></trkpt>
   <trkpt lon="3.171289" lat="39.874871"><ele>110.25</ele></trkpt>
   <trkpt lon="3.171326" lat="39.874850"><ele>111.75</ele></trkpt>
   <trkpt lon="3.171341" lat="39.874809"><ele>113.75</ele></trkpt>
   <trkpt lon="3.171308" lat="39.874745"><ele>116.5</ele></trkpt>
   <trkpt lon="3.171161" lat="39.874677"><ele>118.75</ele></trkpt>
   <trkpt lon="3.171040" lat="39.874598"><ele>120.25</ele></trkpt>
   <trkpt lon="3.170957" lat="39.874501"><ele>121.75</ele></trkpt>
   <trkpt lon="3.170884" lat="39.874332"><ele>123.75</ele></trkpt>
   <trkpt lon="3.170791" lat="39.874231"><ele>124.0</ele></trkpt>
   <trkpt lon="3.170570" lat="39.874086"><ele>125.0</ele></trkpt>
   <trkpt lon="3.170476" lat="39.873981"><ele>125.75</ele></trkpt>
   <trkpt lon="3.170442" lat="39.873843"><ele>127.0</ele></trkpt>
   <trkpt lon="3.170448" lat="39.873738"><ele>126.75</ele></trkpt>
   <trkpt lon="3.170508" lat="39.873520"><ele>128.75</ele></trkpt>
   <trkpt lon="3.170559" lat="39.873380"><ele>130.5</ele></trkpt>
   <trkpt lon="3.170627" lat="39.873189"><ele>131.75</ele><sym>left</sym></trkpt>
   <trkpt lon="3.170690" lat="39.873200"><ele>132.0</ele></trkpt>
   <trkpt lon="3.170824" lat="39.873239"><ele>132.75</ele></trkpt>
   <trkpt lon="3.170897" lat="39.873368"><ele>133.5</ele></trkpt>
   <trkpt lon="3.170953" lat="39.873466"><ele>134.25</ele></trkpt>
   <trkpt lon="3.170956" lat="39.873493"><ele>134.5</ele><sym>right_slight</sym></trkpt>
   <trkpt lon="3.171005" lat="39.873478"><ele>135.0</ele></trkpt>
   <trkpt lon="3.171088" lat="39.873640"><ele>136.5</ele><sym>u-turn</sym><type>Via</type></trkpt>
   <trkpt lon="3.171005" lat="39.873478"><ele>135.0</ele></trkpt>
   <trkpt lon="3.170956" lat="39.873493"><ele>134.5</ele><sym>left</sym></trkpt>
   <trkpt lon="3.170953" lat="39.873466"><ele>134.25</ele></trkpt>
   <trkpt lon="3.170897" lat="39.873368"><ele>133.5</ele></trkpt>
   <trkpt lon="3.170824" lat="39.873239"><ele>132.75</ele></trkpt>
   <trkpt lon="3.170690" lat="39.873200"><ele>132.0</ele></trkpt>
   <trkpt lon="3.170627" lat="39.873189"><ele>131.75</ele><sym>right</sym></trkpt>
   <trkpt lon="3.170559" lat="39.873380"><ele>130.5</ele></trkpt>
   <trkpt lon="3.170508" lat="39.873520"><ele>128.75</ele></trkpt>
   <trkpt lon="3.170448" lat="39.873738"><ele>126.75</ele></trkpt>
   <trkpt lon="3.170442" lat="39.873843"><ele>127.0</ele></trkpt>
   <trkpt lon="3.170476" lat="39.873981"><ele>125.75</ele></trkpt>
   <trkpt lon="3.170570" lat="39.874086"><ele>125.0</ele></trkpt>
   <trkpt lon="3.170791" lat="39.874231"><ele>124.0</ele></trkpt>
   <trkpt lon="3.170884" lat="39.874332"><ele>123.75</ele></trkpt>
   <trkpt lon="3.170957" lat="39.874501"><ele>121.75</ele></trkpt>
   <trkpt lon="3.171040" lat="39.874598"><ele>120.25</ele></trkpt>
   <trkpt lon="3.171161" lat="39.874677"><ele>118.75</ele></trkpt>
   <trkpt lon="3.171308" lat="39.874745"><ele>116.5</ele></trkpt>
   <trkpt lon="3.171341" lat="39.874809"><ele>113.75</ele></trkpt>
   <trkpt lon="3.171326" lat="39.874850"><ele>111.75</ele></trkpt>
   <trkpt lon="3.171289" lat="39.874871"><ele>110.25</ele></trkpt>
   <trkpt lon="3.171223" lat="39.874877"><ele>109.0</ele></trkpt>
   <trkpt lon="3.171059" lat="39.874819"><ele>109.25</ele></trkpt>
   <trkpt lon="3.170864" lat="39.874713"><ele>109.0</ele></trkpt>
   <trkpt lon="3.170656" lat="39.874528"><ele>110.0</ele></trkpt>
   <trkpt lon="3.170560" lat="39.874491"><ele>109.0</ele></trkpt>
   <trkpt lon="3.170451" lat="39.874495"><ele>107.25</ele></trkpt>
   <trkpt lon="3.170194" lat="39.874536"><ele>101.5</ele></trkpt>
   <trkpt lon="3.169910" lat="39.874507"><ele>100.0</ele></trkpt>
   <trkpt lon="3.169826" lat="39.874524"><ele>99.5</ele></trkpt>
   <trkpt lon="3.169758" lat="39.874568"><ele>98.25</ele></trkpt>
   <trkpt lon="3.169674" lat="39.874649"><ele>96.5</ele></trkpt>
   <trkpt lon="3.169522" lat="39.874766"><ele>93.75</ele></trkpt>
   <trkpt lon="3.169424" lat="39.874797"><ele>93.0</ele></trkpt>
   <trkpt lon="3.169348" lat="39.874805"><ele>92.25</ele></trkpt>
   <trkpt lon="3.169274" lat="39.874804"><ele>92.0</ele></trkpt>
   <trkpt lon="3.168991" lat="39.874758"><ele>90.75</ele></trkpt>
   <trkpt lon="3.168718" lat="39.874685"><ele>89.0</ele></trkpt>
   <trkpt lon="3.168527" lat="39.874620"><ele>87.5</ele></trkpt>
   <trkpt lon="3.168408" lat="39.874544"><ele>87.0</ele></trkpt>
   <trkpt lon="3.168277" lat="39.874433"><ele>86.5</ele></trkpt>
   <trkpt lon="3.168123" lat="39.874230"><ele>84.25</ele></trkpt>
   <trkpt lon="3.168082" lat="39.874128"><ele>83.75</ele></trkpt>
   <trkpt lon="3.168035" lat="39.873988"><ele>83.25</ele></trkpt>
   <trkpt lon="3.167987" lat="39.873953"><ele>83.25</ele></trkpt>
   <trkpt lon="3.167867" lat="39.873941"><ele>83.0</ele></trkpt>
   <trkpt lon="3.167759" lat="39.873972"><ele>82.0</ele></trkpt>
   <trkpt lon="3.167661" lat="39.874014"><ele>81.5</ele></trkpt>
   <trkpt lon="3.167531" lat="39.874085"><ele>80.25</ele></trkpt>
   <trkpt lon="3.167433" lat="39.874153"><ele>78.0</ele></trkpt>
   <trkpt lon="3.167357" lat="39.874187"><ele>76.75</ele></trkpt>
   <trkpt lon="3.167258" lat="39.874206"><ele>76.0</ele></trkpt>
   <trkpt lon="3.167168" lat="39.874211"><ele>75.5</ele></trkpt>
   <trkpt lon="3.167051" lat="39.874205"><ele>74.75</ele></trkpt>
   <trkpt lon="3.166989" lat="39.874193"><ele>74.75</ele></trkpt>
   <trkpt lon="3.166913" lat="39.874189"><ele>74.25</ele></trkpt>
   <trkpt lon="3.166838" lat="39.874195"><ele>73.5</ele><sym>right</sym></trkpt>
   <trkpt lon="3.166791" lat="39.874237"><ele>72.25</ele></trkpt>
   <trkpt lon="3.166800" lat="39.874288"><ele>71.25</ele></trkpt>
   <trkpt lon="3.166903" lat="39.874396"><ele>70.25</ele></trkpt>
   <trkpt lon="3.167052" lat="39.874481"><ele>69.0</ele></trkpt>
   <trkpt lon="3.167155" lat="39.874513"><ele>68.5</ele></trkpt>
   <trkpt lon="3.167266" lat="39.874536"><ele>68.25</ele></trkpt>
   <trkpt lon="3.167300" lat="39.874563"><ele>68.0</ele></trkpt>
   <trkpt lon="3.167302" lat="39.874595"><ele>67.25</ele></trkpt>
   <trkpt lon="3.167270" lat="39.874634"><ele>66.5</ele><sym>left_slight</sym></trkpt>
   <trkpt lon="3.167235" lat="39.874649"><ele>66.25</ele></trkpt>
   <trkpt lon="3.167177" lat="39.874650"><ele>65.75</ele></trkpt>
   <trkpt lon="3.166458" lat="39.874498"><ele>62.0</ele></trkpt>
   <trkpt lon="3.166230" lat="39.874494"><ele>60.5</ele></trkpt>
   <trkpt lon="3.165862" lat="39.874511"><ele>57.5</ele></trkpt>
   <trkpt lon="3.165538" lat="39.874481"><ele>56.0</ele></trkpt>
   <trkpt lon="3.165336" lat="39.874407"><ele>55.0</ele></trkpt>
   <trkpt lon="3.165189" lat="39.874322"><ele>51.75</ele></trkpt>
   <trkpt lon="3.165086" lat="39.874220"><ele>51.0</ele></trkpt>
   <trkpt lon="3.165068" lat="39.874203"><ele>51.25</ele></trkpt>
   <trkpt lon="3.165024" lat="39.874083"><ele>50.5</ele></trkpt>
   <trkpt lon="3.165019" lat="39.873967"><ele>49.25</ele></trkpt>
   <trkpt lon="3.165099" lat="39.873432"><ele>41.75</ele></trkpt>
   <trkpt lon="3.165096" lat="39.873289"><ele>40.25</ele></trkpt>
   <trkpt lon="3.165073" lat="39.873194"><ele>41.0</ele></trkpt>
   <trkpt lon="3.164960" lat="39.873072"><ele>39.75</ele></trkpt>
   <trkpt lon="3.164888" lat="39.873011"><ele>40.0</ele></trkpt>
   <trkpt lon="3.164835" lat="39.873004"><ele>39.25</ele></trkpt>
   <trkpt lon="3.164785" lat="39.873010"><ele>38.0</ele></trkpt>
   <trkpt lon="3.164640" lat="39.873053"><ele>35.5</ele></trkpt>
   <trkpt lon="3.163905" lat="39.873329"><ele>28.0</ele></trkpt>
   <trkpt lon="3.163686" lat="39.873346"><ele>24.75</ele></trkpt>
   <trkpt lon="3.163595" lat="39.873333"><ele>24.5</ele></trkpt>
   <trkpt lon="3.163457" lat="39.873287"><ele>22.5</ele></trkpt>
   <trkpt lon="3.163340" lat="39.873227"><ele>21.0</ele></trkpt>
   <trkpt lon="3.163198" lat="39.873121"><ele>19.5</ele></trkpt>
   <trkpt lon="3.162924" lat="39.872875"><ele>16.0</ele></trkpt>
   <trkpt lon="3.162666" lat="39.872694"><ele>11.25</ele></trkpt>
   <trkpt lon="3.162396" lat="39.872607"><ele>8.25</ele></trkpt>
   <trkpt lon="3.162149" lat="39.872558"><ele>8.25</ele></trkpt>
   <trkpt lon="3.161929" lat="39.872525"><ele>9.25</ele></trkpt>
   <trkpt lon="3.161833" lat="39.872501"><ele>10.25</ele></trkpt>
   <trkpt lon="3.161619" lat="39.872461"><ele>11.75</ele></trkpt>
   <trkpt lon="3.161104" lat="39.872254"><ele>12.5</ele></trkpt>
   <trkpt lon="3.160801" lat="39.872129"><ele>13.0</ele></trkpt>
   <trkpt lon="3.160634" lat="39.872061"><ele>13.25</ele></trkpt>
   <trkpt lon="3.160417" lat="39.871925"><ele>14.0</ele></trkpt>
   <trkpt lon="3.160284" lat="39.871841"><ele>15.0</ele></trkpt>
   <trkpt lon="3.159938" lat="39.871624"><ele>17.5</ele></trkpt>
   <trkpt lon="3.159724" lat="39.871380"><ele>20.25</ele></trkpt>
   <trkpt lon="3.159641" lat="39.871260"><ele>22.25</ele><sym>right_slight</sym></trkpt>
   <trkpt lon="3.159509" lat="39.871223"><ele>22.5</ele></trkpt>
   <trkpt lon="3.159159" lat="39.871185"><ele>22.75</ele></trkpt>
   <trkpt lon="3.158620" lat="39.871291"><ele>25.5</ele><sym>pass_place</sym><type>Shaping</type></trkpt>
   <trkpt lon="3.158619" lat="39.871292"><ele>25.5</ele></trkpt>
   <trkpt lon="3.158497" lat="39.871297"><ele>24.25</ele></trkpt>
   <trkpt lon="3.158423" lat="39.871268"><ele>24.25</ele></trkpt>
   <trkpt lon="3.158093" lat="39.871004"><ele>23.5</ele></trkpt>
   <trkpt lon="3.157941" lat="39.870858"><ele>24.0</ele></trkpt>
   <trkpt lon="3.157833" lat="39.870802"><ele>24.0</ele></trkpt>
   <trkpt lon="3.157522" lat="39.870676"><ele>23.0</ele></trkpt>
   <trkpt lon="3.157242" lat="39.870577"><ele>23.0</ele></trkpt>
   <trkpt lon="3.157131" lat="39.870560"><ele>23.0</ele></trkpt>
   <trkpt lon="3.156642" lat="39.870605"><ele>19.0</ele></trkpt>
   <trkpt lon="3.156530" lat="39.870607"><ele>18.25</ele></trkpt>
   <trkpt lon="3.156281" lat="39.870571"><ele>17.25</ele></trkpt>
   <trkpt lon="3.155929" lat="39.870520"><ele>15.5</ele></trkpt>
   <trkpt lon="3.155815" lat="39.870532"><ele>14.5</ele></trkpt>
   <trkpt lon="3.155706" lat="39.870591"><ele>13.75</ele></trkpt>
   <trkpt lon="3.155675" lat="39.870626"><ele>13.0</ele></trkpt>
   <trkpt lon="3.155537" lat="39.870778"><ele>11.0</ele></trkpt>
   <trkpt lon="3.155419" lat="39.870872"><ele>10.5</ele></trkpt>
   <trkpt lon="3.155243" lat="39.870945"><ele>9.5</ele></trkpt>
   <trkpt lon="3.155086" lat="39.870968"><ele>8.25</ele></trkpt>
   <trkpt lon="3.154657" lat="39.870948"><ele>5.25</ele></trkpt>
   <trkpt lon="3.154565" lat="39.870955"><ele>5.0</ele></trkpt>
   <trkpt lon="3.154329" lat="39.870974"><ele>4.5</ele></trkpt>
   <trkpt lon="3.153848" lat="39.871105"><ele>3.5</ele></trkpt>
   <trkpt lon="3.153663" lat="39.871163"><ele>3.5</ele><sym>stay_left</sym></trkpt>
   <trkpt lon="3.153158" lat="39.871316"><ele>6.5</ele></trkpt>
   <trkpt lon="3.153042" lat="39.871315"><ele>8.0</ele></trkpt>
   <trkpt lon="3.152974" lat="39.871232"><ele>10.25</ele></trkpt>
   <trkpt lon="3.153008" lat="39.871051"><ele>11.75</ele></trkpt>
   <trkpt lon="3.153068" lat="39.870814"><ele>13.5</ele></trkpt>
   <trkpt lon="3.152961" lat="39.870624"><ele>16.25</ele></trkpt>
   <trkpt lon="3.152879" lat="39.870504"><ele>17.75</ele></trkpt>
   <trkpt lon="3.152721" lat="39.870346"><ele>19.5</ele></trkpt>
   <trkpt lon="3.152465" lat="39.870201"><ele>23.0</ele></trkpt>
   <trkpt lon="3.152290" lat="39.870063"><ele>24.25</ele></trkpt>
   <trkpt lon="3.151829" lat="39.869496"><ele>26.75</ele></trkpt>
   <trkpt lon="3.151166" lat="39.868999"><ele>28.5</ele></trkpt>
   <trkpt lon="3.150218" lat="39.868289"><ele>29.25</ele></trkpt>
   <trkpt lon="3.150122" lat="39.868215"><ele>29.0</ele></trkpt>
   <trkpt lon="3.149786" lat="39.867954"><ele>25.25</ele></trkpt>
   <trkpt lon="3.149596" lat="39.867582"><ele>24.25</ele></trkpt>
   <trkpt lon="3.149320" lat="39.867291"><ele>20.75</ele></trkpt>
   <trkpt lon="3.149101" lat="39.867129"><ele>16.75</ele></trkpt>
   <trkpt lon="3.148764" lat="39.866942"><ele>15.0</ele></trkpt>
   <trkpt lon="3.148179" lat="39.866692"><ele>9.0</ele></trkpt>
   <trkpt lon="3.148113" lat="39.866664"><ele>8.75</ele></trkpt>
   <trkpt lon="3.146325" lat="39.866044"><ele>4.75</ele></trkpt>
   <trkpt lon="3.146278" lat="39.866027"><ele>5.0</ele></trkpt>
   <trkpt lon="3.146042" lat="39.865946"><ele>5.0</ele></trkpt>
   <trkpt lon="3.145849" lat="39.865878"><ele>3.75</ele></trkpt>
   <trkpt lon="3.145133" lat="39.865329"><ele>3.75</ele></trkpt>
   <trkpt lon="3.144554" lat="39.864885"><ele>3.75</ele></trkpt>
   <trkpt lon="3.144520" lat="39.864859"><ele>3.75</ele></trkpt>
   <trkpt lon="3.144323" lat="39.864767"><ele>3.25</ele></trkpt>
   <trkpt lon="3.144187" lat="39.864737"><ele>2.75</ele></trkpt>
   <trkpt lon="3.143915" lat="39.864689"><ele>3.0</ele><sym>left_slight</sym></trkpt>
   <trkpt lon="3.143605" lat="39.864111"><ele>5.25</ele></trkpt>
   <trkpt lon="3.143399" lat="39.863720"><ele>7.25</ele></trkpt>
   <trkpt lon="3.143269" lat="39.863529"><ele>8.25</ele></trkpt>
   <trkpt lon="3.143112" lat="39.863288"><ele>9.25</ele><sym>pass_place</sym><type>Shaping</type></trkpt>
   <trkpt lon="3.143066" lat="39.863221"><ele>9.75</ele></trkpt>
   <trkpt lon="3.142576" lat="39.862794"><ele>12.75</ele></trkpt>
   <trkpt lon="3.142216" lat="39.862639"><ele>14.5</ele></trkpt>
   <trkpt lon="3.141928" lat="39.862519"><ele>15.0</ele></trkpt>
   <trkpt lon="3.141475" lat="39.862305"><ele>18.0</ele></trkpt>
   <trkpt lon="3.141303" lat="39.862221"><ele>18.25</ele></trkpt>
   <trkpt lon="3.140631" lat="39.861945"><ele>19.5</ele></trkpt>
   <trkpt lon="3.139952" lat="39.861665"><ele>21.75</ele><sym>left_slight</sym></trkpt>
   <trkpt lon="3.139865" lat="39.861408"><ele>21.5</ele></trkpt>
   <trkpt lon="3.139658" lat="39.861124"><ele>21.75</ele></trkpt>
   <trkpt lon="3.139408" lat="39.860795"><ele>21.75</ele></trkpt>
   <trkpt lon="3.139261" lat="39.860623"><ele>21.25</ele></trkpt>
   <trkpt lon="3.138988" lat="39.860434"><ele>20.25</ele></trkpt>
   <trkpt lon="3.138193" lat="39.859977"><ele>19.0</ele></trkpt>
   <trkpt lon="3.137965" lat="39.859827"><ele>18.25</ele></trkpt>
   <trkpt lon="3.137654" lat="39.859591"><ele>18.25</ele></trkpt>
   <trkpt lon="3.137433" lat="39.859383"><ele>17.75</ele></trkpt>
   <trkpt lon="3.137398" lat="39.859342"><ele>17.75</ele></trkpt>
   <trkpt lon="3.136814" lat="39.858672"><ele>17.5</ele></trkpt>
   <trkpt lon="3.136272" lat="39.858148"><ele>17.0</ele></trkpt>
   <trkpt lon="3.136151" lat="39.858032"><ele>17.0</ele></trkpt>
   <trkpt lon="3.135306" lat="39.857382"><ele>16.5</ele></trkpt>
   <trkpt lon="3.134306" lat="39.856538"><ele>15.75</ele></trkpt>
   <trkpt lon="3.134066" lat="39.856317"><ele>16.75</ele></trkpt>
   <trkpt lon="3.133996" lat="39.856254"><ele>17.0</ele></trkpt>
   <trkpt lon="3.133670" lat="39.856062"><ele>17.75</ele></trkpt>
   <trkpt lon="3.132843" lat="39.855804"><ele>15.25</ele></trkpt>
   <trkpt lon="3.132032" lat="39.855438"><ele>12.0</ele></trkpt>
   <trkpt lon="3.131900" lat="39.855358"><ele>11.75</ele></trkpt>
   <trkpt lon="3.131797" lat="39.855278"><ele>11.25</ele></trkpt>
   <trkpt lon="3.131680" lat="39.855176"><ele>11.0</ele></trkpt>
   <trkpt lon="3.131576" lat="39.855072"><ele>11.0</ele></trkpt>
   <trkpt lon="3.131516" lat="39.854998"><ele>11.0</ele></trkpt>
   <trkpt lon="3.131130" lat="39.854395"><ele>11.0</ele></trkpt>
   <trkpt lon="3.130857" lat="39.854003"><ele>11.5</ele></trkpt>
   <trkpt lon="3.130779" lat="39.853918"><ele>11.75</ele></trkpt>
   <trkpt lon="3.130563" lat="39.853729"><ele>12.0</ele></trkpt>
   <trkpt lon="3.130469" lat="39.853662"><ele>12.0</ele></trkpt>
   <trkpt lon="3.130323" lat="39.853573"><ele>12.0</ele></trkpt>
   <trkpt lon="3.130168" lat="39.853502"><ele>12.0</ele></trkpt>
   <trkpt lon="3.129802" lat="39.853402"><ele>11.75</ele></trkpt>
   <trkpt lon="3.129290" lat="39.853284"><ele>11.0</ele></trkpt>
   <trkpt lon="3.129078" lat="39.853194"><ele>11.0</ele></trkpt>
   <trkpt lon="3.128549" lat="39.853013"><ele>10.75</ele></trkpt>
   <trkpt lon="3.128374" lat="39.852970"><ele>10.25</ele></trkpt>
   <trkpt lon="3.128265" lat="39.852948"><ele>10.5</ele></trkpt>
   <trkpt lon="3.128135" lat="39.852922"><ele>10.75</ele></trkpt>
   <trkpt lon="3.128010" lat="39.852901"><ele>11.0</ele></trkpt>
   <trkpt lon="3.127834" lat="39.852872"><ele>11.0</ele></trkpt>
   <trkpt lon="3.127828" lat="39.852871"><ele>11.75</ele><sym>pass_place</sym><type>Shaping</type></trkpt>
   <trkpt lon="3.126633" lat="39.852664"><ele>11.75</ele></trkpt>
   <trkpt lon="3.126311" lat="39.852471"><ele>13.0</ele></trkpt>
   <trkpt lon="3.126253" lat="39.852437"><ele>13.0</ele></trkpt>
   <trkpt lon="3.125943" lat="39.852271"><ele>13.0</ele></trkpt>
   <trkpt lon="3.125906" lat="39.852248"><ele>13.0</ele></trkpt>
   <trkpt lon="3.125875" lat="39.852229"><ele>13.0</ele><sym>left</sym></trkpt>
   <trkpt lon="3.126542" lat="39.851565"><ele>10.25</ele></trkpt>
   <trkpt lon="3.127124" lat="39.851001"><ele>8.5</ele></trkpt>
   <trkpt lon="3.127651" lat="39.850467"><ele>6.75</ele></trkpt>
   <trkpt lon="3.127830" lat="39.850280"><ele>7.0</ele></trkpt>
   <trkpt lon="3.127885" lat="39.850224"><ele>6.75</ele></trkpt>
   <trkpt lon="3.127956" lat="39.850158"><ele>6.5</ele></trkpt>
   <trkpt lon="3.128675" lat="39.849477"><ele>4.0</ele></trkpt>
   <trkpt lon="3.128736" lat="39.849420"><ele>4.0</ele><sym>right</sym></trkpt>
   <trkpt lon="3.128423" lat="39.849231"><ele>4.0</ele></trkpt>
   <trkpt lon="3.128226" lat="39.849112"><ele>4.25</ele></trkpt>
   <trkpt lon="3.128094" lat="39.849032"><ele>4.25</ele><sym>left</sym></trkpt>
   <trkpt lon="3.128172" lat="39.848955"><ele>4.0</ele></trkpt>
   <trkpt lon="3.129016" lat="39.848122"><ele>2.5</ele></trkpt>
   <trkpt lon="3.129542" lat="39.847624"><ele>1.25</ele></trkpt>
   <trkpt lon="3.130578" lat="39.846608"><ele>1.25</ele></trkpt>
   <trkpt lon="3.130672" lat="39.846515"><ele>1.5</ele></trkpt>
   <trkpt lon="3.130902" lat="39.846248"><ele>2.0</ele><sym>roundabout_e2</sym></trkpt>
   <trkpt lon="3.130856" lat="39.846214"><ele>2.0</ele></trkpt>
   <trkpt lon="3.130839" lat="39.846191"><ele>2.0</ele></trkpt>
   <trkpt lon="3.130822" lat="39.846145"><ele>1.75</ele></trkpt>
   <trkpt lon="3.130823" lat="39.846108"><ele>1.75</ele></trkpt>
   <trkpt lon="3.130852" lat="39.846051"><ele>1.75</ele></trkpt>
   <trkpt lon="3.130910" lat="39.846007"><ele>1.5</ele></trkpt>
   <trkpt lon="3.130869" lat="39.845878"><ele>1.25</ele></trkpt>
   <trkpt lon="3.130896" lat="39.845655"><ele>1.0</ele></trkpt>
   <trkpt lon="3.130961" lat="39.845436"><ele>1.0</ele></trkpt>
   <trkpt lon="3.131316" lat="39.844722"><ele>1.25</ele></trkpt>
   <trkpt lon="3.131372" lat="39.844364"><ele>1.25</ele></trkpt>
   <trkpt lon="3.131432" lat="39.844302"><ele>1.5</ele></trkpt>
   <trkpt lon="3.131506" lat="39.844256"><ele>1.75</ele></trkpt>
   <trkpt lon="3.131723" lat="39.843882"><ele>1.75</ele><sym>right</sym></trkpt>
   <trkpt lon="3.131250" lat="39.843710"><ele>1.5</ele><sym>straight</sym></trkpt>
   <trkpt lon="3.131028" lat="39.843630"><ele>2.0</ele></trkpt>
   <trkpt lon="3.129802" lat="39.843187"><ele>2.0</ele></trkpt>
   <trkpt lon="3.129262" lat="39.842992"><ele>1.0</ele></trkpt>
   <trkpt lon="3.128472" lat="39.842695"><ele>1.0</ele><sym>right</sym></trkpt>
   <trkpt lon="3.128429" lat="39.842782"><ele>1.0</ele></trkpt>
   <trkpt lon="3.128033" lat="39.843403"><ele>1.0</ele></trkpt>
   <trkpt lon="3.127823" lat="39.843690"><ele>1.0</ele></trkpt>
   <trkpt lon="3.127711" lat="39.843826"><ele>1.0</ele></trkpt>
   <trkpt lon="3.127600" lat="39.843953"><ele>1.0</ele></trkpt>
   <trkpt lon="3.127429" lat="39.844150"><ele>1.0</ele></trkpt>
   <trkpt lon="3.127077" lat="39.844511"><ele>1.0</ele><sym>roundabout_e2</sym></trkpt>
   <trkpt lon="3.127097" lat="39.844539"><ele>1.0</ele></trkpt>
   <trkpt lon="3.127090" lat="39.844571"><ele>1.0</ele></trkpt>
   <trkpt lon="3.127058" lat="39.844592"><ele>1.0</ele></trkpt>
   <trkpt lon="3.127017" lat="39.844593"><ele>1.0</ele></trkpt>
   <trkpt lon="3.126998" lat="39.844586"><ele>1.0</ele></trkpt>
   <trkpt lon="3.126785" lat="39.844732"><ele>1.0</ele><sym>stay_left</sym></trkpt>
   <trkpt lon="3.126780" lat="39.844728"><ele>1.0</ele><sym>pass_place</sym><type>Shaping</type></trkpt>
   <trkpt lon="3.126785" lat="39.844732"><ele>1.0</ele></trkpt>
   <trkpt lon="3.126090" lat="39.845211"><ele>1.0</ele></trkpt>
   <trkpt lon="3.125798" lat="39.845396"><ele>1.25</ele></trkpt>
   <trkpt lon="3.125530" lat="39.845556"><ele>1.0</ele></trkpt>
   <trkpt lon="3.125135" lat="39.845758"><ele>1.25</ele></trkpt>
   <trkpt lon="3.124879" lat="39.845883"><ele>1.0</ele><sym>roundabout_e2</sym></trkpt>
   <trkpt lon="3.124902" lat="39.845934"><ele>1.0</ele></trkpt>
   <trkpt lon="3.124908" lat="39.845987"><ele>1.0</ele></trkpt>
   <trkpt lon="3.124898" lat="39.846039"><ele>1.25</ele></trkpt>
   <trkpt lon="3.124865" lat="39.846096"><ele>1.25</ele></trkpt>
   <trkpt lon="3.124812" lat="39.846143"><ele>1.5</ele></trkpt>
   <trkpt lon="3.124744" lat="39.846177"><ele>1.75</ele></trkpt>
   <trkpt lon="3.124667" lat="39.846195"><ele>1.75</ele></trkpt>
   <trkpt lon="3.124586" lat="39.846195"><ele>1.5</ele></trkpt>
   <trkpt lon="3.124509" lat="39.846178"><ele>1.0</ele></trkpt>
   <trkpt lon="3.124441" lat="39.846144"><ele>1.0</ele></trkpt>
   <trkpt lon="3.124341" lat="39.846212"><ele>1.0</ele></trkpt>
   <trkpt lon="3.122871" lat="39.847225"><ele>7.0</ele></trkpt>
   <trkpt lon="3.122760" lat="39.847292"><ele>7.5</ele></trkpt>
   <trkpt lon="3.122628" lat="39.847358"><ele>8.5</ele></trkpt>
   <trkpt lon="3.122528" lat="39.847408"><ele>8.75</ele></trkpt>
   <trkpt lon="3.122213" lat="39.847494"><ele>9.75</ele></trkpt>
   <trkpt lon="3.122070" lat="39.847587"><ele>10.25</ele></trkpt>
   <trkpt lon="3.121988" lat="39.847659"><ele>10.5</ele></trkpt>
   <trkpt lon="3.121940" lat="39.847717"><ele>10.75</ele></trkpt>
   <trkpt lon="3.121660" lat="39.848140"><ele>11.25</ele></trkpt>
   <trkpt lon="3.121415" lat="39.848500"><ele>10.5</ele></trkpt>
   <trkpt lon="3.121029" lat="39.849154"><ele>10.25</ele></trkpt>
   <trkpt lon="3.120888" lat="39.849355"><ele>9.75</ele></trkpt>
   <trkpt lon="3.120481" lat="39.849842"><ele>9.25</ele></trkpt>
   <trkpt lon="3.120071" lat="39.850325"><ele>9.5</ele></trkpt>
   <trkpt lon="3.119649" lat="39.850801"><ele>10.75</ele></trkpt>
   <trkpt lon="3.119558" lat="39.850918"><ele>11.0</ele></trkpt>
   <trkpt lon="3.119483" lat="39.851000"><ele>11.0</ele><sym>left</sym></trkpt>
   <trkpt lon="3.118844" lat="39.850850"><ele>9.75</ele></trkpt>
   <trkpt lon="3.118564" lat="39.850822"><ele>9.75</ele></trkpt>
   <trkpt lon="3.118202" lat="39.850665"><ele>9.5</ele></trkpt>
   <trkpt lon="3.118038" lat="39.850604"><ele>9.5</ele></trkpt>
   <trkpt lon="3.117793" lat="39.850491"><ele>9.0</ele></trkpt>
   <trkpt lon="3.117450" lat="39.850293"><ele>8.75</ele></trkpt>
   <trkpt lon="3.117322" lat="39.850175"><ele>8.0</ele></trkpt>
   <trkpt lon="3.117234" lat="39.850073"><ele>8.0</ele><sym>right</sym></trkpt>
   <trkpt lon="3.117073" lat="39.850124"><ele>8.0</ele></trkpt>
   <trkpt lon="3.116224" lat="39.850609"><ele>7.5</ele></trkpt>
   <trkpt lon="3.115807" lat="39.851038"><ele>7.25</ele></trkpt>
   <trkpt lon="3.115381" lat="39.851468"><ele>6.0</ele></trkpt>
   <trkpt lon="3.115330" lat="39.851527"><ele>6.0</ele></trkpt>
   <trkpt lon="3.115307" lat="39.851563"><ele>6.0</ele><sym>roundabout_e1</sym></trkpt>
   <trkpt lon="3.115362" lat="39.851597"><ele>6.0</ele></trkpt>
   <trkpt lon="3.115393" lat="39.851634"><ele>6.0</ele></trkpt>
   <trkpt lon="3.115408" lat="39.851676"><ele>6.0</ele></trkpt>
   <trkpt lon="3.115401" lat="39.851736"><ele>6.0</ele></trkpt>
   <trkpt lon="3.115377" lat="39.851775"><ele>6.0</ele></trkpt>
   <trkpt lon="3.115342" lat="39.851806"><ele>6.0</ele></trkpt>
   <trkpt lon="3.115297" lat="39.851829"><ele>6.0</ele></trkpt>
   <trkpt lon="3.115211" lat="39.851906"><ele>5.75</ele></trkpt>
   <trkpt lon="3.115010" lat="39.852041"><ele>5.0</ele></trkpt>
   <trkpt lon="3.114853" lat="39.852130"><ele>5.0</ele></trkpt>
   <trkpt lon="3.114767" lat="39.852178"><ele>5.0</ele></trkpt>
   <trkpt lon="3.114455" lat="39.852401"><ele>5.0</ele></trkpt>
   <trkpt lon="3.114271" lat="39.852522"><ele>5.0</ele></trkpt>
   <trkpt lon="3.113979" lat="39.852727"><ele>5.0</ele></trkpt>
   <trkpt lon="3.113265" lat="39.853196"><ele>4.0</ele></trkpt>
   <trkpt lon="3.113116" lat="39.853296"><ele>4.0</ele><sym>pass_place</sym><type>Shaping</type></trkpt>
   <trkpt lon="3.113116" lat="39.853297"><ele>4.0</ele></trkpt>
   <trkpt lon="3.112338" lat="39.853819"><ele>4.0</ele></trkpt>
   <trkpt lon="3.112291" lat="39.853851"><ele>4.0</ele></trkpt>
   <trkpt lon="3.112045" lat="39.854011"><ele>3.0</ele></trkpt>
   <trkpt lon="3.111793" lat="39.854159"><ele>3.0</ele></trkpt>
   <trkpt lon="3.110965" lat="39.854591"><ele>2.0</ele><sym>right</sym></trkpt>
   <trkpt lon="3.110974" lat="39.854640"><ele>2.0</ele><sym>left</sym></trkpt>
   <trkpt lon="3.107453" lat="39.856167"><ele>1.5</ele></trkpt>
   <trkpt lon="3.106659" lat="39.856527"><ele>1.0</ele></trkpt>
   <trkpt lon="3.106074" lat="39.856784"><ele>1.5</ele></trkpt>
   <trkpt lon="3.105076" lat="39.857206"><ele>1.5</ele><sym>stay_left</sym></trkpt>
   <trkpt lon="3.103882" lat="39.857709"><ele>1.5</ele></trkpt>
   <trkpt lon="3.103512" lat="39.857852"><ele>1.5</ele></trkpt>
   <trkpt lon="3.102842" lat="39.858051"><ele>1.5</ele></trkpt>
   <trkpt lon="3.101743" lat="39.858371"><ele>1.5</ele></trkpt>
   <trkpt lon="3.101253" lat="39.858499"><ele>1.5</ele></trkpt>
   <trkpt lon="3.101164" lat="39.858513"><ele>1.75</ele></trkpt>
   <trkpt lon="3.099967" lat="39.858703"><ele>1.5</ele></trkpt>
   <trkpt lon="3.099885" lat="39.858728"><ele>1.5</ele></trkpt>
   <trkpt lon="3.099561" lat="39.858827"><ele>1.5</ele></trkpt>
   <trkpt lon="3.099253" lat="39.858961"><ele>1.5</ele></trkpt>
   <trkpt lon="3.099037" lat="39.859101"><ele>1.5</ele></trkpt>
   <trkpt lon="3.098856" lat="39.859241"><ele>1.5</ele></trkpt>
   <trkpt lon="3.098710" lat="39.859388"><ele>1.5</ele></trkpt>
   <trkpt lon="3.098609" lat="39.859521"><ele>1.5</ele></trkpt>
   <trkpt lon="3.098057" lat="39.860263"><ele>1.25</ele></trkpt>
   <trkpt lon="3.097514" lat="39.860939"><ele>1.25</ele></trkpt>
   <trkpt lon="3.097319" lat="39.861162"><ele>1.25</ele></trkpt>
   <trkpt lon="3.097092" lat="39.861370"><ele>1.25</ele></trkpt>
   <trkpt lon="3.095469" lat="39.862579"><ele>1.25</ele><sym>pass_place</sym><type>Shaping</type></trkpt>
   <trkpt lon="3.095467" lat="39.862581"><ele>1.25</ele></trkpt>
   <trkpt lon="3.093906" lat="39.863688"><ele>1.25</ele></trkpt>
   <trkpt lon="3.092792" lat="39.864321"><ele>1.25</ele></trkpt>
   <trkpt lon="3.092320" lat="39.864612"><ele>1.0</ele></trkpt>
   <trkpt lon="3.091566" lat="39.865009"><ele>1.0</ele></trkpt>
   <trkpt lon="3.090858" lat="39.865469"><ele>1.0</ele></trkpt>
   <trkpt lon="3.090445" lat="39.865857"><ele>1.0</ele></trkpt>
   <trkpt lon="3.089740" lat="39.866519"><ele>1.0</ele></trkpt>
   <trkpt lon="3.086892" lat="39.869998"><ele>0.75</ele></trkpt>
   <trkpt lon="3.086536" lat="39.870491"><ele>1.0</ele><sym>left_slight</sym></trkpt>
   <trkpt lon="3.086467" lat="39.870476"><ele>1.0</ele><sym>right_slight</sym></trkpt>
   <trkpt lon="3.086440" lat="39.870520"><ele>1.0</ele></trkpt>
   <trkpt lon="3.086395" lat="39.870593"><ele>1.0</ele></trkpt>
   <trkpt lon="3.086140" lat="39.871016"><ele>1.5</ele></trkpt>
   <trkpt lon="3.085257" lat="39.872481"><ele>1.0</ele></trkpt>
   <trkpt lon="3.084979" lat="39.872909"><ele>1.0</ele></trkpt>
   <trkpt lon="3.084209" lat="39.874205"><ele>1.5</ele></trkpt>
   <trkpt lon="3.083794" lat="39.874916"><ele>1.75</ele></trkpt>
   <trkpt lon="3.083291" lat="39.875810"><ele>1.75</ele><sym>pass_place</sym><type>Shaping</type></trkpt>
   <trkpt lon="3.083289" lat="39.875814"><ele>1.75</ele></trkpt>
   <trkpt lon="3.082771" lat="39.876784"><ele>1.5</ele></trkpt>
   <trkpt lon="3.082230" lat="39.877825"><ele>1.25</ele></trkpt>
   <trkpt lon="3.082054" lat="39.878169"><ele>1.25</ele></trkpt>
   <trkpt lon="3.081814" lat="39.878644"><ele>1.25</ele></trkpt>
   <trkpt lon="3.081626" lat="39.879052"><ele>1.25</ele></trkpt>
   <trkpt lon="3.081469" lat="39.879441"><ele>1.5</ele></trkpt>
   <trkpt lon="3.081238" lat="39.880062"><ele>1.75</ele></trkpt>
   <trkpt lon="3.081185" lat="39.880202"><ele>1.75</ele></trkpt>
   <trkpt lon="3.080957" lat="39.880818"><ele>1.5</ele></trkpt>
   <trkpt lon="3.080899" lat="39.880978"><ele>1.5</ele></trkpt>
   <trkpt lon="3.080656" lat="39.881630"><ele>1.5</ele></trkpt>
   <trkpt lon="3.080357" lat="39.882434"><ele>1.5</ele></trkpt>
   <trkpt lon="3.080336" lat="39.882494"><ele>1.75</ele></trkpt>
   <trkpt lon="3.080225" lat="39.882815"><ele>2.5</ele></trkpt>
   <trkpt lon="3.080165" lat="39.882939"><ele>2.25</ele></trkpt>
   <trkpt lon="3.080080" lat="39.883073"><ele>2.5</ele></trkpt>
   <trkpt lon="3.079937" lat="39.883233"><ele>2.75</ele></trkpt>
   <trkpt lon="3.079882" lat="39.883282"><ele>2.5</ele></trkpt>
   <trkpt lon="3.079791" lat="39.883336"><ele>2.0</ele></trkpt>
   <trkpt lon="3.079688" lat="39.883449"><ele>2.0</ele></trkpt>
   <trkpt lon="3.079641" lat="39.883512"><ele>2.0</ele></trkpt>
   <trkpt lon="3.079600" lat="39.883567"><ele>2.25</ele><sym>roundabout_e1</sym></trkpt>
   <trkpt lon="3.079592" lat="39.883614"><ele>2.25</ele></trkpt>
   <trkpt lon="3.079568" lat="39.883658"><ele>2.25</ele></trkpt>
   <trkpt lon="3.079570" lat="39.883791"><ele>2.0</ele></trkpt>
   <trkpt lon="3.079576" lat="39.883902"><ele>1.75</ele></trkpt>
   <trkpt lon="3.079628" lat="39.884091"><ele>2.0</ele></trkpt>
   <trkpt lon="3.079636" lat="39.884222"><ele>2.0</ele></trkpt>
   <trkpt lon="3.079624" lat="39.884374"><ele>1.75</ele></trkpt>
   <trkpt lon="3.079596" lat="39.884496"><ele>1.75</ele></trkpt>
   <trkpt lon="3.079104" lat="39.885824"><ele>1.5</ele></trkpt>
   <trkpt lon="3.078937" lat="39.886301"><ele>1.25</ele></trkpt>
   <trkpt lon="3.078702" lat="39.886931"><ele>1.25</ele></trkpt>
   <trkpt lon="3.078504" lat="39.887480"><ele>1.25</ele></trkpt>
   <trkpt lon="3.078461" lat="39.887598"><ele>1.25</ele></trkpt>
   <trkpt lon="3.078294" lat="39.888236"><ele>1.5</ele></trkpt>
   <trkpt lon="3.078193" lat="39.888674"><ele>1.5</ele></trkpt>
   <trkpt lon="3.078188" lat="39.889135"><ele>1.5</ele></trkpt>
   <trkpt lon="3.078198" lat="39.889675"><ele>1.25</ele></trkpt>
   <trkpt lon="3.078194" lat="39.889825"><ele>1.5</ele></trkpt>
   <trkpt lon="3.078195" lat="39.889930"><ele>1.25</ele></trkpt>
   <trkpt lon="3.078196" lat="39.890059"><ele>1.25</ele></trkpt>
   <trkpt lon="3.078199" lat="39.890839"><ele>1.25</ele></trkpt>
   <trkpt lon="3.078199" lat="39.891978"><ele>1.5</ele></trkpt>
   <trkpt lon="3.078199" lat="39.891980"><ele>1.75</ele><sym>pass_place</sym><type>Shaping</type></trkpt>
   <trkpt lon="3.078199" lat="39.892119"><ele>1.75</ele></trkpt>
   <trkpt lon="3.078200" lat="39.892420"><ele>2.0</ele></trkpt>
   <trkpt lon="3.078204" lat="39.892744"><ele>1.75</ele></trkpt>
   <trkpt lon="3.078205" lat="39.892924"><ele>1.25</ele></trkpt>
   <trkpt lon="3.078209" lat="39.893559"><ele>1.0</ele></trkpt>
   <trkpt lon="3.078215" lat="39.893958"><ele>1.0</ele></trkpt>
   <trkpt lon="3.078228" lat="39.895006"><ele>1.0</ele></trkpt>
   <trkpt lon="3.078232" lat="39.895033"><ele>1.0</ele></trkpt>
   <trkpt lon="3.078294" lat="39.895434"><ele>1.0</ele></trkpt>
   <trkpt lon="3.078355" lat="39.895670"><ele>1.0</ele></trkpt>
   <trkpt lon="3.078697" lat="39.896986"><ele>1.0</ele></trkpt>
   <trkpt lon="3.078820" lat="39.897466"><ele>1.0</ele></trkpt>
   <trkpt lon="3.078845" lat="39.897558"><ele>1.0</ele></trkpt>
   <trkpt lon="3.078954" lat="39.897970"><ele>1.0</ele></trkpt>
   <trkpt lon="3.079102" lat="39.898537"><ele>1.0</ele></trkpt>
   <trkpt lon="3.079121" lat="39.898628"><ele>1.0</ele></trkpt>
   <trkpt lon="3.079226" lat="39.899051"><ele>1.25</ele></trkpt>
   <trkpt lon="3.079297" lat="39.899471"><ele>1.0</ele></trkpt>
   <trkpt lon="3.079324" lat="39.899600"><ele>1.0</ele></trkpt>
   <trkpt lon="3.079395" lat="39.900152"><ele>1.0</ele></trkpt>
   <trkpt lon="3.079410" lat="39.900251"><ele>1.0</ele></trkpt>
   <trkpt lon="3.079495" lat="39.900798"><ele>1.0</ele></trkpt>
   <trkpt lon="3.079536" lat="39.901037"><ele>1.0</ele></trkpt>
   <trkpt lon="3.079566" lat="39.901206"><ele>1.0</ele></trkpt>
   <trkpt lon="3.079589" lat="39.901280"><ele>1.0</ele></trkpt>
   <trkpt lon="3.079705" lat="39.901642"><ele>1.0</ele></trkpt>
   <trkpt lon="3.079915" lat="39.902249"><ele>1.0</ele></trkpt>
   <trkpt lon="3.079988" lat="39.902417"><ele>1.5</ele></trkpt>
   <trkpt lon="3.080102" lat="39.902625"><ele>1.25</ele></trkpt>
   <trkpt lon="3.080183" lat="39.902747"><ele>1.0</ele></trkpt>
   <trkpt lon="3.080214" lat="39.902794"><ele>1.0</ele></trkpt>
   <trkpt lon="3.080237" lat="39.902829"><ele>1.0</ele></trkpt>
   <trkpt lon="3.080494" lat="39.903182"><ele>1.0</ele></trkpt>
   <trkpt lon="3.080778" lat="39.903550"><ele>1.0</ele></trkpt>
   <trkpt lon="3.080832" lat="39.903624"><ele>1.0</ele></trkpt>
   <trkpt lon="3.081491" lat="39.904496"><ele>0.75</ele></trkpt>
   <trkpt lon="3.081537" lat="39.904587"><ele>1.0</ele></trkpt>
   <trkpt lon="3.081587" lat="39.904680"><ele>1.0</ele></trkpt>
   <trkpt lon="3.081855" lat="39.905080"><ele>1.0</ele></trkpt>
   <trkpt lon="3.081870" lat="39.905103"><ele>1.0</ele></trkpt>
   <trkpt lon="3.082148" lat="39.905515"><ele>1.0</ele></trkpt>
   <trkpt lon="3.082365" lat="39.905836"><ele>1.0</ele></trkpt>
   <trkpt lon="3.082404" lat="39.905891"><ele>1.0</ele></trkpt>
   <trkpt lon="3.082485" lat="39.905969"><ele>1.0</ele></trkpt>
   <trkpt lon="3.082544" lat="39.906019"><ele>1.0</ele></trkpt>
   <trkpt lon="3.082776" lat="39.906217"><ele>1.0</ele></trkpt>
   <trkpt lon="3.082802" lat="39.906241"><ele>1.0</ele><sym>roundabout_e2</sym></trkpt>
   <trkpt lon="3.082834" lat="39.906245"><ele>1.0</ele></trkpt>
   <trkpt lon="3.082863" lat="39.906255"><ele>1.0</ele></trkpt>
   <trkpt lon="3.082890" lat="39.906273"><ele>1.0</ele></trkpt>
   <trkpt lon="3.082908" lat="39.906297"><ele>1.0</ele></trkpt>
   <trkpt lon="3.082916" lat="39.906324"><ele>1.0</ele></trkpt>
   <trkpt lon="3.082913" lat="39.906351"><ele>1.0</ele></trkpt>
   <trkpt lon="3.082897" lat="39.906379"><ele>1.0</ele></trkpt>
   <trkpt lon="3.082870" lat="39.906401"><ele>1.0</ele></trkpt>
   <trkpt lon="3.082835" lat="39.906414"><ele>1.0</ele></trkpt>
   <trkpt lon="3.082796" lat="39.906418"><ele>1.0</ele></trkpt>
   <trkpt lon="3.082757" lat="39.906411"><ele>1.0</ele></trkpt>
   <trkpt lon="3.082709" lat="39.906382"><ele>1.0</ele></trkpt>
   <trkpt lon="3.082682" lat="39.906436"><ele>1.0</ele></trkpt>
   <trkpt lon="3.082618" lat="39.906533"><ele>1.0</ele></trkpt>
   <trkpt lon="3.082329" lat="39.906903"><ele>1.5</ele><sym>right</sym></trkpt>
   <trkpt lon="3.082729" lat="39.907307"><ele>1.25</ele></trkpt>
   <trkpt lon="3.083480" lat="39.908057"><ele>2.0</ele><sym>left</sym></trkpt>
   <trkpt lon="3.083068" lat="39.908298"><ele>2.0</ele><sym>pass_place</sym><type>Via</type></trkpt>
  </trkseg>
 </trk>
</gpx>
