<?xml version="1.0" encoding="UTF-8"?>
<!-- track-length = 52555 filtered ascend = 697 plain-ascend = 0 cost=87918 energy=.3kwh time=3h 22m 50s -->
<gpx 
 xmlns="http://www.topografix.com/GPX/1/1" 
 xmlns:xsi="http://www.w3.org/2001/XMLSchema-instance" 
 xsi:schemaLocation="http://www.topografix.com/GPX/1/1 http://www.topografix.com/GPX/1/1/gpx.xsd" 
 creator="BRouter-1.7.9" version="1.1"><wpt lat="39.90662" lon="3.08272"><name>Gran Café 1919</name><sym>Restaurant</sym></wpt><wpt lat="39.90887" lon="3.08132"><name>Cultural</name><sym>Restaurant</sym></wpt><wpt lat="39.82227" lon="2.88397"><name>Sa Plaça</name><sym>Restaurant</sym></wpt><wpt lat="39.88219" lon="3.01538"><name>El Perrito</name><sym>Restaurant</sym></wpt><wpt lat="39.82245" lon="2.8847"><name>Drinking water</name><sym>Drinking Water</sym></wpt><wpt lat="39.82272" lon="2.89168"><name>Drinking water</name><sym>Drinking Water</sym></wpt><wpt lat="39.83352" lon="2.89534"><name>Drinking water</name><sym>Drinking Water</sym></wpt><wpt lat="39.90813" lon="3.08053"><name>Dolç Sa Pobla</name><sym>Restaurant</sym></wpt><wpt lat="39.88685" lon="3.03075"><name>Polígono</name><sym>Restaurant</sym></wpt><wpt lat="39.90484" lon="3.0779"><name>Café</name><sym>Restaurant</sym></wpt><wpt lat="39.88173" lon="3.01945"><name>Can Toni</name><sym>Restaurant</sym></wpt><wpt lat="39.90509" lon="3.08175"><name>Ca les Monges</name><sym>Restaurant</sym></wpt><wpt lat="39.88103" lon="3.0177"><name>Palma</name><sym>Restaurant</sym></wpt><wpt lat="39.88125" lon="3.01795"><name>Can Vallori</name><sym>Restaurant</sym></wpt><wpt lat="39.90867" lon="3.0811"><name>Bike shop</name><sym>Bike Trail</sym></wpt><wpt lat="39.90141" lon="3.06892"><name>Stefan&#x27;s</name><sym>Restaurant</sym></wpt><wpt lat="39.9053" lon="3.07748"><name>Juanito</name><sym>Restaurant</sym></wpt><wpt lat="39.90512" lon="3.07703"><name>March</name><sym>Bike Trail</sym></wpt><wpt lat="39.90859" lon="3.08501"><name>Cappuccino</name><sym>Restaurant</sym></wpt><wpt lat="39.90469" lon="3.07843"><name>Mallorca Bike Lounge/The Bike Rooms</name><sym>Bike Trail</sym></wpt><wpt lat="39.90637" lon="3.08193"><name>Wattstyle</name><sym>Bike Trail</sym></wpt><wpt lat="39.90709" lon="3.08267"><name>Bike island</name><sym>Bike Trail</sym></wpt><wpt lat="39.88129" lon="3.01567"><name>Drinking water</name><sym>Drinking Water</sym></wpt><wpt lat="39.88182" lon="3.01448"><name>Drinking water</name><sym>Drinking Water</sym></wpt><wpt lat="39.90568" lon="3.08155"><name>Dixto. Healthy Fastfood Restaurant - Cafe</name><sym>Restaurant</sym></wpt>
 <trk>
  <src>brouter_fastbike-lowtraffic_0</src>
  <type>bike</type>
  <trkseg>
   <trkpt lon="3.083068" lat="39.908298"><ele>2.0</ele><sym>pass_place</sym><type>Via</type></trkpt>
   <trkpt lon="3.083480" lat="39.908057"><ele>2.0</ele><sym>left</sym></trkpt>
   <trkpt lon="3.083892" lat="39.908468"><ele>1.75</ele><sym>left</sym></trkpt>
   <trkpt lon="3.082953" lat="39.909036"><ele>2.25</ele></trkpt>
   <trkpt lon="3.082124" lat="39.909551"><ele>4.0</ele></trkpt>
   <trkpt lon="3.082040" lat="39.909600"><ele>4.25</ele></trkpt>
   <trkpt lon="3.081347" lat="39.910011"><ele>6.0</ele><sym>left</sym></trkpt>
   <trkpt lon="3.081129" lat="39.909799"><ele>5.75</ele></trkpt>
   <trkpt lon="3.080902" lat="39.909580"><ele>5.75</ele></trkpt>
   <trkpt lon="3.080155" lat="39.908875"><ele>4.75</ele></trkpt>
   <trkpt lon="3.079789" lat="39.908529"><ele>4.0</ele></trkpt>
   <trkpt lon="3.079738" lat="39.908481"><ele>4.0</ele></trkpt>
   <trkpt lon="3.079491" lat="39.908229"><ele>4.0</ele></trkpt>
   <trkpt lon="3.079393" lat="39.908108"><ele>4.0</ele></trkpt>
   <trkpt lon="3.079306" lat="39.907983"><ele>4.0</ele></trkpt>
   <trkpt lon="3.079201" lat="39.907801"><ele>4.0</ele></trkpt>
   <trkpt lon="3.079120" lat="39.907631"><ele>4.0</ele></trkpt>
   <trkpt lon="3.079063" lat="39.907487"><ele>3.75</ele></trkpt>
   <trkpt lon="3.079019" lat="39.907352"><ele>3.25</ele></trkpt>
   <trkpt lon="3.078977" lat="39.907167"><ele>3.0</ele></trkpt>
   <trkpt lon="3.078963" lat="39.907037"><ele>3.0</ele></trkpt>
   <trkpt lon="3.078947" lat="39.906744"><ele>3.0</ele></trkpt>
   <trkpt lon="3.078962" lat="39.906457"><ele>3.0</ele></trkpt>
   <trkpt lon="3.078984" lat="39.906294"><ele>2.5</ele></trkpt>
   <trkpt lon="3.079022" lat="39.906141"><ele>2.0</ele></trkpt>
   <trkpt lon="3.079086" lat="39.905985"><ele>2.0</ele></trkpt>
   <trkpt lon="3.079248" lat="39.905663"><ele>2.0</ele><sym>right</sym></trkpt>
   <trkpt lon="3.078474" lat="39.905430"><ele>2.0</ele></trkpt>
   <trkpt lon="3.077831" lat="39.905235"><ele>2.0</ele></trkpt>
   <trkpt lon="3.077545" lat="39.905149"><ele>2.0</ele></trkpt>
   <trkpt lon="3.077151" lat="39.905030"><ele>1.75</ele></trkpt>
   <trkpt lon="3.076983" lat="39.904980"><ele>1.75</ele></trkpt>
   <trkpt lon="3.076896" lat="39.904953"><ele>1.75</ele></trkpt>
   <trkpt lon="3.076349" lat="39.904788"><ele>2.0</ele></trkpt>
   <trkpt lon="3.076198" lat="39.904743"><ele>2.0</ele></trkpt>
   <trkpt lon="3.075970" lat="39.904674"><ele>2.5</ele></trkpt>
   <trkpt lon="3.075738" lat="39.904635"><ele>3.0</ele></trkpt>
   <trkpt lon="3.075630" lat="39.904643"><ele>3.0</ele></trkpt>
   <trkpt lon="3.075596" lat="39.904651"><ele>3.0</ele></trkpt>
   <trkpt lon="3.075569" lat="39.904666"><ele>3.0</ele><sym>roundabout_e1</sym></trkpt>
   <trkpt lon="3.075531" lat="39.904700"><ele>3.0</ele></trkpt>
   <trkpt lon="3.075435" lat="39.904751"><ele>3.0</ele></trkpt>
   <trkpt lon="3.075380" lat="39.904767"><ele>3.0</ele></trkpt>
   <trkpt lon="3.075322" lat="39.904776"><ele>3.0</ele></trkpt>
   <trkpt lon="3.075206" lat="39.904772"><ele>3.0</ele></trkpt>
   <trkpt lon="3.075182" lat="39.904767"><ele>3.0</ele></trkpt>
   <trkpt lon="3.075128" lat="39.904752"><ele>3.0</ele></trkpt>
   <trkpt lon="3.075033" lat="39.904702"><ele>3.0</ele></trkpt>
   <trkpt lon="3.074994" lat="39.904669"><ele>3.0</ele></trkpt>
   <trkpt lon="3.074940" lat="39.904592"><ele>3.0</ele></trkpt>
   <trkpt lon="3.074892" lat="39.904505"><ele>3.25</ele></trkpt>
   <trkpt lon="3.074824" lat="39.904408"><ele>3.5</ele></trkpt>
   <trkpt lon="3.074777" lat="39.904368"><ele>3.5</ele></trkpt>
   <trkpt lon="3.074720" lat="39.904331"><ele>3.5</ele></trkpt>
   <trkpt lon="3.074578" lat="39.904263"><ele>3.0</ele></trkpt>
   <trkpt lon="3.074549" lat="39.904254"><ele>3.0</ele></trkpt>
   <trkpt lon="3.073759" lat="39.904015"><ele>3.75</ele><sym>right</sym></trkpt>
   <trkpt lon="3.073735" lat="39.904060"><ele>3.5</ele><sym>left</sym></trkpt>
   <trkpt lon="3.071443" lat="39.903361"><ele>5.0</ele></trkpt>
   <trkpt lon="3.070205" lat="39.902984"><ele>5.75</ele></trkpt>
   <trkpt lon="3.069771" lat="39.902851"><ele>6.0</ele><sym>pass_place</sym><type>Shaping</type></trkpt>
   <trkpt lon="3.069564" lat="39.902842"><ele>6.25</ele></trkpt>
   <trkpt lon="3.069272" lat="39.902856"><ele>6.75</ele></trkpt>
   <trkpt lon="3.069211" lat="39.902845"><ele>6.75</ele></trkpt>
   <trkpt lon="3.069153" lat="39.902827"><ele>7.0</ele></trkpt>
   <trkpt lon="3.069111" lat="39.902786"><ele>7.0</ele></trkpt>
   <trkpt lon="3.069044" lat="39.902661"><ele>7.0</ele></trkpt>
   <trkpt lon="3.068999" lat="39.902626"><ele>7.0</ele><sym>right_slight</sym></trkpt>
   <trkpt lon="3.067510" lat="39.902172"><ele>7.75</ele></trkpt>
   <trkpt lon="3.066911" lat="39.902000"><ele>8.0</ele></trkpt>
   <trkpt lon="3.064139" lat="39.901163"><ele>9.75</ele></trkpt>
   <trkpt lon="3.063427" lat="39.900948"><ele>10.0</ele></trkpt>
   <trkpt lon="3.062209" lat="39.900588"><ele>11.0</ele></trkpt>
   <trkpt lon="3.062141" lat="39.900567"><ele>11.0</ele></trkpt>
   <trkpt lon="3.061179" lat="39.900275"><ele>12.0</ele></trkpt>
   <trkpt lon="3.060392" lat="39.900040"><ele>12.75</ele></trkpt>
   <trkpt lon="3.059803" lat="39.899864"><ele>13.0</ele></trkpt>
   <trkpt lon="3.058941" lat="39.899600"><ele>13.75</ele></trkpt>
   <trkpt lon="3.057889" lat="39.899300"><ele>14.25</ele></trkpt>
   <trkpt lon="3.057588" lat="39.899213"><ele>14.75</ele></trkpt>
   <trkpt lon="3.057072" lat="39.899039"><ele>15.0</ele></trkpt>
   <trkpt lon="3.054294" lat="39.898214"><ele>17.0</ele></trkpt>
   <trkpt lon="3.053236" lat="39.897900"><ele>17.5</ele></trkpt>
   <trkpt lon="3.052244" lat="39.897606"><ele>18.5</ele></trkpt>
   <trkpt lon="3.051512" lat="39.897384"><ele>19.0</ele></trkpt>
   <trkpt lon="3.049506" lat="39.896781"><ele>21.0</ele><sym>stay_left</sym></trkpt>
   <trkpt lon="3.049508" lat="39.896778"><ele>21.0</ele><sym>pass_place</sym><type>Shaping</type></trkpt>
   <trkpt lon="3.049506" lat="39.896781"><ele>21.0</ele></trkpt>
   <trkpt lon="3.048383" lat="39.896446"><ele>21.75</ele></trkpt>
   <trkpt lon="3.047978" lat="39.896330"><ele>22.0</ele></trkpt>
   <trkpt lon="3.046735" lat="39.895929"><ele>22.75</ele></trkpt>
   <trkpt lon="3.045799" lat="39.895628"><ele>24.5</ele></trkpt>
   <trkpt lon="3.043667" lat="39.894881"><ele>30.25</ele></trkpt>
   <trkpt lon="3.040069" lat="39.893620"><ele>30.0</ele></trkpt>
   <trkpt lon="3.039694" lat="39.893488"><ele>30.25</ele></trkpt>
   <trkpt lon="3.039007" lat="39.893251"><ele>30.25</ele></trkpt>
   <trkpt lon="3.037279" lat="39.892711"><ele>31.25</ele><sym>stay_left</sym></trkpt>
   <trkpt lon="3.037066" lat="39.892643"><ele>30.5</ele><sym>straight</sym></trkpt>
   <trkpt lon="3.036886" lat="39.892595"><ele>30.25</ele><sym>stay_right</sym></trkpt>
   <trkpt lon="3.036434" lat="39.892459"><ele>30.75</ele></trkpt>
   <trkpt lon="3.036126" lat="39.892356"><ele>30.75</ele></trkpt>
   <trkpt lon="3.035845" lat="39.892265"><ele>31.0</ele></trkpt>
   <trkpt lon="3.035352" lat="39.892075"><ele>31.0</ele></trkpt>
   <trkpt lon="3.034813" lat="39.891852"><ele>31.75</ele></trkpt>
   <trkpt lon="3.034322" lat="39.891601"><ele>32.0</ele></trkpt>
   <trkpt lon="3.034097" lat="39.891465"><ele>32.0</ele></trkpt>
   <trkpt lon="3.033818" lat="39.891281"><ele>32.75</ele></trkpt>
   <trkpt lon="3.033549" lat="39.891107"><ele>33.0</ele></trkpt>
   <trkpt lon="3.033274" lat="39.890889"><ele>33.0</ele></trkpt>
   <trkpt lon="3.032528" lat="39.890276"><ele>34.0</ele></trkpt>
   <trkpt lon="3.031680" lat="39.889579"><ele>35.0</ele></trkpt>
   <trkpt lon="3.031051" lat="39.889060"><ele>36.0</ele></trkpt>
   <trkpt lon="3.031049" lat="39.889059"><ele>36.0</ele><sym>pass_place</sym><type>Shaping</type></trkpt>
   <trkpt lon="3.030806" lat="39.888851"><ele>36.0</ele></trkpt>
   <trkpt lon="3.030447" lat="39.888545"><ele>37.0</ele></trkpt>
   <trkpt lon="3.029698" lat="39.887942"><ele>38.0</ele></trkpt>
   <trkpt lon="3.029164" lat="39.887542"><ele>38.75</ele></trkpt>
   <trkpt lon="3.028636" lat="39.887215"><ele>38.75</ele></trkpt>
   <trkpt lon="3.027842" lat="39.886787"><ele>40.0</ele></trkpt>
   <trkpt lon="3.027369" lat="39.886582"><ele>40.25</ele><sym>straight</sym></trkpt>
   <trkpt lon="3.025641" lat="39.885888"><ele>42.0</ele></trkpt>
   <trkpt lon="3.024151" lat="39.885310"><ele>43.75</ele></trkpt>
   <trkpt lon="3.023682" lat="39.885128"><ele>44.0</ele></trkpt>
   <trkpt lon="3.023440" lat="39.885057"><ele>44.0</ele></trkpt>
   <trkpt lon="3.022471" lat="39.884827"><ele>45.25</ele><sym>straight</sym></trkpt>
   <trkpt lon="3.022214" lat="39.884754"><ele>45.0</ele><sym>straight</sym></trkpt>
   <trkpt lon="3.021778" lat="39.884604"><ele>46.0</ele><sym>left_slight</sym></trkpt>
   <trkpt lon="3.021749" lat="39.884519"><ele>46.0</ele><sym>right_slight</sym></trkpt>
   <trkpt lon="3.021682" lat="39.884498"><ele>46.0</ele></trkpt>
   <trkpt lon="3.021195" lat="39.884331"><ele>46.25</ele></trkpt>
   <trkpt lon="3.020734" lat="39.884213"><ele>46.75</ele><sym>left_slight</sym></trkpt>
   <trkpt lon="3.020631" lat="39.884118"><ele>47.0</ele></trkpt>
   <trkpt lon="3.020605" lat="39.884034"><ele>47.0</ele><sym>left_slight</sym></trkpt>
   <trkpt lon="3.020758" lat="39.883887"><ele>47.0</ele><sym>right</sym></trkpt>
   <trkpt lon="3.020736" lat="39.883854"><ele>47.0</ele></trkpt>
   <trkpt lon="3.020703" lat="39.883796"><ele>47.0</ele></trkpt>
   <trkpt lon="3.020676" lat="39.883777"><ele>47.0</ele></trkpt>
   <trkpt lon="3.020236" lat="39.883521"><ele>47.0</ele></trkpt>
   <trkpt lon="3.019992" lat="39.883306"><ele>47.0</ele></trkpt>
   <trkpt lon="3.019715" lat="39.882951"><ele>48.0</ele></trkpt>
   <trkpt lon="3.019586" lat="39.882748"><ele>47.75</ele></trkpt>
   <trkpt lon="3.019418" lat="39.882410"><ele>47.5</ele></trkpt>
   <trkpt lon="3.019431" lat="39.882237"><ele>47.0</ele></trkpt>
   <trkpt lon="3.019490" lat="39.882047"><ele>47.5</ele></trkpt>
   <trkpt lon="3.019493" lat="39.882016"><ele>47.75</ele><sym>right_slight</sym></trkpt>
   <trkpt lon="3.019456" lat="39.881925"><ele>48.0</ele></trkpt>
   <trkpt lon="3.019249" lat="39.881512"><ele>50.0</ele><sym>right_slight</sym></trkpt>
   <trkpt lon="3.018078" lat="39.881196"><ele>50.0</ele></trkpt>
   <trkpt lon="3.017612" lat="39.881059"><ele>50.0</ele></trkpt>
   <trkpt lon="3.016867" lat="39.880851"><ele>51.0</ele></trkpt>
   <trkpt lon="3.016038" lat="39.880631"><ele>52.0</ele></trkpt>
   <trkpt lon="3.015501" lat="39.880472"><ele>52.25</ele><sym>left</sym></trkpt>
   <trkpt lon="3.015850" lat="39.879963"><ele>53.0</ele><sym>u-turn</sym></trkpt>
   <trkpt lon="3.015851" lat="39.879961"><ele>53.0</ele><sym>pass_place</sym><type>Shaping</type></trkpt>
   <trkpt lon="3.015850" lat="39.879963"><ele>53.0</ele></trkpt>
   <trkpt lon="3.015501" lat="39.880472"><ele>52.25</ele></trkpt>
   <trkpt lon="3.015435" lat="39.880566"><ele>52.25</ele></trkpt>
   <trkpt lon="3.015389" lat="39.880637"><ele>52.25</ele></trkpt>
   <trkpt lon="3.015128" lat="39.881070"><ele>53.0</ele></trkpt>
   <trkpt lon="3.014911" lat="39.881448"><ele>54.5</ele></trkpt>
   <trkpt lon="3.014630" lat="39.881682"><ele>55.75</ele></trkpt>
   <trkpt lon="3.014535" lat="39.881795"><ele>55.75</ele></trkpt>
   <trkpt lon="3.014451" lat="39.881914"><ele>55.25</ele></trkpt>
   <trkpt lon="3.014159" lat="39.882283"><ele>53.25</ele></trkpt>
   <trkpt lon="3.014071" lat="39.882393"><ele>52.5</ele></trkpt>
   <trkpt lon="3.013955" lat="39.882577"><ele>52.25</ele></trkpt>
   <trkpt lon="3.013916" lat="39.882729"><ele>52.0</ele></trkpt>
   <trkpt lon="3.013848" lat="39.883073"><ele>53.0</ele><sym>left</sym></trkpt>
   <trkpt lon="3.012764" lat="39.883057"><ele>54.0</ele></trkpt>
   <trkpt lon="3.010843" lat="39.883029"><ele>55.75</ele></trkpt>
   <trkpt lon="3.010003" lat="39.883020"><ele>55.75</ele></trkpt>
   <trkpt lon="3.009524" lat="39.883015"><ele>56.0</ele></trkpt>
   <trkpt lon="3.009007" lat="39.883011"><ele>56.25</ele></trkpt>
   <trkpt lon="3.008806" lat="39.882999"><ele>56.75</ele></trkpt>
   <trkpt lon="3.008635" lat="39.882971"><ele>56.5</ele></trkpt>
   <trkpt lon="3.008376" lat="39.882887"><ele>56.25</ele></trkpt>
   <trkpt lon="3.007700" lat="39.882568"><ele>57.0</ele></trkpt>
   <trkpt lon="3.005971" lat="39.881644"><ele>57.25</ele></trkpt>
   <trkpt lon="3.004799" lat="39.881021"><ele>58.5</ele></trkpt>
   <trkpt lon="3.004794" lat="39.881018"><ele>58.5</ele></trkpt>
   <trkpt lon="3.004737" lat="39.880987"><ele>58.75</ele></trkpt>
   <trkpt lon="3.003275" lat="39.880203"><ele>60.0</ele></trkpt>
   <trkpt lon="3.002479" lat="39.879768"><ele>60.75</ele></trkpt>
   <trkpt lon="3.000867" lat="39.878909"><ele>62.0</ele></trkpt>
   <trkpt lon="3.000820" lat="39.878889"><ele>62.0</ele></trkpt>
   <trkpt lon="3.000283" lat="39.878596"><ele>62.75</ele></trkpt>
   <trkpt lon="2.999802" lat="39.878340"><ele>63.0</ele></trkpt>
   <trkpt lon="2.997307" lat="39.877042"><ele>65.0</ele><sym>pass_place</sym><type>Shaping</type></trkpt>
   <trkpt lon="2.997306" lat="39.877041"><ele>65.0</ele></trkpt>
   <trkpt lon="2.996342" lat="39.876516"><ele>66.0</ele></trkpt>
   <trkpt lon="2.995652" lat="39.876152"><ele>67.0</ele></trkpt>
   <trkpt lon="2.994583" lat="39.875561"><ele>70.5</ele></trkpt>
   <trkpt lon="2.994206" lat="39.875348"><ele>71.75</ele></trkpt>
   <trkpt lon="2.993505" lat="39.874981"><ele>74.5</ele></trkpt>
   <trkpt lon="2.993289" lat="39.874892"><ele>75.75</ele></trkpt>
   <trkpt lon="2.993181" lat="39.874856"><ele>76.0</ele></trkpt>
   <trkpt lon="2.992784" lat="39.874742"><ele>76.25</ele></trkpt>
   <trkpt lon="2.991699" lat="39.874505"><ele>75.25</ele></trkpt>
   <trkpt lon="2.991415" lat="39.874443"><ele>74.75</ele></trkpt>
   <trkpt lon="2.990263" lat="39.874187"><ele>76.75</ele></trkpt>
   <trkpt lon="2.989854" lat="39.874069"><ele>77.75</ele></trkpt>
   <trkpt lon="2.987987" lat="39.873352"><ele>77.0</ele></trkpt>
   <trkpt lon="2.987062" lat="39.873006"><ele>79.25</ele></trkpt>
   <trkpt lon="2.986703" lat="39.872866"><ele>80.0</ele></trkpt>
   <trkpt lon="2.985681" lat="39.872475"><ele>80.75</ele></trkpt>
   <trkpt lon="2.985477" lat="39.872398"><ele>81.0</ele></trkpt>
   <trkpt lon="2.984500" lat="39.872055"><ele>80.75</ele></trkpt>
   <trkpt lon="2.984466" lat="39.872041"><ele>80.5</ele></trkpt>
   <trkpt lon="2.983546" lat="39.871691"><ele>80.0</ele></trkpt>
   <trkpt lon="2.983245" lat="39.871476"><ele>79.5</ele></trkpt>
   <trkpt lon="2.982787" lat="39.871080"><ele>79.5</ele></trkpt>
   <trkpt lon="2.982196" lat="39.870507"><ele>80.75</ele></trkpt>
   <trkpt lon="2.982115" lat="39.870449"><ele>80.75</ele></trkpt>
   <trkpt lon="2.982060" lat="39.870411"><ele>80.75</ele></trkpt>
   <trkpt lon="2.981955" lat="39.870360"><ele>80.75</ele></trkpt>
   <trkpt lon="2.981446" lat="39.870144"><ele>81.0</ele></trkpt>
   <trkpt lon="2.980808" lat="39.869860"><ele>81.5</ele></trkpt>
   <trkpt lon="2.979688" lat="39.869379"><ele>83.0</ele></trkpt>
   <trkpt lon="2.979419" lat="39.869298"><ele>83.0</ele></trkpt>
   <trkpt lon="2.977571" lat="39.868851"><ele>85.0</ele><sym>pass_place</sym><type>Shaping</type></trkpt>
   <trkpt lon="2.976754" lat="39.868674"><ele>85.75</ele></trkpt>
   <trkpt lon="2.972379" lat="39.867642"><ele>91.5</ele></trkpt>
   <trkpt lon="2.972096" lat="39.867610"><ele>92.0</ele></trkpt>
   <trkpt lon="2.971994" lat="39.867606"><ele>92.25</ele></trkpt>
   <trkpt lon="2.971804" lat="39.867610"><ele>92.0</ele></trkpt>
   <trkpt lon="2.971646" lat="39.867629"><ele>91.75</ele></trkpt>
   <trkpt lon="2.971455" lat="39.867676"><ele>92.25</ele></trkpt>
   <trkpt lon="2.967814" lat="39.868557"><ele>96.5</ele></trkpt>
   <trkpt lon="2.966794" lat="39.868791"><ele>98.0</ele></trkpt>
   <trkpt lon="2.966688" lat="39.868820"><ele>97.75</ele></trkpt>
   <trkpt lon="2.966674" lat="39.868819"><ele>97.75</ele><sym>stay_right</sym></trkpt>
   <trkpt lon="2.963919" lat="39.869487"><ele>101.0</ele></trkpt>
   <trkpt lon="2.963023" lat="39.869694"><ele>102.0</ele></trkpt>
   <trkpt lon="2.962515" lat="39.869825"><ele>103.0</ele></trkpt>
   <trkpt lon="2.962388" lat="39.869849"><ele>103.0</ele></trkpt>
   <trkpt lon="2.962071" lat="39.869861"><ele>103.0</ele></trkpt>
   <trkpt lon="2.960424" lat="39.869706"><ele>104.25</ele></trkpt>
   <trkpt lon="2.959147" lat="39.869591"><ele>106.0</ele></trkpt>
   <trkpt lon="2.957875" lat="39.869492"><ele>106.5</ele></trkpt>
   <trkpt lon="2.957207" lat="39.869424"><ele>107.75</ele></trkpt>
   <trkpt lon="2.956849" lat="39.869364"><ele>108.0</ele><sym>pass_place</sym><type>Shaping</type></trkpt>
   <trkpt lon="2.956749" lat="39.869337"><ele>108.25</ele></trkpt>
   <trkpt lon="2.956540" lat="39.869280"><ele>108.5</ele></trkpt>
   <trkpt lon="2.955407" lat="39.868929"><ele>109.5</ele></trkpt>
   <trkpt lon="2.955300" lat="39.868896"><ele>109.75</ele></trkpt>
   <trkpt lon="2.955120" lat="39.868835"><ele>110.0</ele></trkpt>
   <trkpt lon="2.953817" lat="39.868437"><ele>111.0</ele></trkpt>
   <trkpt lon="2.953444" lat="39.868343"><ele>111.5</ele></trkpt>
   <trkpt lon="2.953296" lat="39.868333"><ele>111.75</ele></trkpt>
   <trkpt lon="2.953063" lat="39.868343"><ele>112.0</ele></trkpt>
   <trkpt lon="2.952374" lat="39.868402"><ele>114.0</ele></trkpt>
   <trkpt lon="2.951379" lat="39.868478"><ele>117.0</ele></trkpt>
   <trkpt lon="2.951144" lat="39.868534"><ele>117.5</ele></trkpt>
   <trkpt lon="2.950979" lat="39.868585"><ele>118.0</ele></trkpt>
   <trkpt lon="2.950425" lat="39.868832"><ele>121.25</ele></trkpt>
   <trkpt lon="2.950067" lat="39.868917"><ele>123.0</ele></trkpt>
   <trkpt lon="2.948872" lat="39.869171"><ele>130.25</ele></trkpt>
   <trkpt lon="2.948691" lat="39.869192"><ele>132.0</ele></trkpt>
   <trkpt lon="2.948443" lat="39.869189"><ele>133.5</ele></trkpt>
   <trkpt lon="2.947206" lat="39.869139"><ele>138.5</ele></trkpt>
   <trkpt lon="2.946968" lat="39.869152"><ele>140.0</ele></trkpt>
   <trkpt lon="2.946802" lat="39.869175"><ele>140.75</ele></trkpt>
   <trkpt lon="2.946666" lat="39.869225"><ele>142.5</ele></trkpt>
   <trkpt lon="2.946381" lat="39.869381"><ele>145.25</ele></trkpt>
   <trkpt lon="2.946223" lat="39.869411"><ele>145.75</ele></trkpt>
   <trkpt lon="2.946102" lat="39.869405"><ele>145.25</ele></trkpt>
   <trkpt lon="2.945959" lat="39.869350"><ele>146.0</ele></trkpt>
   <trkpt lon="2.945878" lat="39.869294"><ele>146.75</ele></trkpt>
   <trkpt lon="2.945716" lat="39.869107"><ele>151.0</ele></trkpt>
   <trkpt lon="2.945412" lat="39.868644"><ele>154.0</ele></trkpt>
   <trkpt lon="2.945290" lat="39.868476"><ele>154.5</ele></trkpt>
   <trkpt lon="2.945157" lat="39.868360"><ele>155.25</ele></trkpt>
   <trkpt lon="2.944963" lat="39.868266"><ele>156.75</ele></trkpt>
   <trkpt lon="2.944317" lat="39.868023"><ele>160.75</ele></trkpt>
   <trkpt lon="2.944045" lat="39.867948"><ele>163.25</ele></trkpt>
   <trkpt lon="2.943659" lat="39.867891"><ele>165.5</ele></trkpt>
   <trkpt lon="2.943560" lat="39.867864"><ele>165.75</ele></trkpt>
   <trkpt lon="2.943484" lat="39.867826"><ele>165.5</ele></trkpt>
   <trkpt lon="2.943034" lat="39.867256"><ele>168.5</ele></trkpt>
   <trkpt lon="2.942773" lat="39.867057"><ele>171.0</ele></trkpt>
   <trkpt lon="2.942282" lat="39.866753"><ele>175.0</ele></trkpt>
   <trkpt lon="2.941987" lat="39.866598"><ele>175.5</ele></trkpt>
   <trkpt lon="2.941768" lat="39.866533"><ele>177.0</ele></trkpt>
   <trkpt lon="2.941569" lat="39.866522"><ele>179.25</ele></trkpt>
   <trkpt lon="2.941304" lat="39.866498"><ele>181.25</ele></trkpt>
   <trkpt lon="2.941119" lat="39.866469"><ele>181.75</ele></trkpt>
   <trkpt lon="2.940646" lat="39.866342"><ele>186.25</ele></trkpt>
   <trkpt lon="2.940315" lat="39.866211"><ele>188.75</ele></trkpt>
   <trkpt lon="2.939109" lat="39.865853"><ele>193.5</ele></trkpt>
   <trkpt lon="2.938914" lat="39.865808"><ele>193.0</ele></trkpt>
   <trkpt lon="2.938824" lat="39.865813"><ele>193.75</ele></trkpt>
   <trkpt lon="2.938741" lat="39.865846"><ele>195.25</ele></trkpt>
   <trkpt lon="2.938678" lat="39.865890"><ele>196.25</ele></trkpt>
   <trkpt lon="2.938642" lat="39.865943"><ele>197.5</ele></trkpt>
   <trkpt lon="2.938619" lat="39.866011"><ele>199.0</ele></trkpt>
   <trkpt lon="2.938620" lat="39.866094"><ele>200.5</ele></trkpt>
   <trkpt lon="2.938675" lat="39.866165"><ele>205.0</ele></trkpt>
   <trkpt lon="2.938770" lat="39.866207"><ele>207.25</ele></trkpt>
   <trkpt lon="2.938917" lat="39.866256"><ele>209.25</ele><sym>pass_place</sym><type>Shaping</type></trkpt>
   <trkpt lon="2.939257" lat="39.866244"><ele>205.5</ele></trkpt>
   <trkpt lon="2.939448" lat="39.866261"><ele>204.25</ele></trkpt>
   <trkpt lon="2.939704" lat="39.866342"><ele>204.25</ele></trkpt>
   <trkpt lon="2.940811" lat="39.867030"><ele>212.25</ele></trkpt>
   <trkpt lon="2.940919" lat="39.867141"><ele>211.75</ele></trkpt>
   <trkpt lon="2.941203" lat="39.867764"><ele>217.0</ele></trkpt>
   <trkpt lon="2.941344" lat="39.868135"><ele>220.25</ele></trkpt>
   <trkpt lon="2.941425" lat="39.868396"><ele>221.75</ele></trkpt>
   <trkpt lon="2.941465" lat="39.868811"><ele>227.0</ele></trkpt>
   <trkpt lon="2.941513" lat="39.868882"><ele>227.5</ele></trkpt>
   <trkpt lon="2.941587" lat="39.868934"><ele>229.5</ele></trkpt>
   <trkpt lon="2.941677" lat="39.868964"><ele>230.5</ele></trkpt>
   <trkpt lon="2.941842" lat="39.868967"><ele>231.75</ele></trkpt>
   <trkpt lon="2.942027" lat="39.868937"><ele>230.0</ele></trkpt>
   <trkpt lon="2.942261" lat="39.868942"><ele>230.5</ele></trkpt>
   <trkpt lon="2.943275" lat="39.869187"><ele>235.0</ele></trkpt>
   <trkpt lon="2.943413" lat="39.869252"><ele>236.25</ele></trkpt>
   <trkpt lon="2.943498" lat="39.869353"><ele>237.25</ele></trkpt>
   <trkpt lon="2.943517" lat="39.869444"><ele>237.75</ele></trkpt>
   <trkpt lon="2.943514" lat="39.869536"><ele>238.25</ele></trkpt>
   <trkpt lon="2.943447" lat="39.869636"><ele>239.0</ele></trkpt>
   <trkpt lon="2.943350" lat="39.869726"><ele>240.75</ele></trkpt>
   <trkpt lon="2.943252" lat="39.869775"><ele>243.0</ele></trkpt>
   <trkpt lon="2.943117" lat="39.869789"><ele>244.25</ele></trkpt>
   <trkpt lon="2.942946" lat="39.869751"><ele>245.0</ele></trkpt>
   <trkpt lon="2.941707" lat="39.869382"><ele>256.0</ele></trkpt>
   <trkpt lon="2.941463" lat="39.869362"><ele>256.5</ele></trkpt>
   <trkpt lon="2.941284" lat="39.869357"><ele>258.5</ele></trkpt>
   <trkpt lon="2.941145" lat="39.869325"><ele>259.75</ele></trkpt>
   <trkpt lon="2.941054" lat="39.869283"><ele>260.75</ele></trkpt>
   <trkpt lon="2.940969" lat="39.869187"><ele>259.75</ele></trkpt>
   <trkpt lon="2.940878" lat="39.868810"><ele>263.5</ele></trkpt>
   <trkpt lon="2.940801" lat="39.868654"><ele>264.75</ele></trkpt>
   <trkpt lon="2.940693" lat="39.868499"><ele>267.0</ele></trkpt>
   <trkpt lon="2.940442" lat="39.868189"><ele>268.75</ele></trkpt>
   <trkpt lon="2.939783" lat="39.867591"><ele>268.5</ele></trkpt>
   <trkpt lon="2.939524" lat="39.867398"><ele>270.75</ele></trkpt>
   <trkpt lon="2.939333" lat="39.867311"><ele>274.75</ele></trkpt>
   <trkpt lon="2.939014" lat="39.867287"><ele>282.25</ele></trkpt>
   <trkpt lon="2.938557" lat="39.867267"><ele>283.75</ele></trkpt>
   <trkpt lon="2.938080" lat="39.867139"><ele>282.0</ele></trkpt>
   <trkpt lon="2.937683" lat="39.867005"><ele>286.0</ele></trkpt>
   <trkpt lon="2.937307" lat="39.866904"><ele>285.25</ele></trkpt>
   <trkpt lon="2.936330" lat="39.866721"><ele>291.0</ele></trkpt>
   <trkpt lon="2.935913" lat="39.866664"><ele>292.5</ele></trkpt>
   <trkpt lon="2.935549" lat="39.866599"><ele>291.5</ele></trkpt>
   <trkpt lon="2.935243" lat="39.866615"><ele>295.0</ele></trkpt>
   <trkpt lon="2.934530" lat="39.866670"><ele>299.75</ele></trkpt>
   <trkpt lon="2.933892" lat="39.866712"><ele>303.75</ele></trkpt>
   <trkpt lon="2.933646" lat="39.866751"><ele>304.75</ele></trkpt>
   <trkpt lon="2.933497" lat="39.866817"><ele>306.0</ele></trkpt>
   <trkpt lon="2.933363" lat="39.866888"><ele>307.0</ele></trkpt>
   <trkpt lon="2.932880" lat="39.867277"><ele>314.25</ele></trkpt>
   <trkpt lon="2.932752" lat="39.867315"><ele>313.5</ele></trkpt>
   <trkpt lon="2.932619" lat="39.867321"><ele>313.25</ele></trkpt>
   <trkpt lon="2.932410" lat="39.867265"><ele>313.5</ele></trkpt>
   <trkpt lon="2.931501" lat="39.866954"><ele>320.5</ele><sym>left_slight</sym></trkpt>
   <trkpt lon="2.931499" lat="39.866949"><ele>318.5</ele><sym>pass_place</sym><type>Shaping</type></trkpt>
   <trkpt lon="2.931501" lat="39.866954"><ele>320.5</ele></trkpt>
   <trkpt lon="2.931367" lat="39.866889"><ele>322.0</ele></trkpt>
   <trkpt lon="2.931301" lat="39.866803"><ele>323.0</ele></trkpt>
   <trkpt lon="2.931247" lat="39.866681"><ele>323.0</ele></trkpt>
   <trkpt lon="2.931103" lat="39.866243"><ele>325.5</ele></trkpt>
   <trkpt lon="2.931019" lat="39.866079"><ele>326.5</ele></trkpt>
   <trkpt lon="2.930955" lat="39.866014"><ele>326.75</ele></trkpt>
   <trkpt lon="2.930842" lat="39.865969"><ele>328.5</ele></trkpt>
   <trkpt lon="2.930721" lat="39.865961"><ele>329.5</ele></trkpt>
   <trkpt lon="2.929867" lat="39.866155"><ele>336.5</ele></trkpt>
   <trkpt lon="2.929681" lat="39.866234"><ele>338.5</ele></trkpt>
   <trkpt lon="2.929568" lat="39.866322"><ele>339.25</ele></trkpt>
   <trkpt lon="2.929437" lat="39.866454"><ele>340.0</ele></trkpt>
   <trkpt lon="2.929340" lat="39.866530"><ele>341.0</ele></trkpt>
   <trkpt lon="2.929197" lat="39.866597"><ele>340.25</ele></trkpt>
   <trkpt lon="2.928206" lat="39.867000"><ele>344.25</ele></trkpt>
   <trkpt lon="2.927792" lat="39.867163"><ele>345.75</ele></trkpt>
   <trkpt lon="2.927682" lat="39.867235"><ele>346.0</ele></trkpt>
   <trkpt lon="2.927599" lat="39.867324"><ele>345.25</ele></trkpt>
   <trkpt lon="2.927592" lat="39.867387"><ele>346.0</ele></trkpt>
   <trkpt lon="2.927615" lat="39.867462"><ele>347.75</ele></trkpt>
   <trkpt lon="2.927678" lat="39.867558"><ele>349.0</ele></trkpt>
   <trkpt lon="2.927794" lat="39.867645"><ele>349.5</ele></trkpt>
   <trkpt lon="2.928117" lat="39.867762"><ele>352.5</ele></trkpt>
   <trkpt lon="2.928487" lat="39.867870"><ele>356.25</ele></trkpt>
   <trkpt lon="2.928602" lat="39.867924"><ele>356.75</ele></trkpt>
   <trkpt lon="2.928703" lat="39.868015"><ele>357.25</ele></trkpt>
   <trkpt lon="2.928727" lat="39.868094"><ele>357.5</ele></trkpt>
   <trkpt lon="2.928719" lat="39.868194"><ele>358.75</ele></trkpt>
   <trkpt lon="2.928653" lat="39.868293"><ele>359.5</ele></trkpt>
   <trkpt lon="2.928535" lat="39.868370"><ele>361.0</ele></trkpt>
   <trkpt lon="2.928186" lat="39.868454"><ele>362.25</ele></trkpt>
   <trkpt lon="2.927650" lat="39.868573"><ele>364.0</ele></trkpt>
   <trkpt lon="2.926980" lat="39.868726"><ele>370.5</ele></trkpt>
   <trkpt lon="2.926811" lat="39.868787"><ele>371.0</ele></trkpt>
   <trkpt lon="2.926674" lat="39.868856"><ele>371.5</ele></trkpt>
   <trkpt lon="2.926262" lat="39.869164"><ele>374.5</ele></trkpt>
   <trkpt lon="2.926054" lat="39.869282"><ele>376.75</ele></trkpt>
   <trkpt lon="2.925873" lat="39.869355"><ele>377.5</ele></trkpt>
   <trkpt lon="2.925694" lat="39.869402"><ele>378.75</ele></trkpt>
   <trkpt lon="2.925541" lat="39.869419"><ele>379.5</ele></trkpt>
   <trkpt lon="2.925361" lat="39.869382"><ele>381.0</ele></trkpt>
   <trkpt lon="2.925232" lat="39.869312"><ele>382.25</ele></trkpt>
   <trkpt lon="2.925137" lat="39.869228"><ele>383.0</ele></trkpt>
   <trkpt lon="2.925004" lat="39.869081"><ele>383.75</ele></trkpt>
   <trkpt lon="2.924913" lat="39.868915"><ele>383.75</ele></trkpt>
   <trkpt lon="2.924664" lat="39.868047"><ele>391.0</ele></trkpt>
   <trkpt lon="2.924410" lat="39.867222"><ele>395.25</ele></trkpt>
   <trkpt lon="2.924366" lat="39.866998"><ele>397.75</ele></trkpt>
   <trkpt lon="2.924372" lat="39.866579"><ele>398.25</ele></trkpt>
   <trkpt lon="2.924354" lat="39.866489"><ele>397.5</ele></trkpt>
   <trkpt lon="2.924311" lat="39.866422"><ele>397.75</ele></trkpt>
   <trkpt lon="2.924269" lat="39.866387"><ele>398.25</ele></trkpt>
   <trkpt lon="2.924202" lat="39.866351"><ele>398.5</ele></trkpt>
   <trkpt lon="2.922631" lat="39.866022"><ele>401.0</ele></trkpt>
   <trkpt lon="2.922334" lat="39.865978"><ele>400.5</ele></trkpt>
   <trkpt lon="2.922070" lat="39.865973"><ele>403.5</ele></trkpt>
   <trkpt lon="2.921203" lat="39.866032"><ele>408.5</ele></trkpt>
   <trkpt lon="2.921062" lat="39.866034"><ele>407.5</ele></trkpt>
   <trkpt lon="2.920948" lat="39.866002"><ele>406.5</ele></trkpt>
   <trkpt lon="2.920804" lat="39.865922"><ele>405.75</ele></trkpt>
   <trkpt lon="2.920385" lat="39.865586"><ele>403.75</ele></trkpt>
   <trkpt lon="2.919822" lat="39.865213"><ele>398.5</ele></trkpt>
   <trkpt lon="2.919192" lat="39.864841"><ele>401.25</ele></trkpt>
   <trkpt lon="2.918827" lat="39.864561"><ele>404.25</ele><sym>pass_place</sym><type>Shaping</type></trkpt>
   <trkpt lon="2.918825" lat="39.864559"><ele>404.25</ele></trkpt>
   <trkpt lon="2.918674" lat="39.864490"><ele>403.0</ele></trkpt>
   <trkpt lon="2.918538" lat="39.864440"><ele>402.25</ele></trkpt>
   <trkpt lon="2.918228" lat="39.864339"><ele>403.5</ele></trkpt>
   <trkpt lon="2.917809" lat="39.864220"><ele>406.75</ele></trkpt>
   <trkpt lon="2.917683" lat="39.864170"><ele>409.0</ele></trkpt>
   <trkpt lon="2.917614" lat="39.864121"><ele>409.75</ele></trkpt>
   <trkpt lon="2.917565" lat="39.864063"><ele>410.25</ele></trkpt>
   <trkpt lon="2.917496" lat="39.863955"><ele>409.75</ele></trkpt>
   <trkpt lon="2.917373" lat="39.863679"><ele>412.25</ele></trkpt>
   <trkpt lon="2.917241" lat="39.863346"><ele>414.75</ele></trkpt>
   <trkpt lon="2.917134" lat="39.863205"><ele>418.0</ele></trkpt>
   <trkpt lon="2.917044" lat="39.863144"><ele>418.0</ele></trkpt>
   <trkpt lon="2.916744" lat="39.863028"><ele>418.0</ele></trkpt>
   <trkpt lon="2.916662" lat="39.862984"><ele>419.0</ele></trkpt>
   <trkpt lon="2.916574" lat="39.862924"><ele>419.25</ele></trkpt>
   <trkpt lon="2.916476" lat="39.862806"><ele>420.25</ele></trkpt>
   <trkpt lon="2.916393" lat="39.862693"><ele>419.75</ele></trkpt>
   <trkpt lon="2.916350" lat="39.862564"><ele>420.5</ele></trkpt>
   <trkpt lon="2.916351" lat="39.862415"><ele>421.25</ele></trkpt>
   <trkpt lon="2.916467" lat="39.861962"><ele>422.75</ele></trkpt>
   <trkpt lon="2.916592" lat="39.861430"><ele>424.5</ele></trkpt>
   <trkpt lon="2.916590" lat="39.861303"><ele>426.25</ele></trkpt>
   <trkpt lon="2.916544" lat="39.861206"><ele>427.5</ele></trkpt>
   <trkpt lon="2.916443" lat="39.861106"><ele>428.5</ele></trkpt>
   <trkpt lon="2.916314" lat="39.861040"><ele>429.75</ele></trkpt>
   <trkpt lon="2.916135" lat="39.860975"><ele>431.0</ele></trkpt>
   <trkpt lon="2.916005" lat="39.860913"><ele>430.75</ele></trkpt>
   <trkpt lon="2.915895" lat="39.860825"><ele>431.5</ele></trkpt>
   <trkpt lon="2.915761" lat="39.860628"><ele>435.0</ele></trkpt>
   <trkpt lon="2.915596" lat="39.860409"><ele>433.75</ele></trkpt>
   <trkpt lon="2.915435" lat="39.860119"><ele>436.25</ele></trkpt>
   <trkpt lon="2.915424" lat="39.860031"><ele>438.25</ele></trkpt>
   <trkpt lon="2.915453" lat="39.859917"><ele>439.25</ele></trkpt>
   <trkpt lon="2.915496" lat="39.859801"><ele>439.5</ele></trkpt>
   <trkpt lon="2.915526" lat="39.859635"><ele>440.75</ele></trkpt>
   <trkpt lon="2.915518" lat="39.859570"><ele>441.25</ele></trkpt>
   <trkpt lon="2.915491" lat="39.859515"><ele>441.25</ele></trkpt>
   <trkpt lon="2.915437" lat="39.859468"><ele>441.25</ele></trkpt>
   <trkpt lon="2.915011" lat="39.859268"><ele>443.5</ele></trkpt>
   <trkpt lon="2.914698" lat="39.859084"><ele>442.0</ele></trkpt>
   <trkpt lon="2.914561" lat="39.858973"><ele>441.5</ele></trkpt>
   <trkpt lon="2.914458" lat="39.858851"><ele>442.0</ele></trkpt>
   <trkpt lon="2.914274" lat="39.858553"><ele>442.5</ele></trkpt>
   <trkpt lon="2.914057" lat="39.858136"><ele>444.0</ele></trkpt>
   <trkpt lon="2.914030" lat="39.858041"><ele>444.0</ele></trkpt>
   <trkpt lon="2.914029" lat="39.857934"><ele>444.75</ele></trkpt>
   <trkpt lon="2.914093" lat="39.857194"><ele>448.0</ele></trkpt>
   <trkpt lon="2.914070" lat="39.857118"><ele>447.25</ele></trkpt>
   <trkpt lon="2.913983" lat="39.857031"><ele>445.5</ele></trkpt>
   <trkpt lon="2.913811" lat="39.856913"><ele>444.5</ele></trkpt>
   <trkpt lon="2.913742" lat="39.856871"><ele>445.5</ele></trkpt>
   <trkpt lon="2.913563" lat="39.856764"><ele>448.5</ele></trkpt>
   <trkpt lon="2.913372" lat="39.856684"><ele>450.5</ele></trkpt>
   <trkpt lon="2.913240" lat="39.856651"><ele>451.25</ele></trkpt>
   <trkpt lon="2.913141" lat="39.856655"><ele>451.0</ele></trkpt>
   <trkpt lon="2.912961" lat="39.856706"><ele>451.75</ele></trkpt>
   <trkpt lon="2.912779" lat="39.856775"><ele>454.0</ele></trkpt>
   <trkpt lon="2.912578" lat="39.856888"><ele>454.0</ele></trkpt>
   <trkpt lon="2.912431" lat="39.856982"><ele>454.5</ele></trkpt>
   <trkpt lon="2.910978" lat="39.858409"><ele>462.75</ele></trkpt>
   <trkpt lon="2.910879" lat="39.858459"><ele>463.5</ele></trkpt>
   <trkpt lon="2.910738" lat="39.858478"><ele>464.75</ele></trkpt>
   <trkpt lon="2.910637" lat="39.858452"><ele>465.75</ele></trkpt>
   <trkpt lon="2.910545" lat="39.858382"><ele>466.75</ele></trkpt>
   <trkpt lon="2.910493" lat="39.858327"><ele>467.5</ele></trkpt>
   <trkpt lon="2.910478" lat="39.858248"><ele>467.75</ele></trkpt>
   <trkpt lon="2.910492" lat="39.857899"><ele>469.75</ele></trkpt>
   <trkpt lon="2.910480" lat="39.857551"><ele>471.75</ele></trkpt>
   <trkpt lon="2.910361" lat="39.857012"><ele>477.5</ele></trkpt>
   <trkpt lon="2.910322" lat="39.856901"><ele>478.75</ele></trkpt>
   <trkpt lon="2.910195" lat="39.856734"><ele>481.0</ele></trkpt>
   <trkpt lon="2.909926" lat="39.856475"><ele>483.75</ele></trkpt>
   <trkpt lon="2.909092" lat="39.855724"><ele>485.25</ele></trkpt>
   <trkpt lon="2.908551" lat="39.855172"><ele>487.0</ele><sym>pass_place</sym><type>Shaping</type></trkpt>
   <trkpt lon="2.907869" lat="39.854415"><ele>492.0</ele></trkpt>
   <trkpt lon="2.907759" lat="39.854335"><ele>493.75</ele></trkpt>
   <trkpt lon="2.907514" lat="39.854215"><ele>495.75</ele></trkpt>
   <trkpt lon="2.907042" lat="39.854060"><ele>499.25</ele></trkpt>
   <trkpt lon="2.906854" lat="39.854018"><ele>500.25</ele></trkpt>
   <trkpt lon="2.906712" lat="39.854020"><ele>501.5</ele></trkpt>
   <trkpt lon="2.906574" lat="39.854048"><ele>503.25</ele></trkpt>
   <trkpt lon="2.906356" lat="39.854136"><ele>504.5</ele></trkpt>
   <trkpt lon="2.906204" lat="39.854224"><ele>505.75</ele></trkpt>
   <trkpt lon="2.905981" lat="39.854361"><ele>507.25</ele></trkpt>
   <trkpt lon="2.905850" lat="39.854412"><ele>508.5</ele></trkpt>
   <trkpt lon="2.905657" lat="39.854452"><ele>509.75</ele></trkpt>
   <trkpt lon="2.905271" lat="39.854478"><ele>511.75</ele></trkpt>
   <trkpt lon="2.905087" lat="39.854507"><ele>512.75</ele></trkpt>
   <trkpt lon="2.904955" lat="39.854551"><ele>513.5</ele></trkpt>
   <trkpt lon="2.904579" lat="39.854819"><ele>516.25</ele></trkpt>
   <trkpt lon="2.904386" lat="39.854941"><ele>518.5</ele></trkpt>
   <trkpt lon="2.904289" lat="39.855022"><ele>518.5</ele></trkpt>
   <trkpt lon="2.904230" lat="39.855114"><ele>519.25</ele></trkpt>
   <trkpt lon="2.904149" lat="39.855624"><ele>521.75</ele></trkpt>
   <trkpt lon="2.904090" lat="39.855759"><ele>522.0</ele></trkpt>
   <trkpt lon="2.903977" lat="39.855876"><ele>523.5</ele></trkpt>
   <trkpt lon="2.903876" lat="39.855952"><ele>524.75</ele></trkpt>
   <trkpt lon="2.903687" lat="39.856033"><ele>526.5</ele></trkpt>
   <trkpt lon="2.903400" lat="39.856116"><ele>528.5</ele></trkpt>
   <trkpt lon="2.903151" lat="39.856153"><ele>530.5</ele></trkpt>
   <trkpt lon="2.902948" lat="39.856164"><ele>531.75</ele></trkpt>
   <trkpt lon="2.902476" lat="39.856147"><ele>534.0</ele></trkpt>
   <trkpt lon="2.902201" lat="39.856129"><ele>535.0</ele></trkpt>
   <trkpt lon="2.902014" lat="39.856101"><ele>535.75</ele></trkpt>
   <trkpt lon="2.901659" lat="39.855934"><ele>537.75</ele></trkpt>
   <trkpt lon="2.901060" lat="39.855587"><ele>537.5</ele></trkpt>
   <trkpt lon="2.900057" lat="39.855021"><ele>530.25</ele></trkpt>
   <trkpt lon="2.899814" lat="39.854884"><ele>527.5</ele></trkpt>
   <trkpt lon="2.898091" lat="39.853912"><ele>519.75</ele></trkpt>
   <trkpt lon="2.897912" lat="39.853782"><ele>519.25</ele></trkpt>
   <trkpt lon="2.897787" lat="39.853646"><ele>519.5</ele></trkpt>
   <trkpt lon="2.897576" lat="39.853272"><ele>519.5</ele></trkpt>
   <trkpt lon="2.897280" lat="39.852721"><ele>517.75</ele></trkpt>
   <trkpt lon="2.896896" lat="39.851599"><ele>510.25</ele></trkpt>
   <trkpt lon="2.896670" lat="39.850765"><ele>513.0</ele></trkpt>
   <trkpt lon="2.896546" lat="39.849835"><ele>509.0</ele></trkpt>
   <trkpt lon="2.896401" lat="39.848560"><ele>512.75</ele></trkpt>
   <trkpt lon="2.896342" lat="39.848264"><ele>515.25</ele></trkpt>
   <trkpt lon="2.896259" lat="39.848139"><ele>515.75</ele><sym>pass_place</sym><type>Shaping</type></trkpt>
   <trkpt lon="2.896258" lat="39.848137"><ele>515.75</ele></trkpt>
   <trkpt lon="2.895468" lat="39.847100"><ele>518.75</ele></trkpt>
   <trkpt lon="2.895152" lat="39.846589"><ele>520.25</ele></trkpt>
   <trkpt lon="2.895002" lat="39.846331"><ele>519.25</ele></trkpt>
   <trkpt lon="2.894910" lat="39.846146"><ele>518.75</ele></trkpt>
   <trkpt lon="2.894856" lat="39.845946"><ele>518.25</ele></trkpt>
   <trkpt lon="2.894852" lat="39.845804"><ele>518.75</ele></trkpt>
   <trkpt lon="2.895414" lat="39.843893"><ele>518.0</ele></trkpt>
   <trkpt lon="2.895443" lat="39.843794"><ele>517.5</ele></trkpt>
   <trkpt lon="2.896159" lat="39.841425"><ele>499.75</ele></trkpt>
   <trkpt lon="2.896171" lat="39.841381"><ele>499.25</ele></trkpt>
   <trkpt lon="2.896446" lat="39.840468"><ele>515.5</ele></trkpt>
   <trkpt lon="2.896815" lat="39.839296"><ele>520.0</ele></trkpt>
   <trkpt lon="2.896884" lat="39.839076"><ele>519.5</ele></trkpt>
   <trkpt lon="2.897287" lat="39.837756"><ele>528.5</ele></trkpt>
   <trkpt lon="2.897356" lat="39.837404"><ele>535.0</ele></trkpt>
   <trkpt lon="2.897324" lat="39.837124"><ele>535.5</ele></trkpt>
   <trkpt lon="2.897078" lat="39.836470"><ele>536.5</ele></trkpt>
   <trkpt lon="2.897058" lat="39.836407"><ele>536.25</ele></trkpt>
   <trkpt lon="2.896795" lat="39.835611"><ele>538.0</ele></trkpt>
   <trkpt lon="2.896690" lat="39.835435"><ele>539.25</ele></trkpt>
   <trkpt lon="2.895904" lat="39.834690"><ele>544.5</ele></trkpt>
   <trkpt lon="2.895859" lat="39.834560"><ele>545.25</ele></trkpt>
   <trkpt lon="2.895844" lat="39.834413"><ele>546.0</ele></trkpt>
   <trkpt lon="2.895903" lat="39.833726"><ele>551.5</ele></trkpt>
   <trkpt lon="2.895926" lat="39.833436"><ele>553.25</ele></trkpt>
   <trkpt lon="2.895933" lat="39.833352"><ele>553.5</ele></trkpt>
   <trkpt lon="2.895893" lat="39.833054"><ele>554.75</ele></trkpt>
   <trkpt lon="2.895727" lat="39.832222"><ele>561.5</ele><sym>pass_place</sym><type>Shaping</type></trkpt>
   <trkpt lon="2.895644" lat="39.831848"><ele>560.75</ele></trkpt>
   <trkpt lon="2.895613" lat="39.831650"><ele>561.25</ele></trkpt>
   <trkpt lon="2.895601" lat="39.831486"><ele>561.75</ele></trkpt>
   <trkpt lon="2.895652" lat="39.831086"><ele>560.25</ele></trkpt>
   <trkpt lon="2.895717" lat="39.830720"><ele>562.0</ele></trkpt>
   <trkpt lon="2.895717" lat="39.830719"><ele>562.0</ele><sym>pass_place</sym><type>Shaping</type></trkpt>
   <trkpt lon="2.895778" lat="39.830531"><ele>562.0</ele></trkpt>
   <trkpt lon="2.895860" lat="39.830394"><ele>561.25</ele></trkpt>
   <trkpt lon="2.895926" lat="39.830323"><ele>561.0</ele></trkpt>
   <trkpt lon="2.896032" lat="39.830235"><ele>559.5</ele></trkpt>
   <trkpt lon="2.896210" lat="39.830127"><ele>558.5</ele></trkpt>
   <trkpt lon="2.896498" lat="39.829965"><ele>558.25</ele></trkpt>
   <trkpt lon="2.897559" lat="39.829359"><ele>554.75</ele></trkpt>
   <trkpt lon="2.897650" lat="39.829308"><ele>554.5</ele></trkpt>
   <trkpt lon="2.897919" lat="39.829152"><ele>553.5</ele></trkpt>
   <trkpt lon="2.898009" lat="39.829085"><ele>552.25</ele></trkpt>
   <trkpt lon="2.898043" lat="39.829052"><ele>551.75</ele></trkpt>
   <trkpt lon="2.898097" lat="39.828980"><ele>550.5</ele></trkpt>
   <trkpt lon="2.898133" lat="39.828902"><ele>548.75</ele></trkpt>
   <trkpt lon="2.898146" lat="39.828830"><ele>548.25</ele></trkpt>
   <trkpt lon="2.898140" lat="39.828735"><ele>548.0</ele></trkpt>
   <trkpt lon="2.897981" lat="39.828122"><ele>542.75</ele></trkpt>
   <trkpt lon="2.897965" lat="39.828028"><ele>541.75</ele></trkpt>
   <trkpt lon="2.897972" lat="39.827963"><ele>541.75</ele></trkpt>
   <trkpt lon="2.898026" lat="39.827841"><ele>542.5</ele></trkpt>
   <trkpt lon="2.898058" lat="39.827797"><ele>543.0</ele></trkpt>
   <trkpt lon="2.898121" lat="39.827731"><ele>542.0</ele></trkpt>
   <trkpt lon="2.898204" lat="39.827678"><ele>541.25</ele></trkpt>
   <trkpt lon="2.898421" lat="39.827584"><ele>540.5</ele></trkpt>
   <trkpt lon="2.899123" lat="39.827299"><ele>537.5</ele></trkpt>
   <trkpt lon="2.899577" lat="39.827122"><ele>534.75</ele></trkpt>
   <trkpt lon="2.899706" lat="39.827023"><ele>534.0</ele></trkpt>
   <trkpt lon="2.899829" lat="39.826868"><ele>532.75</ele></trkpt>
   <trkpt lon="2.899884" lat="39.826601"><ele>532.25</ele></trkpt>
   <trkpt lon="2.899945" lat="39.826124"><ele>530.5</ele></trkpt>
   <trkpt lon="2.899953" lat="39.825901"><ele>528.0</ele></trkpt>
   <trkpt lon="2.899958" lat="39.825755"><ele>526.75</ele></trkpt>
   <trkpt lon="2.899904" lat="39.825514"><ele>524.75</ele></trkpt>
   <trkpt lon="2.899631" lat="39.825086"><ele>525.25</ele></trkpt>
   <trkpt lon="2.899176" lat="39.824477"><ele>522.75</ele></trkpt>
   <trkpt lon="2.898783" lat="39.824007"><ele>519.25</ele></trkpt>
   <trkpt lon="2.898520" lat="39.823744"><ele>518.0</ele></trkpt>
   <trkpt lon="2.898234" lat="39.823490"><ele>517.0</ele></trkpt>
   <trkpt lon="2.897593" lat="39.822994"><ele>515.25</ele></trkpt>
   <trkpt lon="2.896342" lat="39.822087"><ele>511.5</ele></trkpt>
   <trkpt lon="2.894507" lat="39.820734"><ele>500.75</ele></trkpt>
   <trkpt lon="2.894418" lat="39.820687"><ele>499.75</ele></trkpt>
   <trkpt lon="2.894239" lat="39.820611"><ele>498.25</ele></trkpt>
   <trkpt lon="2.894121" lat="39.820560"><ele>497.75</ele></trkpt>
   <trkpt lon="2.893911" lat="39.820516"><ele>497.0</ele></trkpt>
   <trkpt lon="2.893774" lat="39.820504"><ele>496.5</ele></trkpt>
   <trkpt lon="2.893616" lat="39.820508"><ele>496.0</ele></trkpt>
   <trkpt lon="2.893149" lat="39.820606"><ele>494.75</ele></trkpt>
   <trkpt lon="2.892729" lat="39.820749"><ele>494.5</ele></trkpt>
   <trkpt lon="2.892537" lat="39.820803"><ele>494.75</ele></trkpt>
   <trkpt lon="2.892456" lat="39.820792"><ele>495.0</ele><sym>right_slight</sym></trkpt>
   <trkpt lon="2.892418" lat="39.820822"><ele>494.75</ele></trkpt>
   <trkpt lon="2.892379" lat="39.820847"><ele>494.25</ele></trkpt>
   <trkpt lon="2.892317" lat="39.820869"><ele>493.75</ele></trkpt>
   <trkpt lon="2.891194" lat="39.821195"><ele>490.5</ele></trkpt>
   <trkpt lon="2.890931" lat="39.821272"><ele>490.0</ele></trkpt>
   <trkpt lon="2.890075" lat="39.821528"><ele>487.0</ele><sym>pass_place</sym><type>Shaping</type></trkpt>
   <trkpt lon="2.889325" lat="39.821740"><ele>483.75</ele></trkpt>
   <trkpt lon="2.889059" lat="39.821790"><ele>481.5</ele></trkpt>
   <trkpt lon="2.888198" lat="39.821916"><ele>479.75</ele></trkpt>
   <trkpt lon="2.887730" lat="39.821972"><ele>478.75</ele></trkpt>
   <trkpt lon="2.887576" lat="39.821981"><ele>478.25</ele></trkpt>
   <trkpt lon="2.887477" lat="39.821973"><ele>478.0</ele><sym>right</sym></trkpt>
   <trkpt lon="2.887426" lat="39.822029"><ele>478.0</ele></trkpt>
   <trkpt lon="2.887253" lat="39.822220"><ele>477.0</ele></trkpt>
   <trkpt lon="2.886973" lat="39.822427"><ele>476.0</ele></trkpt>
   <trkpt lon="2.886895" lat="39.822446"><ele>476.0</ele></trkpt>
   <trkpt lon="2.886773" lat="39.822476"><ele>476.0</ele></trkpt>
   <trkpt lon="2.886414" lat="39.822525"><ele>475.75</ele></trkpt>
   <trkpt lon="2.885963" lat="39.822545"><ele>474.5</ele></trkpt>
   <trkpt lon="2.885899" lat="39.822538"><ele>474.25</ele></trkpt>
   <trkpt lon="2.885850" lat="39.822533"><ele>474.0</ele></trkpt>
   <trkpt lon="2.885722" lat="39.822520"><ele>474.25</ele></trkpt>
   <trkpt lon="2.885453" lat="39.822489"><ele>474.25</ele></trkpt>
   <trkpt lon="2.884874" lat="39.822397"><ele>474.25</ele><sym>u-turn_right</sym></trkpt>
   <trkpt lon="2.884869" lat="39.822396"><ele>474.25</ele><sym>pass_place</sym><type>Shaping</type></trkpt>
   <trkpt lon="2.884874" lat="39.822397"><ele>474.25</ele></trkpt>
   <trkpt lon="2.885453" lat="39.822489"><ele>474.25</ele></trkpt>
   <trkpt lon="2.885722" lat="39.822520"><ele>474.25</ele></trkpt>
   <trkpt lon="2.885850" lat="39.822533"><ele>474.0</ele></trkpt>
   <trkpt lon="2.885899" lat="39.822538"><ele>474.25</ele></trkpt>
   <trkpt lon="2.885963" lat="39.822545"><ele>474.5</ele></trkpt>
   <trkpt lon="2.886414" lat="39.822525"><ele>475.75</ele></trkpt>
   <trkpt lon="2.886773" lat="39.822476"><ele>476.0</ele></trkpt>
   <trkpt lon="2.886895" lat="39.822446"><ele>476.0</ele></trkpt>
   <trkpt lon="2.886973" lat="39.822427"><ele>476.0</ele></trkpt>
   <trkpt lon="2.887253" lat="39.822220"><ele>477.0</ele></trkpt>
   <trkpt lon="2.887426" lat="39.822029"><ele>478.0</ele></trkpt>
   <trkpt lon="2.887477" lat="39.821973"><ele>478.0</ele><sym>left_slight</sym></trkpt>
   <trkpt lon="2.887576" lat="39.821981"><ele>478.25</ele></trkpt>
   <trkpt lon="2.887730" lat="39.821972"><ele>478.75</ele></trkpt>
   <trkpt lon="2.888198" lat="39.821916"><ele>479.75</ele></trkpt>
   <trkpt lon="2.889059" lat="39.821790"><ele>481.5</ele></trkpt>
   <trkpt lon="2.889325" lat="39.821740"><ele>483.75</ele></trkpt>
   <trkpt lon="2.890075" lat="39.821528"><ele>487.0</ele></trkpt>
   <trkpt lon="2.890931" lat="39.821272"><ele>490.0</ele></trkpt>
   <trkpt lon="2.891194" lat="39.821195"><ele>490.5</ele></trkpt>
   <trkpt lon="2.892317" lat="39.820869"><ele>493.75</ele></trkpt>
   <trkpt lon="2.892379" lat="39.820847"><ele>494.25</ele></trkpt>
   <trkpt lon="2.892418" lat="39.820822"><ele>494.75</ele></trkpt>
   <trkpt lon="2.892456" lat="39.820792"><ele>495.0</ele><sym>left_slight</sym></trkpt>
   <trkpt lon="2.892537" lat="39.820803"><ele>494.75</ele></trkpt>
   <trkpt lon="2.892729" lat="39.820749"><ele>494.5</ele></trkpt>
   <trkpt lon="2.893149" lat="39.820606"><ele>494.75</ele></trkpt>
   <trkpt lon="2.893616" lat="39.820508"><ele>496.0</ele></trkpt>
   <trkpt lon="2.893774" lat="39.820504"><ele>496.5</ele></trkpt>
   <trkpt lon="2.893911" lat="39.820516"><ele>497.0</ele></trkpt>
   <trkpt lon="2.894121" lat="39.820560"><ele>497.75</ele></trkpt>
   <trkpt lon="2.894239" lat="39.820611"><ele>498.25</ele></trkpt>
   <trkpt lon="2.894418" lat="39.820687"><ele>499.75</ele></trkpt>
   <trkpt lon="2.894507" lat="39.820734"><ele>500.75</ele></trkpt>
   <trkpt lon="2.896342" lat="39.822087"><ele>511.5</ele></trkpt>
   <trkpt lon="2.897593" lat="39.822994"><ele>515.25</ele></trkpt>
   <trkpt lon="2.898234" lat="39.823490"><ele>517.0</ele></trkpt>
   <trkpt lon="2.898520" lat="39.823744"><ele>518.0</ele></trkpt>
   <trkpt lon="2.898783" lat="39.824007"><ele>519.25</ele></trkpt>
   <trkpt lon="2.899176" lat="39.824477"><ele>522.75</ele></trkpt>
   <trkpt lon="2.899631" lat="39.825086"><ele>525.25</ele></trkpt>
   <trkpt lon="2.899904" lat="39.825514"><ele>524.75</ele></trkpt>
   <trkpt lon="2.899958" lat="39.825755"><ele>526.75</ele></trkpt>
   <trkpt lon="2.899953" lat="39.825901"><ele>528.0</ele></trkpt>
   <trkpt lon="2.899945" lat="39.826124"><ele>530.5</ele></trkpt>
   <trkpt lon="2.899884" lat="39.826601"><ele>532.25</ele></trkpt>
   <trkpt lon="2.899829" lat="39.826868"><ele>532.75</ele></trkpt>
   <trkpt lon="2.899706" lat="39.827023"><ele>534.0</ele></trkpt>
   <trkpt lon="2.899577" lat="39.827122"><ele>534.75</ele></trkpt>
   <trkpt lon="2.899123" lat="39.827299"><ele>537.5</ele><sym>pass_place</sym><type>Shaping</type></trkpt>
   <trkpt lon="2.898421" lat="39.827584"><ele>540.5</ele></trkpt>
   <trkpt lon="2.898204" lat="39.827678"><ele>541.25</ele></trkpt>
   <trkpt lon="2.898121" lat="39.827731"><ele>542.0</ele></trkpt>
   <trkpt lon="2.898058" lat="39.827797"><ele>543.0</ele></trkpt>
   <trkpt lon="2.898026" lat="39.827841"><ele>542.5</ele></trkpt>
   <trkpt lon="2.897972" lat="39.827963"><ele>541.75</ele></trkpt>
   <trkpt lon="2.897965" lat="39.828028"><ele>541.75</ele></trkpt>
   <trkpt lon="2.897981" lat="39.828122"><ele>542.75</ele></trkpt>
   <trkpt lon="2.898140" lat="39.828735"><ele>548.0</ele></trkpt>
   <trkpt lon="2.898146" lat="39.828830"><ele>548.25</ele></trkpt>
   <trkpt lon="2.898133" lat="39.828902"><ele>548.75</ele></trkpt>
   <trkpt lon="2.898097" lat="39.828980"><ele>550.5</ele></trkpt>
   <trkpt lon="2.898043" lat="39.829052"><ele>551.75</ele></trkpt>
   <trkpt lon="2.898009" lat="39.829085"><ele>552.25</ele></trkpt>
   <trkpt lon="2.897919" lat="39.829152"><ele>553.5</ele></trkpt>
   <trkpt lon="2.897650" lat="39.829308"><ele>554.5</ele></trkpt>
   <trkpt lon="2.897559" lat="39.829359"><ele>554.75</ele></trkpt>
   <trkpt lon="2.896498" lat="39.829965"><ele>558.25</ele></trkpt>
   <trkpt lon="2.896210" lat="39.830127"><ele>558.5</ele></trkpt>
   <trkpt lon="2.896032" lat="39.830235"><ele>559.5</ele></trkpt>
   <trkpt lon="2.895926" lat="39.830323"><ele>561.0</ele></trkpt>
   <trkpt lon="2.895860" lat="39.830394"><ele>561.25</ele></trkpt>
   <trkpt lon="2.895778" lat="39.830531"><ele>562.0</ele></trkpt>
   <trkpt lon="2.895717" lat="39.830720"><ele>562.0</ele></trkpt>
   <trkpt lon="2.895652" lat="39.831086"><ele>560.25</ele></trkpt>
   <trkpt lon="2.895601" lat="39.831486"><ele>561.75</ele></trkpt>
   <trkpt lon="2.895613" lat="39.831650"><ele>561.25</ele></trkpt>
   <trkpt lon="2.895644" lat="39.831848"><ele>560.75</ele></trkpt>
   <trkpt lon="2.895727" lat="39.832222"><ele>561.5</ele></trkpt>
   <trkpt lon="2.895893" lat="39.833054"><ele>554.75</ele></trkpt>
   <trkpt lon="2.895933" lat="39.833352"><ele>553.5</ele></trkpt>
   <trkpt lon="2.895926" lat="39.833436"><ele>553.25</ele></trkpt>
   <trkpt lon="2.895903" lat="39.833726"><ele>551.5</ele></trkpt>
   <trkpt lon="2.895844" lat="39.834413"><ele>546.0</ele></trkpt>
   <trkpt lon="2.895859" lat="39.834560"><ele>545.25</ele></trkpt>
   <trkpt lon="2.895904" lat="39.834690"><ele>544.5</ele></trkpt>
   <trkpt lon="2.896690" lat="39.835435"><ele>539.25</ele></trkpt>
   <trkpt lon="2.896795" lat="39.835611"><ele>538.0</ele></trkpt>
   <trkpt lon="2.897058" lat="39.836407"><ele>536.25</ele></trkpt>
   <trkpt lon="2.897078" lat="39.836470"><ele>536.5</ele></trkpt>
   <trkpt lon="2.897324" lat="39.837124"><ele>535.5</ele></trkpt>
   <trkpt lon="2.897356" lat="39.837404"><ele>535.0</ele></trkpt>
   <trkpt lon="2.897287" lat="39.837756"><ele>528.5</ele></trkpt>
   <trkpt lon="2.896884" lat="39.839076"><ele>519.5</ele></trkpt>
   <trkpt lon="2.896815" lat="39.839296"><ele>520.0</ele></trkpt>
   <trkpt lon="2.896446" lat="39.840468"><ele>515.5</ele></trkpt>
   <trkpt lon="2.896171" lat="39.841381"><ele>499.25</ele></trkpt>
   <trkpt lon="2.896159" lat="39.841425"><ele>499.75</ele></trkpt>
   <trkpt lon="2.895444" lat="39.843790"><ele>517.5</ele><sym>pass_place</sym><type>Shaping</type></trkpt>
   <trkpt lon="2.895443" lat="39.843794"><ele>517.5</ele></trkpt>
   <trkpt lon="2.895414" lat="39.843893"><ele>518.0</ele></trkpt>
   <trkpt lon="2.894852" lat="39.845804"><ele>518.75</ele></trkpt>
   <trkpt lon="2.894856" lat="39.845946"><ele>518.25</ele></trkpt>
   <trkpt lon="2.894910" lat="39.846146"><ele>518.75</ele></trkpt>
   <trkpt lon="2.895002" lat="39.846331"><ele>519.25</ele></trkpt>
   <trkpt lon="2.895152" lat="39.846589"><ele>520.25</ele></trkpt>
   <trkpt lon="2.895468" lat="39.847100"><ele>518.75</ele></trkpt>
   <trkpt lon="2.896258" lat="39.848137"><ele>515.75</ele></trkpt>
   <trkpt lon="2.896342" lat="39.848264"><ele>515.25</ele></trkpt>
   <trkpt lon="2.896401" lat="39.848560"><ele>512.75</ele></trkpt>
   <trkpt lon="2.896546" lat="39.849835"><ele>509.0</ele></trkpt>
   <trkpt lon="2.896670" lat="39.850765"><ele>513.0</ele></trkpt>
   <trkpt lon="2.896896" lat="39.851599"><ele>510.25</ele></trkpt>
   <trkpt lon="2.897280" lat="39.852721"><ele>517.75</ele></trkpt>
   <trkpt lon="2.897576" lat="39.853272"><ele>519.5</ele></trkpt>
   <trkpt lon="2.897787" lat="39.853646"><ele>519.5</ele></trkpt>
   <trkpt lon="2.897912" lat="39.853782"><ele>519.25</ele></trkpt>
   <trkpt lon="2.898091" lat="39.853912"><ele>519.75</ele></trkpt>
   <trkpt lon="2.899814" lat="39.854884"><ele>527.5</ele></trkpt>
   <trkpt lon="2.900057" lat="39.855021"><ele>530.25</ele></trkpt>
   <trkpt lon="2.901060" lat="39.855587"><ele>537.5</ele></trkpt>
   <trkpt lon="2.901659" lat="39.855934"><ele>537.75</ele></trkpt>
   <trkpt lon="2.902014" lat="39.856101"><ele>535.75</ele></trkpt>
   <trkpt lon="2.902201" lat="39.856129"><ele>535.0</ele></trkpt>
   <trkpt lon="2.902476" lat="39.856147"><ele>534.0</ele></trkpt>
   <trkpt lon="2.902948" lat="39.856164"><ele>531.75</ele></trkpt>
   <trkpt lon="2.903151" lat="39.856153"><ele>530.5</ele></trkpt>
   <trkpt lon="2.903400" lat="39.856116"><ele>528.5</ele></trkpt>
   <trkpt lon="2.903687" lat="39.856033"><ele>526.5</ele></trkpt>
   <trkpt lon="2.903876" lat="39.855952"><ele>524.75</ele></trkpt>
   <trkpt lon="2.903977" lat="39.855876"><ele>523.5</ele></trkpt>
   <trkpt lon="2.904090" lat="39.855759"><ele>522.0</ele></trkpt>
   <trkpt lon="2.904149" lat="39.855624"><ele>521.75</ele><sym>pass_place</sym><type>Shaping</type></trkpt>
   <trkpt lon="2.904230" lat="39.855114"><ele>519.25</ele></trkpt>
   <trkpt lon="2.904289" lat="39.855022"><ele>518.5</ele></trkpt>
   <trkpt lon="2.904386" lat="39.854941"><ele>518.5</ele></trkpt>
   <trkpt lon="2.904579" lat="39.854819"><ele>516.25</ele></trkpt>
   <trkpt lon="2.904955" lat="39.854551"><ele>513.5</ele></trkpt>
   <trkpt lon="2.905087" lat="39.854507"><ele>512.75</ele></trkpt>
   <trkpt lon="2.905271" lat="39.854478"><ele>511.75</ele></trkpt>
   <trkpt lon="2.905657" lat="39.854452"><ele>509.75</ele></trkpt>
   <trkpt lon="2.905850" lat="39.854412"><ele>508.5</ele></trkpt>
   <trkpt lon="2.905981" lat="39.854361"><ele>507.25</ele></trkpt>
   <trkpt lon="2.906204" lat="39.854224"><ele>505.75</ele></trkpt>
   <trkpt lon="2.906356" lat="39.854136"><ele>504.5</ele></trkpt>
   <trkpt lon="2.906574" lat="39.854048"><ele>503.25</ele></trkpt>
   <trkpt lon="2.906712" lat="39.854020"><ele>501.5</ele></trkpt>
   <trkpt lon="2.906854" lat="39.854018"><ele>500.25</ele></trkpt>
   <trkpt lon="2.907042" lat="39.854060"><ele>499.25</ele></trkpt>
   <trkpt lon="2.907514" lat="39.854215"><ele>495.75</ele></trkpt>
   <trkpt lon="2.907759" lat="39.854335"><ele>493.75</ele></trkpt>
   <trkpt lon="2.907869" lat="39.854415"><ele>492.0</ele></trkpt>
   <trkpt lon="2.908551" lat="39.855172"><ele>487.0</ele></trkpt>
   <trkpt lon="2.909092" lat="39.855724"><ele>485.25</ele></trkpt>
   <trkpt lon="2.909926" lat="39.856475"><ele>483.75</ele></trkpt>
   <trkpt lon="2.910195" lat="39.856734"><ele>481.0</ele></trkpt>
   <trkpt lon="2.910322" lat="39.856901"><ele>478.75</ele></trkpt>
   <trkpt lon="2.910361" lat="39.857012"><ele>477.5</ele></trkpt>
   <trkpt lon="2.910480" lat="39.857551"><ele>471.75</ele></trkpt>
   <trkpt lon="2.910492" lat="39.857899"><ele>469.75</ele></trkpt>
   <trkpt lon="2.910478" lat="39.858248"><ele>467.75</ele></trkpt>
   <trkpt lon="2.910493" lat="39.858327"><ele>467.5</ele></trkpt>
   <trkpt lon="2.910545" lat="39.858382"><ele>466.75</ele></trkpt>
   <trkpt lon="2.910637" lat="39.858452"><ele>465.75</ele></trkpt>
   <trkpt lon="2.910738" lat="39.858478"><ele>464.75</ele></trkpt>
   <trkpt lon="2.910879" lat="39.858459"><ele>463.5</ele></trkpt>
   <trkpt lon="2.910978" lat="39.858409"><ele>462.75</ele></trkpt>
   <trkpt lon="2.912431" lat="39.856982"><ele>454.5</ele></trkpt>
   <trkpt lon="2.912578" lat="39.856888"><ele>454.0</ele></trkpt>
   <trkpt lon="2.912779" lat="39.856775"><ele>454.0</ele></trkpt>
   <trkpt lon="2.912961" lat="39.856706"><ele>451.75</ele></trkpt>
   <trkpt lon="2.913141" lat="39.856655"><ele>451.0</ele></trkpt>
   <trkpt lon="2.913240" lat="39.856651"><ele>451.25</ele></trkpt>
   <trkpt lon="2.913372" lat="39.856684"><ele>450.5</ele></trkpt>
   <trkpt lon="2.913563" lat="39.856764"><ele>448.5</ele></trkpt>
   <trkpt lon="2.913742" lat="39.856871"><ele>445.5</ele></trkpt>
   <trkpt lon="2.913811" lat="39.856913"><ele>444.5</ele></trkpt>
   <trkpt lon="2.913983" lat="39.857031"><ele>445.5</ele></trkpt>
   <trkpt lon="2.914070" lat="39.857118"><ele>447.25</ele></trkpt>
   <trkpt lon="2.914093" lat="39.857194"><ele>448.0</ele></trkpt>
   <trkpt lon="2.914029" lat="39.857934"><ele>444.75</ele></trkpt>
   <trkpt lon="2.914030" lat="39.858041"><ele>444.0</ele></trkpt>
   <trkpt lon="2.914057" lat="39.858136"><ele>444.0</ele></trkpt>
   <trkpt lon="2.914274" lat="39.858553"><ele>442.5</ele></trkpt>
   <trkpt lon="2.914458" lat="39.858851"><ele>442.0</ele></trkpt>
   <trkpt lon="2.914561" lat="39.858973"><ele>441.5</ele></trkpt>
   <trkpt lon="2.914698" lat="39.859084"><ele>442.0</ele></trkpt>
   <trkpt lon="2.915011" lat="39.859268"><ele>443.5</ele></trkpt>
   <trkpt lon="2.915437" lat="39.859468"><ele>441.25</ele></trkpt>
   <trkpt lon="2.915491" lat="39.859515"><ele>441.25</ele></trkpt>
   <trkpt lon="2.915518" lat="39.859570"><ele>441.25</ele></trkpt>
   <trkpt lon="2.915526" lat="39.859635"><ele>440.75</ele></trkpt>
   <trkpt lon="2.915496" lat="39.859801"><ele>439.5</ele></trkpt>
   <trkpt lon="2.915453" lat="39.859917"><ele>439.25</ele></trkpt>
   <trkpt lon="2.915424" lat="39.860031"><ele>438.25</ele></trkpt>
   <trkpt lon="2.915435" lat="39.860119"><ele>436.25</ele></trkpt>
   <trkpt lon="2.915596" lat="39.860409"><ele>433.75</ele></trkpt>
   <trkpt lon="2.915761" lat="39.860628"><ele>435.0</ele></trkpt>
   <trkpt lon="2.915890" lat="39.860819"><ele>431.5</ele><sym>pass_place</sym><type>Shaping</type></trkpt>
   <trkpt lon="2.915895" lat="39.860825"><ele>431.5</ele></trkpt>
   <trkpt lon="2.916005" lat="39.860913"><ele>430.75</ele></trkpt>
   <trkpt lon="2.916135" lat="39.860975"><ele>431.0</ele></trkpt>
   <trkpt lon="2.916314" lat="39.861040"><ele>429.75</ele></trkpt>
   <trkpt lon="2.916443" lat="39.861106"><ele>428.5</ele></trkpt>
   <trkpt lon="2.916544" lat="39.861206"><ele>427.5</ele></trkpt>
   <trkpt lon="2.916590" lat="39.861303"><ele>426.25</ele></trkpt>
   <trkpt lon="2.916592" lat="39.861430"><ele>424.5</ele></trkpt>
   <trkpt lon="2.916467" lat="39.861962"><ele>422.75</ele></trkpt>
   <trkpt lon="2.916351" lat="39.862415"><ele>421.25</ele></trkpt>
   <trkpt lon="2.916350" lat="39.862564"><ele>420.5</ele></trkpt>
   <trkpt lon="2.916393" lat="39.862693"><ele>419.75</ele></trkpt>
   <trkpt lon="2.916476" lat="39.862806"><ele>420.25</ele></trkpt>
   <trkpt lon="2.916574" lat="39.862924"><ele>419.25</ele></trkpt>
   <trkpt lon="2.916662" lat="39.862984"><ele>419.0</ele></trkpt>
   <trkpt lon="2.916744" lat="39.863028"><ele>418.0</ele></trkpt>
   <trkpt lon="2.917044" lat="39.863144"><ele>418.0</ele></trkpt>
   <trkpt lon="2.917134" lat="39.863205"><ele>418.0</ele></trkpt>
   <trkpt lon="2.917241" lat="39.863346"><ele>414.75</ele></trkpt>
   <trkpt lon="2.917373" lat="39.863679"><ele>412.25</ele></trkpt>
   <trkpt lon="2.917496" lat="39.863955"><ele>409.75</ele></trkpt>
   <trkpt lon="2.917565" lat="39.864063"><ele>410.25</ele></trkpt>
   <trkpt lon="2.917614" lat="39.864121"><ele>409.75</ele></trkpt>
   <trkpt lon="2.917683" lat="39.864170"><ele>409.0</ele></trkpt>
   <trkpt lon="2.917809" lat="39.864220"><ele>406.75</ele></trkpt>
   <trkpt lon="2.918228" lat="39.864339"><ele>403.5</ele></trkpt>
   <trkpt lon="2.918538" lat="39.864440"><ele>402.25</ele></trkpt>
   <trkpt lon="2.918674" lat="39.864490"><ele>403.0</ele></trkpt>
   <trkpt lon="2.918825" lat="39.864559"><ele>404.25</ele></trkpt>
   <trkpt lon="2.919192" lat="39.864841"><ele>401.25</ele></trkpt>
   <trkpt lon="2.919822" lat="39.865213"><ele>398.5</ele></trkpt>
   <trkpt lon="2.920385" lat="39.865586"><ele>403.75</ele></trkpt>
   <trkpt lon="2.920804" lat="39.865922"><ele>405.75</ele></trkpt>
   <trkpt lon="2.920948" lat="39.866002"><ele>406.5</ele></trkpt>
   <trkpt lon="2.921062" lat="39.866034"><ele>407.5</ele></trkpt>
   <trkpt lon="2.921203" lat="39.866032"><ele>408.5</ele></trkpt>
   <trkpt lon="2.922070" lat="39.865973"><ele>403.5</ele></trkpt>
   <trkpt lon="2.922334" lat="39.865978"><ele>400.5</ele></trkpt>
   <trkpt lon="2.922631" lat="39.866022"><ele>401.0</ele></trkpt>
   <trkpt lon="2.924202" lat="39.866351"><ele>398.5</ele></trkpt>
   <trkpt lon="2.924269" lat="39.866387"><ele>398.25</ele></trkpt>
   <trkpt lon="2.924311" lat="39.866422"><ele>397.75</ele></trkpt>
   <trkpt lon="2.924354" lat="39.866489"><ele>397.5</ele></trkpt>
   <trkpt lon="2.924372" lat="39.866579"><ele>398.25</ele></trkpt>
   <trkpt lon="2.924366" lat="39.866998"><ele>397.75</ele></trkpt>
   <trkpt lon="2.924410" lat="39.867222"><ele>395.25</ele></trkpt>
   <trkpt lon="2.924664" lat="39.868047"><ele>391.0</ele></trkpt>
   <trkpt lon="2.924913" lat="39.868915"><ele>383.75</ele></trkpt>
   <trkpt lon="2.925004" lat="39.869081"><ele>383.75</ele></trkpt>
   <trkpt lon="2.925137" lat="39.869228"><ele>383.0</ele></trkpt>
   <trkpt lon="2.925232" lat="39.869312"><ele>382.25</ele></trkpt>
   <trkpt lon="2.925361" lat="39.869382"><ele>381.0</ele></trkpt>
   <trkpt lon="2.925541" lat="39.869419"><ele>379.5</ele></trkpt>
   <trkpt lon="2.925694" lat="39.869402"><ele>378.75</ele></trkpt>
   <trkpt lon="2.925873" lat="39.869355"><ele>377.5</ele></trkpt>
   <trkpt lon="2.926054" lat="39.869282"><ele>376.75</ele></trkpt>
   <trkpt lon="2.926262" lat="39.869164"><ele>374.5</ele></trkpt>
   <trkpt lon="2.926674" lat="39.868856"><ele>371.5</ele></trkpt>
   <trkpt lon="2.926811" lat="39.868787"><ele>371.0</ele></trkpt>
   <trkpt lon="2.926980" lat="39.868726"><ele>370.5</ele></trkpt>
   <trkpt lon="2.927650" lat="39.868573"><ele>364.0</ele></trkpt>
   <trkpt lon="2.928186" lat="39.868454"><ele>362.25</ele></trkpt>
   <trkpt lon="2.928535" lat="39.868370"><ele>361.0</ele></trkpt>
   <trkpt lon="2.928653" lat="39.868293"><ele>359.5</ele></trkpt>
   <trkpt lon="2.928719" lat="39.868194"><ele>358.75</ele></trkpt>
   <trkpt lon="2.928727" lat="39.868094"><ele>357.5</ele></trkpt>
   <trkpt lon="2.928703" lat="39.868015"><ele>357.25</ele></trkpt>
   <trkpt lon="2.928602" lat="39.867924"><ele>356.75</ele><sym>pass_place</sym><type>Shaping</type></trkpt>
   <trkpt lon="2.928487" lat="39.867870"><ele>356.25</ele></trkpt>
   <trkpt lon="2.928117" lat="39.867762"><ele>352.5</ele></trkpt>
   <trkpt lon="2.927794" lat="39.867645"><ele>349.5</ele></trkpt>
   <trkpt lon="2.927678" lat="39.867558"><ele>349.0</ele></trkpt>
   <trkpt lon="2.927615" lat="39.867462"><ele>347.75</ele></trkpt>
   <trkpt lon="2.927592" lat="39.867387"><ele>346.0</ele></trkpt>
   <trkpt lon="2.927599" lat="39.867324"><ele>345.25</ele></trkpt>
   <trkpt lon="2.927682" lat="39.867235"><ele>346.0</ele></trkpt>
   <trkpt lon="2.927792" lat="39.867163"><ele>345.75</ele></trkpt>
   <trkpt lon="2.928206" lat="39.867000"><ele>344.25</ele></trkpt>
   <trkpt lon="2.929197" lat="39.866597"><ele>340.25</ele></trkpt>
   <trkpt lon="2.929340" lat="39.866530"><ele>341.0</ele></trkpt>
   <trkpt lon="2.929437" lat="39.866454"><ele>340.0</ele></trkpt>
   <trkpt lon="2.929568" lat="39.866322"><ele>339.25</ele></trkpt>
   <trkpt lon="2.929681" lat="39.866234"><ele>338.5</ele></trkpt>
   <trkpt lon="2.929867" lat="39.866155"><ele>336.5</ele></trkpt>
   <trkpt lon="2.930721" lat="39.865961"><ele>329.5</ele></trkpt>
   <trkpt lon="2.930842" lat="39.865969"><ele>328.5</ele></trkpt>
   <trkpt lon="2.930955" lat="39.866014"><ele>326.75</ele></trkpt>
   <trkpt lon="2.931019" lat="39.866079"><ele>326.5</ele></trkpt>
   <trkpt lon="2.931103" lat="39.866243"><ele>325.5</ele></trkpt>
   <trkpt lon="2.931247" lat="39.866681"><ele>323.0</ele></trkpt>
   <trkpt lon="2.931301" lat="39.866803"><ele>323.0</ele></trkpt>
   <trkpt lon="2.931367" lat="39.866889"><ele>322.0</ele></trkpt>
   <trkpt lon="2.931501" lat="39.866954"><ele>320.5</ele><sym>right_slight</sym></trkpt>
   <trkpt lon="2.932410" lat="39.867265"><ele>313.5</ele></trkpt>
   <trkpt lon="2.932619" lat="39.867321"><ele>313.25</ele></trkpt>
   <trkpt lon="2.932752" lat="39.867315"><ele>313.5</ele></trkpt>
   <trkpt lon="2.932880" lat="39.867277"><ele>314.25</ele></trkpt>
   <trkpt lon="2.933363" lat="39.866888"><ele>307.0</ele></trkpt>
   <trkpt lon="2.933497" lat="39.866817"><ele>306.0</ele></trkpt>
   <trkpt lon="2.933646" lat="39.866751"><ele>304.75</ele></trkpt>
   <trkpt lon="2.933892" lat="39.866712"><ele>303.75</ele></trkpt>
   <trkpt lon="2.934530" lat="39.866670"><ele>299.75</ele></trkpt>
   <trkpt lon="2.935243" lat="39.866615"><ele>295.0</ele></trkpt>
   <trkpt lon="2.935549" lat="39.866599"><ele>291.5</ele></trkpt>
   <trkpt lon="2.935913" lat="39.866664"><ele>292.5</ele></trkpt>
   <trkpt lon="2.936330" lat="39.866721"><ele>291.0</ele></trkpt>
   <trkpt lon="2.937307" lat="39.866904"><ele>285.25</ele></trkpt>
   <trkpt lon="2.937683" lat="39.867005"><ele>286.0</ele></trkpt>
   <trkpt lon="2.938080" lat="39.867139"><ele>282.0</ele></trkpt>
   <trkpt lon="2.938557" lat="39.867267"><ele>283.75</ele></trkpt>
   <trkpt lon="2.939014" lat="39.867287"><ele>282.25</ele></trkpt>
   <trkpt lon="2.939333" lat="39.867311"><ele>274.75</ele></trkpt>
   <trkpt lon="2.939524" lat="39.867398"><ele>270.75</ele></trkpt>
   <trkpt lon="2.939783" lat="39.867591"><ele>268.5</ele></trkpt>
   <trkpt lon="2.940442" lat="39.868189"><ele>268.75</ele></trkpt>
   <trkpt lon="2.940693" lat="39.868499"><ele>267.0</ele></trkpt>
   <trkpt lon="2.940801" lat="39.868654"><ele>264.75</ele></trkpt>
   <trkpt lon="2.940878" lat="39.868810"><ele>263.5</ele></trkpt>
   <trkpt lon="2.940969" lat="39.869187"><ele>259.75</ele></trkpt>
   <trkpt lon="2.941054" lat="39.869283"><ele>260.75</ele></trkpt>
   <trkpt lon="2.941145" lat="39.869325"><ele>259.75</ele></trkpt>
   <trkpt lon="2.941284" lat="39.869357"><ele>258.5</ele></trkpt>
   <trkpt lon="2.941463" lat="39.869362"><ele>256.5</ele></trkpt>
   <trkpt lon="2.941707" lat="39.869382"><ele>256.0</ele></trkpt>
   <trkpt lon="2.942946" lat="39.869751"><ele>245.0</ele></trkpt>
   <trkpt lon="2.943117" lat="39.869789"><ele>244.25</ele></trkpt>
   <trkpt lon="2.943252" lat="39.869775"><ele>243.0</ele></trkpt>
   <trkpt lon="2.943350" lat="39.869726"><ele>240.75</ele></trkpt>
   <trkpt lon="2.943447" lat="39.869636"><ele>239.0</ele></trkpt>
   <trkpt lon="2.943514" lat="39.869536"><ele>238.25</ele></trkpt>
   <trkpt lon="2.943517" lat="39.869444"><ele>237.75</ele></trkpt>
   <trkpt lon="2.943498" lat="39.869353"><ele>237.25</ele><sym>pass_place</sym><type>Shaping</type></trkpt>
   <trkpt lon="2.943413" lat="39.869252"><ele>236.25</ele></trkpt>
   <trkpt lon="2.943275" lat="39.869187"><ele>235.0</ele></trkpt>
   <trkpt lon="2.942261" lat="39.868942"><ele>230.5</ele></trkpt>
   <trkpt lon="2.942027" lat="39.868937"><ele>230.0</ele></trkpt>
   <trkpt lon="2.941842" lat="39.868967"><ele>231.75</ele></trkpt>
   <trkpt lon="2.941677" lat="39.868964"><ele>230.5</ele></trkpt>
   <trkpt lon="2.941587" lat="39.868934"><ele>229.5</ele></trkpt>
   <trkpt lon="2.941513" lat="39.868882"><ele>227.5</ele></trkpt>
   <trkpt lon="2.941465" lat="39.868811"><ele>227.0</ele></trkpt>
   <trkpt lon="2.941425" lat="39.868396"><ele>221.75</ele></trkpt>
   <trkpt lon="2.941344" lat="39.868135"><ele>220.25</ele></trkpt>
   <trkpt lon="2.941203" lat="39.867764"><ele>217.0</ele></trkpt>
   <trkpt lon="2.940919" lat="39.867141"><ele>211.75</ele></trkpt>
   <trkpt lon="2.940811" lat="39.867030"><ele>212.25</ele></trkpt>
   <trkpt lon="2.939704" lat="39.866342"><ele>204.25</ele></trkpt>
   <trkpt lon="2.939448" lat="39.866261"><ele>204.25</ele></trkpt>
   <trkpt lon="2.939257" lat="39.866244"><ele>205.5</ele></trkpt>
   <trkpt lon="2.938917" lat="39.866256"><ele>209.25</ele></trkpt>
   <trkpt lon="2.938770" lat="39.866207"><ele>207.25</ele></trkpt>
   <trkpt lon="2.938675" lat="39.866165"><ele>205.0</ele></trkpt>
   <trkpt lon="2.938620" lat="39.866094"><ele>200.5</ele></trkpt>
   <trkpt lon="2.938619" lat="39.866011"><ele>199.0</ele></trkpt>
   <trkpt lon="2.938642" lat="39.865943"><ele>197.5</ele></trkpt>
   <trkpt lon="2.938678" lat="39.865890"><ele>196.25</ele></trkpt>
   <trkpt lon="2.938741" lat="39.865846"><ele>195.25</ele></trkpt>
   <trkpt lon="2.938824" lat="39.865813"><ele>193.75</ele></trkpt>
   <trkpt lon="2.938914" lat="39.865808"><ele>193.0</ele></trkpt>
   <trkpt lon="2.939109" lat="39.865853"><ele>193.5</ele></trkpt>
   <trkpt lon="2.940315" lat="39.866211"><ele>188.75</ele></trkpt>
   <trkpt lon="2.940646" lat="39.866342"><ele>186.25</ele></trkpt>
   <trkpt lon="2.941119" lat="39.866469"><ele>181.75</ele></trkpt>
   <trkpt lon="2.941304" lat="39.866498"><ele>181.25</ele></trkpt>
   <trkpt lon="2.941569" lat="39.866522"><ele>179.25</ele></trkpt>
   <trkpt lon="2.941768" lat="39.866533"><ele>177.0</ele></trkpt>
   <trkpt lon="2.941987" lat="39.866598"><ele>175.5</ele></trkpt>
   <trkpt lon="2.942282" lat="39.866753"><ele>175.0</ele></trkpt>
   <trkpt lon="2.942773" lat="39.867057"><ele>171.0</ele></trkpt>
   <trkpt lon="2.943034" lat="39.867256"><ele>168.5</ele></trkpt>
   <trkpt lon="2.943484" lat="39.867826"><ele>165.5</ele></trkpt>
   <trkpt lon="2.943560" lat="39.867864"><ele>165.75</ele></trkpt>
   <trkpt lon="2.943659" lat="39.867891"><ele>165.5</ele></trkpt>
   <trkpt lon="2.944045" lat="39.867948"><ele>163.25</ele></trkpt>
   <trkpt lon="2.944317" lat="39.868023"><ele>160.75</ele></trkpt>
   <trkpt lon="2.944963" lat="39.868266"><ele>156.75</ele></trkpt>
   <trkpt lon="2.945157" lat="39.868360"><ele>155.25</ele></trkpt>
   <trkpt lon="2.945290" lat="39.868476"><ele>154.5</ele></trkpt>
   <trkpt lon="2.945412" lat="39.868644"><ele>154.0</ele></trkpt>
   <trkpt lon="2.945716" lat="39.869107"><ele>151.0</ele></trkpt>
   <trkpt lon="2.945878" lat="39.869294"><ele>146.75</ele></trkpt>
   <trkpt lon="2.945959" lat="39.869350"><ele>146.0</ele></trkpt>
   <trkpt lon="2.946102" lat="39.869405"><ele>145.25</ele></trkpt>
   <trkpt lon="2.946223" lat="39.869411"><ele>145.75</ele></trkpt>
   <trkpt lon="2.946381" lat="39.869381"><ele>145.25</ele></trkpt>
   <trkpt lon="2.946666" lat="39.869225"><ele>142.5</ele></trkpt>
   <trkpt lon="2.946802" lat="39.869175"><ele>140.75</ele></trkpt>
   <trkpt lon="2.946968" lat="39.869152"><ele>140.0</ele></trkpt>
   <trkpt lon="2.947206" lat="39.869139"><ele>138.5</ele></trkpt>
   <trkpt lon="2.948443" lat="39.869189"><ele>133.5</ele></trkpt>
   <trkpt lon="2.948691" lat="39.869192"><ele>132.0</ele></trkpt>
   <trkpt lon="2.948872" lat="39.869171"><ele>130.25</ele></trkpt>
   <trkpt lon="2.950067" lat="39.868917"><ele>123.0</ele></trkpt>
   <trkpt lon="2.950425" lat="39.868832"><ele>121.25</ele><sym>pass_place</sym><type>Shaping</type></trkpt>
   <trkpt lon="2.950979" lat="39.868585"><ele>118.0</ele></trkpt>
   <trkpt lon="2.951144" lat="39.868534"><ele>117.5</ele></trkpt>
   <trkpt lon="2.951379" lat="39.868478"><ele>117.0</ele></trkpt>
   <trkpt lon="2.952374" lat="39.868402"><ele>114.0</ele></trkpt>
   <trkpt lon="2.953063" lat="39.868343"><ele>112.0</ele></trkpt>
   <trkpt lon="2.953296" lat="39.868333"><ele>111.75</ele></trkpt>
   <trkpt lon="2.953444" lat="39.868343"><ele>111.5</ele></trkpt>
   <trkpt lon="2.953817" lat="39.868437"><ele>111.0</ele></trkpt>
   <trkpt lon="2.955120" lat="39.868835"><ele>110.0</ele></trkpt>
   <trkpt lon="2.955300" lat="39.868896"><ele>109.75</ele></trkpt>
   <trkpt lon="2.955407" lat="39.868929"><ele>109.5</ele></trkpt>
   <trkpt lon="2.956540" lat="39.869280"><ele>108.5</ele></trkpt>
   <trkpt lon="2.956749" lat="39.869337"><ele>108.25</ele></trkpt>
   <trkpt lon="2.956849" lat="39.869364"><ele>108.0</ele></trkpt>
   <trkpt lon="2.957207" lat="39.869424"><ele>107.75</ele></trkpt>
   <trkpt lon="2.957875" lat="39.869492"><ele>106.5</ele></trkpt>
   <trkpt lon="2.959147" lat="39.869591"><ele>106.0</ele></trkpt>
   <trkpt lon="2.960424" lat="39.869706"><ele>104.25</ele></trkpt>
   <trkpt lon="2.962071" lat="39.869861"><ele>103.0</ele></trkpt>
   <trkpt lon="2.962388" lat="39.869849"><ele>103.0</ele></trkpt>
   <trkpt lon="2.962515" lat="39.869825"><ele>103.0</ele></trkpt>
   <trkpt lon="2.963023" lat="39.869694"><ele>102.0</ele></trkpt>
   <trkpt lon="2.963919" lat="39.869487"><ele>101.0</ele></trkpt>
   <trkpt lon="2.966674" lat="39.868819"><ele>97.75</ele><sym>stay_right</sym></trkpt>
   <trkpt lon="2.966688" lat="39.868820"><ele>97.75</ele></trkpt>
   <trkpt lon="2.966794" lat="39.868791"><ele>98.0</ele></trkpt>
   <trkpt lon="2.967814" lat="39.868557"><ele>96.5</ele></trkpt>
   <trkpt lon="2.971455" lat="39.867676"><ele>92.25</ele></trkpt>
   <trkpt lon="2.971458" lat="39.867675"><ele>91.75</ele><sym>pass_place</sym><type>Shaping</type></trkpt>
   <trkpt lon="2.971646" lat="39.867629"><ele>91.75</ele></trkpt>
   <trkpt lon="2.971804" lat="39.867610"><ele>92.0</ele></trkpt>
   <trkpt lon="2.971994" lat="39.867606"><ele>92.25</ele></trkpt>
   <trkpt lon="2.972096" lat="39.867610"><ele>92.0</ele></trkpt>
   <trkpt lon="2.972379" lat="39.867642"><ele>91.5</ele></trkpt>
   <trkpt lon="2.976754" lat="39.868674"><ele>85.75</ele></trkpt>
   <trkpt lon="2.977571" lat="39.868851"><ele>85.0</ele></trkpt>
   <trkpt lon="2.979419" lat="39.869298"><ele>83.0</ele></trkpt>
   <trkpt lon="2.979688" lat="39.869379"><ele>83.0</ele></trkpt>
   <trkpt lon="2.980808" lat="39.869860"><ele>81.5</ele></trkpt>
   <trkpt lon="2.981446" lat="39.870144"><ele>81.0</ele></trkpt>
   <trkpt lon="2.981955" lat="39.870360"><ele>80.75</ele></trkpt>
   <trkpt lon="2.982060" lat="39.870411"><ele>80.75</ele></trkpt>
   <trkpt lon="2.982115" lat="39.870449"><ele>80.75</ele></trkpt>
   <trkpt lon="2.982196" lat="39.870507"><ele>80.75</ele></trkpt>
   <trkpt lon="2.982787" lat="39.871080"><ele>79.5</ele></trkpt>
   <trkpt lon="2.983245" lat="39.871476"><ele>79.5</ele></trkpt>
   <trkpt lon="2.983546" lat="39.871691"><ele>80.0</ele></trkpt>
   <trkpt lon="2.984466" lat="39.872041"><ele>80.5</ele></trkpt>
   <trkpt lon="2.984500" lat="39.872055"><ele>80.75</ele></trkpt>
   <trkpt lon="2.985477" lat="39.872398"><ele>81.0</ele></trkpt>
   <trkpt lon="2.985681" lat="39.872475"><ele>80.75</ele></trkpt>
   <trkpt lon="2.986703" lat="39.872866"><ele>80.0</ele></trkpt>
   <trkpt lon="2.987062" lat="39.873006"><ele>79.25</ele></trkpt>
   <trkpt lon="2.987987" lat="39.873352"><ele>77.0</ele></trkpt>
   <trkpt lon="2.989854" lat="39.874069"><ele>77.75</ele></trkpt>
   <trkpt lon="2.990263" lat="39.874187"><ele>76.75</ele></trkpt>
   <trkpt lon="2.991408" lat="39.874441"><ele>74.75</ele><sym>pass_place</sym><type>Shaping</type></trkpt>
   <trkpt lon="2.991415" lat="39.874443"><ele>74.75</ele></trkpt>
   <trkpt lon="2.991699" lat="39.874505"><ele>75.25</ele></trkpt>
   <trkpt lon="2.992784" lat="39.874742"><ele>76.25</ele></trkpt>
   <trkpt lon="2.993181" lat="39.874856"><ele>76.0</ele></trkpt>
   <trkpt lon="2.993289" lat="39.874892"><ele>75.75</ele></trkpt>
   <trkpt lon="2.993505" lat="39.874981"><ele>74.5</ele></trkpt>
   <trkpt lon="2.994206" lat="39.875348"><ele>71.75</ele></trkpt>
   <trkpt lon="2.994583" lat="39.875561"><ele>70.5</ele></trkpt>
   <trkpt lon="2.995652" lat="39.876152"><ele>67.0</ele></trkpt>
   <trkpt lon="2.996342" lat="39.876516"><ele>66.0</ele></trkpt>
   <trkpt lon="2.997306" lat="39.877041"><ele>65.0</ele></trkpt>
   <trkpt lon="2.999802" lat="39.878340"><ele>63.0</ele></trkpt>
   <trkpt lon="3.000283" lat="39.878596"><ele>62.75</ele></trkpt>
   <trkpt lon="3.000820" lat="39.878889"><ele>62.0</ele></trkpt>
   <trkpt lon="3.000867" lat="39.878909"><ele>62.0</ele></trkpt>
   <trkpt lon="3.002479" lat="39.879768"><ele>60.75</ele></trkpt>
   <trkpt lon="3.003275" lat="39.880203"><ele>60.0</ele></trkpt>
   <trkpt lon="3.004737" lat="39.880987"><ele>58.75</ele></trkpt>
   <trkpt lon="3.004794" lat="39.881018"><ele>58.5</ele></trkpt>
   <trkpt lon="3.004799" lat="39.881021"><ele>58.5</ele></trkpt>
   <trkpt lon="3.005971" lat="39.881644"><ele>57.25</ele></trkpt>
   <trkpt lon="3.007700" lat="39.882568"><ele>57.0</ele></trkpt>
   <trkpt lon="3.008376" lat="39.882887"><ele>56.25</ele></trkpt>
   <trkpt lon="3.008635" lat="39.882971"><ele>56.5</ele></trkpt>
   <trkpt lon="3.008806" lat="39.882999"><ele>56.75</ele></trkpt>
   <trkpt lon="3.009007" lat="39.883011"><ele>56.25</ele></trkpt>
   <trkpt lon="3.009524" lat="39.883015"><ele>56.0</ele></trkpt>
   <trkpt lon="3.009520" lat="39.883020"><ele>57.5</ele><sym>pass_place</sym><type>Shaping</type></trkpt>
   <trkpt lon="3.009524" lat="39.883015"><ele>56.0</ele></trkpt>
   <trkpt lon="3.010003" lat="39.883020"><ele>55.75</ele></trkpt>
   <trkpt lon="3.010843" lat="39.883029"><ele>55.75</ele></trkpt>
   <trkpt lon="3.012764" lat="39.883057"><ele>54.0</ele></trkpt>
   <trkpt lon="3.013848" lat="39.883073"><ele>53.0</ele><sym>stay_right</sym></trkpt>
   <trkpt lon="3.014234" lat="39.883088"><ele>52.0</ele></trkpt>
   <trkpt lon="3.014567" lat="39.883123"><ele>52.0</ele></trkpt>
   <trkpt lon="3.015559" lat="39.883295"><ele>51.75</ele></trkpt>
   <trkpt lon="3.015629" lat="39.883307"><ele>51.5</ele><sym>right</sym></trkpt>
   <trkpt lon="3.015784" lat="39.882790"><ele>51.0</ele></trkpt>
   <trkpt lon="3.015831" lat="39.882759"><ele>50.75</ele><sym>left_slight</sym></trkpt>
   <trkpt lon="3.016428" lat="39.882763"><ele>49.75</ele></trkpt>
   <trkpt lon="3.017032" lat="39.882754"><ele>49.75</ele></trkpt>
   <trkpt lon="3.018392" lat="39.882753"><ele>49.0</ele></trkpt>
   <trkpt lon="3.019501" lat="39.882749"><ele>47.75</ele></trkpt>
   <trkpt lon="3.019586" lat="39.882748"><ele>47.75</ele><sym>left</sym></trkpt>
   <trkpt lon="3.019715" lat="39.882951"><ele>48.0</ele></trkpt>
   <trkpt lon="3.019992" lat="39.883306"><ele>47.0</ele></trkpt>
   <trkpt lon="3.020236" lat="39.883521"><ele>47.0</ele></trkpt>
   <trkpt lon="3.020676" lat="39.883777"><ele>47.0</ele></trkpt>
   <trkpt lon="3.020703" lat="39.883796"><ele>47.0</ele></trkpt>
   <trkpt lon="3.020736" lat="39.883854"><ele>47.0</ele></trkpt>
   <trkpt lon="3.020758" lat="39.883887"><ele>47.0</ele><sym>right_slight</sym></trkpt>
   <trkpt lon="3.020819" lat="39.883887"><ele>47.0</ele></trkpt>
   <trkpt lon="3.020976" lat="39.883924"><ele>47.0</ele></trkpt>
   <trkpt lon="3.021354" lat="39.884098"><ele>46.0</ele></trkpt>
   <trkpt lon="3.021823" lat="39.884313"><ele>46.0</ele></trkpt>
   <trkpt lon="3.022010" lat="39.884383"><ele>45.75</ele></trkpt>
   <trkpt lon="3.022085" lat="39.884394"><ele>45.5</ele></trkpt>
   <trkpt lon="3.022157" lat="39.884408"><ele>45.25</ele></trkpt>
   <trkpt lon="3.022218" lat="39.884406"><ele>45.0</ele><sym>roundabout_e3</sym></trkpt>
   <trkpt lon="3.022227" lat="39.884401"><ele>45.0</ele></trkpt>
   <trkpt lon="3.022294" lat="39.884357"><ele>45.0</ele></trkpt>
   <trkpt lon="3.022422" lat="39.884331"><ele>45.0</ele></trkpt>
   <trkpt lon="3.022515" lat="39.884343"><ele>45.0</ele></trkpt>
   <trkpt lon="3.022561" lat="39.884359"><ele>45.0</ele></trkpt>
   <trkpt lon="3.022634" lat="39.884407"><ele>45.0</ele></trkpt>
   <trkpt lon="3.022685" lat="39.884481"><ele>44.75</ele></trkpt>
   <trkpt lon="3.022825" lat="39.884638"><ele>44.75</ele></trkpt>
   <trkpt lon="3.023002" lat="39.884762"><ele>45.0</ele></trkpt>
   <trkpt lon="3.023053" lat="39.884786"><ele>45.0</ele></trkpt>
   <trkpt lon="3.023357" lat="39.884928"><ele>44.0</ele></trkpt>
   <trkpt lon="3.023372" lat="39.884935"><ele>44.0</ele></trkpt>
   <trkpt lon="3.023705" lat="39.885068"><ele>44.0</ele></trkpt>
   <trkpt lon="3.024187" lat="39.885260"><ele>43.75</ele></trkpt>
   <trkpt lon="3.026125" lat="39.886035"><ele>41.75</ele></trkpt>
   <trkpt lon="3.027400" lat="39.886544"><ele>40.25</ele></trkpt>
   <trkpt lon="3.027696" lat="39.886656"><ele>40.0</ele></trkpt>
   <trkpt lon="3.028077" lat="39.886831"><ele>39.75</ele><sym>right_slight</sym></trkpt>
   <trkpt lon="3.028199" lat="39.886847"><ele>39.75</ele><sym>pass_place</sym><type>Shaping</type></trkpt>
   <trkpt lon="3.028203" lat="39.886848"><ele>39.75</ele></trkpt>
   <trkpt lon="3.028567" lat="39.887015"><ele>39.0</ele></trkpt>
   <trkpt lon="3.028626" lat="39.887042"><ele>38.75</ele></trkpt>
   <trkpt lon="3.028831" lat="39.887133"><ele>38.25</ele></trkpt>
   <trkpt lon="3.029154" lat="39.887306"><ele>38.75</ele></trkpt>
   <trkpt lon="3.029489" lat="39.887434"><ele>38.75</ele></trkpt>
   <trkpt lon="3.030143" lat="39.887685"><ele>38.0</ele><sym>left_slight</sym></trkpt>
   <trkpt lon="3.030172" lat="39.887782"><ele>38.0</ele><sym>right_slight</sym></trkpt>
   <trkpt lon="3.030195" lat="39.887848"><ele>38.0</ele></trkpt>
   <trkpt lon="3.030294" lat="39.888067"><ele>37.75</ele></trkpt>
   <trkpt lon="3.030452" lat="39.888334"><ele>37.0</ele><sym>stay_right</sym></trkpt>
   <trkpt lon="3.030509" lat="39.888425"><ele>37.0</ele></trkpt>
   <trkpt lon="3.030593" lat="39.888507"><ele>36.75</ele></trkpt>
   <trkpt lon="3.030658" lat="39.888597"><ele>36.75</ele></trkpt>
   <trkpt lon="3.031101" lat="39.888976"><ele>36.0</ele></trkpt>
   <trkpt lon="3.031519" lat="39.889301"><ele>35.25</ele><sym>straight</sym></trkpt>
   <trkpt lon="3.031647" lat="39.889407"><ele>35.0</ele></trkpt>
   <trkpt lon="3.031833" lat="39.889560"><ele>35.0</ele></trkpt>
   <trkpt lon="3.033225" lat="39.890714"><ele>33.0</ele></trkpt>
   <trkpt lon="3.033839" lat="39.891173"><ele>32.75</ele></trkpt>
   <trkpt lon="3.034215" lat="39.891411"><ele>32.0</ele></trkpt>
   <trkpt lon="3.034483" lat="39.891564"><ele>32.0</ele></trkpt>
   <trkpt lon="3.035067" lat="39.891844"><ele>31.25</ele></trkpt>
   <trkpt lon="3.035261" lat="39.891926"><ele>31.0</ele></trkpt>
   <trkpt lon="3.035910" lat="39.892177"><ele>30.75</ele></trkpt>
   <trkpt lon="3.036483" lat="39.892350"><ele>30.25</ele></trkpt>
   <trkpt lon="3.037130" lat="39.892564"><ele>30.25</ele></trkpt>
   <trkpt lon="3.037987" lat="39.892822"><ele>30.75</ele></trkpt>
   <trkpt lon="3.039039" lat="39.893159"><ele>29.75</ele><sym>straight</sym></trkpt>
   <trkpt lon="3.039898" lat="39.893460"><ele>29.25</ele></trkpt>
   <trkpt lon="3.040963" lat="39.893827"><ele>29.5</ele></trkpt>
   <trkpt lon="3.042175" lat="39.894262"><ele>29.25</ele></trkpt>
   <trkpt lon="3.042442" lat="39.894356"><ele>28.5</ele></trkpt>
   <trkpt lon="3.043118" lat="39.894596"><ele>29.5</ele></trkpt>
   <trkpt lon="3.044120" lat="39.894956"><ele>27.5</ele></trkpt>
   <trkpt lon="3.044636" lat="39.895127"><ele>26.5</ele></trkpt>
   <trkpt lon="3.045506" lat="39.895428"><ele>24.5</ele></trkpt>
   <trkpt lon="3.045509" lat="39.895429"><ele>22.75</ele><sym>pass_place</sym><type>Shaping</type></trkpt>
   <trkpt lon="3.046837" lat="39.895853"><ele>22.75</ele></trkpt>
   <trkpt lon="3.046896" lat="39.895859"><ele>22.75</ele></trkpt>
   <trkpt lon="3.047433" lat="39.896028"><ele>22.75</ele></trkpt>
   <trkpt lon="3.048115" lat="39.896252"><ele>22.0</ele></trkpt>
   <trkpt lon="3.049443" lat="39.896653"><ele>21.0</ele></trkpt>
   <trkpt lon="3.049624" lat="39.896708"><ele>21.0</ele></trkpt>
   <trkpt lon="3.051707" lat="39.897333"><ele>19.0</ele></trkpt>
   <trkpt lon="3.054343" lat="39.898125"><ele>17.0</ele></trkpt>
   <trkpt lon="3.057164" lat="39.898960"><ele>14.75</ele><sym>straight</sym></trkpt>
   <trkpt lon="3.059062" lat="39.899547"><ele>13.75</ele><sym>straight</sym></trkpt>
   <trkpt lon="3.061040" lat="39.900139"><ele>12.0</ele></trkpt>
   <trkpt lon="3.062043" lat="39.900437"><ele>11.25</ele></trkpt>
   <trkpt lon="3.063939" lat="39.901004"><ele>10.0</ele></trkpt>
   <trkpt lon="3.065448" lat="39.901461"><ele>9.0</ele><sym>u-turn_right</sym></trkpt>
   <trkpt lon="3.065449" lat="39.901459"><ele>9.0</ele><sym>pass_place</sym><type>Shaping</type></trkpt>
   <trkpt lon="3.065448" lat="39.901461"><ele>9.0</ele></trkpt>
   <trkpt lon="3.065790" lat="39.901566"><ele>8.5</ele></trkpt>
   <trkpt lon="3.066812" lat="39.901873"><ele>8.0</ele></trkpt>
   <trkpt lon="3.066902" lat="39.901892"><ele>8.0</ele></trkpt>
   <trkpt lon="3.067045" lat="39.901906"><ele>8.0</ele><sym>right_slight</sym></trkpt>
   <trkpt lon="3.067064" lat="39.901897"><ele>8.0</ele></trkpt>
   <trkpt lon="3.067195" lat="39.901865"><ele>8.0</ele></trkpt>
   <trkpt lon="3.068135" lat="39.902136"><ele>7.0</ele></trkpt>
   <trkpt lon="3.068414" lat="39.902216"><ele>6.75</ele></trkpt>
   <trkpt lon="3.068639" lat="39.902294"><ele>7.0</ele></trkpt>
   <trkpt lon="3.069222" lat="39.902469"><ele>7.0</ele><sym>straight</sym></trkpt>
   <trkpt lon="3.069348" lat="39.902507"><ele>7.0</ele></trkpt>
   <trkpt lon="3.069444" lat="39.902546"><ele>7.0</ele></trkpt>
   <trkpt lon="3.069559" lat="39.902621"><ele>6.5</ele></trkpt>
   <trkpt lon="3.069684" lat="39.902691"><ele>6.0</ele><sym>stay_left</sym></trkpt>
   <trkpt lon="3.069835" lat="39.902769"><ele>6.0</ele></trkpt>
   <trkpt lon="3.069998" lat="39.902831"><ele>6.0</ele></trkpt>
   <trkpt lon="3.070483" lat="39.902971"><ele>5.5</ele></trkpt>
   <trkpt lon="3.071081" lat="39.903154"><ele>5.0</ele></trkpt>
   <trkpt lon="3.072921" lat="39.903715"><ele>4.0</ele></trkpt>
   <trkpt lon="3.073412" lat="39.903862"><ele>4.0</ele></trkpt>
   <trkpt lon="3.074571" lat="39.904203"><ele>3.0</ele></trkpt>
   <trkpt lon="3.074751" lat="39.904239"><ele>3.0</ele></trkpt>
   <trkpt lon="3.074822" lat="39.904240"><ele>3.0</ele></trkpt>
   <trkpt lon="3.074880" lat="39.904222"><ele>3.0</ele></trkpt>
   <trkpt lon="3.075066" lat="39.904162"><ele>3.0</ele></trkpt>
   <trkpt lon="3.075188" lat="39.904156"><ele>3.0</ele><sym>straight</sym></trkpt>
   <trkpt lon="3.075240" lat="39.904157"><ele>3.0</ele></trkpt>
   <trkpt lon="3.075311" lat="39.904133"><ele>3.0</ele><sym>left</sym></trkpt>
   <trkpt lon="3.075378" lat="39.904212"><ele>3.0</ele></trkpt>
   <trkpt lon="3.075428" lat="39.904250"><ele>3.0</ele><sym>roundabout_e1</sym></trkpt>
   <trkpt lon="3.075524" lat="39.904298"><ele>3.0</ele></trkpt>
   <trkpt lon="3.075563" lat="39.904331"><ele>3.0</ele></trkpt>
   <trkpt lon="3.075618" lat="39.904407"><ele>3.0</ele></trkpt>
   <trkpt lon="3.075633" lat="39.904450"><ele>3.0</ele></trkpt>
   <trkpt lon="3.075693" lat="39.904519"><ele>3.0</ele></trkpt>
   <trkpt lon="3.075740" lat="39.904561"><ele>3.0</ele></trkpt>
   <trkpt lon="3.075805" lat="39.904602"><ele>3.0</ele></trkpt>
   <trkpt lon="3.075970" lat="39.904674"><ele>2.5</ele></trkpt>
   <trkpt lon="3.076198" lat="39.904743"><ele>2.0</ele></trkpt>
   <trkpt lon="3.076349" lat="39.904788"><ele>2.0</ele></trkpt>
   <trkpt lon="3.076896" lat="39.904953"><ele>1.75</ele></trkpt>
   <trkpt lon="3.076983" lat="39.904980"><ele>1.75</ele></trkpt>
   <trkpt lon="3.077151" lat="39.905030"><ele>1.75</ele></trkpt>
   <trkpt lon="3.077545" lat="39.905149"><ele>2.0</ele></trkpt>
   <trkpt lon="3.077831" lat="39.905235"><ele>2.0</ele></trkpt>
   <trkpt lon="3.078474" lat="39.905430"><ele>2.0</ele></trkpt>
   <trkpt lon="3.079248" lat="39.905663"><ele>2.0</ele></trkpt>
   <trkpt lon="3.079872" lat="39.905851"><ele>2.0</ele></trkpt>
   <trkpt lon="3.080157" lat="39.905938"><ele>2.0</ele><sym>left</sym></trkpt>
   <trkpt lon="3.080063" lat="39.906142"><ele>2.0</ele></trkpt>
   <trkpt lon="3.080014" lat="39.906287"><ele>2.0</ele></trkpt>
   <trkpt lon="3.079964" lat="39.906510"><ele>2.0</ele></trkpt>
   <trkpt lon="3.079947" lat="39.906642"><ele>2.0</ele></trkpt>
   <trkpt lon="3.079948" lat="39.906726"><ele>2.25</ele></trkpt>
   <trkpt lon="3.079977" lat="39.906951"><ele>3.0</ele></trkpt>
   <trkpt lon="3.080009" lat="39.907085"><ele>3.0</ele></trkpt>
   <trkpt lon="3.080053" lat="39.907218"><ele>3.0</ele></trkpt>
   <trkpt lon="3.080158" lat="39.907457"><ele>3.0</ele></trkpt>
   <trkpt lon="3.080335" lat="39.907784"><ele>2.75</ele></trkpt>
   <trkpt lon="3.080445" lat="39.907928"><ele>3.0</ele></trkpt>
   <trkpt lon="3.080526" lat="39.908010"><ele>3.0</ele></trkpt>
   <trkpt lon="3.080933" lat="39.908403"><ele>3.25</ele></trkpt>
   <trkpt lon="3.081285" lat="39.908743"><ele>4.0</ele></trkpt>
   <trkpt lon="3.081684" lat="39.909122"><ele>3.0</ele><sym>right</sym></trkpt>
   <trkpt lon="3.082523" lat="39.908618"><ele>2.0</ele></trkpt>
   <trkpt lon="3.083068" lat="39.908298"><ele>2.0</ele><sym>pass_place</sym><type>Via</type></trkpt>
  </trkseg>
 </trk>
</gpx>
