<?xml version="1.0" encoding="UTF-8"?>
<!-- track-length = 18758 filtered ascend = 382 plain-ascend = 201 cost=35694 energy=.2kwh time=1h 31m 55s -->
<gpx 
 xmlns="http://www.topografix.com/GPX/1/1" 
 xmlns:xsi="http://www.w3.org/2001/XMLSchema-instance" 
 xsi:schemaLocation="http://www.topografix.com/GPX/1/1 http://www.topografix.com/GPX/1/1/gpx.xsd" 
 creator="BRouter-1.7.10" version="1.1"><wpt lat="43.64506" lon="6.93998"><name>Bar des Quatre Chemins</name><sym>Restaurant</sym></wpt><wpt lat="43.57371" lon="7.05841"><name>Drinking water</name><sym>Drinking Water</sym></wpt><wpt lat="43.56832" lon="7.07279"><name>Drinking water</name><sym>Drinking Water</sym></wpt><wpt lat="43.60026" lon="7.02855"><name>Drinking water</name><sym>Drinking Water</sym></wpt><wpt lat="43.60031" lon="7.03128"><name>Drinking water</name><sym>Drinking Water</sym></wpt><wpt lat="43.61727" lon="6.97186"><name>Choisir Le Vélo</name><sym>Bike Trail</sym></wpt><wpt lat="43.60495" lon="6.98989"><name>L&#x27;atelier du cycle</name><sym>Bike Trail</sym></wpt><wpt lat="43.61896" lon="6.972"><name>Bike shop</name><sym>Bike Trail</sym></wpt><wpt lat="43.61941" lon="6.97032"><name>N&#x27;en faites pas une histoire</name><sym>Restaurant</sym></wpt><wpt lat="43.62027" lon="6.9699"><name>Bike shop</name><sym>Bike Trail</sym></wpt><wpt lat="43.61697" lon="6.97144"><name>Bike shop</name><sym>Bike Trail</sym></wpt><wpt lat="43.61852" lon="6.97251"><name>Mouans Chatoux - Café à chats</name><sym>Restaurant</sym></wpt><wpt lat="43.568" lon="7.07444"><name>Café</name><sym>Restaurant</sym></wpt>
 <trk>
  <src>brouter_fastbike-lowtraffic_0</src>
  <type>bike</type>
  <trkseg>
   <trkpt lon="7.074139" lat="43.568779"><ele>8.0</ele><sym>pass_place</sym><type>Via</type></trkpt>
   <trkpt lon="7.074046" lat="43.568735"><ele>8.0</ele><sym>right</sym></trkpt>
   <trkpt lon="7.073817" lat="43.568948"><ele>8.0</ele></trkpt>
   <trkpt lon="7.073789" lat="43.568973"><ele>8.25</ele></trkpt>
   <trkpt lon="7.073710" lat="43.569058"><ele>8.25</ele></trkpt>
   <trkpt lon="7.073640" lat="43.569128"><ele>8.0</ele></trkpt>
   <trkpt lon="7.073481" lat="43.569286"><ele>8.25</ele></trkpt>
   <trkpt lon="7.073435" lat="43.569360"><ele>8.5</ele></trkpt>
   <trkpt lon="7.073425" lat="43.569395"><ele>8.75</ele></trkpt>
   <trkpt lon="7.073406" lat="43.569463"><ele>9.0</ele></trkpt>
   <trkpt lon="7.073391" lat="43.569529"><ele>9.0</ele></trkpt>
   <trkpt lon="7.073383" lat="43.569566"><ele>9.0</ele></trkpt>
   <trkpt lon="7.073397" lat="43.569723"><ele>9.0</ele></trkpt>
   <trkpt lon="7.073367" lat="43.569850"><ele>9.25</ele></trkpt>
   <trkpt lon="7.073284" lat="43.569978"><ele>9.75</ele></trkpt>
   <trkpt lon="7.073204" lat="43.570101"><ele>10.75</ele></trkpt>
   <trkpt lon="7.073119" lat="43.570213"><ele>12.0</ele></trkpt>
   <trkpt lon="7.072948" lat="43.570350"><ele>14.0</ele></trkpt>
   <trkpt lon="7.072718" lat="43.570644"><ele>17.75</ele></trkpt>
   <trkpt lon="7.072587" lat="43.570803"><ele>18.75</ele></trkpt>
   <trkpt lon="7.072397" lat="43.571027"><ele>21.5</ele></trkpt>
   <trkpt lon="7.071697" lat="43.571467"><ele>28.25</ele></trkpt>
   <trkpt lon="7.071467" lat="43.571666"><ele>29.75</ele></trkpt>
   <trkpt lon="7.071324" lat="43.571824"><ele>31.0</ele></trkpt>
   <trkpt lon="7.070881" lat="43.572252"><ele>31.0</ele></trkpt>
   <trkpt lon="7.070744" lat="43.572347"><ele>31.5</ele></trkpt>
   <trkpt lon="7.070597" lat="43.572475"><ele>34.0</ele></trkpt>
   <trkpt lon="7.070553" lat="43.572550"><ele>35.0</ele></trkpt>
   <trkpt lon="7.070526" lat="43.572777"><ele>36.0</ele></trkpt>
   <trkpt lon="7.070494" lat="43.572811"><ele>36.5</ele></trkpt>
   <trkpt lon="7.070058" lat="43.573407"><ele>44.25</ele></trkpt>
   <trkpt lon="7.070006" lat="43.573506"><ele>46.0</ele></trkpt>
   <trkpt lon="7.070005" lat="43.573622"><ele>48.0</ele></trkpt>
   <trkpt lon="7.070061" lat="43.573857"><ele>50.5</ele></trkpt>
   <trkpt lon="7.070060" lat="43.573962"><ele>51.0</ele></trkpt>
   <trkpt lon="7.069895" lat="43.574407"><ele>55.0</ele></trkpt>
   <trkpt lon="7.069824" lat="43.574447"><ele>56.5</ele></trkpt>
   <trkpt lon="7.069622" lat="43.574504"><ele>59.25</ele></trkpt>
   <trkpt lon="7.069390" lat="43.574624"><ele>62.75</ele></trkpt>
   <trkpt lon="7.069253" lat="43.574765"><ele>65.75</ele></trkpt>
   <trkpt lon="7.069006" lat="43.574983"><ele>70.0</ele><sym>right_slight</sym></trkpt>
   <trkpt lon="7.068943" lat="43.575468"><ele>77.5</ele></trkpt>
   <trkpt lon="7.068889" lat="43.576126"><ele>89.25</ele></trkpt>
   <trkpt lon="7.068860" lat="43.576183"><ele>91.0</ele></trkpt>
   <trkpt lon="7.068760" lat="43.576285"><ele>95.0</ele><sym>left_sharp</sym></trkpt>
   <trkpt lon="7.068635" lat="43.576141"><ele>95.0</ele></trkpt>
   <trkpt lon="7.068036" lat="43.575566"><ele>94.75</ele></trkpt>
   <trkpt lon="7.067900" lat="43.575395"><ele>92.75</ele></trkpt>
   <trkpt lon="7.067733" lat="43.575274"><ele>93.0</ele></trkpt>
   <trkpt lon="7.067709" lat="43.575224"><ele>94.0</ele></trkpt>
   <trkpt lon="7.067704" lat="43.575084"><ele>94.75</ele></trkpt>
   <trkpt lon="7.067687" lat="43.575059"><ele>95.25</ele><sym>right_slight</sym></trkpt>
   <trkpt lon="7.067676" lat="43.575042"><ele>95.5</ele></trkpt>
   <trkpt lon="7.067578" lat="43.574995"><ele>97.25</ele></trkpt>
   <trkpt lon="7.067185" lat="43.574958"><ele>102.25</ele></trkpt>
   <trkpt lon="7.066945" lat="43.574965"><ele>106.75</ele></trkpt>
   <trkpt lon="7.066653" lat="43.574911"><ele>110.75</ele></trkpt>
   <trkpt lon="7.066518" lat="43.574911"><ele>112.25</ele></trkpt>
   <trkpt lon="7.066021" lat="43.574930"><ele>112.5</ele></trkpt>
   <trkpt lon="7.065747" lat="43.574882"><ele>111.25</ele></trkpt>
   <trkpt lon="7.065313" lat="43.574643"><ele>111.5</ele></trkpt>
   <trkpt lon="7.064674" lat="43.574521"><ele>117.0</ele></trkpt>
   <trkpt lon="7.064154" lat="43.574380"><ele>116.5</ele></trkpt>
   <trkpt lon="7.064040" lat="43.574369"><ele>116.5</ele></trkpt>
   <trkpt lon="7.063811" lat="43.574394"><ele>119.75</ele></trkpt>
   <trkpt lon="7.063567" lat="43.574387"><ele>122.5</ele></trkpt>
   <trkpt lon="7.063466" lat="43.574308"><ele>123.0</ele></trkpt>
   <trkpt lon="7.063353" lat="43.574125"><ele>122.75</ele></trkpt>
   <trkpt lon="7.063149" lat="43.573930"><ele>123.25</ele></trkpt>
   <trkpt lon="7.062847" lat="43.573813"><ele>124.25</ele></trkpt>
   <trkpt lon="7.062687" lat="43.573811"><ele>124.0</ele></trkpt>
   <trkpt lon="7.062557" lat="43.573845"><ele>124.5</ele></trkpt>
   <trkpt lon="7.062449" lat="43.573937"><ele>126.5</ele></trkpt>
   <trkpt lon="7.061982" lat="43.574073"><ele>124.5</ele></trkpt>
   <trkpt lon="7.061702" lat="43.574180"><ele>122.5</ele></trkpt>
   <trkpt lon="7.061233" lat="43.574461"><ele>119.75</ele></trkpt>
   <trkpt lon="7.061090" lat="43.574490"><ele>119.75</ele></trkpt>
   <trkpt lon="7.060583" lat="43.574361"><ele>119.75</ele><sym>right_slight</sym></trkpt>
   <trkpt lon="7.060579" lat="43.574359"><ele>119.0</ele><sym>pass_place</sym><type>Shaping</type></trkpt>
   <trkpt lon="7.060583" lat="43.574361"><ele>119.75</ele></trkpt>
   <trkpt lon="7.059828" lat="43.575011"><ele>117.75</ele></trkpt>
   <trkpt lon="7.058674" lat="43.575979"><ele>110.25</ele></trkpt>
   <trkpt lon="7.058440" lat="43.576148"><ele>109.75</ele></trkpt>
   <trkpt lon="7.057406" lat="43.577090"><ele>102.75</ele></trkpt>
   <trkpt lon="7.057332" lat="43.577130"><ele>102.75</ele><sym>right</sym></trkpt>
   <trkpt lon="7.057408" lat="43.577251"><ele>103.0</ele></trkpt>
   <trkpt lon="7.057446" lat="43.577311"><ele>103.0</ele></trkpt>
   <trkpt lon="7.057545" lat="43.577456"><ele>103.0</ele></trkpt>
   <trkpt lon="7.057697" lat="43.577696"><ele>103.75</ele></trkpt>
   <trkpt lon="7.057712" lat="43.577721"><ele>103.75</ele></trkpt>
   <trkpt lon="7.057820" lat="43.577892"><ele>104.5</ele></trkpt>
   <trkpt lon="7.058376" lat="43.578788"><ele>108.0</ele></trkpt>
   <trkpt lon="7.058429" lat="43.578871"><ele>108.25</ele></trkpt>
   <trkpt lon="7.058895" lat="43.579614"><ele>114.75</ele></trkpt>
   <trkpt lon="7.058975" lat="43.579722"><ele>116.25</ele></trkpt>
   <trkpt lon="7.059002" lat="43.579759"><ele>116.5</ele><sym>roundabout_e1</sym></trkpt>
   <trkpt lon="7.059039" lat="43.579782"><ele>116.75</ele></trkpt>
   <trkpt lon="7.059086" lat="43.579787"><ele>117.0</ele></trkpt>
   <trkpt lon="7.059285" lat="43.579799"><ele>117.75</ele></trkpt>
   <trkpt lon="7.059384" lat="43.579782"><ele>118.0</ele></trkpt>
   <trkpt lon="7.059510" lat="43.579780"><ele>118.25</ele></trkpt>
   <trkpt lon="7.059759" lat="43.579820"><ele>119.5</ele></trkpt>
   <trkpt lon="7.060043" lat="43.579826"><ele>121.0</ele></trkpt>
   <trkpt lon="7.060131" lat="43.579839"><ele>121.5</ele></trkpt>
   <trkpt lon="7.060219" lat="43.579868"><ele>121.75</ele></trkpt>
   <trkpt lon="7.060276" lat="43.579897"><ele>122.25</ele></trkpt>
   <trkpt lon="7.060385" lat="43.579983"><ele>123.0</ele></trkpt>
   <trkpt lon="7.060418" lat="43.580030"><ele>123.75</ele></trkpt>
   <trkpt lon="7.060444" lat="43.580085"><ele>124.5</ele></trkpt>
   <trkpt lon="7.060444" lat="43.580156"><ele>125.5</ele></trkpt>
   <trkpt lon="7.060421" lat="43.580202"><ele>126.0</ele></trkpt>
   <trkpt lon="7.060381" lat="43.580256"><ele>126.5</ele></trkpt>
   <trkpt lon="7.060309" lat="43.580327"><ele>127.5</ele></trkpt>
   <trkpt lon="7.060164" lat="43.580522"><ele>130.0</ele></trkpt>
   <trkpt lon="7.060135" lat="43.580562"><ele>130.5</ele></trkpt>
   <trkpt lon="7.059890" lat="43.580897"><ele>134.0</ele></trkpt>
   <trkpt lon="7.059634" lat="43.581378"><ele>138.0</ele></trkpt>
   <trkpt lon="7.059606" lat="43.581426"><ele>138.75</ele></trkpt>
   <trkpt lon="7.059510" lat="43.581629"><ele>141.5</ele></trkpt>
   <trkpt lon="7.059476" lat="43.581733"><ele>142.75</ele></trkpt>
   <trkpt lon="7.059474" lat="43.581854"><ele>144.5</ele></trkpt>
   <trkpt lon="7.059487" lat="43.582070"><ele>147.0</ele></trkpt>
   <trkpt lon="7.059474" lat="43.582167"><ele>148.0</ele></trkpt>
   <trkpt lon="7.059379" lat="43.582315"><ele>150.25</ele></trkpt>
   <trkpt lon="7.059329" lat="43.582368"><ele>151.25</ele></trkpt>
   <trkpt lon="7.059264" lat="43.582419"><ele>152.25</ele></trkpt>
   <trkpt lon="7.059188" lat="43.582458"><ele>153.25</ele></trkpt>
   <trkpt lon="7.059107" lat="43.582489"><ele>154.25</ele></trkpt>
   <trkpt lon="7.059008" lat="43.582517"><ele>155.5</ele></trkpt>
   <trkpt lon="7.058913" lat="43.582529"><ele>156.5</ele></trkpt>
   <trkpt lon="7.058809" lat="43.582528"><ele>157.5</ele></trkpt>
   <trkpt lon="7.058720" lat="43.582518"><ele>158.25</ele></trkpt>
   <trkpt lon="7.058229" lat="43.582413"><ele>163.0</ele></trkpt>
   <trkpt lon="7.058044" lat="43.582385"><ele>164.5</ele></trkpt>
   <trkpt lon="7.057913" lat="43.582382"><ele>165.25</ele></trkpt>
   <trkpt lon="7.057797" lat="43.582388"><ele>166.0</ele><sym>right_slight</sym></trkpt>
   <trkpt lon="7.057545" lat="43.582474"><ele>169.25</ele></trkpt>
   <trkpt lon="7.057375" lat="43.582562"><ele>170.75</ele></trkpt>
   <trkpt lon="7.057290" lat="43.582621"><ele>171.5</ele></trkpt>
   <trkpt lon="7.057219" lat="43.582689"><ele>172.25</ele></trkpt>
   <trkpt lon="7.057154" lat="43.582761"><ele>173.0</ele></trkpt>
   <trkpt lon="7.057120" lat="43.582828"><ele>174.5</ele></trkpt>
   <trkpt lon="7.057078" lat="43.582914"><ele>176.25</ele></trkpt>
   <trkpt lon="7.057053" lat="43.582946"><ele>176.5</ele></trkpt>
   <trkpt lon="7.056963" lat="43.583027"><ele>176.0</ele></trkpt>
   <trkpt lon="7.056889" lat="43.583054"><ele>175.75</ele></trkpt>
   <trkpt lon="7.056807" lat="43.583089"><ele>177.75</ele></trkpt>
   <trkpt lon="7.056703" lat="43.583115"><ele>179.0</ele></trkpt>
   <trkpt lon="7.056579" lat="43.583116"><ele>179.25</ele></trkpt>
   <trkpt lon="7.056225" lat="43.583096"><ele>179.25</ele></trkpt>
   <trkpt lon="7.056098" lat="43.583104"><ele>179.75</ele></trkpt>
   <trkpt lon="7.055957" lat="43.583131"><ele>179.75</ele></trkpt>
   <trkpt lon="7.055833" lat="43.583168"><ele>180.0</ele></trkpt>
   <trkpt lon="7.055729" lat="43.583215"><ele>180.25</ele></trkpt>
   <trkpt lon="7.055558" lat="43.583329"><ele>181.75</ele></trkpt>
   <trkpt lon="7.055508" lat="43.583381"><ele>181.75</ele></trkpt>
   <trkpt lon="7.055460" lat="43.583465"><ele>182.5</ele></trkpt>
   <trkpt lon="7.055369" lat="43.583659"><ele>184.75</ele></trkpt>
   <trkpt lon="7.055269" lat="43.583941"><ele>186.25</ele></trkpt>
   <trkpt lon="7.055255" lat="43.584014"><ele>186.75</ele></trkpt>
   <trkpt lon="7.055254" lat="43.584110"><ele>187.5</ele></trkpt>
   <trkpt lon="7.055287" lat="43.584272"><ele>188.75</ele></trkpt>
   <trkpt lon="7.055300" lat="43.584335"><ele>189.25</ele></trkpt>
   <trkpt lon="7.055317" lat="43.584463"><ele>190.0</ele></trkpt>
   <trkpt lon="7.055306" lat="43.584684"><ele>189.0</ele></trkpt>
   <trkpt lon="7.055204" lat="43.585325"><ele>184.75</ele></trkpt>
   <trkpt lon="7.055189" lat="43.585431"><ele>184.25</ele></trkpt>
   <trkpt lon="7.055170" lat="43.585582"><ele>183.25</ele></trkpt>
   <trkpt lon="7.055168" lat="43.585710"><ele>182.0</ele></trkpt>
   <trkpt lon="7.055180" lat="43.585879"><ele>180.25</ele></trkpt>
   <trkpt lon="7.055304" lat="43.586616"><ele>173.0</ele></trkpt>
   <trkpt lon="7.055304" lat="43.586618"><ele>169.25</ele><sym>pass_place</sym><type>Shaping</type></trkpt>
   <trkpt lon="7.055387" lat="43.586969"><ele>169.25</ele></trkpt>
   <trkpt lon="7.055546" lat="43.587609"><ele>165.5</ele></trkpt>
   <trkpt lon="7.055678" lat="43.588146"><ele>163.75</ele></trkpt>
   <trkpt lon="7.055690" lat="43.588214"><ele>163.5</ele></trkpt>
   <trkpt lon="7.055711" lat="43.588275"><ele>163.5</ele></trkpt>
   <trkpt lon="7.055820" lat="43.588720"><ele>161.5</ele></trkpt>
   <trkpt lon="7.055966" lat="43.589205"><ele>160.75</ele></trkpt>
   <trkpt lon="7.056004" lat="43.589370"><ele>159.75</ele><sym>left</sym></trkpt>
   <trkpt lon="7.055864" lat="43.589390"><ele>159.25</ele></trkpt>
   <trkpt lon="7.055815" lat="43.589389"><ele>159.25</ele></trkpt>
   <trkpt lon="7.055770" lat="43.589381"><ele>159.25</ele></trkpt>
   <trkpt lon="7.055680" lat="43.589352"><ele>159.5</ele><sym>straight</sym></trkpt>
   <trkpt lon="7.055295" lat="43.589090"><ele>161.0</ele><sym>right</sym></trkpt>
   <trkpt lon="7.055249" lat="43.589106"><ele>161.0</ele></trkpt>
   <trkpt lon="7.055090" lat="43.589175"><ele>161.5</ele></trkpt>
   <trkpt lon="7.055022" lat="43.589215"><ele>161.75</ele></trkpt>
   <trkpt lon="7.054944" lat="43.589293"><ele>162.25</ele></trkpt>
   <trkpt lon="7.054863" lat="43.589395"><ele>162.75</ele></trkpt>
   <trkpt lon="7.054755" lat="43.589572"><ele>163.75</ele></trkpt>
   <trkpt lon="7.054697" lat="43.589726"><ele>164.0</ele></trkpt>
   <trkpt lon="7.054654" lat="43.589896"><ele>164.25</ele></trkpt>
   <trkpt lon="7.054638" lat="43.590014"><ele>164.5</ele></trkpt>
   <trkpt lon="7.054641" lat="43.590096"><ele>165.0</ele></trkpt>
   <trkpt lon="7.054647" lat="43.590155"><ele>165.25</ele></trkpt>
   <trkpt lon="7.054639" lat="43.590208"><ele>165.5</ele></trkpt>
   <trkpt lon="7.054615" lat="43.590262"><ele>166.0</ele></trkpt>
   <trkpt lon="7.054536" lat="43.590391"><ele>166.75</ele></trkpt>
   <trkpt lon="7.054398" lat="43.590584"><ele>167.5</ele></trkpt>
   <trkpt lon="7.054140" lat="43.590924"><ele>169.5</ele></trkpt>
   <trkpt lon="7.053883" lat="43.591257"><ele>173.0</ele></trkpt>
   <trkpt lon="7.053783" lat="43.591436"><ele>175.0</ele></trkpt>
   <trkpt lon="7.053717" lat="43.591585"><ele>176.25</ele></trkpt>
   <trkpt lon="7.053698" lat="43.591738"><ele>177.25</ele></trkpt>
   <trkpt lon="7.053708" lat="43.591869"><ele>178.25</ele></trkpt>
   <trkpt lon="7.053717" lat="43.591916"><ele>178.5</ele></trkpt>
   <trkpt lon="7.053774" lat="43.592085"><ele>179.25</ele></trkpt>
   <trkpt lon="7.053805" lat="43.592143"><ele>179.25</ele></trkpt>
   <trkpt lon="7.053801" lat="43.592170"><ele>179.5</ele><sym>left_slight</sym></trkpt>
   <trkpt lon="7.053680" lat="43.592278"><ele>180.5</ele></trkpt>
   <trkpt lon="7.053281" lat="43.592730"><ele>178.0</ele></trkpt>
   <trkpt lon="7.053169" lat="43.592838"><ele>177.25</ele></trkpt>
   <trkpt lon="7.053140" lat="43.592857"><ele>177.0</ele></trkpt>
   <trkpt lon="7.053066" lat="43.592894"><ele>176.75</ele><sym>left_slight</sym></trkpt>
   <trkpt lon="7.052881" lat="43.592900"><ele>176.0</ele></trkpt>
   <trkpt lon="7.052711" lat="43.592927"><ele>175.25</ele></trkpt>
   <trkpt lon="7.052562" lat="43.592962"><ele>174.75</ele></trkpt>
   <trkpt lon="7.052127" lat="43.593090"><ele>171.5</ele></trkpt>
   <trkpt lon="7.051650" lat="43.593117"><ele>169.25</ele></trkpt>
   <trkpt lon="7.050846" lat="43.593133"><ele>164.5</ele></trkpt>
   <trkpt lon="7.050663" lat="43.593177"><ele>163.25</ele></trkpt>
   <trkpt lon="7.050524" lat="43.593216"><ele>162.5</ele></trkpt>
   <trkpt lon="7.050395" lat="43.593242"><ele>161.75</ele><sym>stay_left</sym></trkpt>
   <trkpt lon="7.050289" lat="43.593293"><ele>161.0</ele></trkpt>
   <trkpt lon="7.050035" lat="43.593386"><ele>160.75</ele></trkpt>
   <trkpt lon="7.049866" lat="43.593420"><ele>160.75</ele></trkpt>
   <trkpt lon="7.049465" lat="43.593476"><ele>163.25</ele></trkpt>
   <trkpt lon="7.049068" lat="43.593543"><ele>162.5</ele></trkpt>
   <trkpt lon="7.048087" lat="43.593732"><ele>159.5</ele></trkpt>
   <trkpt lon="7.047968" lat="43.593754"><ele>159.5</ele></trkpt>
   <trkpt lon="7.047851" lat="43.593773"><ele>160.0</ele></trkpt>
   <trkpt lon="7.047700" lat="43.593797"><ele>160.5</ele></trkpt>
   <trkpt lon="7.047372" lat="43.593850"><ele>160.25</ele></trkpt>
   <trkpt lon="7.047113" lat="43.593901"><ele>158.5</ele></trkpt>
   <trkpt lon="7.046323" lat="43.593972"><ele>158.0</ele></trkpt>
   <trkpt lon="7.045494" lat="43.594037"><ele>157.25</ele></trkpt>
   <trkpt lon="7.045373" lat="43.594072"><ele>156.25</ele></trkpt>
   <trkpt lon="7.045318" lat="43.594107"><ele>155.5</ele></trkpt>
   <trkpt lon="7.045277" lat="43.594146"><ele>154.75</ele></trkpt>
   <trkpt lon="7.045183" lat="43.594331"><ele>154.5</ele></trkpt>
   <trkpt lon="7.045117" lat="43.594387"><ele>154.0</ele></trkpt>
   <trkpt lon="7.045045" lat="43.594415"><ele>153.25</ele></trkpt>
   <trkpt lon="7.044976" lat="43.594427"><ele>152.75</ele></trkpt>
   <trkpt lon="7.044656" lat="43.594461"><ele>151.0</ele></trkpt>
   <trkpt lon="7.044547" lat="43.594449"><ele>151.0</ele></trkpt>
   <trkpt lon="7.044257" lat="43.594384"><ele>151.5</ele></trkpt>
   <trkpt lon="7.044165" lat="43.594378"><ele>152.0</ele></trkpt>
   <trkpt lon="7.043935" lat="43.594391"><ele>153.25</ele></trkpt>
   <trkpt lon="7.043675" lat="43.594432"><ele>153.75</ele></trkpt>
   <trkpt lon="7.043589" lat="43.594460"><ele>154.0</ele></trkpt>
   <trkpt lon="7.043481" lat="43.594445"><ele>154.25</ele></trkpt>
   <trkpt lon="7.043314" lat="43.594406"><ele>155.0</ele></trkpt>
   <trkpt lon="7.042779" lat="43.594314"><ele>155.25</ele></trkpt>
   <trkpt lon="7.042227" lat="43.594191"><ele>157.5</ele></trkpt>
   <trkpt lon="7.041609" lat="43.594024"><ele>156.75</ele><sym>pass_place</sym><type>Shaping</type></trkpt>
   <trkpt lon="7.041092" lat="43.593901"><ele>156.75</ele></trkpt>
   <trkpt lon="7.040851" lat="43.593801"><ele>156.25</ele></trkpt>
   <trkpt lon="7.040704" lat="43.593693"><ele>157.5</ele></trkpt>
   <trkpt lon="7.040613" lat="43.593548"><ele>158.75</ele></trkpt>
   <trkpt lon="7.040539" lat="43.593490"><ele>158.5</ele><sym>right</sym></trkpt>
   <trkpt lon="7.040424" lat="43.593559"><ele>158.5</ele></trkpt>
   <trkpt lon="7.039849" lat="43.593939"><ele>160.75</ele></trkpt>
   <trkpt lon="7.039795" lat="43.593973"><ele>162.0</ele></trkpt>
   <trkpt lon="7.039587" lat="43.594105"><ele>164.25</ele></trkpt>
   <trkpt lon="7.039165" lat="43.594308"><ele>166.0</ele></trkpt>
   <trkpt lon="7.038897" lat="43.594392"><ele>166.75</ele></trkpt>
   <trkpt lon="7.038445" lat="43.594484"><ele>168.75</ele></trkpt>
   <trkpt lon="7.038293" lat="43.594514"><ele>169.5</ele></trkpt>
   <trkpt lon="7.038007" lat="43.594572"><ele>171.25</ele></trkpt>
   <trkpt lon="7.037975" lat="43.594584"><ele>171.5</ele></trkpt>
   <trkpt lon="7.037946" lat="43.594597"><ele>171.75</ele></trkpt>
   <trkpt lon="7.037906" lat="43.594634"><ele>172.0</ele></trkpt>
   <trkpt lon="7.037880" lat="43.594686"><ele>172.5</ele></trkpt>
   <trkpt lon="7.037878" lat="43.594740"><ele>173.0</ele></trkpt>
   <trkpt lon="7.038038" lat="43.595351"><ele>176.75</ele></trkpt>
   <trkpt lon="7.038075" lat="43.595462"><ele>177.75</ele></trkpt>
   <trkpt lon="7.038107" lat="43.595510"><ele>178.25</ele></trkpt>
   <trkpt lon="7.038156" lat="43.595554"><ele>178.75</ele></trkpt>
   <trkpt lon="7.038227" lat="43.595589"><ele>179.5</ele></trkpt>
   <trkpt lon="7.038300" lat="43.595611"><ele>179.75</ele></trkpt>
   <trkpt lon="7.038753" lat="43.595690"><ele>181.75</ele></trkpt>
   <trkpt lon="7.038787" lat="43.595713"><ele>182.5</ele></trkpt>
   <trkpt lon="7.038804" lat="43.595743"><ele>183.25</ele></trkpt>
   <trkpt lon="7.038800" lat="43.595773"><ele>183.75</ele></trkpt>
   <trkpt lon="7.038783" lat="43.595795"><ele>184.25</ele></trkpt>
   <trkpt lon="7.038748" lat="43.595815"><ele>184.5</ele></trkpt>
   <trkpt lon="7.037974" lat="43.596089"><ele>187.75</ele></trkpt>
   <trkpt lon="7.037870" lat="43.596110"><ele>188.5</ele></trkpt>
   <trkpt lon="7.037752" lat="43.596108"><ele>189.0</ele></trkpt>
   <trkpt lon="7.037206" lat="43.596027"><ele>191.0</ele></trkpt>
   <trkpt lon="7.037135" lat="43.596024"><ele>191.25</ele></trkpt>
   <trkpt lon="7.037077" lat="43.596036"><ele>191.75</ele></trkpt>
   <trkpt lon="7.037014" lat="43.596068"><ele>192.75</ele></trkpt>
   <trkpt lon="7.036969" lat="43.596099"><ele>193.5</ele></trkpt>
   <trkpt lon="7.036940" lat="43.596133"><ele>194.0</ele></trkpt>
   <trkpt lon="7.036931" lat="43.596178"><ele>194.25</ele></trkpt>
   <trkpt lon="7.036936" lat="43.596461"><ele>195.0</ele></trkpt>
   <trkpt lon="7.036938" lat="43.596506"><ele>195.0</ele></trkpt>
   <trkpt lon="7.036978" lat="43.597218"><ele>195.25</ele></trkpt>
   <trkpt lon="7.036786" lat="43.597718"><ele>195.25</ele></trkpt>
   <trkpt lon="7.036614" lat="43.598090"><ele>194.75</ele></trkpt>
   <trkpt lon="7.035839" lat="43.599215"><ele>194.25</ele></trkpt>
   <trkpt lon="7.035727" lat="43.599332"><ele>194.5</ele></trkpt>
   <trkpt lon="7.035594" lat="43.599411"><ele>194.75</ele></trkpt>
   <trkpt lon="7.035013" lat="43.599644"><ele>195.25</ele></trkpt>
   <trkpt lon="7.034806" lat="43.599761"><ele>195.5</ele></trkpt>
   <trkpt lon="7.034673" lat="43.599891"><ele>195.75</ele></trkpt>
   <trkpt lon="7.034612" lat="43.600041"><ele>196.25</ele></trkpt>
   <trkpt lon="7.034611" lat="43.600406"><ele>196.25</ele></trkpt>
   <trkpt lon="7.034636" lat="43.600785"><ele>195.25</ele></trkpt>
   <trkpt lon="7.034692" lat="43.600942"><ele>193.75</ele></trkpt>
   <trkpt lon="7.034856" lat="43.601143"><ele>191.25</ele></trkpt>
   <trkpt lon="7.035000" lat="43.601261"><ele>189.75</ele></trkpt>
   <trkpt lon="7.035069" lat="43.601310"><ele>189.25</ele></trkpt>
   <trkpt lon="7.035156" lat="43.601359"><ele>188.75</ele></trkpt>
   <trkpt lon="7.035436" lat="43.601497"><ele>187.25</ele></trkpt>
   <trkpt lon="7.035546" lat="43.601549"><ele>187.0</ele></trkpt>
   <trkpt lon="7.035637" lat="43.601596"><ele>186.5</ele></trkpt>
   <trkpt lon="7.035754" lat="43.601659"><ele>186.0</ele><sym>left_slight</sym></trkpt>
   <trkpt lon="7.035816" lat="43.601770"><ele>186.0</ele></trkpt>
   <trkpt lon="7.035865" lat="43.601896"><ele>185.75</ele><sym>roundabout_e2</sym></trkpt>
   <trkpt lon="7.035894" lat="43.601929"><ele>185.75</ele></trkpt>
   <trkpt lon="7.035910" lat="43.601965"><ele>186.0</ele></trkpt>
   <trkpt lon="7.035912" lat="43.602002"><ele>186.5</ele></trkpt>
   <trkpt lon="7.035900" lat="43.602038"><ele>186.75</ele></trkpt>
   <trkpt lon="7.035876" lat="43.602070"><ele>187.25</ele></trkpt>
   <trkpt lon="7.035842" lat="43.602097"><ele>187.5</ele></trkpt>
   <trkpt lon="7.035797" lat="43.602117"><ele>187.75</ele></trkpt>
   <trkpt lon="7.035747" lat="43.602128"><ele>188.25</ele></trkpt>
   <trkpt lon="7.035695" lat="43.602128"><ele>188.25</ele></trkpt>
   <trkpt lon="7.035645" lat="43.602119"><ele>188.25</ele></trkpt>
   <trkpt lon="7.035600" lat="43.602100"><ele>188.25</ele></trkpt>
   <trkpt lon="7.035563" lat="43.602073"><ele>187.75</ele></trkpt>
   <trkpt lon="7.035538" lat="43.602040"><ele>187.0</ele></trkpt>
   <trkpt lon="7.035411" lat="43.601973"><ele>186.0</ele></trkpt>
   <trkpt lon="7.035339" lat="43.601945"><ele>185.75</ele></trkpt>
   <trkpt lon="7.035178" lat="43.601896"><ele>185.5</ele></trkpt>
   <trkpt lon="7.034729" lat="43.601770"><ele>183.25</ele></trkpt>
   <trkpt lon="7.033965" lat="43.601571"><ele>180.5</ele></trkpt>
   <trkpt lon="7.033158" lat="43.601350"><ele>177.75</ele></trkpt>
   <trkpt lon="7.032208" lat="43.601052"><ele>174.75</ele></trkpt>
   <trkpt lon="7.031051" lat="43.600653"><ele>171.75</ele></trkpt>
   <trkpt lon="7.031047" lat="43.600652"><ele>171.5</ele><sym>pass_place</sym><type>Shaping</type></trkpt>
   <trkpt lon="7.030847" lat="43.600598"><ele>171.5</ele></trkpt>
   <trkpt lon="7.030640" lat="43.600558"><ele>171.0</ele></trkpt>
   <trkpt lon="7.030435" lat="43.600533"><ele>170.0</ele></trkpt>
   <trkpt lon="7.030220" lat="43.600525"><ele>168.5</ele></trkpt>
   <trkpt lon="7.030035" lat="43.600534"><ele>168.0</ele></trkpt>
   <trkpt lon="7.029809" lat="43.600559"><ele>168.0</ele></trkpt>
   <trkpt lon="7.029618" lat="43.600602"><ele>168.0</ele></trkpt>
   <trkpt lon="7.029377" lat="43.600677"><ele>167.25</ele></trkpt>
   <trkpt lon="7.029236" lat="43.600735"><ele>166.25</ele></trkpt>
   <trkpt lon="7.029092" lat="43.600805"><ele>165.5</ele></trkpt>
   <trkpt lon="7.028947" lat="43.600892"><ele>165.0</ele></trkpt>
   <trkpt lon="7.028797" lat="43.601003"><ele>164.0</ele></trkpt>
   <trkpt lon="7.028619" lat="43.601159"><ele>163.5</ele></trkpt>
   <trkpt lon="7.028524" lat="43.601243"><ele>162.5</ele></trkpt>
   <trkpt lon="7.026615" lat="43.602976"><ele>161.75</ele></trkpt>
   <trkpt lon="7.026387" lat="43.603155"><ele>162.5</ele></trkpt>
   <trkpt lon="7.026260" lat="43.603236"><ele>164.0</ele></trkpt>
   <trkpt lon="7.026117" lat="43.603310"><ele>165.0</ele></trkpt>
   <trkpt lon="7.025963" lat="43.603368"><ele>164.75</ele></trkpt>
   <trkpt lon="7.025792" lat="43.603416"><ele>165.5</ele></trkpt>
   <trkpt lon="7.025655" lat="43.603437"><ele>167.0</ele></trkpt>
   <trkpt lon="7.025365" lat="43.603449"><ele>167.5</ele></trkpt>
   <trkpt lon="7.025216" lat="43.603441"><ele>167.25</ele></trkpt>
   <trkpt lon="7.023918" lat="43.603250"><ele>170.0</ele></trkpt>
   <trkpt lon="7.023667" lat="43.603214"><ele>170.25</ele></trkpt>
   <trkpt lon="7.023491" lat="43.603183"><ele>170.25</ele></trkpt>
   <trkpt lon="7.022776" lat="43.603051"><ele>171.0</ele></trkpt>
   <trkpt lon="7.022060" lat="43.602906"><ele>170.5</ele></trkpt>
   <trkpt lon="7.021853" lat="43.602862"><ele>170.25</ele></trkpt>
   <trkpt lon="7.021679" lat="43.602860"><ele>170.0</ele><sym>roundabout_e2</sym></trkpt>
   <trkpt lon="7.021635" lat="43.602885"><ele>170.0</ele></trkpt>
   <trkpt lon="7.021600" lat="43.602892"><ele>170.0</ele></trkpt>
   <trkpt lon="7.021530" lat="43.602883"><ele>170.25</ele></trkpt>
   <trkpt lon="7.021500" lat="43.602869"><ele>170.5</ele></trkpt>
   <trkpt lon="7.021478" lat="43.602848"><ele>170.5</ele></trkpt>
   <trkpt lon="7.021463" lat="43.602815"><ele>170.5</ele></trkpt>
   <trkpt lon="7.021311" lat="43.602781"><ele>171.0</ele></trkpt>
   <trkpt lon="7.021084" lat="43.602742"><ele>171.0</ele></trkpt>
   <trkpt lon="7.020877" lat="43.602707"><ele>171.25</ele><sym>stay_right</sym></trkpt>
   <trkpt lon="7.020814" lat="43.602722"><ele>171.25</ele></trkpt>
   <trkpt lon="7.019892" lat="43.602563"><ele>172.75</ele></trkpt>
   <trkpt lon="7.019332" lat="43.602482"><ele>173.0</ele></trkpt>
   <trkpt lon="7.018771" lat="43.602427"><ele>173.5</ele></trkpt>
   <trkpt lon="7.016379" lat="43.602276"><ele>178.0</ele></trkpt>
   <trkpt lon="7.015461" lat="43.602214"><ele>179.0</ele></trkpt>
   <trkpt lon="7.014893" lat="43.602195"><ele>180.0</ele></trkpt>
   <trkpt lon="7.014772" lat="43.602215"><ele>180.0</ele></trkpt>
   <trkpt lon="7.014679" lat="43.602245"><ele>180.0</ele></trkpt>
   <trkpt lon="7.014607" lat="43.602246"><ele>180.25</ele><sym>roundabout_e1</sym></trkpt>
   <trkpt lon="7.014581" lat="43.602271"><ele>180.25</ele></trkpt>
   <trkpt lon="7.014547" lat="43.602290"><ele>180.25</ele></trkpt>
   <trkpt lon="7.014410" lat="43.602351"><ele>180.5</ele></trkpt>
   <trkpt lon="7.014335" lat="43.602374"><ele>180.25</ele></trkpt>
   <trkpt lon="7.014233" lat="43.602386"><ele>180.25</ele></trkpt>
   <trkpt lon="7.013952" lat="43.602480"><ele>180.0</ele></trkpt>
   <trkpt lon="7.013462" lat="43.602644"><ele>181.0</ele></trkpt>
   <trkpt lon="7.013423" lat="43.602657"><ele>181.0</ele></trkpt>
   <trkpt lon="7.013048" lat="43.602797"><ele>180.75</ele></trkpt>
   <trkpt lon="7.012893" lat="43.602854"><ele>180.5</ele></trkpt>
   <trkpt lon="7.012778" lat="43.602900"><ele>180.25</ele></trkpt>
   <trkpt lon="7.011934" lat="43.603219"><ele>180.0</ele></trkpt>
   <trkpt lon="7.011799" lat="43.603270"><ele>180.0</ele></trkpt>
   <trkpt lon="7.011467" lat="43.603398"><ele>180.0</ele></trkpt>
   <trkpt lon="7.011113" lat="43.603532"><ele>180.25</ele></trkpt>
   <trkpt lon="7.011111" lat="43.603532"><ele>180.25</ele><sym>pass_place</sym><type>Shaping</type></trkpt>
   <trkpt lon="7.010989" lat="43.603580"><ele>180.25</ele></trkpt>
   <trkpt lon="7.010371" lat="43.603819"><ele>179.5</ele></trkpt>
   <trkpt lon="7.010303" lat="43.603845"><ele>179.5</ele></trkpt>
   <trkpt lon="7.010227" lat="43.603874"><ele>179.75</ele></trkpt>
   <trkpt lon="7.009779" lat="43.604044"><ele>179.75</ele></trkpt>
   <trkpt lon="7.009526" lat="43.604141"><ele>179.75</ele></trkpt>
   <trkpt lon="7.008744" lat="43.604452"><ele>181.0</ele></trkpt>
   <trkpt lon="7.008643" lat="43.604522"><ele>181.25</ele></trkpt>
   <trkpt lon="7.008571" lat="43.604607"><ele>181.25</ele></trkpt>
   <trkpt lon="7.008519" lat="43.604671"><ele>181.25</ele></trkpt>
   <trkpt lon="7.008487" lat="43.604711"><ele>181.5</ele></trkpt>
   <trkpt lon="7.008450" lat="43.604756"><ele>181.5</ele><sym>roundabout_e2</sym></trkpt>
   <trkpt lon="7.008429" lat="43.604807"><ele>181.75</ele></trkpt>
   <trkpt lon="7.008390" lat="43.604845"><ele>181.75</ele></trkpt>
   <trkpt lon="7.008341" lat="43.604874"><ele>182.0</ele></trkpt>
   <trkpt lon="7.008286" lat="43.604892"><ele>182.0</ele></trkpt>
   <trkpt lon="7.008225" lat="43.604900"><ele>182.0</ele></trkpt>
   <trkpt lon="7.008174" lat="43.604897"><ele>181.75</ele></trkpt>
   <trkpt lon="7.008111" lat="43.604883"><ele>181.5</ele></trkpt>
   <trkpt lon="7.008075" lat="43.604857"><ele>181.5</ele></trkpt>
   <trkpt lon="7.007953" lat="43.604840"><ele>181.0</ele></trkpt>
   <trkpt lon="7.007686" lat="43.604802"><ele>180.25</ele></trkpt>
   <trkpt lon="7.007403" lat="43.604762"><ele>180.0</ele></trkpt>
   <trkpt lon="7.007190" lat="43.604744"><ele>180.0</ele></trkpt>
   <trkpt lon="7.007166" lat="43.604742"><ele>180.25</ele></trkpt>
   <trkpt lon="7.007016" lat="43.604726"><ele>180.5</ele></trkpt>
   <trkpt lon="7.006951" lat="43.604722"><ele>180.75</ele></trkpt>
   <trkpt lon="7.006724" lat="43.604721"><ele>180.75</ele></trkpt>
   <trkpt lon="7.006358" lat="43.604726"><ele>182.0</ele></trkpt>
   <trkpt lon="7.005926" lat="43.604744"><ele>182.0</ele></trkpt>
   <trkpt lon="7.005753" lat="43.604758"><ele>182.0</ele></trkpt>
   <trkpt lon="7.005639" lat="43.604767"><ele>182.0</ele></trkpt>
   <trkpt lon="7.005587" lat="43.604782"><ele>182.0</ele></trkpt>
   <trkpt lon="7.005566" lat="43.604787"><ele>182.0</ele><sym>roundabout_e3</sym></trkpt>
   <trkpt lon="7.005540" lat="43.604816"><ele>181.75</ele></trkpt>
   <trkpt lon="7.005518" lat="43.604823"><ele>181.75</ele></trkpt>
   <trkpt lon="7.005474" lat="43.604819"><ele>181.5</ele></trkpt>
   <trkpt lon="7.005457" lat="43.604811"><ele>181.25</ele></trkpt>
   <trkpt lon="7.005296" lat="43.604809"><ele>180.25</ele></trkpt>
   <trkpt lon="7.004923" lat="43.604836"><ele>179.0</ele></trkpt>
   <trkpt lon="7.004764" lat="43.604849"><ele>178.5</ele></trkpt>
   <trkpt lon="7.004558" lat="43.604854"><ele>177.75</ele></trkpt>
   <trkpt lon="7.004307" lat="43.604836"><ele>177.0</ele></trkpt>
   <trkpt lon="7.004202" lat="43.604813"><ele>176.75</ele></trkpt>
   <trkpt lon="7.004081" lat="43.604766"><ele>176.5</ele></trkpt>
   <trkpt lon="7.003980" lat="43.604733"><ele>176.0</ele></trkpt>
   <trkpt lon="7.003753" lat="43.604640"><ele>175.25</ele></trkpt>
   <trkpt lon="7.003610" lat="43.604591"><ele>175.0</ele></trkpt>
   <trkpt lon="7.003530" lat="43.604580"><ele>174.0</ele></trkpt>
   <trkpt lon="7.003374" lat="43.604587"><ele>172.25</ele></trkpt>
   <trkpt lon="7.003277" lat="43.604617"><ele>171.75</ele></trkpt>
   <trkpt lon="7.002757" lat="43.604862"><ele>169.5</ele></trkpt>
   <trkpt lon="7.002433" lat="43.605026"><ele>166.5</ele></trkpt>
   <trkpt lon="7.002362" lat="43.605055"><ele>166.0</ele></trkpt>
   <trkpt lon="7.002282" lat="43.605078"><ele>165.5</ele></trkpt>
   <trkpt lon="7.002215" lat="43.605087"><ele>165.25</ele></trkpt>
   <trkpt lon="7.002130" lat="43.605087"><ele>165.5</ele></trkpt>
   <trkpt lon="7.002076" lat="43.605075"><ele>165.75</ele></trkpt>
   <trkpt lon="7.002015" lat="43.605050"><ele>165.75</ele></trkpt>
   <trkpt lon="7.001973" lat="43.605017"><ele>165.75</ele></trkpt>
   <trkpt lon="7.001937" lat="43.604960"><ele>165.75</ele><sym>right_slight</sym></trkpt>
   <trkpt lon="7.001842" lat="43.604907"><ele>166.25</ele></trkpt>
   <trkpt lon="7.001803" lat="43.604864"><ele>166.5</ele></trkpt>
   <trkpt lon="7.001687" lat="43.604732"><ele>166.75</ele></trkpt>
   <trkpt lon="7.001642" lat="43.604693"><ele>167.0</ele></trkpt>
   <trkpt lon="7.001502" lat="43.604613"><ele>167.75</ele></trkpt>
   <trkpt lon="7.001413" lat="43.604582"><ele>168.25</ele></trkpt>
   <trkpt lon="7.001316" lat="43.604559"><ele>168.5</ele></trkpt>
   <trkpt lon="7.001008" lat="43.604537"><ele>171.25</ele><sym>right_slight</sym></trkpt>
   <trkpt lon="7.000623" lat="43.604653"><ele>172.5</ele></trkpt>
   <trkpt lon="7.000490" lat="43.604701"><ele>172.75</ele><sym>right_slight</sym></trkpt>
   <trkpt lon="7.000321" lat="43.604851"><ele>174.75</ele></trkpt>
   <trkpt lon="7.000270" lat="43.604905"><ele>175.5</ele><sym>stay_right</sym></trkpt>
   <trkpt lon="7.000138" lat="43.605033"><ele>177.5</ele></trkpt>
   <trkpt lon="7.000063" lat="43.605088"><ele>178.0</ele></trkpt>
   <trkpt lon="6.999995" lat="43.605123"><ele>178.25</ele></trkpt>
   <trkpt lon="6.999947" lat="43.605150"><ele>177.75</ele></trkpt>
   <trkpt lon="6.999821" lat="43.605208"><ele>177.25</ele></trkpt>
   <trkpt lon="6.999504" lat="43.605318"><ele>176.5</ele></trkpt>
   <trkpt lon="6.999230" lat="43.605458"><ele>174.25</ele></trkpt>
   <trkpt lon="6.999097" lat="43.605560"><ele>173.75</ele></trkpt>
   <trkpt lon="6.998979" lat="43.605678"><ele>172.75</ele></trkpt>
   <trkpt lon="6.998716" lat="43.606063"><ele>168.5</ele></trkpt>
   <trkpt lon="6.998633" lat="43.606133"><ele>167.25</ele></trkpt>
   <trkpt lon="6.998539" lat="43.606179"><ele>166.25</ele></trkpt>
   <trkpt lon="6.998399" lat="43.606207"><ele>165.0</ele></trkpt>
   <trkpt lon="6.998056" lat="43.606221"><ele>162.25</ele></trkpt>
   <trkpt lon="6.997914" lat="43.606226"><ele>162.0</ele></trkpt>
   <trkpt lon="6.997716" lat="43.606224"><ele>161.5</ele></trkpt>
   <trkpt lon="6.997500" lat="43.606224"><ele>160.25</ele></trkpt>
   <trkpt lon="6.997107" lat="43.606206"><ele>161.5</ele></trkpt>
   <trkpt lon="6.996804" lat="43.606171"><ele>162.25</ele></trkpt>
   <trkpt lon="6.995948" lat="43.606003"><ele>157.5</ele></trkpt>
   <trkpt lon="6.995539" lat="43.605933"><ele>157.25</ele></trkpt>
   <trkpt lon="6.995432" lat="43.605915"><ele>156.75</ele></trkpt>
   <trkpt lon="6.994828" lat="43.605891"><ele>154.25</ele></trkpt>
   <trkpt lon="6.994632" lat="43.605864"><ele>153.25</ele></trkpt>
   <trkpt lon="6.994467" lat="43.605808"><ele>152.75</ele></trkpt>
   <trkpt lon="6.994169" lat="43.605717"><ele>151.5</ele></trkpt>
   <trkpt lon="6.994031" lat="43.605682"><ele>152.25</ele></trkpt>
   <trkpt lon="6.993867" lat="43.605643"><ele>152.5</ele></trkpt>
   <trkpt lon="6.993572" lat="43.605601"><ele>151.0</ele></trkpt>
   <trkpt lon="6.992746" lat="43.605531"><ele>148.75</ele></trkpt>
   <trkpt lon="6.992471" lat="43.605476"><ele>149.75</ele></trkpt>
   <trkpt lon="6.992097" lat="43.605358"><ele>148.25</ele></trkpt>
   <trkpt lon="6.991454" lat="43.605248"><ele>145.75</ele></trkpt>
   <trkpt lon="6.991121" lat="43.605167"><ele>145.5</ele><sym>pass_place</sym><type>Shaping</type></trkpt>
   <trkpt lon="6.990985" lat="43.605153"><ele>145.75</ele></trkpt>
   <trkpt lon="6.990894" lat="43.605166"><ele>146.0</ele></trkpt>
   <trkpt lon="6.990260" lat="43.605393"><ele>142.25</ele></trkpt>
   <trkpt lon="6.990149" lat="43.605443"><ele>141.25</ele></trkpt>
   <trkpt lon="6.990102" lat="43.605464"><ele>140.5</ele></trkpt>
   <trkpt lon="6.990004" lat="43.605525"><ele>138.5</ele></trkpt>
   <trkpt lon="6.989863" lat="43.605638"><ele>140.5</ele></trkpt>
   <trkpt lon="6.989780" lat="43.605679"><ele>141.5</ele></trkpt>
   <trkpt lon="6.989706" lat="43.605691"><ele>141.75</ele></trkpt>
   <trkpt lon="6.989624" lat="43.605686"><ele>140.75</ele></trkpt>
   <trkpt lon="6.989566" lat="43.605671"><ele>139.75</ele></trkpt>
   <trkpt lon="6.989520" lat="43.605640"><ele>138.75</ele></trkpt>
   <trkpt lon="6.989244" lat="43.605426"><ele>138.0</ele></trkpt>
   <trkpt lon="6.989046" lat="43.605304"><ele>136.75</ele></trkpt>
   <trkpt lon="6.988955" lat="43.605272"><ele>136.0</ele></trkpt>
   <trkpt lon="6.988859" lat="43.605239"><ele>135.75</ele></trkpt>
   <trkpt lon="6.988787" lat="43.605221"><ele>135.75</ele></trkpt>
   <trkpt lon="6.988653" lat="43.605218"><ele>135.75</ele></trkpt>
   <trkpt lon="6.988282" lat="43.605234"><ele>134.5</ele></trkpt>
   <trkpt lon="6.988103" lat="43.605242"><ele>134.25</ele></trkpt>
   <trkpt lon="6.987764" lat="43.605209"><ele>134.0</ele></trkpt>
   <trkpt lon="6.987657" lat="43.605212"><ele>134.0</ele></trkpt>
   <trkpt lon="6.987599" lat="43.605216"><ele>134.0</ele><sym>roundabout_e1</sym></trkpt>
   <trkpt lon="6.987562" lat="43.605242"><ele>134.0</ele></trkpt>
   <trkpt lon="6.987519" lat="43.605262"><ele>134.0</ele></trkpt>
   <trkpt lon="6.987397" lat="43.605387"><ele>134.0</ele></trkpt>
   <trkpt lon="6.987363" lat="43.605448"><ele>134.0</ele></trkpt>
   <trkpt lon="6.987344" lat="43.605500"><ele>133.75</ele></trkpt>
   <trkpt lon="6.987332" lat="43.605563"><ele>133.75</ele></trkpt>
   <trkpt lon="6.987321" lat="43.605783"><ele>132.5</ele></trkpt>
   <trkpt lon="6.987330" lat="43.606121"><ele>130.5</ele></trkpt>
   <trkpt lon="6.987302" lat="43.606259"><ele>130.0</ele></trkpt>
   <trkpt lon="6.987288" lat="43.606401"><ele>129.25</ele></trkpt>
   <trkpt lon="6.987173" lat="43.606657"><ele>129.0</ele></trkpt>
   <trkpt lon="6.987110" lat="43.606768"><ele>130.25</ele></trkpt>
   <trkpt lon="6.986964" lat="43.606951"><ele>127.25</ele></trkpt>
   <trkpt lon="6.986784" lat="43.607093"><ele>127.25</ele></trkpt>
   <trkpt lon="6.986656" lat="43.607176"><ele>126.5</ele></trkpt>
   <trkpt lon="6.986525" lat="43.607248"><ele>125.5</ele></trkpt>
   <trkpt lon="6.986399" lat="43.607310"><ele>125.25</ele></trkpt>
   <trkpt lon="6.986201" lat="43.607392"><ele>125.0</ele></trkpt>
   <trkpt lon="6.985714" lat="43.607570"><ele>124.25</ele></trkpt>
   <trkpt lon="6.985388" lat="43.607704"><ele>123.25</ele></trkpt>
   <trkpt lon="6.985059" lat="43.607815"><ele>122.75</ele></trkpt>
   <trkpt lon="6.984909" lat="43.607883"><ele>122.25</ele></trkpt>
   <trkpt lon="6.984867" lat="43.607920"><ele>122.25</ele><sym>roundabout_e3</sym></trkpt>
   <trkpt lon="6.984865" lat="43.607956"><ele>122.0</ele></trkpt>
   <trkpt lon="6.984853" lat="43.607990"><ele>122.0</ele></trkpt>
   <trkpt lon="6.984831" lat="43.608022"><ele>122.0</ele></trkpt>
   <trkpt lon="6.984801" lat="43.608050"><ele>122.0</ele></trkpt>
   <trkpt lon="6.984763" lat="43.608073"><ele>122.0</ele></trkpt>
   <trkpt lon="6.984673" lat="43.608099"><ele>121.75</ele></trkpt>
   <trkpt lon="6.984625" lat="43.608102"><ele>121.5</ele></trkpt>
   <trkpt lon="6.984576" lat="43.608097"><ele>121.5</ele></trkpt>
   <trkpt lon="6.984530" lat="43.608085"><ele>121.25</ele></trkpt>
   <trkpt lon="6.984335" lat="43.608138"><ele>120.75</ele></trkpt>
   <trkpt lon="6.983987" lat="43.608256"><ele>118.5</ele></trkpt>
   <trkpt lon="6.983577" lat="43.608435"><ele>116.5</ele><sym>stay_right</sym></trkpt>
   <trkpt lon="6.983538" lat="43.608493"><ele>116.5</ele></trkpt>
   <trkpt lon="6.983189" lat="43.608643"><ele>115.5</ele></trkpt>
   <trkpt lon="6.983045" lat="43.608715"><ele>114.75</ele></trkpt>
   <trkpt lon="6.982884" lat="43.608810"><ele>114.25</ele></trkpt>
   <trkpt lon="6.982781" lat="43.608859"><ele>114.0</ele></trkpt>
   <trkpt lon="6.982685" lat="43.608899"><ele>114.0</ele></trkpt>
   <trkpt lon="6.982573" lat="43.608942"><ele>114.0</ele><sym>stay_right</sym></trkpt>
   <trkpt lon="6.982397" lat="43.608993"><ele>114.25</ele></trkpt>
   <trkpt lon="6.982268" lat="43.609046"><ele>114.5</ele></trkpt>
   <trkpt lon="6.981939" lat="43.609192"><ele>114.0</ele></trkpt>
   <trkpt lon="6.981614" lat="43.609321"><ele>114.0</ele></trkpt>
   <trkpt lon="6.980949" lat="43.609601"><ele>113.0</ele></trkpt>
   <trkpt lon="6.979725" lat="43.610139"><ele>111.5</ele></trkpt>
   <trkpt lon="6.978946" lat="43.610474"><ele>109.75</ele></trkpt>
   <trkpt lon="6.978897" lat="43.610462"><ele>109.25</ele><sym>right_slight</sym></trkpt>
   <trkpt lon="6.978766" lat="43.610532"><ele>109.25</ele></trkpt>
   <trkpt lon="6.978658" lat="43.610610"><ele>109.75</ele></trkpt>
   <trkpt lon="6.978532" lat="43.610708"><ele>110.0</ele></trkpt>
   <trkpt lon="6.978409" lat="43.610823"><ele>109.75</ele></trkpt>
   <trkpt lon="6.978342" lat="43.610888"><ele>109.0</ele></trkpt>
   <trkpt lon="6.977887" lat="43.611343"><ele>109.75</ele></trkpt>
   <trkpt lon="6.977873" lat="43.611357"><ele>109.75</ele></trkpt>
   <trkpt lon="6.977806" lat="43.611464"><ele>110.0</ele></trkpt>
   <trkpt lon="6.977691" lat="43.611586"><ele>109.75</ele></trkpt>
   <trkpt lon="6.977604" lat="43.611676"><ele>110.0</ele></trkpt>
   <trkpt lon="6.977461" lat="43.611829"><ele>110.25</ele></trkpt>
   <trkpt lon="6.977341" lat="43.611957"><ele>110.25</ele></trkpt>
   <trkpt lon="6.977253" lat="43.612050"><ele>110.25</ele></trkpt>
   <trkpt lon="6.977077" lat="43.612234"><ele>111.0</ele></trkpt>
   <trkpt lon="6.976732" lat="43.612551"><ele>112.25</ele></trkpt>
   <trkpt lon="6.976611" lat="43.612655"><ele>113.0</ele></trkpt>
   <trkpt lon="6.976411" lat="43.612839"><ele>114.25</ele></trkpt>
   <trkpt lon="6.976277" lat="43.612986"><ele>115.75</ele></trkpt>
   <trkpt lon="6.976235" lat="43.613090"><ele>116.75</ele></trkpt>
   <trkpt lon="6.976231" lat="43.613157"><ele>117.25</ele></trkpt>
   <trkpt lon="6.976244" lat="43.613210"><ele>117.5</ele><sym>roundabout_e3</sym></trkpt>
   <trkpt lon="6.976297" lat="43.613244"><ele>117.5</ele></trkpt>
   <trkpt lon="6.976327" lat="43.613277"><ele>117.75</ele></trkpt>
   <trkpt lon="6.976346" lat="43.613314"><ele>118.0</ele></trkpt>
   <trkpt lon="6.976352" lat="43.613354"><ele>118.0</ele></trkpt>
   <trkpt lon="6.976349" lat="43.613381"><ele>118.25</ele></trkpt>
   <trkpt lon="6.976333" lat="43.613421"><ele>118.25</ele></trkpt>
   <trkpt lon="6.976304" lat="43.613457"><ele>118.5</ele></trkpt>
   <trkpt lon="6.976264" lat="43.613486"><ele>118.75</ele></trkpt>
   <trkpt lon="6.976215" lat="43.613508"><ele>118.75</ele></trkpt>
   <trkpt lon="6.976135" lat="43.613522"><ele>118.75</ele></trkpt>
   <trkpt lon="6.975953" lat="43.613638"><ele>119.0</ele></trkpt>
   <trkpt lon="6.975869" lat="43.613724"><ele>119.25</ele><sym>right_slight</sym></trkpt>
   <trkpt lon="6.975871" lat="43.613782"><ele>119.5</ele><sym>left_slight</sym></trkpt>
   <trkpt lon="6.975780" lat="43.613893"><ele>119.75</ele></trkpt>
   <trkpt lon="6.975397" lat="43.614438"><ele>118.5</ele><sym>pass_place</sym><type>Shaping</type></trkpt>
   <trkpt lon="6.975397" lat="43.614439"><ele>118.5</ele></trkpt>
   <trkpt lon="6.975167" lat="43.614767"><ele>119.75</ele></trkpt>
   <trkpt lon="6.974855" lat="43.615198"><ele>119.25</ele><sym>left_slight</sym></trkpt>
   <trkpt lon="6.974796" lat="43.615210"><ele>119.0</ele><sym>right_slight</sym></trkpt>
   <trkpt lon="6.974714" lat="43.615322"><ele>119.0</ele></trkpt>
   <trkpt lon="6.974220" lat="43.615960"><ele>119.5</ele></trkpt>
   <trkpt lon="6.974094" lat="43.616110"><ele>119.5</ele></trkpt>
   <trkpt lon="6.973982" lat="43.616201"><ele>119.5</ele></trkpt>
   <trkpt lon="6.973928" lat="43.616265"><ele>119.5</ele></trkpt>
   <trkpt lon="6.973813" lat="43.616408"><ele>120.0</ele></trkpt>
   <trkpt lon="6.973770" lat="43.616453"><ele>120.0</ele></trkpt>
   <trkpt lon="6.973743" lat="43.616492"><ele>120.0</ele><sym>roundabout_e1</sym></trkpt>
   <trkpt lon="6.973748" lat="43.616516"><ele>120.0</ele></trkpt>
   <trkpt lon="6.973732" lat="43.616563"><ele>120.0</ele></trkpt>
   <trkpt lon="6.973686" lat="43.616598"><ele>120.0</ele></trkpt>
   <trkpt lon="6.973656" lat="43.616608"><ele>120.0</ele></trkpt>
   <trkpt lon="6.973608" lat="43.616661"><ele>119.75</ele></trkpt>
   <trkpt lon="6.973351" lat="43.617007"><ele>120.0</ele></trkpt>
   <trkpt lon="6.973284" lat="43.617100"><ele>120.25</ele></trkpt>
   <trkpt lon="6.972860" lat="43.617631"><ele>120.5</ele></trkpt>
   <trkpt lon="6.972499" lat="43.618100"><ele>120.0</ele></trkpt>
   <trkpt lon="6.972481" lat="43.618138"><ele>120.25</ele></trkpt>
   <trkpt lon="6.972466" lat="43.618172"><ele>120.25</ele><sym>roundabout_e2</sym></trkpt>
   <trkpt lon="6.972466" lat="43.618192"><ele>120.25</ele></trkpt>
   <trkpt lon="6.972453" lat="43.618213"><ele>120.25</ele></trkpt>
   <trkpt lon="6.972432" lat="43.618228"><ele>120.25</ele></trkpt>
   <trkpt lon="6.972397" lat="43.618237"><ele>120.25</ele></trkpt>
   <trkpt lon="6.972354" lat="43.618299"><ele>120.25</ele></trkpt>
   <trkpt lon="6.972047" lat="43.618705"><ele>121.0</ele></trkpt>
   <trkpt lon="6.972038" lat="43.618718"><ele>121.0</ele></trkpt>
   <trkpt lon="6.971988" lat="43.618782"><ele>121.0</ele></trkpt>
   <trkpt lon="6.971928" lat="43.618861"><ele>120.75</ele></trkpt>
   <trkpt lon="6.971816" lat="43.619007"><ele>120.5</ele></trkpt>
   <trkpt lon="6.971717" lat="43.619127"><ele>120.75</ele></trkpt>
   <trkpt lon="6.971704" lat="43.619156"><ele>120.75</ele></trkpt>
   <trkpt lon="6.971700" lat="43.619176"><ele>121.0</ele><sym>roundabout_e2</sym></trkpt>
   <trkpt lon="6.971720" lat="43.619207"><ele>121.0</ele></trkpt>
   <trkpt lon="6.971720" lat="43.619246"><ele>121.25</ele></trkpt>
   <trkpt lon="6.971709" lat="43.619265"><ele>121.25</ele></trkpt>
   <trkpt lon="6.971675" lat="43.619291"><ele>121.25</ele></trkpt>
   <trkpt lon="6.971653" lat="43.619299"><ele>121.25</ele></trkpt>
   <trkpt lon="6.971629" lat="43.619304"><ele>121.25</ele></trkpt>
   <trkpt lon="6.971580" lat="43.619301"><ele>121.25</ele></trkpt>
   <trkpt lon="6.971562" lat="43.619334"><ele>121.5</ele></trkpt>
   <trkpt lon="6.971510" lat="43.619424"><ele>121.75</ele></trkpt>
   <trkpt lon="6.971507" lat="43.619428"><ele>121.75</ele></trkpt>
   <trkpt lon="6.971464" lat="43.619492"><ele>122.0</ele></trkpt>
   <trkpt lon="6.971362" lat="43.619631"><ele>122.0</ele><sym>straight</sym></trkpt>
   <trkpt lon="6.971291" lat="43.619727"><ele>122.25</ele></trkpt>
   <trkpt lon="6.971193" lat="43.619855"><ele>123.0</ele></trkpt>
   <trkpt lon="6.971162" lat="43.619895"><ele>123.25</ele></trkpt>
   <trkpt lon="6.971131" lat="43.619935"><ele>123.5</ele></trkpt>
   <trkpt lon="6.971020" lat="43.620086"><ele>124.0</ele></trkpt>
   <trkpt lon="6.970956" lat="43.620165"><ele>124.0</ele></trkpt>
   <trkpt lon="6.970917" lat="43.620215"><ele>124.0</ele></trkpt>
   <trkpt lon="6.970878" lat="43.620264"><ele>124.0</ele><sym>left</sym></trkpt>
   <trkpt lon="6.970832" lat="43.620241"><ele>124.0</ele></trkpt>
   <trkpt lon="6.970818" lat="43.620235"><ele>124.0</ele></trkpt>
   <trkpt lon="6.970730" lat="43.620191"><ele>124.5</ele></trkpt>
   <trkpt lon="6.970618" lat="43.620135"><ele>125.25</ele><sym>right</sym></trkpt>
   <trkpt lon="6.970605" lat="43.620144"><ele>125.25</ele></trkpt>
   <trkpt lon="6.970514" lat="43.620099"><ele>125.75</ele></trkpt>
   <trkpt lon="6.970324" lat="43.620289"><ele>126.5</ele></trkpt>
   <trkpt lon="6.970292" lat="43.620320"><ele>126.5</ele><sym>u-turn</sym><type>Via</type></trkpt>
   <trkpt lon="6.970324" lat="43.620289"><ele>126.5</ele></trkpt>
   <trkpt lon="6.970514" lat="43.620099"><ele>125.75</ele></trkpt>
   <trkpt lon="6.970605" lat="43.620144"><ele>125.25</ele></trkpt>
   <trkpt lon="6.970618" lat="43.620135"><ele>125.25</ele></trkpt>
   <trkpt lon="6.970730" lat="43.620191"><ele>124.5</ele></trkpt>
   <trkpt lon="6.970818" lat="43.620235"><ele>124.0</ele></trkpt>
   <trkpt lon="6.970832" lat="43.620241"><ele>124.0</ele></trkpt>
   <trkpt lon="6.970878" lat="43.620264"><ele>124.0</ele><sym>left</sym></trkpt>
   <trkpt lon="6.970774" lat="43.620402"><ele>124.0</ele><sym>straight</sym></trkpt>
   <trkpt lon="6.970744" lat="43.620441"><ele>124.0</ele></trkpt>
   <trkpt lon="6.970630" lat="43.620591"><ele>123.5</ele></trkpt>
   <trkpt lon="6.970488" lat="43.620782"><ele>122.25</ele></trkpt>
   <trkpt lon="6.970446" lat="43.620835"><ele>121.75</ele></trkpt>
   <trkpt lon="6.970402" lat="43.620898"><ele>121.5</ele></trkpt>
   <trkpt lon="6.970126" lat="43.621275"><ele>118.5</ele></trkpt>
   <trkpt lon="6.969867" lat="43.621632"><ele>116.0</ele></trkpt>
   <trkpt lon="6.969796" lat="43.621723"><ele>115.25</ele></trkpt>
   <trkpt lon="6.969753" lat="43.621766"><ele>115.0</ele><sym>roundabout_e4</sym></trkpt>
   <trkpt lon="6.969794" lat="43.621790"><ele>115.25</ele></trkpt>
   <trkpt lon="6.969804" lat="43.621807"><ele>115.25</ele></trkpt>
   <trkpt lon="6.969799" lat="43.621845"><ele>115.0</ele></trkpt>
   <trkpt lon="6.969771" lat="43.621870"><ele>115.0</ele></trkpt>
   <trkpt lon="6.969742" lat="43.621878"><ele>115.0</ele></trkpt>
   <trkpt lon="6.969694" lat="43.621875"><ele>114.75</ele></trkpt>
   <trkpt lon="6.969674" lat="43.621866"><ele>114.75</ele></trkpt>
   <trkpt lon="6.969633" lat="43.621905"><ele>114.5</ele></trkpt>
   <trkpt lon="6.969543" lat="43.621970"><ele>114.25</ele></trkpt>
   <trkpt lon="6.969438" lat="43.622032"><ele>114.0</ele></trkpt>
   <trkpt lon="6.968982" lat="43.622241"><ele>113.25</ele></trkpt>
   <trkpt lon="6.968655" lat="43.622405"><ele>113.25</ele></trkpt>
   <trkpt lon="6.968490" lat="43.622485"><ele>113.75</ele></trkpt>
   <trkpt lon="6.968324" lat="43.622568"><ele>114.25</ele></trkpt>
   <trkpt lon="6.968061" lat="43.622700"><ele>114.5</ele></trkpt>
   <trkpt lon="6.967676" lat="43.622896"><ele>115.5</ele></trkpt>
   <trkpt lon="6.967265" lat="43.623136"><ele>115.25</ele></trkpt>
   <trkpt lon="6.967188" lat="43.623189"><ele>115.25</ele></trkpt>
   <trkpt lon="6.967133" lat="43.623227"><ele>115.0</ele></trkpt>
   <trkpt lon="6.967081" lat="43.623263"><ele>114.5</ele></trkpt>
   <trkpt lon="6.966929" lat="43.623365"><ele>113.0</ele></trkpt>
   <trkpt lon="6.966445" lat="43.623703"><ele>111.75</ele></trkpt>
   <trkpt lon="6.965961" lat="43.624040"><ele>109.75</ele></trkpt>
   <trkpt lon="6.965908" lat="43.624077"><ele>109.75</ele></trkpt>
   <trkpt lon="6.965860" lat="43.624110"><ele>109.75</ele></trkpt>
   <trkpt lon="6.965653" lat="43.624245"><ele>110.25</ele></trkpt>
   <trkpt lon="6.965612" lat="43.624271"><ele>110.25</ele></trkpt>
   <trkpt lon="6.965552" lat="43.624322"><ele>110.5</ele></trkpt>
   <trkpt lon="6.965272" lat="43.624502"><ele>112.0</ele></trkpt>
   <trkpt lon="6.965092" lat="43.624602"><ele>112.25</ele></trkpt>
   <trkpt lon="6.965022" lat="43.624645"><ele>112.5</ele></trkpt>
   <trkpt lon="6.964369" lat="43.625029"><ele>114.25</ele></trkpt>
   <trkpt lon="6.964034" lat="43.625219"><ele>115.25</ele></trkpt>
   <trkpt lon="6.963878" lat="43.625307"><ele>116.0</ele></trkpt>
   <trkpt lon="6.963572" lat="43.625483"><ele>115.5</ele></trkpt>
   <trkpt lon="6.962652" lat="43.626012"><ele>117.0</ele></trkpt>
   <trkpt lon="6.962323" lat="43.626174"><ele>117.0</ele></trkpt>
   <trkpt lon="6.961343" lat="43.626733"><ele>118.0</ele></trkpt>
   <trkpt lon="6.960391" lat="43.627288"><ele>118.75</ele></trkpt>
   <trkpt lon="6.960133" lat="43.627438"><ele>119.5</ele></trkpt>
   <trkpt lon="6.959785" lat="43.627659"><ele>121.75</ele></trkpt>
   <trkpt lon="6.959669" lat="43.627748"><ele>122.5</ele></trkpt>
   <trkpt lon="6.959602" lat="43.627816"><ele>122.5</ele></trkpt>
   <trkpt lon="6.959464" lat="43.627990"><ele>122.0</ele></trkpt>
   <trkpt lon="6.959360" lat="43.628167"><ele>122.25</ele></trkpt>
   <trkpt lon="6.959271" lat="43.628420"><ele>122.0</ele></trkpt>
   <trkpt lon="6.959111" lat="43.629009"><ele>121.25</ele></trkpt>
   <trkpt lon="6.959084" lat="43.629115"><ele>121.25</ele></trkpt>
   <trkpt lon="6.958990" lat="43.629485"><ele>121.25</ele></trkpt>
   <trkpt lon="6.958852" lat="43.629909"><ele>118.0</ele></trkpt>
   <trkpt lon="6.958844" lat="43.629935"><ele>117.75</ele></trkpt>
   <trkpt lon="6.958825" lat="43.630000"><ele>117.5</ele></trkpt>
   <trkpt lon="6.958731" lat="43.630317"><ele>115.5</ele></trkpt>
   <trkpt lon="6.958694" lat="43.630433"><ele>115.25</ele></trkpt>
   <trkpt lon="6.958670" lat="43.630532"><ele>115.0</ele></trkpt>
   <trkpt lon="6.958593" lat="43.630712"><ele>113.75</ele></trkpt>
   <trkpt lon="6.958527" lat="43.630808"><ele>113.0</ele></trkpt>
   <trkpt lon="6.958440" lat="43.630933"><ele>113.0</ele></trkpt>
   <trkpt lon="6.958315" lat="43.631085"><ele>112.75</ele></trkpt>
   <trkpt lon="6.958176" lat="43.631215"><ele>111.75</ele></trkpt>
   <trkpt lon="6.957910" lat="43.631418"><ele>111.25</ele></trkpt>
   <trkpt lon="6.957870" lat="43.631448"><ele>111.25</ele><sym>roundabout_e1</sym></trkpt>
   <trkpt lon="6.957874" lat="43.631487"><ele>111.25</ele></trkpt>
   <trkpt lon="6.957868" lat="43.631526"><ele>111.25</ele></trkpt>
   <trkpt lon="6.957850" lat="43.631564"><ele>111.5</ele></trkpt>
   <trkpt lon="6.957822" lat="43.631597"><ele>111.5</ele><sym>pass_place</sym><type>Shaping</type></trkpt>
   <trkpt lon="6.957785" lat="43.631626"><ele>111.75</ele></trkpt>
   <trkpt lon="6.957738" lat="43.631749"><ele>111.5</ele></trkpt>
   <trkpt lon="6.957690" lat="43.631945"><ele>111.0</ele></trkpt>
   <trkpt lon="6.957683" lat="43.631997"><ele>111.0</ele></trkpt>
   <trkpt lon="6.957675" lat="43.632070"><ele>111.0</ele></trkpt>
   <trkpt lon="6.957664" lat="43.632166"><ele>111.25</ele></trkpt>
   <trkpt lon="6.957640" lat="43.632361"><ele>111.5</ele></trkpt>
   <trkpt lon="6.957631" lat="43.632445"><ele>111.75</ele></trkpt>
   <trkpt lon="6.957603" lat="43.632664"><ele>112.0</ele></trkpt>
   <trkpt lon="6.957560" lat="43.633044"><ele>113.0</ele></trkpt>
   <trkpt lon="6.957557" lat="43.633072"><ele>113.25</ele></trkpt>
   <trkpt lon="6.957513" lat="43.633370"><ele>114.0</ele></trkpt>
   <trkpt lon="6.957447" lat="43.633628"><ele>115.25</ele></trkpt>
   <trkpt lon="6.957407" lat="43.633754"><ele>116.0</ele></trkpt>
   <trkpt lon="6.957331" lat="43.633953"><ele>117.0</ele></trkpt>
   <trkpt lon="6.957246" lat="43.634175"><ele>117.0</ele></trkpt>
   <trkpt lon="6.957236" lat="43.634200"><ele>117.0</ele></trkpt>
   <trkpt lon="6.957110" lat="43.634511"><ele>117.0</ele></trkpt>
   <trkpt lon="6.956958" lat="43.635011"><ele>117.0</ele></trkpt>
   <trkpt lon="6.956872" lat="43.635336"><ele>116.5</ele></trkpt>
   <trkpt lon="6.956740" lat="43.635883"><ele>116.0</ele></trkpt>
   <trkpt lon="6.956735" lat="43.635900"><ele>116.0</ele></trkpt>
   <trkpt lon="6.956715" lat="43.635986"><ele>116.0</ele></trkpt>
   <trkpt lon="6.956688" lat="43.636116"><ele>116.0</ele></trkpt>
   <trkpt lon="6.956673" lat="43.636196"><ele>116.0</ele></trkpt>
   <trkpt lon="6.956645" lat="43.636328"><ele>115.75</ele></trkpt>
   <trkpt lon="6.956629" lat="43.636430"><ele>116.0</ele></trkpt>
   <trkpt lon="6.956624" lat="43.636501"><ele>116.25</ele></trkpt>
   <trkpt lon="6.956585" lat="43.636867"><ele>116.5</ele></trkpt>
   <trkpt lon="6.956553" lat="43.637405"><ele>116.75</ele></trkpt>
   <trkpt lon="6.956524" lat="43.637607"><ele>117.0</ele></trkpt>
   <trkpt lon="6.956468" lat="43.637847"><ele>117.0</ele></trkpt>
   <trkpt lon="6.956376" lat="43.638114"><ele>117.0</ele></trkpt>
   <trkpt lon="6.956248" lat="43.638431"><ele>118.0</ele></trkpt>
   <trkpt lon="6.956241" lat="43.638452"><ele>118.0</ele></trkpt>
   <trkpt lon="6.956210" lat="43.638545"><ele>118.0</ele></trkpt>
   <trkpt lon="6.956169" lat="43.638671"><ele>118.0</ele></trkpt>
   <trkpt lon="6.956150" lat="43.638723"><ele>118.25</ele></trkpt>
   <trkpt lon="6.956118" lat="43.638864"><ele>118.75</ele></trkpt>
   <trkpt lon="6.956104" lat="43.638993"><ele>118.75</ele></trkpt>
   <trkpt lon="6.956102" lat="43.639046"><ele>118.75</ele><sym>left</sym></trkpt>
   <trkpt lon="6.955987" lat="43.639037"><ele>118.75</ele></trkpt>
   <trkpt lon="6.955419" lat="43.638981"><ele>118.5</ele></trkpt>
   <trkpt lon="6.955308" lat="43.638941"><ele>118.0</ele></trkpt>
   <trkpt lon="6.955049" lat="43.638824"><ele>117.0</ele></trkpt>
   <trkpt lon="6.954787" lat="43.638720"><ele>116.0</ele></trkpt>
   <trkpt lon="6.954245" lat="43.638570"><ele>116.0</ele></trkpt>
   <trkpt lon="6.953941" lat="43.638502"><ele>116.75</ele></trkpt>
   <trkpt lon="6.953707" lat="43.638401"><ele>116.75</ele></trkpt>
   <trkpt lon="6.952896" lat="43.638210"><ele>119.0</ele></trkpt>
   <trkpt lon="6.952286" lat="43.638130"><ele>117.25</ele></trkpt>
   <trkpt lon="6.951160" lat="43.637967"><ele>125.25</ele></trkpt>
   <trkpt lon="6.950780" lat="43.637918"><ele>126.25</ele><sym>right</sym></trkpt>
   <trkpt lon="6.950737" lat="43.637986"><ele>126.25</ele></trkpt>
   <trkpt lon="6.950627" lat="43.638144"><ele>126.25</ele></trkpt>
   <trkpt lon="6.950576" lat="43.638204"><ele>126.5</ele></trkpt>
   <trkpt lon="6.950553" lat="43.638232"><ele>126.5</ele></trkpt>
   <trkpt lon="6.950317" lat="43.638491"><ele>127.0</ele></trkpt>
   <trkpt lon="6.949948" lat="43.638906"><ele>128.0</ele></trkpt>
   <trkpt lon="6.949886" lat="43.638982"><ele>128.0</ele></trkpt>
   <trkpt lon="6.949587" lat="43.639351"><ele>128.25</ele><sym>right_slight</sym></trkpt>
   <trkpt lon="6.949532" lat="43.639542"><ele>128.5</ele></trkpt>
   <trkpt lon="6.949339" lat="43.639927"><ele>129.25</ele></trkpt>
   <trkpt lon="6.949276" lat="43.640035"><ele>129.5</ele></trkpt>
   <trkpt lon="6.949083" lat="43.640341"><ele>129.0</ele></trkpt>
   <trkpt lon="6.948799" lat="43.640831"><ele>131.25</ele></trkpt>
   <trkpt lon="6.948745" lat="43.640935"><ele>131.5</ele></trkpt>
   <trkpt lon="6.948727" lat="43.640968"><ele>131.5</ele></trkpt>
   <trkpt lon="6.948325" lat="43.641720"><ele>135.0</ele></trkpt>
   <trkpt lon="6.948196" lat="43.641942"><ele>136.25</ele></trkpt>
   <trkpt lon="6.948016" lat="43.642329"><ele>138.5</ele><sym>pass_place</sym><type>Shaping</type></trkpt>
   <trkpt lon="6.948016" lat="43.642331"><ele>138.5</ele></trkpt>
   <trkpt lon="6.947997" lat="43.642382"><ele>138.75</ele></trkpt>
   <trkpt lon="6.947977" lat="43.642434"><ele>139.0</ele></trkpt>
   <trkpt lon="6.947961" lat="43.642473"><ele>139.0</ele></trkpt>
   <trkpt lon="6.947968" lat="43.642598"><ele>139.25</ele></trkpt>
   <trkpt lon="6.947988" lat="43.642661"><ele>139.0</ele></trkpt>
   <trkpt lon="6.948053" lat="43.642780"><ele>139.0</ele><sym>roundabout_e2</sym></trkpt>
   <trkpt lon="6.948069" lat="43.642802"><ele>138.75</ele></trkpt>
   <trkpt lon="6.948084" lat="43.642834"><ele>138.5</ele></trkpt>
   <trkpt lon="6.948085" lat="43.642867"><ele>138.5</ele></trkpt>
   <trkpt lon="6.948072" lat="43.642900"><ele>138.25</ele></trkpt>
   <trkpt lon="6.948046" lat="43.642927"><ele>138.5</ele></trkpt>
   <trkpt lon="6.948010" lat="43.642948"><ele>138.5</ele></trkpt>
   <trkpt lon="6.947978" lat="43.642958"><ele>138.75</ele></trkpt>
   <trkpt lon="6.947920" lat="43.643023"><ele>139.0</ele></trkpt>
   <trkpt lon="6.947749" lat="43.643161"><ele>140.0</ele><sym>right_slight</sym></trkpt>
   <trkpt lon="6.947614" lat="43.643433"><ele>140.25</ele></trkpt>
   <trkpt lon="6.947532" lat="43.643644"><ele>140.75</ele></trkpt>
   <trkpt lon="6.947510" lat="43.643731"><ele>140.75</ele></trkpt>
   <trkpt lon="6.947482" lat="43.643798"><ele>141.0</ele></trkpt>
   <trkpt lon="6.947424" lat="43.643857"><ele>141.0</ele></trkpt>
   <trkpt lon="6.947390" lat="43.643891"><ele>141.25</ele><sym>roundabout_e2</sym></trkpt>
   <trkpt lon="6.947407" lat="43.643918"><ele>141.25</ele></trkpt>
   <trkpt lon="6.947413" lat="43.643947"><ele>141.25</ele></trkpt>
   <trkpt lon="6.947406" lat="43.643976"><ele>141.25</ele></trkpt>
   <trkpt lon="6.947388" lat="43.644002"><ele>141.25</ele></trkpt>
   <trkpt lon="6.947342" lat="43.644033"><ele>141.5</ele></trkpt>
   <trkpt lon="6.947184" lat="43.644193"><ele>141.75</ele></trkpt>
   <trkpt lon="6.947095" lat="43.644280"><ele>141.75</ele></trkpt>
   <trkpt lon="6.946722" lat="43.644540"><ele>143.5</ele></trkpt>
   <trkpt lon="6.946486" lat="43.644695"><ele>144.5</ele></trkpt>
   <trkpt lon="6.946434" lat="43.644729"><ele>144.75</ele></trkpt>
   <trkpt lon="6.946303" lat="43.644797"><ele>145.25</ele></trkpt>
   <trkpt lon="6.946285" lat="43.644807"><ele>145.25</ele></trkpt>
   <trkpt lon="6.946019" lat="43.644933"><ele>146.25</ele></trkpt>
   <trkpt lon="6.945564" lat="43.645109"><ele>147.75</ele></trkpt>
   <trkpt lon="6.945270" lat="43.645216"><ele>149.0</ele></trkpt>
   <trkpt lon="6.945179" lat="43.645249"><ele>149.25</ele></trkpt>
   <trkpt lon="6.945120" lat="43.645287"><ele>149.5</ele></trkpt>
   <trkpt lon="6.944998" lat="43.645338"><ele>149.75</ele></trkpt>
   <trkpt lon="6.944934" lat="43.645372"><ele>150.0</ele><sym>roundabout_e2</sym></trkpt>
   <trkpt lon="6.944925" lat="43.645398"><ele>150.0</ele></trkpt>
   <trkpt lon="6.944901" lat="43.645429"><ele>150.0</ele></trkpt>
   <trkpt lon="6.944859" lat="43.645456"><ele>150.25</ele></trkpt>
   <trkpt lon="6.944810" lat="43.645471"><ele>150.5</ele></trkpt>
   <trkpt lon="6.944756" lat="43.645474"><ele>151.0</ele></trkpt>
   <trkpt lon="6.944708" lat="43.645464"><ele>151.25</ele></trkpt>
   <trkpt lon="6.944663" lat="43.645443"><ele>151.5</ele></trkpt>
   <trkpt lon="6.944594" lat="43.645527"><ele>151.75</ele></trkpt>
   <trkpt lon="6.944535" lat="43.645569"><ele>152.25</ele></trkpt>
   <trkpt lon="6.944203" lat="43.645732"><ele>154.5</ele></trkpt>
   <trkpt lon="6.943392" lat="43.646099"><ele>160.5</ele></trkpt>
   <trkpt lon="6.943268" lat="43.646148"><ele>161.75</ele></trkpt>
   <trkpt lon="6.943146" lat="43.646187"><ele>163.25</ele></trkpt>
   <trkpt lon="6.942612" lat="43.646354"><ele>168.5</ele></trkpt>
   <trkpt lon="6.942385" lat="43.646423"><ele>171.0</ele></trkpt>
   <trkpt lon="6.941964" lat="43.646529"><ele>175.75</ele></trkpt>
   <trkpt lon="6.941718" lat="43.646554"><ele>178.75</ele></trkpt>
   <trkpt lon="6.941615" lat="43.646572"><ele>179.75</ele></trkpt>
   <trkpt lon="6.941143" lat="43.646698"><ele>185.0</ele></trkpt>
   <trkpt lon="6.940707" lat="43.646778"><ele>189.25</ele></trkpt>
   <trkpt lon="6.940319" lat="43.646891"><ele>192.25</ele></trkpt>
   <trkpt lon="6.940225" lat="43.646930"><ele>193.25</ele><sym>right</sym></trkpt>
   <trkpt lon="6.940236" lat="43.647109"><ele>194.25</ele><sym>roundabout_e2</sym></trkpt>
   <trkpt lon="6.940246" lat="43.647129"><ele>194.25</ele></trkpt>
   <trkpt lon="6.940247" lat="43.647146"><ele>194.5</ele></trkpt>
   <trkpt lon="6.940225" lat="43.647177"><ele>194.75</ele></trkpt>
   <trkpt lon="6.940182" lat="43.647192"><ele>195.0</ele></trkpt>
   <trkpt lon="6.940156" lat="43.647191"><ele>195.25</ele></trkpt>
   <trkpt lon="6.940069" lat="43.647271"><ele>196.25</ele><sym>right_slight</sym></trkpt>
   <trkpt lon="6.939809" lat="43.647934"><ele>204.5</ele></trkpt>
   <trkpt lon="6.939762" lat="43.648027"><ele>205.5</ele></trkpt>
   <trkpt lon="6.939699" lat="43.648116"><ele>206.25</ele></trkpt>
   <trkpt lon="6.939594" lat="43.648218"><ele>207.25</ele></trkpt>
   <trkpt lon="6.939516" lat="43.648281"><ele>208.0</ele></trkpt>
   <trkpt lon="6.939436" lat="43.648344"><ele>209.0</ele></trkpt>
   <trkpt lon="6.939340" lat="43.648400"><ele>209.25</ele></trkpt>
   <trkpt lon="6.939247" lat="43.648439"><ele>209.75</ele></trkpt>
   <trkpt lon="6.939140" lat="43.648474"><ele>210.5</ele></trkpt>
   <trkpt lon="6.939010" lat="43.648504"><ele>211.75</ele></trkpt>
   <trkpt lon="6.938906" lat="43.648519"><ele>212.75</ele></trkpt>
   <trkpt lon="6.938487" lat="43.648558"><ele>217.25</ele></trkpt>
   <trkpt lon="6.938362" lat="43.648566"><ele>218.0</ele></trkpt>
   <trkpt lon="6.937992" lat="43.648573"><ele>219.75</ele></trkpt>
   <trkpt lon="6.937912" lat="43.648573"><ele>220.0</ele></trkpt>
   <trkpt lon="6.937575" lat="43.648583"><ele>221.75</ele></trkpt>
   <trkpt lon="6.936888" lat="43.648684"><ele>222.25</ele></trkpt>
   <trkpt lon="6.936805" lat="43.648696"><ele>222.25</ele></trkpt>
   <trkpt lon="6.936613" lat="43.648703"><ele>221.5</ele></trkpt>
   <trkpt lon="6.936554" lat="43.648706"><ele>221.0</ele><sym>left</sym></trkpt>
   <trkpt lon="6.936550" lat="43.648661"><ele>220.25</ele></trkpt>
   <trkpt lon="6.936542" lat="43.648605"><ele>219.0</ele></trkpt>
   <trkpt lon="6.936374" lat="43.648163"><ele>212.75</ele></trkpt>
   <trkpt lon="6.936377" lat="43.648106"><ele>212.25</ele></trkpt>
   <trkpt lon="6.936414" lat="43.648068"><ele>212.0</ele></trkpt>
   <trkpt lon="6.936473" lat="43.648027"><ele>211.5</ele></trkpt>
   <trkpt lon="6.936660" lat="43.647975"><ele>211.25</ele></trkpt>
   <trkpt lon="6.936963" lat="43.647906"><ele>210.75</ele></trkpt>
   <trkpt lon="6.936983" lat="43.647862"><ele>210.0</ele><sym>left</sym></trkpt>
   <trkpt lon="6.937201" lat="43.647926"><ele>209.25</ele><sym>pass_place</sym><type>Via</type></trkpt>
  </trkseg>
 </trk>
</gpx>
