<?xml version="1.0" encoding="UTF-8"?>
<!-- track-length = 22076 filtered ascend = 310 plain-ascend = 0 cost=45122 energy=.1kwh time=1h 21m 55s -->
<gpx 
 xmlns="http://www.topografix.com/GPX/1/1" 
 xmlns:xsi="http://www.w3.org/2001/XMLSchema-instance" 
 xsi:schemaLocation="http://www.topografix.com/GPX/1/1 http://www.topografix.com/GPX/1/1/gpx.xsd" 
 creator="BRouter-1.7.10" version="1.1"><wpt lat="43.64506" lon="6.93998"><name>Bar des Quatre Chemins</name><sym>Restaurant</sym></wpt><wpt lat="43.60044" lon="6.91109"><name>Bar du Portail</name><sym>Restaurant</sym></wpt><wpt lat="43.59757" lon="6.92544"><name>NTC</name><sym>Bike Trail</sym></wpt><wpt lat="43.5927" lon="6.93032"><name>Drinking water</name><sym>Drinking Water</sym></wpt><wpt lat="43.60069" lon="6.90984"><name>Drinking water</name><sym>Drinking Water</sym></wpt><wpt lat="43.61896" lon="6.972"><name>Bike shop</name><sym>Bike Trail</sym></wpt><wpt lat="43.61941" lon="6.97032"><name>N&#x27;en faites pas une histoire</name><sym>Restaurant</sym></wpt><wpt lat="43.62027" lon="6.9699"><name>Bike shop</name><sym>Bike Trail</sym></wpt><wpt lat="43.59439" lon="6.92744"><name>Drinking water</name><sym>Drinking Water</sym></wpt><wpt lat="43.61697" lon="6.97144"><name>Bike shop</name><sym>Bike Trail</sym></wpt><wpt lat="43.59577" lon="6.933"><name>Drinking water</name><sym>Drinking Water</sym></wpt><wpt lat="43.61852" lon="6.97251"><name>Mouans Chatoux - Café à chats</name><sym>Restaurant</sym></wpt><wpt lat="43.59456" lon="6.93145"><name>Drinking water</name><sym>Drinking Water</sym></wpt>
 <trk>
  <src>brouter_fastbike-lowtraffic_0</src>
  <type>bike</type>
  <trkseg>
   <trkpt lon="6.937201" lat="43.647926"><ele>209.25</ele><sym>pass_place</sym><type>Via</type></trkpt>
   <trkpt lon="6.936983" lat="43.647862"><ele>210.0</ele></trkpt>
   <trkpt lon="6.936978" lat="43.647860"><ele>210.0</ele><sym>pass_place</sym><type>Shaping</type></trkpt>
   <trkpt lon="6.936760" lat="43.647794"><ele>210.0</ele></trkpt>
   <trkpt lon="6.936504" lat="43.647747"><ele>208.5</ele></trkpt>
   <trkpt lon="6.936315" lat="43.647729"><ele>206.75</ele><sym>right</sym></trkpt>
   <trkpt lon="6.936291" lat="43.647836"><ele>207.75</ele><sym>left</sym></trkpt>
   <trkpt lon="6.936247" lat="43.647832"><ele>207.0</ele></trkpt>
   <trkpt lon="6.936209" lat="43.647828"><ele>206.75</ele><sym>left</sym></trkpt>
   <trkpt lon="6.936263" lat="43.647601"><ele>205.25</ele></trkpt>
   <trkpt lon="6.936298" lat="43.647519"><ele>205.25</ele></trkpt>
   <trkpt lon="6.936350" lat="43.647444"><ele>205.75</ele></trkpt>
   <trkpt lon="6.936393" lat="43.647402"><ele>205.75</ele></trkpt>
   <trkpt lon="6.936458" lat="43.647354"><ele>205.5</ele></trkpt>
   <trkpt lon="6.936532" lat="43.647316"><ele>205.25</ele></trkpt>
   <trkpt lon="6.936606" lat="43.647294"><ele>205.25</ele></trkpt>
   <trkpt lon="6.936706" lat="43.647280"><ele>205.25</ele></trkpt>
   <trkpt lon="6.936789" lat="43.647278"><ele>204.75</ele></trkpt>
   <trkpt lon="6.936867" lat="43.647287"><ele>204.5</ele></trkpt>
   <trkpt lon="6.936972" lat="43.647317"><ele>204.0</ele></trkpt>
   <trkpt lon="6.937048" lat="43.647363"><ele>202.75</ele></trkpt>
   <trkpt lon="6.937141" lat="43.647433"><ele>201.75</ele></trkpt>
   <trkpt lon="6.937213" lat="43.647520"><ele>201.25</ele></trkpt>
   <trkpt lon="6.937305" lat="43.647598"><ele>201.0</ele></trkpt>
   <trkpt lon="6.937381" lat="43.647650"><ele>200.75</ele></trkpt>
   <trkpt lon="6.937463" lat="43.647693"><ele>200.25</ele></trkpt>
   <trkpt lon="6.937583" lat="43.647737"><ele>199.5</ele></trkpt>
   <trkpt lon="6.937686" lat="43.647758"><ele>199.0</ele></trkpt>
   <trkpt lon="6.937816" lat="43.647767"><ele>198.5</ele></trkpt>
   <trkpt lon="6.937933" lat="43.647762"><ele>197.75</ele></trkpt>
   <trkpt lon="6.938094" lat="43.647744"><ele>197.0</ele></trkpt>
   <trkpt lon="6.938618" lat="43.647673"><ele>195.25</ele></trkpt>
   <trkpt lon="6.938723" lat="43.647645"><ele>195.0</ele></trkpt>
   <trkpt lon="6.938902" lat="43.647563"><ele>194.25</ele></trkpt>
   <trkpt lon="6.938991" lat="43.647484"><ele>194.0</ele></trkpt>
   <trkpt lon="6.939058" lat="43.647411"><ele>193.75</ele></trkpt>
   <trkpt lon="6.939091" lat="43.647336"><ele>192.75</ele></trkpt>
   <trkpt lon="6.939110" lat="43.647268"><ele>192.0</ele></trkpt>
   <trkpt lon="6.939191" lat="43.646714"><ele>189.25</ele></trkpt>
   <trkpt lon="6.939269" lat="43.646079"><ele>185.25</ele></trkpt>
   <trkpt lon="6.939284" lat="43.645994"><ele>184.25</ele></trkpt>
   <trkpt lon="6.939315" lat="43.645916"><ele>183.5</ele></trkpt>
   <trkpt lon="6.939356" lat="43.645846"><ele>183.0</ele></trkpt>
   <trkpt lon="6.939537" lat="43.645657"><ele>182.0</ele></trkpt>
   <trkpt lon="6.939725" lat="43.645491"><ele>181.75</ele></trkpt>
   <trkpt lon="6.939989" lat="43.645276"><ele>180.75</ele></trkpt>
   <trkpt lon="6.940049" lat="43.645208"><ele>180.5</ele></trkpt>
   <trkpt lon="6.940096" lat="43.645158"><ele>180.5</ele></trkpt>
   <trkpt lon="6.940142" lat="43.645113"><ele>180.5</ele><sym>roundabout_e4</sym></trkpt>
   <trkpt lon="6.940140" lat="43.645059"><ele>180.5</ele></trkpt>
   <trkpt lon="6.940154" lat="43.645016"><ele>180.5</ele></trkpt>
   <trkpt lon="6.940181" lat="43.644976"><ele>180.5</ele></trkpt>
   <trkpt lon="6.940221" lat="43.644941"><ele>181.0</ele></trkpt>
   <trkpt lon="6.940306" lat="43.644901"><ele>181.0</ele></trkpt>
   <trkpt lon="6.940378" lat="43.644888"><ele>180.75</ele></trkpt>
   <trkpt lon="6.940453" lat="43.644890"><ele>180.25</ele></trkpt>
   <trkpt lon="6.940525" lat="43.644906"><ele>179.75</ele></trkpt>
   <trkpt lon="6.940602" lat="43.644947"><ele>179.0</ele></trkpt>
   <trkpt lon="6.940640" lat="43.644983"><ele>178.5</ele></trkpt>
   <trkpt lon="6.940665" lat="43.645024"><ele>178.0</ele></trkpt>
   <trkpt lon="6.940676" lat="43.645069"><ele>177.75</ele></trkpt>
   <trkpt lon="6.940673" lat="43.645110"><ele>177.75</ele></trkpt>
   <trkpt lon="6.940659" lat="43.645149"><ele>177.75</ele></trkpt>
   <trkpt lon="6.940729" lat="43.645248"><ele>177.25</ele><sym>right_slight</sym></trkpt>
   <trkpt lon="6.940859" lat="43.645280"><ele>176.75</ele></trkpt>
   <trkpt lon="6.940906" lat="43.645283"><ele>176.25</ele></trkpt>
   <trkpt lon="6.940948" lat="43.645286"><ele>176.0</ele></trkpt>
   <trkpt lon="6.941034" lat="43.645279"><ele>175.5</ele></trkpt>
   <trkpt lon="6.941376" lat="43.645214"><ele>172.75</ele></trkpt>
   <trkpt lon="6.941530" lat="43.645188"><ele>172.25</ele></trkpt>
   <trkpt lon="6.941665" lat="43.645179"><ele>171.5</ele></trkpt>
   <trkpt lon="6.942114" lat="43.645193"><ele>166.75</ele></trkpt>
   <trkpt lon="6.942636" lat="43.645225"><ele>162.0</ele></trkpt>
   <trkpt lon="6.942767" lat="43.645235"><ele>161.0</ele></trkpt>
   <trkpt lon="6.943400" lat="43.645289"><ele>157.5</ele></trkpt>
   <trkpt lon="6.944141" lat="43.645345"><ele>154.25</ele></trkpt>
   <trkpt lon="6.944366" lat="43.645362"><ele>152.75</ele><sym>right_slight</sym></trkpt>
   <trkpt lon="6.944575" lat="43.645309"><ele>152.0</ele></trkpt>
   <trkpt lon="6.944669" lat="43.645265"><ele>152.0</ele><sym>roundabout_e2</sym></trkpt>
   <trkpt lon="6.944710" lat="43.645247"><ele>152.0</ele></trkpt>
   <trkpt lon="6.944759" lat="43.645238"><ele>151.75</ele></trkpt>
   <trkpt lon="6.944814" lat="43.645242"><ele>151.25</ele></trkpt>
   <trkpt lon="6.945045" lat="43.645253"><ele>149.75</ele></trkpt>
   <trkpt lon="6.945179" lat="43.645249"><ele>149.25</ele><sym>right_slight</sym></trkpt>
   <trkpt lon="6.945270" lat="43.645216"><ele>149.0</ele></trkpt>
   <trkpt lon="6.945564" lat="43.645109"><ele>147.75</ele></trkpt>
   <trkpt lon="6.946019" lat="43.644933"><ele>146.25</ele></trkpt>
   <trkpt lon="6.946285" lat="43.644807"><ele>145.25</ele></trkpt>
   <trkpt lon="6.946303" lat="43.644797"><ele>145.25</ele></trkpt>
   <trkpt lon="6.946434" lat="43.644729"><ele>144.75</ele></trkpt>
   <trkpt lon="6.946486" lat="43.644695"><ele>144.5</ele></trkpt>
   <trkpt lon="6.946722" lat="43.644540"><ele>143.5</ele></trkpt>
   <trkpt lon="6.947095" lat="43.644280"><ele>141.75</ele></trkpt>
   <trkpt lon="6.947184" lat="43.644193"><ele>141.75</ele><sym>right_slight</sym></trkpt>
   <trkpt lon="6.947186" lat="43.644061"><ele>142.0</ele></trkpt>
   <trkpt lon="6.947187" lat="43.644020"><ele>142.0</ele><sym>roundabout_e2</sym></trkpt>
   <trkpt lon="6.947160" lat="43.643996"><ele>142.0</ele></trkpt>
   <trkpt lon="6.947144" lat="43.643968"><ele>142.0</ele></trkpt>
   <trkpt lon="6.947141" lat="43.643938"><ele>142.0</ele></trkpt>
   <trkpt lon="6.947151" lat="43.643908"><ele>142.0</ele></trkpt>
   <trkpt lon="6.947172" lat="43.643883"><ele>141.75</ele></trkpt>
   <trkpt lon="6.947202" lat="43.643864"><ele>141.75</ele></trkpt>
   <trkpt lon="6.947239" lat="43.643851"><ele>141.75</ele></trkpt>
   <trkpt lon="6.947293" lat="43.643848"><ele>141.5</ele></trkpt>
   <trkpt lon="6.947381" lat="43.643802"><ele>141.25</ele></trkpt>
   <trkpt lon="6.947462" lat="43.643717"><ele>141.0</ele></trkpt>
   <trkpt lon="6.947532" lat="43.643644"><ele>140.75</ele></trkpt>
   <trkpt lon="6.947614" lat="43.643433"><ele>140.25</ele></trkpt>
   <trkpt lon="6.947749" lat="43.643161"><ele>140.0</ele></trkpt>
   <trkpt lon="6.947805" lat="43.642976"><ele>139.75</ele></trkpt>
   <trkpt lon="6.947796" lat="43.642901"><ele>139.75</ele><sym>roundabout_e1</sym></trkpt>
   <trkpt lon="6.947782" lat="43.642869"><ele>139.75</ele></trkpt>
   <trkpt lon="6.947782" lat="43.642836"><ele>139.75</ele></trkpt>
   <trkpt lon="6.947796" lat="43.642804"><ele>139.75</ele></trkpt>
   <trkpt lon="6.947823" lat="43.642776"><ele>139.75</ele></trkpt>
   <trkpt lon="6.947907" lat="43.642570"><ele>139.5</ele></trkpt>
   <trkpt lon="6.947961" lat="43.642473"><ele>139.0</ele></trkpt>
   <trkpt lon="6.947977" lat="43.642434"><ele>139.0</ele></trkpt>
   <trkpt lon="6.947997" lat="43.642382"><ele>138.75</ele></trkpt>
   <trkpt lon="6.948016" lat="43.642331"><ele>138.5</ele></trkpt>
   <trkpt lon="6.948196" lat="43.641942"><ele>136.25</ele></trkpt>
   <trkpt lon="6.948325" lat="43.641720"><ele>135.0</ele></trkpt>
   <trkpt lon="6.948727" lat="43.640968"><ele>131.5</ele></trkpt>
   <trkpt lon="6.948745" lat="43.640935"><ele>131.5</ele></trkpt>
   <trkpt lon="6.948799" lat="43.640831"><ele>131.25</ele></trkpt>
   <trkpt lon="6.949083" lat="43.640341"><ele>129.0</ele></trkpt>
   <trkpt lon="6.949276" lat="43.640035"><ele>129.5</ele></trkpt>
   <trkpt lon="6.949279" lat="43.640029"><ele>129.25</ele><sym>pass_place</sym><type>Shaping</type></trkpt>
   <trkpt lon="6.949339" lat="43.639927"><ele>129.25</ele></trkpt>
   <trkpt lon="6.949532" lat="43.639542"><ele>128.5</ele><sym>right_slight</sym></trkpt>
   <trkpt lon="6.949528" lat="43.639509"><ele>128.5</ele></trkpt>
   <trkpt lon="6.949513" lat="43.639486"><ele>128.75</ele></trkpt>
   <trkpt lon="6.949480" lat="43.639451"><ele>128.75</ele><sym>left</sym></trkpt>
   <trkpt lon="6.949587" lat="43.639351"><ele>128.25</ele></trkpt>
   <trkpt lon="6.949886" lat="43.638982"><ele>128.0</ele></trkpt>
   <trkpt lon="6.949948" lat="43.638906"><ele>128.0</ele></trkpt>
   <trkpt lon="6.950317" lat="43.638491"><ele>127.0</ele></trkpt>
   <trkpt lon="6.950553" lat="43.638232"><ele>126.5</ele></trkpt>
   <trkpt lon="6.950576" lat="43.638204"><ele>126.5</ele></trkpt>
   <trkpt lon="6.950627" lat="43.638144"><ele>126.25</ele></trkpt>
   <trkpt lon="6.950737" lat="43.637986"><ele>126.25</ele></trkpt>
   <trkpt lon="6.950780" lat="43.637918"><ele>126.25</ele><sym>left</sym></trkpt>
   <trkpt lon="6.951160" lat="43.637967"><ele>125.25</ele></trkpt>
   <trkpt lon="6.952286" lat="43.638130"><ele>117.25</ele></trkpt>
   <trkpt lon="6.952896" lat="43.638210"><ele>119.0</ele></trkpt>
   <trkpt lon="6.953707" lat="43.638401"><ele>116.75</ele></trkpt>
   <trkpt lon="6.953941" lat="43.638502"><ele>116.75</ele></trkpt>
   <trkpt lon="6.954245" lat="43.638570"><ele>116.0</ele></trkpt>
   <trkpt lon="6.954787" lat="43.638720"><ele>117.0</ele></trkpt>
   <trkpt lon="6.955049" lat="43.638824"><ele>117.75</ele></trkpt>
   <trkpt lon="6.955308" lat="43.638941"><ele>118.5</ele></trkpt>
   <trkpt lon="6.955419" lat="43.638981"><ele>118.5</ele></trkpt>
   <trkpt lon="6.955987" lat="43.639037"><ele>118.75</ele></trkpt>
   <trkpt lon="6.956102" lat="43.639046"><ele>118.75</ele><sym>right</sym></trkpt>
   <trkpt lon="6.956104" lat="43.638993"><ele>118.75</ele></trkpt>
   <trkpt lon="6.956118" lat="43.638864"><ele>118.75</ele></trkpt>
   <trkpt lon="6.956150" lat="43.638723"><ele>118.25</ele></trkpt>
   <trkpt lon="6.956169" lat="43.638671"><ele>118.0</ele></trkpt>
   <trkpt lon="6.956210" lat="43.638545"><ele>118.0</ele></trkpt>
   <trkpt lon="6.956241" lat="43.638452"><ele>118.0</ele></trkpt>
   <trkpt lon="6.956248" lat="43.638431"><ele>118.0</ele></trkpt>
   <trkpt lon="6.956376" lat="43.638114"><ele>117.0</ele></trkpt>
   <trkpt lon="6.956468" lat="43.637847"><ele>117.0</ele></trkpt>
   <trkpt lon="6.956524" lat="43.637607"><ele>117.0</ele></trkpt>
   <trkpt lon="6.956553" lat="43.637405"><ele>116.75</ele></trkpt>
   <trkpt lon="6.956585" lat="43.636867"><ele>116.5</ele></trkpt>
   <trkpt lon="6.956624" lat="43.636501"><ele>116.25</ele></trkpt>
   <trkpt lon="6.956629" lat="43.636430"><ele>116.0</ele></trkpt>
   <trkpt lon="6.956645" lat="43.636328"><ele>115.75</ele></trkpt>
   <trkpt lon="6.956673" lat="43.636196"><ele>116.0</ele></trkpt>
   <trkpt lon="6.956688" lat="43.636116"><ele>116.0</ele></trkpt>
   <trkpt lon="6.956715" lat="43.635986"><ele>116.0</ele></trkpt>
   <trkpt lon="6.956735" lat="43.635900"><ele>116.0</ele></trkpt>
   <trkpt lon="6.956740" lat="43.635883"><ele>116.0</ele></trkpt>
   <trkpt lon="6.956872" lat="43.635336"><ele>116.5</ele></trkpt>
   <trkpt lon="6.956958" lat="43.635011"><ele>117.0</ele></trkpt>
   <trkpt lon="6.957110" lat="43.634511"><ele>117.0</ele></trkpt>
   <trkpt lon="6.957236" lat="43.634200"><ele>117.0</ele></trkpt>
   <trkpt lon="6.957246" lat="43.634175"><ele>117.0</ele></trkpt>
   <trkpt lon="6.957331" lat="43.633953"><ele>117.0</ele></trkpt>
   <trkpt lon="6.957407" lat="43.633754"><ele>116.0</ele></trkpt>
   <trkpt lon="6.957447" lat="43.633628"><ele>115.25</ele></trkpt>
   <trkpt lon="6.957513" lat="43.633370"><ele>114.0</ele></trkpt>
   <trkpt lon="6.957557" lat="43.633072"><ele>113.25</ele></trkpt>
   <trkpt lon="6.957560" lat="43.633044"><ele>113.0</ele></trkpt>
   <trkpt lon="6.957603" lat="43.632664"><ele>112.0</ele></trkpt>
   <trkpt lon="6.957631" lat="43.632445"><ele>111.75</ele></trkpt>
   <trkpt lon="6.957640" lat="43.632361"><ele>111.5</ele></trkpt>
   <trkpt lon="6.957664" lat="43.632166"><ele>111.25</ele></trkpt>
   <trkpt lon="6.957675" lat="43.632070"><ele>111.0</ele></trkpt>
   <trkpt lon="6.957683" lat="43.631997"><ele>111.0</ele></trkpt>
   <trkpt lon="6.957690" lat="43.631945"><ele>111.0</ele></trkpt>
   <trkpt lon="6.957658" lat="43.631800"><ele>111.5</ele></trkpt>
   <trkpt lon="6.957609" lat="43.631716"><ele>111.75</ele></trkpt>
   <trkpt lon="6.957575" lat="43.631671"><ele>111.75</ele><sym>roundabout_e2</sym></trkpt>
   <trkpt lon="6.957519" lat="43.631660"><ele>111.75</ele></trkpt>
   <trkpt lon="6.957467" lat="43.631641"><ele>111.75</ele></trkpt>
   <trkpt lon="6.957415" lat="43.631608"><ele>111.5</ele></trkpt>
   <trkpt lon="6.957377" lat="43.631566"><ele>111.25</ele></trkpt>
   <trkpt lon="6.957356" lat="43.631518"><ele>111.0</ele></trkpt>
   <trkpt lon="6.957352" lat="43.631476"><ele>111.0</ele></trkpt>
   <trkpt lon="6.957361" lat="43.631434"><ele>111.0</ele></trkpt>
   <trkpt lon="6.957383" lat="43.631394"><ele>111.0</ele></trkpt>
   <trkpt lon="6.957417" lat="43.631359"><ele>110.75</ele></trkpt>
   <trkpt lon="6.957460" lat="43.631330"><ele>110.75</ele></trkpt>
   <trkpt lon="6.957512" lat="43.631309"><ele>111.0</ele></trkpt>
   <trkpt lon="6.957568" lat="43.631298"><ele>111.0</ele></trkpt>
   <trkpt lon="6.957627" lat="43.631295"><ele>111.0</ele></trkpt>
   <trkpt lon="6.957685" lat="43.631302"><ele>111.0</ele></trkpt>
   <trkpt lon="6.957740" lat="43.631318"><ele>111.0</ele></trkpt>
   <trkpt lon="6.957829" lat="43.631309"><ele>111.0</ele></trkpt>
   <trkpt lon="6.957884" lat="43.631293"><ele>111.25</ele></trkpt>
   <trkpt lon="6.958000" lat="43.631246"><ele>111.25</ele></trkpt>
   <trkpt lon="6.958153" lat="43.631147"><ele>111.5</ele></trkpt>
   <trkpt lon="6.958271" lat="43.631042"><ele>112.5</ele></trkpt>
   <trkpt lon="6.958373" lat="43.630915"><ele>113.0</ele></trkpt>
   <trkpt lon="6.958438" lat="43.630825"><ele>113.0</ele></trkpt>
   <trkpt lon="6.958694" lat="43.630433"><ele>115.25</ele></trkpt>
   <trkpt lon="6.958731" lat="43.630317"><ele>115.5</ele></trkpt>
   <trkpt lon="6.958825" lat="43.630000"><ele>117.5</ele><sym>stay_left</sym></trkpt>
   <trkpt lon="6.958829" lat="43.629999"><ele>118.25</ele><sym>pass_place</sym><type>Shaping</type></trkpt>
   <trkpt lon="6.958825" lat="43.630000"><ele>117.5</ele></trkpt>
   <trkpt lon="6.958844" lat="43.629935"><ele>117.75</ele></trkpt>
   <trkpt lon="6.958852" lat="43.629909"><ele>118.0</ele></trkpt>
   <trkpt lon="6.958990" lat="43.629485"><ele>121.25</ele></trkpt>
   <trkpt lon="6.959084" lat="43.629115"><ele>121.25</ele></trkpt>
   <trkpt lon="6.959111" lat="43.629009"><ele>121.25</ele></trkpt>
   <trkpt lon="6.959271" lat="43.628420"><ele>122.0</ele></trkpt>
   <trkpt lon="6.959360" lat="43.628167"><ele>122.25</ele></trkpt>
   <trkpt lon="6.959464" lat="43.627990"><ele>122.0</ele></trkpt>
   <trkpt lon="6.959602" lat="43.627816"><ele>122.5</ele></trkpt>
   <trkpt lon="6.959669" lat="43.627748"><ele>122.5</ele></trkpt>
   <trkpt lon="6.959785" lat="43.627659"><ele>121.75</ele></trkpt>
   <trkpt lon="6.960133" lat="43.627438"><ele>119.5</ele></trkpt>
   <trkpt lon="6.960391" lat="43.627288"><ele>118.75</ele></trkpt>
   <trkpt lon="6.961343" lat="43.626733"><ele>118.0</ele></trkpt>
   <trkpt lon="6.962323" lat="43.626174"><ele>117.0</ele></trkpt>
   <trkpt lon="6.962614" lat="43.625974"><ele>116.5</ele></trkpt>
   <trkpt lon="6.963347" lat="43.625551"><ele>115.75</ele></trkpt>
   <trkpt lon="6.963960" lat="43.625192"><ele>115.5</ele></trkpt>
   <trkpt lon="6.963984" lat="43.625177"><ele>115.25</ele></trkpt>
   <trkpt lon="6.964324" lat="43.624985"><ele>114.25</ele></trkpt>
   <trkpt lon="6.964887" lat="43.624655"><ele>112.75</ele></trkpt>
   <trkpt lon="6.965052" lat="43.624564"><ele>112.25</ele></trkpt>
   <trkpt lon="6.965347" lat="43.624400"><ele>111.25</ele></trkpt>
   <trkpt lon="6.965612" lat="43.624271"><ele>110.25</ele></trkpt>
   <trkpt lon="6.965653" lat="43.624245"><ele>110.25</ele></trkpt>
   <trkpt lon="6.965860" lat="43.624110"><ele>109.75</ele></trkpt>
   <trkpt lon="6.965908" lat="43.624077"><ele>109.75</ele></trkpt>
   <trkpt lon="6.965961" lat="43.624040"><ele>109.75</ele></trkpt>
   <trkpt lon="6.966445" lat="43.623703"><ele>111.75</ele></trkpt>
   <trkpt lon="6.966929" lat="43.623365"><ele>113.0</ele></trkpt>
   <trkpt lon="6.967081" lat="43.623263"><ele>114.5</ele></trkpt>
   <trkpt lon="6.967133" lat="43.623227"><ele>115.0</ele></trkpt>
   <trkpt lon="6.967188" lat="43.623189"><ele>115.25</ele></trkpt>
   <trkpt lon="6.967265" lat="43.623136"><ele>115.25</ele></trkpt>
   <trkpt lon="6.967676" lat="43.622896"><ele>115.5</ele></trkpt>
   <trkpt lon="6.968061" lat="43.622700"><ele>114.5</ele></trkpt>
   <trkpt lon="6.968324" lat="43.622568"><ele>114.25</ele></trkpt>
   <trkpt lon="6.968490" lat="43.622485"><ele>113.75</ele></trkpt>
   <trkpt lon="6.968655" lat="43.622405"><ele>113.25</ele></trkpt>
   <trkpt lon="6.968982" lat="43.622241"><ele>113.25</ele></trkpt>
   <trkpt lon="6.969438" lat="43.622032"><ele>114.0</ele></trkpt>
   <trkpt lon="6.969543" lat="43.621970"><ele>114.25</ele></trkpt>
   <trkpt lon="6.969633" lat="43.621905"><ele>114.5</ele></trkpt>
   <trkpt lon="6.969674" lat="43.621866"><ele>114.75</ele><sym>roundabout_e2</sym></trkpt>
   <trkpt lon="6.969647" lat="43.621835"><ele>114.5</ele></trkpt>
   <trkpt lon="6.969651" lat="43.621798"><ele>114.5</ele></trkpt>
   <trkpt lon="6.969665" lat="43.621783"><ele>114.5</ele></trkpt>
   <trkpt lon="6.969690" lat="43.621768"><ele>114.75</ele></trkpt>
   <trkpt lon="6.969722" lat="43.621763"><ele>114.75</ele></trkpt>
   <trkpt lon="6.969753" lat="43.621766"><ele>115.0</ele></trkpt>
   <trkpt lon="6.969796" lat="43.621723"><ele>115.25</ele></trkpt>
   <trkpt lon="6.969867" lat="43.621632"><ele>116.0</ele></trkpt>
   <trkpt lon="6.970126" lat="43.621275"><ele>118.5</ele></trkpt>
   <trkpt lon="6.970402" lat="43.620898"><ele>121.5</ele></trkpt>
   <trkpt lon="6.970446" lat="43.620835"><ele>121.75</ele></trkpt>
   <trkpt lon="6.970488" lat="43.620782"><ele>122.25</ele></trkpt>
   <trkpt lon="6.970630" lat="43.620591"><ele>123.5</ele></trkpt>
   <trkpt lon="6.970744" lat="43.620441"><ele>124.0</ele></trkpt>
   <trkpt lon="6.970774" lat="43.620402"><ele>124.0</ele></trkpt>
   <trkpt lon="6.970878" lat="43.620264"><ele>124.0</ele><sym>right</sym></trkpt>
   <trkpt lon="6.970832" lat="43.620241"><ele>124.0</ele></trkpt>
   <trkpt lon="6.970818" lat="43.620235"><ele>124.0</ele></trkpt>
   <trkpt lon="6.970730" lat="43.620191"><ele>124.5</ele></trkpt>
   <trkpt lon="6.970618" lat="43.620135"><ele>125.25</ele><sym>right</sym></trkpt>
   <trkpt lon="6.970605" lat="43.620144"><ele>125.25</ele></trkpt>
   <trkpt lon="6.970514" lat="43.620099"><ele>125.75</ele></trkpt>
   <trkpt lon="6.970324" lat="43.620289"><ele>126.5</ele></trkpt>
   <trkpt lon="6.970292" lat="43.620320"><ele>126.5</ele><sym>u-turn</sym><type>Via</type></trkpt>
   <trkpt lon="6.970324" lat="43.620289"><ele>126.5</ele></trkpt>
   <trkpt lon="6.970514" lat="43.620099"><ele>125.75</ele></trkpt>
   <trkpt lon="6.970605" lat="43.620144"><ele>125.25</ele></trkpt>
   <trkpt lon="6.970618" lat="43.620135"><ele>125.25</ele></trkpt>
   <trkpt lon="6.970730" lat="43.620191"><ele>124.5</ele></trkpt>
   <trkpt lon="6.970818" lat="43.620235"><ele>124.0</ele></trkpt>
   <trkpt lon="6.970832" lat="43.620241"><ele>124.0</ele></trkpt>
   <trkpt lon="6.970878" lat="43.620264"><ele>124.0</ele><sym>right</sym></trkpt>
   <trkpt lon="6.970917" lat="43.620215"><ele>124.0</ele></trkpt>
   <trkpt lon="6.970956" lat="43.620165"><ele>124.0</ele></trkpt>
   <trkpt lon="6.971020" lat="43.620086"><ele>124.0</ele></trkpt>
   <trkpt lon="6.971131" lat="43.619935"><ele>123.5</ele></trkpt>
   <trkpt lon="6.971162" lat="43.619895"><ele>123.25</ele></trkpt>
   <trkpt lon="6.971193" lat="43.619855"><ele>123.0</ele></trkpt>
   <trkpt lon="6.971291" lat="43.619727"><ele>122.25</ele></trkpt>
   <trkpt lon="6.971362" lat="43.619631"><ele>122.0</ele><sym>right</sym></trkpt>
   <trkpt lon="6.971309" lat="43.619603"><ele>122.25</ele></trkpt>
   <trkpt lon="6.971224" lat="43.619558"><ele>122.5</ele></trkpt>
   <trkpt lon="6.971137" lat="43.619512"><ele>122.75</ele></trkpt>
   <trkpt lon="6.971047" lat="43.619476"><ele>123.0</ele></trkpt>
   <trkpt lon="6.970911" lat="43.619384"><ele>123.5</ele></trkpt>
   <trkpt lon="6.970696" lat="43.619266"><ele>124.0</ele></trkpt>
   <trkpt lon="6.970484" lat="43.619159"><ele>124.0</ele></trkpt>
   <trkpt lon="6.970262" lat="43.619049"><ele>124.5</ele></trkpt>
   <trkpt lon="6.969954" lat="43.618926"><ele>124.25</ele></trkpt>
   <trkpt lon="6.969667" lat="43.618804"><ele>124.25</ele></trkpt>
   <trkpt lon="6.969642" lat="43.618794"><ele>124.25</ele><sym>left</sym></trkpt>
   <trkpt lon="6.969922" lat="43.618526"><ele>123.5</ele></trkpt>
   <trkpt lon="6.970092" lat="43.618383"><ele>122.75</ele></trkpt>
   <trkpt lon="6.970127" lat="43.618376"><ele>122.5</ele><sym>right_sharp</sym></trkpt>
   <trkpt lon="6.970097" lat="43.618356"><ele>122.5</ele></trkpt>
   <trkpt lon="6.969641" lat="43.618045"><ele>121.75</ele></trkpt>
   <trkpt lon="6.969613" lat="43.618026"><ele>121.75</ele></trkpt>
   <trkpt lon="6.969603" lat="43.618020"><ele>121.75</ele></trkpt>
   <trkpt lon="6.969010" lat="43.617603"><ele>121.5</ele></trkpt>
   <trkpt lon="6.968989" lat="43.617589"><ele>121.75</ele></trkpt>
   <trkpt lon="6.968976" lat="43.617579"><ele>121.75</ele></trkpt>
   <trkpt lon="6.968636" lat="43.617319"><ele>121.25</ele></trkpt>
   <trkpt lon="6.968344" lat="43.617052"><ele>120.75</ele></trkpt>
   <trkpt lon="6.968311" lat="43.617014"><ele>120.75</ele></trkpt>
   <trkpt lon="6.967839" lat="43.616504"><ele>119.5</ele></trkpt>
   <trkpt lon="6.967824" lat="43.616487"><ele>119.5</ele></trkpt>
   <trkpt lon="6.967811" lat="43.616476"><ele>119.5</ele></trkpt>
   <trkpt lon="6.967577" lat="43.616253"><ele>120.25</ele></trkpt>
   <trkpt lon="6.967332" lat="43.616037"><ele>120.75</ele></trkpt>
   <trkpt lon="6.966881" lat="43.615750"><ele>120.25</ele></trkpt>
   <trkpt lon="6.966851" lat="43.615731"><ele>120.25</ele></trkpt>
   <trkpt lon="6.966821" lat="43.615711"><ele>120.0</ele></trkpt>
   <trkpt lon="6.966450" lat="43.615521"><ele>118.0</ele></trkpt>
   <trkpt lon="6.966130" lat="43.615403"><ele>116.0</ele></trkpt>
   <trkpt lon="6.965640" lat="43.615308"><ele>114.25</ele></trkpt>
   <trkpt lon="6.965079" lat="43.615179"><ele>112.0</ele></trkpt>
   <trkpt lon="6.964636" lat="43.615084"><ele>111.0</ele></trkpt>
   <trkpt lon="6.964344" lat="43.615036"><ele>109.75</ele></trkpt>
   <trkpt lon="6.963798" lat="43.615003"><ele>108.5</ele></trkpt>
   <trkpt lon="6.963674" lat="43.615010"><ele>108.0</ele><sym>left</sym></trkpt>
   <trkpt lon="6.963668" lat="43.614953"><ele>107.5</ele></trkpt>
   <trkpt lon="6.963611" lat="43.614586"><ele>101.5</ele></trkpt>
   <trkpt lon="6.963566" lat="43.614254"><ele>97.5</ele></trkpt>
   <trkpt lon="6.963541" lat="43.614067"><ele>97.75</ele></trkpt>
   <trkpt lon="6.963537" lat="43.614006"><ele>98.25</ele><sym>right_slight</sym></trkpt>
   <trkpt lon="6.963478" lat="43.613976"><ele>98.25</ele></trkpt>
   <trkpt lon="6.963419" lat="43.613946"><ele>98.25</ele></trkpt>
   <trkpt lon="6.963264" lat="43.613883"><ele>98.5</ele></trkpt>
   <trkpt lon="6.963045" lat="43.613849"><ele>100.25</ele></trkpt>
   <trkpt lon="6.962939" lat="43.613854"><ele>99.25</ele></trkpt>
   <trkpt lon="6.962780" lat="43.613908"><ele>97.0</ele></trkpt>
   <trkpt lon="6.962730" lat="43.613928"><ele>97.25</ele></trkpt>
   <trkpt lon="6.962577" lat="43.613990"><ele>97.5</ele></trkpt>
   <trkpt lon="6.962348" lat="43.614080"><ele>97.25</ele></trkpt>
   <trkpt lon="6.962231" lat="43.614128"><ele>96.75</ele></trkpt>
   <trkpt lon="6.961989" lat="43.614225"><ele>96.0</ele></trkpt>
   <trkpt lon="6.960737" lat="43.614701"><ele>96.75</ele></trkpt>
   <trkpt lon="6.960600" lat="43.614750"><ele>96.75</ele></trkpt>
   <trkpt lon="6.960458" lat="43.614791"><ele>96.5</ele></trkpt>
   <trkpt lon="6.960400" lat="43.614803"><ele>96.25</ele></trkpt>
   <trkpt lon="6.960272" lat="43.614830"><ele>96.25</ele></trkpt>
   <trkpt lon="6.959921" lat="43.614904"><ele>97.0</ele></trkpt>
   <trkpt lon="6.959699" lat="43.614948"><ele>96.25</ele></trkpt>
   <trkpt lon="6.959353" lat="43.615026"><ele>94.25</ele></trkpt>
   <trkpt lon="6.959164" lat="43.615076"><ele>92.75</ele></trkpt>
   <trkpt lon="6.958671" lat="43.615214"><ele>90.0</ele></trkpt>
   <trkpt lon="6.958276" lat="43.615317"><ele>90.5</ele></trkpt>
   <trkpt lon="6.958095" lat="43.615360"><ele>91.0</ele></trkpt>
   <trkpt lon="6.957884" lat="43.615410"><ele>93.25</ele></trkpt>
   <trkpt lon="6.957510" lat="43.615498"><ele>95.0</ele></trkpt>
   <trkpt lon="6.957358" lat="43.615528"><ele>95.0</ele></trkpt>
   <trkpt lon="6.957152" lat="43.615550"><ele>95.5</ele></trkpt>
   <trkpt lon="6.956582" lat="43.615561"><ele>99.5</ele></trkpt>
   <trkpt lon="6.956502" lat="43.615568"><ele>100.0</ele></trkpt>
   <trkpt lon="6.956441" lat="43.615577"><ele>100.25</ele></trkpt>
   <trkpt lon="6.956324" lat="43.615607"><ele>100.5</ele><sym>pass_place</sym><type>Shaping</type></trkpt>
   <trkpt lon="6.956210" lat="43.615645"><ele>101.5</ele></trkpt>
   <trkpt lon="6.956067" lat="43.615707"><ele>102.5</ele></trkpt>
   <trkpt lon="6.955928" lat="43.615794"><ele>103.75</ele></trkpt>
   <trkpt lon="6.955515" lat="43.616149"><ele>105.75</ele></trkpt>
   <trkpt lon="6.955406" lat="43.616224"><ele>105.75</ele></trkpt>
   <trkpt lon="6.955297" lat="43.616287"><ele>106.0</ele></trkpt>
   <trkpt lon="6.955140" lat="43.616365"><ele>105.75</ele></trkpt>
   <trkpt lon="6.955005" lat="43.616414"><ele>105.5</ele></trkpt>
   <trkpt lon="6.954910" lat="43.616439"><ele>105.75</ele></trkpt>
   <trkpt lon="6.954707" lat="43.616474"><ele>106.0</ele></trkpt>
   <trkpt lon="6.954319" lat="43.616517"><ele>105.25</ele></trkpt>
   <trkpt lon="6.953669" lat="43.616585"><ele>103.75</ele></trkpt>
   <trkpt lon="6.953473" lat="43.616593"><ele>102.75</ele></trkpt>
   <trkpt lon="6.953262" lat="43.616578"><ele>101.75</ele></trkpt>
   <trkpt lon="6.953165" lat="43.616560"><ele>101.25</ele></trkpt>
   <trkpt lon="6.953035" lat="43.616526"><ele>100.5</ele></trkpt>
   <trkpt lon="6.952903" lat="43.616477"><ele>99.5</ele></trkpt>
   <trkpt lon="6.952534" lat="43.616307"><ele>97.75</ele></trkpt>
   <trkpt lon="6.952283" lat="43.616180"><ele>94.25</ele></trkpt>
   <trkpt lon="6.951976" lat="43.615974"><ele>91.0</ele></trkpt>
   <trkpt lon="6.951708" lat="43.615766"><ele>90.75</ele></trkpt>
   <trkpt lon="6.951623" lat="43.615698"><ele>90.75</ele></trkpt>
   <trkpt lon="6.951506" lat="43.615619"><ele>91.0</ele></trkpt>
   <trkpt lon="6.951444" lat="43.615595"><ele>91.0</ele><sym>roundabout_e3</sym></trkpt>
   <trkpt lon="6.951423" lat="43.615620"><ele>90.75</ele></trkpt>
   <trkpt lon="6.951390" lat="43.615639"><ele>90.5</ele></trkpt>
   <trkpt lon="6.951351" lat="43.615648"><ele>90.75</ele></trkpt>
   <trkpt lon="6.951302" lat="43.615647"><ele>91.0</ele></trkpt>
   <trkpt lon="6.951258" lat="43.615631"><ele>91.25</ele></trkpt>
   <trkpt lon="6.951230" lat="43.615608"><ele>91.25</ele></trkpt>
   <trkpt lon="6.951215" lat="43.615579"><ele>91.0</ele></trkpt>
   <trkpt lon="6.951214" lat="43.615547"><ele>91.0</ele></trkpt>
   <trkpt lon="6.951104" lat="43.615515"><ele>91.0</ele></trkpt>
   <trkpt lon="6.950963" lat="43.615468"><ele>91.25</ele></trkpt>
   <trkpt lon="6.950201" lat="43.615174"><ele>88.0</ele></trkpt>
   <trkpt lon="6.949645" lat="43.614936"><ele>86.25</ele></trkpt>
   <trkpt lon="6.949508" lat="43.614857"><ele>85.75</ele></trkpt>
   <trkpt lon="6.949396" lat="43.614760"><ele>85.0</ele></trkpt>
   <trkpt lon="6.949009" lat="43.614310"><ele>83.5</ele></trkpt>
   <trkpt lon="6.948842" lat="43.614118"><ele>83.0</ele></trkpt>
   <trkpt lon="6.948659" lat="43.613968"><ele>82.25</ele></trkpt>
   <trkpt lon="6.948465" lat="43.613890"><ele>81.0</ele></trkpt>
   <trkpt lon="6.948346" lat="43.613862"><ele>80.75</ele></trkpt>
   <trkpt lon="6.948245" lat="43.613850"><ele>80.25</ele></trkpt>
   <trkpt lon="6.948067" lat="43.613854"><ele>79.75</ele></trkpt>
   <trkpt lon="6.947931" lat="43.613880"><ele>78.5</ele></trkpt>
   <trkpt lon="6.947385" lat="43.614017"><ele>75.75</ele></trkpt>
   <trkpt lon="6.946818" lat="43.614158"><ele>74.25</ele></trkpt>
   <trkpt lon="6.946649" lat="43.614196"><ele>73.75</ele></trkpt>
   <trkpt lon="6.946593" lat="43.614203"><ele>73.75</ele></trkpt>
   <trkpt lon="6.946528" lat="43.614204"><ele>73.5</ele></trkpt>
   <trkpt lon="6.946429" lat="43.614192"><ele>73.75</ele></trkpt>
   <trkpt lon="6.946305" lat="43.614167"><ele>73.5</ele></trkpt>
   <trkpt lon="6.946128" lat="43.614099"><ele>74.25</ele></trkpt>
   <trkpt lon="6.946034" lat="43.614035"><ele>74.0</ele></trkpt>
   <trkpt lon="6.945962" lat="43.613968"><ele>74.0</ele></trkpt>
   <trkpt lon="6.945787" lat="43.613763"><ele>72.75</ele></trkpt>
   <trkpt lon="6.945359" lat="43.613098"><ele>66.75</ele></trkpt>
   <trkpt lon="6.945312" lat="43.613016"><ele>66.25</ele></trkpt>
   <trkpt lon="6.944808" lat="43.612143"><ele>65.75</ele></trkpt>
   <trkpt lon="6.944180" lat="43.611033"><ele>66.5</ele></trkpt>
   <trkpt lon="6.943929" lat="43.610528"><ele>69.0</ele></trkpt>
   <trkpt lon="6.943858" lat="43.610384"><ele>69.0</ele></trkpt>
   <trkpt lon="6.943554" lat="43.609876"><ele>68.0</ele></trkpt>
   <trkpt lon="6.943032" lat="43.609009"><ele>69.0</ele></trkpt>
   <trkpt lon="6.942731" lat="43.608581"><ele>63.5</ele></trkpt>
   <trkpt lon="6.942471" lat="43.608152"><ele>60.0</ele></trkpt>
   <trkpt lon="6.942435" lat="43.608096"><ele>59.75</ele></trkpt>
   <trkpt lon="6.942357" lat="43.608064"><ele>59.25</ele></trkpt>
   <trkpt lon="6.942279" lat="43.608042"><ele>59.25</ele></trkpt>
   <trkpt lon="6.942132" lat="43.608038"><ele>59.0</ele></trkpt>
   <trkpt lon="6.942002" lat="43.608063"><ele>58.0</ele></trkpt>
   <trkpt lon="6.941769" lat="43.608093"><ele>58.25</ele></trkpt>
   <trkpt lon="6.941210" lat="43.608094"><ele>56.25</ele><sym>pass_place</sym><type>Shaping</type></trkpt>
   <trkpt lon="6.941208" lat="43.608095"><ele>56.25</ele></trkpt>
   <trkpt lon="6.940650" lat="43.608125"><ele>55.25</ele></trkpt>
   <trkpt lon="6.940543" lat="43.608134"><ele>55.0</ele></trkpt>
   <trkpt lon="6.940006" lat="43.608205"><ele>54.0</ele></trkpt>
   <trkpt lon="6.939923" lat="43.608237"><ele>53.25</ele></trkpt>
   <trkpt lon="6.939572" lat="43.608451"><ele>51.5</ele></trkpt>
   <trkpt lon="6.939481" lat="43.608514"><ele>53.25</ele></trkpt>
   <trkpt lon="6.939157" lat="43.608721"><ele>56.25</ele></trkpt>
   <trkpt lon="6.938973" lat="43.608772"><ele>59.0</ele></trkpt>
   <trkpt lon="6.938831" lat="43.608795"><ele>60.25</ele></trkpt>
   <trkpt lon="6.938726" lat="43.608794"><ele>59.75</ele></trkpt>
   <trkpt lon="6.938586" lat="43.608757"><ele>57.5</ele></trkpt>
   <trkpt lon="6.938522" lat="43.608724"><ele>57.25</ele></trkpt>
   <trkpt lon="6.938281" lat="43.608518"><ele>54.75</ele></trkpt>
   <trkpt lon="6.938097" lat="43.608382"><ele>53.25</ele></trkpt>
   <trkpt lon="6.937472" lat="43.608001"><ele>54.0</ele></trkpt>
   <trkpt lon="6.937090" lat="43.607710"><ele>55.25</ele></trkpt>
   <trkpt lon="6.936944" lat="43.607568"><ele>57.25</ele></trkpt>
   <trkpt lon="6.936773" lat="43.607373"><ele>56.75</ele></trkpt>
   <trkpt lon="6.936307" lat="43.606778"><ele>55.5</ele></trkpt>
   <trkpt lon="6.935888" lat="43.606421"><ele>55.75</ele></trkpt>
   <trkpt lon="6.935341" lat="43.606049"><ele>57.25</ele></trkpt>
   <trkpt lon="6.935247" lat="43.605953"><ele>58.5</ele></trkpt>
   <trkpt lon="6.935197" lat="43.605834"><ele>57.0</ele></trkpt>
   <trkpt lon="6.935085" lat="43.605642"><ele>53.0</ele></trkpt>
   <trkpt lon="6.935003" lat="43.605557"><ele>52.75</ele></trkpt>
   <trkpt lon="6.934858" lat="43.605448"><ele>54.25</ele></trkpt>
   <trkpt lon="6.934799" lat="43.605383"><ele>54.25</ele></trkpt>
   <trkpt lon="6.934754" lat="43.605286"><ele>52.5</ele></trkpt>
   <trkpt lon="6.934729" lat="43.605201"><ele>51.0</ele></trkpt>
   <trkpt lon="6.934718" lat="43.605164"><ele>50.5</ele></trkpt>
   <trkpt lon="6.934563" lat="43.604955"><ele>51.5</ele></trkpt>
   <trkpt lon="6.934495" lat="43.604813"><ele>50.5</ele></trkpt>
   <trkpt lon="6.934327" lat="43.604533"><ele>51.25</ele></trkpt>
   <trkpt lon="6.934252" lat="43.604219"><ele>47.5</ele></trkpt>
   <trkpt lon="6.934215" lat="43.604150"><ele>48.0</ele></trkpt>
   <trkpt lon="6.934167" lat="43.604115"><ele>49.75</ele></trkpt>
   <trkpt lon="6.934030" lat="43.604044"><ele>52.5</ele></trkpt>
   <trkpt lon="6.933985" lat="43.603997"><ele>53.0</ele></trkpt>
   <trkpt lon="6.933971" lat="43.603939"><ele>51.25</ele></trkpt>
   <trkpt lon="6.934002" lat="43.603755"><ele>45.5</ele></trkpt>
   <trkpt lon="6.934005" lat="43.603676"><ele>44.5</ele></trkpt>
   <trkpt lon="6.933986" lat="43.603618"><ele>45.25</ele></trkpt>
   <trkpt lon="6.933940" lat="43.603562"><ele>46.25</ele></trkpt>
   <trkpt lon="6.933620" lat="43.603258"><ele>47.25</ele></trkpt>
   <trkpt lon="6.933522" lat="43.603104"><ele>47.0</ele></trkpt>
   <trkpt lon="6.933433" lat="43.602844"><ele>45.75</ele></trkpt>
   <trkpt lon="6.933408" lat="43.602587"><ele>42.75</ele></trkpt>
   <trkpt lon="6.933326" lat="43.602427"><ele>41.75</ele></trkpt>
   <trkpt lon="6.933235" lat="43.602345"><ele>39.5</ele></trkpt>
   <trkpt lon="6.932988" lat="43.602236"><ele>39.75</ele></trkpt>
   <trkpt lon="6.932860" lat="43.602200"><ele>38.5</ele></trkpt>
   <trkpt lon="6.932723" lat="43.602203"><ele>38.5</ele></trkpt>
   <trkpt lon="6.932439" lat="43.602289"><ele>38.0</ele></trkpt>
   <trkpt lon="6.932369" lat="43.602295"><ele>37.5</ele></trkpt>
   <trkpt lon="6.932273" lat="43.602291"><ele>36.75</ele></trkpt>
   <trkpt lon="6.932195" lat="43.602275"><ele>36.25</ele></trkpt>
   <trkpt lon="6.932133" lat="43.602251"><ele>36.5</ele></trkpt>
   <trkpt lon="6.932063" lat="43.602210"><ele>36.25</ele></trkpt>
   <trkpt lon="6.932018" lat="43.602170"><ele>36.0</ele></trkpt>
   <trkpt lon="6.931957" lat="43.602092"><ele>35.0</ele></trkpt>
   <trkpt lon="6.931858" lat="43.601895"><ele>32.5</ele></trkpt>
   <trkpt lon="6.931792" lat="43.601734"><ele>31.5</ele></trkpt>
   <trkpt lon="6.931726" lat="43.601642"><ele>31.5</ele></trkpt>
   <trkpt lon="6.931625" lat="43.601534"><ele>30.75</ele></trkpt>
   <trkpt lon="6.931422" lat="43.601345"><ele>29.25</ele></trkpt>
   <trkpt lon="6.931337" lat="43.601275"><ele>29.5</ele><sym>left_slight</sym></trkpt>
   <trkpt lon="6.931302" lat="43.601229"><ele>29.25</ele></trkpt>
   <trkpt lon="6.931279" lat="43.601158"><ele>29.0</ele></trkpt>
   <trkpt lon="6.931255" lat="43.601056"><ele>28.25</ele></trkpt>
   <trkpt lon="6.931274" lat="43.600876"><ele>26.75</ele></trkpt>
   <trkpt lon="6.931383" lat="43.600623"><ele>25.0</ele></trkpt>
   <trkpt lon="6.931517" lat="43.600390"><ele>24.25</ele></trkpt>
   <trkpt lon="6.931907" lat="43.599921"><ele>23.5</ele></trkpt>
   <trkpt lon="6.931954" lat="43.599839"><ele>23.25</ele></trkpt>
   <trkpt lon="6.931969" lat="43.599754"><ele>23.0</ele></trkpt>
   <trkpt lon="6.931899" lat="43.599299"><ele>22.25</ele></trkpt>
   <trkpt lon="6.931869" lat="43.599135"><ele>22.0</ele></trkpt>
   <trkpt lon="6.931796" lat="43.598703"><ele>21.25</ele></trkpt>
   <trkpt lon="6.931749" lat="43.598499"><ele>21.0</ele></trkpt>
   <trkpt lon="6.931723" lat="43.598356"><ele>21.0</ele></trkpt>
   <trkpt lon="6.931684" lat="43.598239"><ele>20.5</ele></trkpt>
   <trkpt lon="6.931598" lat="43.598063"><ele>20.0</ele></trkpt>
   <trkpt lon="6.931539" lat="43.597961"><ele>20.0</ele></trkpt>
   <trkpt lon="6.931398" lat="43.597679"><ele>20.0</ele></trkpt>
   <trkpt lon="6.931233" lat="43.597277"><ele>19.0</ele></trkpt>
   <trkpt lon="6.931216" lat="43.597206"><ele>19.0</ele></trkpt>
   <trkpt lon="6.931209" lat="43.597154"><ele>19.0</ele></trkpt>
   <trkpt lon="6.931201" lat="43.597120"><ele>19.0</ele></trkpt>
   <trkpt lon="6.931200" lat="43.597118"><ele>19.0</ele><sym>pass_place</sym><type>Shaping</type></trkpt>
   <trkpt lon="6.931194" lat="43.597099"><ele>19.0</ele></trkpt>
   <trkpt lon="6.931099" lat="43.596775"><ele>19.0</ele></trkpt>
   <trkpt lon="6.931039" lat="43.596520"><ele>18.75</ele></trkpt>
   <trkpt lon="6.931011" lat="43.596338"><ele>18.5</ele></trkpt>
   <trkpt lon="6.931015" lat="43.596258"><ele>18.75</ele></trkpt>
   <trkpt lon="6.931048" lat="43.596056"><ele>18.75</ele></trkpt>
   <trkpt lon="6.931090" lat="43.595809"><ele>18.0</ele></trkpt>
   <trkpt lon="6.931114" lat="43.595696"><ele>18.0</ele></trkpt>
   <trkpt lon="6.931123" lat="43.595652"><ele>18.0</ele></trkpt>
   <trkpt lon="6.931254" lat="43.595369"><ele>18.25</ele></trkpt>
   <trkpt lon="6.931482" lat="43.595025"><ele>17.75</ele></trkpt>
   <trkpt lon="6.931500" lat="43.594952"><ele>17.75</ele><sym>left_slight</sym></trkpt>
   <trkpt lon="6.931573" lat="43.594935"><ele>17.75</ele></trkpt>
   <trkpt lon="6.931642" lat="43.594904"><ele>17.5</ele></trkpt>
   <trkpt lon="6.931695" lat="43.594875"><ele>17.5</ele></trkpt>
   <trkpt lon="6.931794" lat="43.594787"><ele>17.75</ele></trkpt>
   <trkpt lon="6.931862" lat="43.594727"><ele>18.25</ele></trkpt>
   <trkpt lon="6.931928" lat="43.594674"><ele>18.5</ele></trkpt>
   <trkpt lon="6.931974" lat="43.594637"><ele>18.5</ele><sym>right</sym></trkpt>
   <trkpt lon="6.931918" lat="43.594589"><ele>18.25</ele></trkpt>
   <trkpt lon="6.931259" lat="43.594173"><ele>17.0</ele></trkpt>
   <trkpt lon="6.930969" lat="43.594000"><ele>17.0</ele></trkpt>
   <trkpt lon="6.930651" lat="43.593780"><ele>17.0</ele></trkpt>
   <trkpt lon="6.930548" lat="43.593722"><ele>16.75</ele><sym>left_slight</sym></trkpt>
   <trkpt lon="6.930406" lat="43.593485"><ele>17.0</ele></trkpt>
   <trkpt lon="6.930363" lat="43.593356"><ele>17.0</ele><sym>pass_place</sym><type>Shaping</type></trkpt>
   <trkpt lon="6.930967" lat="43.593114"><ele>17.0</ele></trkpt>
   <trkpt lon="6.930979" lat="43.593152"><ele>17.0</ele></trkpt>
   <trkpt lon="6.930881" lat="43.593220"><ele>17.0</ele></trkpt>
   <trkpt lon="6.930815" lat="43.593213"><ele>16.75</ele></trkpt>
   <trkpt lon="6.930697" lat="43.593133"><ele>16.5</ele></trkpt>
   <trkpt lon="6.930580" lat="43.593224"><ele>16.5</ele></trkpt>
   <trkpt lon="6.930363" lat="43.593356"><ele>17.0</ele></trkpt>
   <trkpt lon="6.930406" lat="43.593485"><ele>17.0</ele></trkpt>
   <trkpt lon="6.930548" lat="43.593722"><ele>16.75</ele><sym>left</sym></trkpt>
   <trkpt lon="6.930406" lat="43.593813"><ele>16.0</ele></trkpt>
   <trkpt lon="6.930351" lat="43.593850"><ele>15.5</ele></trkpt>
   <trkpt lon="6.930262" lat="43.593913"><ele>15.25</ele></trkpt>
   <trkpt lon="6.930163" lat="43.593969"><ele>16.0</ele><sym>left</sym></trkpt>
   <trkpt lon="6.930123" lat="43.593928"><ele>16.0</ele></trkpt>
   <trkpt lon="6.929975" lat="43.593773"><ele>16.0</ele></trkpt>
   <trkpt lon="6.929631" lat="43.593349"><ele>16.5</ele></trkpt>
   <trkpt lon="6.929628" lat="43.593346"><ele>16.5</ele></trkpt>
   <trkpt lon="6.929581" lat="43.593294"><ele>16.75</ele><sym>right</sym></trkpt>
   <trkpt lon="6.929468" lat="43.593346"><ele>17.5</ele></trkpt>
   <trkpt lon="6.929142" lat="43.593484"><ele>16.5</ele></trkpt>
   <trkpt lon="6.928674" lat="43.593662"><ele>16.25</ele></trkpt>
   <trkpt lon="6.928508" lat="43.593730"><ele>16.25</ele></trkpt>
   <trkpt lon="6.928468" lat="43.593748"><ele>16.0</ele></trkpt>
   <trkpt lon="6.928192" lat="43.593876"><ele>16.0</ele></trkpt>
   <trkpt lon="6.928141" lat="43.593900"><ele>16.0</ele></trkpt>
   <trkpt lon="6.928085" lat="43.593928"><ele>16.0</ele></trkpt>
   <trkpt lon="6.927688" lat="43.594119"><ele>15.25</ele></trkpt>
   <trkpt lon="6.927586" lat="43.594169"><ele>15.5</ele></trkpt>
   <trkpt lon="6.927309" lat="43.594305"><ele>16.0</ele></trkpt>
   <trkpt lon="6.927016" lat="43.594445"><ele>15.75</ele></trkpt>
   <trkpt lon="6.926845" lat="43.594528"><ele>16.25</ele></trkpt>
   <trkpt lon="6.926698" lat="43.594636"><ele>16.75</ele></trkpt>
   <trkpt lon="6.926642" lat="43.594675"><ele>17.0</ele><sym>roundabout_e1</sym></trkpt>
   <trkpt lon="6.926620" lat="43.594704"><ele>17.0</ele></trkpt>
   <trkpt lon="6.926571" lat="43.594996"><ele>17.25</ele></trkpt>
   <trkpt lon="6.926568" lat="43.595194"><ele>17.25</ele></trkpt>
   <trkpt lon="6.926557" lat="43.595333"><ele>17.25</ele></trkpt>
   <trkpt lon="6.926460" lat="43.595539"><ele>17.0</ele></trkpt>
   <trkpt lon="6.926438" lat="43.595571"><ele>17.0</ele></trkpt>
   <trkpt lon="6.926029" lat="43.596224"><ele>18.5</ele></trkpt>
   <trkpt lon="6.925656" lat="43.596723"><ele>19.0</ele></trkpt>
   <trkpt lon="6.925541" lat="43.596860"><ele>19.25</ele></trkpt>
   <trkpt lon="6.925175" lat="43.597217"><ele>19.25</ele></trkpt>
   <trkpt lon="6.925116" lat="43.597279"><ele>19.5</ele></trkpt>
   <trkpt lon="6.925098" lat="43.597296"><ele>19.5</ele></trkpt>
   <trkpt lon="6.925063" lat="43.597336"><ele>19.75</ele></trkpt>
   <trkpt lon="6.924956" lat="43.597489"><ele>20.0</ele></trkpt>
   <trkpt lon="6.924893" lat="43.597608"><ele>20.5</ele></trkpt>
   <trkpt lon="6.924693" lat="43.598112"><ele>22.0</ele></trkpt>
   <trkpt lon="6.924502" lat="43.598513"><ele>24.0</ele></trkpt>
   <trkpt lon="6.924488" lat="43.598546"><ele>24.25</ele></trkpt>
   <trkpt lon="6.924466" lat="43.598596"><ele>24.75</ele></trkpt>
   <trkpt lon="6.924215" lat="43.599184"><ele>29.25</ele></trkpt>
   <trkpt lon="6.924186" lat="43.599314"><ele>30.5</ele></trkpt>
   <trkpt lon="6.924142" lat="43.599622"><ele>33.0</ele></trkpt>
   <trkpt lon="6.924101" lat="43.599821"><ele>34.5</ele></trkpt>
   <trkpt lon="6.924026" lat="43.599987"><ele>35.25</ele></trkpt>
   <trkpt lon="6.923946" lat="43.600102"><ele>36.5</ele></trkpt>
   <trkpt lon="6.923835" lat="43.600228"><ele>37.25</ele></trkpt>
   <trkpt lon="6.923559" lat="43.600465"><ele>39.5</ele></trkpt>
   <trkpt lon="6.923164" lat="43.600768"><ele>44.0</ele></trkpt>
   <trkpt lon="6.923049" lat="43.600859"><ele>44.25</ele></trkpt>
   <trkpt lon="6.922932" lat="43.600946"><ele>46.0</ele></trkpt>
   <trkpt lon="6.922771" lat="43.601058"><ele>46.0</ele></trkpt>
   <trkpt lon="6.922435" lat="43.601360"><ele>46.5</ele></trkpt>
   <trkpt lon="6.922278" lat="43.601502"><ele>45.75</ele></trkpt>
   <trkpt lon="6.922152" lat="43.601612"><ele>44.5</ele></trkpt>
   <trkpt lon="6.921811" lat="43.601913"><ele>42.25</ele></trkpt>
   <trkpt lon="6.921626" lat="43.602089"><ele>41.5</ele></trkpt>
   <trkpt lon="6.921593" lat="43.602120"><ele>41.25</ele></trkpt>
   <trkpt lon="6.921573" lat="43.602140"><ele>41.25</ele></trkpt>
   <trkpt lon="6.921474" lat="43.602230"><ele>40.25</ele></trkpt>
   <trkpt lon="6.921100" lat="43.602597"><ele>39.0</ele></trkpt>
   <trkpt lon="6.920949" lat="43.602735"><ele>37.75</ele></trkpt>
   <trkpt lon="6.920825" lat="43.602823"><ele>37.0</ele></trkpt>
   <trkpt lon="6.920674" lat="43.602900"><ele>37.5</ele></trkpt>
   <trkpt lon="6.919950" lat="43.603176"><ele>35.75</ele></trkpt>
   <trkpt lon="6.919743" lat="43.603282"><ele>34.75</ele></trkpt>
   <trkpt lon="6.919635" lat="43.603341"><ele>34.25</ele></trkpt>
   <trkpt lon="6.919370" lat="43.603517"><ele>33.75</ele></trkpt>
   <trkpt lon="6.919122" lat="43.603675"><ele>32.75</ele></trkpt>
   <trkpt lon="6.918984" lat="43.603754"><ele>32.5</ele><sym>right_slight</sym></trkpt>
   <trkpt lon="6.918907" lat="43.603851"><ele>32.0</ele></trkpt>
   <trkpt lon="6.918878" lat="43.603903"><ele>31.75</ele><sym>roundabout_e2</sym></trkpt>
   <trkpt lon="6.918860" lat="43.603941"><ele>31.75</ele></trkpt>
   <trkpt lon="6.918819" lat="43.603978"><ele>31.5</ele></trkpt>
   <trkpt lon="6.918642" lat="43.604092"><ele>31.0</ele><sym>pass_place</sym><type>Shaping</type></trkpt>
   <trkpt lon="6.918642" lat="43.604093"><ele>31.0</ele></trkpt>
   <trkpt lon="6.918564" lat="43.604131"><ele>31.0</ele></trkpt>
   <trkpt lon="6.918496" lat="43.604161"><ele>30.75</ele></trkpt>
   <trkpt lon="6.918429" lat="43.604179"><ele>31.0</ele></trkpt>
   <trkpt lon="6.918352" lat="43.604201"><ele>31.25</ele></trkpt>
   <trkpt lon="6.918259" lat="43.604241"><ele>31.25</ele></trkpt>
   <trkpt lon="6.918166" lat="43.604293"><ele>31.25</ele><sym>left_slight</sym></trkpt>
   <trkpt lon="6.918037" lat="43.604311"><ele>30.75</ele><sym>left_slight</sym></trkpt>
   <trkpt lon="6.917917" lat="43.604293"><ele>30.0</ele></trkpt>
   <trkpt lon="6.917681" lat="43.604315"><ele>29.25</ele></trkpt>
   <trkpt lon="6.917461" lat="43.604313"><ele>28.5</ele></trkpt>
   <trkpt lon="6.917217" lat="43.604283"><ele>27.75</ele></trkpt>
   <trkpt lon="6.916965" lat="43.604237"><ele>26.75</ele></trkpt>
   <trkpt lon="6.916732" lat="43.604174"><ele>26.0</ele></trkpt>
   <trkpt lon="6.915872" lat="43.603820"><ele>23.5</ele></trkpt>
   <trkpt lon="6.915229" lat="43.603661"><ele>23.0</ele></trkpt>
   <trkpt lon="6.915088" lat="43.603608"><ele>23.0</ele></trkpt>
   <trkpt lon="6.914987" lat="43.603539"><ele>23.0</ele></trkpt>
   <trkpt lon="6.914848" lat="43.603380"><ele>23.0</ele></trkpt>
   <trkpt lon="6.914655" lat="43.603179"><ele>23.0</ele></trkpt>
   <trkpt lon="6.914449" lat="43.603040"><ele>23.0</ele></trkpt>
   <trkpt lon="6.914366" lat="43.602975"><ele>22.75</ele></trkpt>
   <trkpt lon="6.914282" lat="43.602910"><ele>22.5</ele></trkpt>
   <trkpt lon="6.913904" lat="43.602616"><ele>22.0</ele></trkpt>
   <trkpt lon="6.913740" lat="43.602530"><ele>22.0</ele></trkpt>
   <trkpt lon="6.913578" lat="43.602475"><ele>22.0</ele></trkpt>
   <trkpt lon="6.913360" lat="43.602431"><ele>22.0</ele></trkpt>
   <trkpt lon="6.913216" lat="43.602432"><ele>21.5</ele></trkpt>
   <trkpt lon="6.913098" lat="43.602482"><ele>21.0</ele></trkpt>
   <trkpt lon="6.912667" lat="43.602738"><ele>22.25</ele></trkpt>
   <trkpt lon="6.912593" lat="43.602751"><ele>22.0</ele></trkpt>
   <trkpt lon="6.912535" lat="43.602727"><ele>21.75</ele></trkpt>
   <trkpt lon="6.912000" lat="43.602160"><ele>21.75</ele></trkpt>
   <trkpt lon="6.911727" lat="43.601795"><ele>23.0</ele></trkpt>
   <trkpt lon="6.911611" lat="43.601716"><ele>24.0</ele><sym>right</sym></trkpt>
   <trkpt lon="6.911512" lat="43.601726"><ele>25.5</ele></trkpt>
   <trkpt lon="6.911356" lat="43.601841"><ele>26.5</ele></trkpt>
   <trkpt lon="6.911241" lat="43.602022"><ele>27.25</ele></trkpt>
   <trkpt lon="6.911196" lat="43.602052"><ele>27.75</ele></trkpt>
   <trkpt lon="6.910963" lat="43.602308"><ele>30.0</ele></trkpt>
   <trkpt lon="6.910898" lat="43.602462"><ele>31.25</ele></trkpt>
   <trkpt lon="6.910843" lat="43.602554"><ele>33.25</ele></trkpt>
   <trkpt lon="6.910687" lat="43.602637"><ele>37.5</ele></trkpt>
   <trkpt lon="6.910567" lat="43.602688"><ele>39.75</ele></trkpt>
   <trkpt lon="6.910386" lat="43.602696"><ele>41.0</ele><sym>right_slight</sym></trkpt>
   <trkpt lon="6.910303" lat="43.602743"><ele>40.5</ele></trkpt>
   <trkpt lon="6.910240" lat="43.602805"><ele>40.25</ele></trkpt>
   <trkpt lon="6.910198" lat="43.602876"><ele>40.5</ele></trkpt>
   <trkpt lon="6.910136" lat="43.603204"><ele>39.5</ele></trkpt>
   <trkpt lon="6.910094" lat="43.603287"><ele>39.75</ele></trkpt>
   <trkpt lon="6.910105" lat="43.603435"><ele>39.5</ele></trkpt>
   <trkpt lon="6.910366" lat="43.603617"><ele>39.0</ele></trkpt>
   <trkpt lon="6.910535" lat="43.603758"><ele>38.75</ele></trkpt>
   <trkpt lon="6.910563" lat="43.603799"><ele>38.75</ele><sym>left</sym></trkpt>
   <trkpt lon="6.910053" lat="43.604004"><ele>45.0</ele></trkpt>
   <trkpt lon="6.910011" lat="43.604060"><ele>45.5</ele><sym>left</sym></trkpt>
   <trkpt lon="6.909933" lat="43.604057"><ele>46.25</ele></trkpt>
   <trkpt lon="6.909582" lat="43.604055"><ele>49.0</ele><sym>left_slight</sym></trkpt>
   <trkpt lon="6.909409" lat="43.603978"><ele>49.0</ele><sym>left_slight</sym></trkpt>
   <trkpt lon="6.909200" lat="43.603665"><ele>47.75</ele></trkpt>
   <trkpt lon="6.909044" lat="43.603433"><ele>47.5</ele></trkpt>
   <trkpt lon="6.908773" lat="43.603011"><ele>51.25</ele></trkpt>
   <trkpt lon="6.908716" lat="43.602934"><ele>52.0</ele></trkpt>
   <trkpt lon="6.908645" lat="43.602849"><ele>53.0</ele><sym>left_slight</sym></trkpt>
   <trkpt lon="6.908691" lat="43.602765"><ele>53.75</ele></trkpt>
   <trkpt lon="6.908793" lat="43.602408"><ele>60.5</ele></trkpt>
   <trkpt lon="6.908831" lat="43.602256"><ele>63.5</ele></trkpt>
   <trkpt lon="6.908865" lat="43.602167"><ele>65.25</ele></trkpt>
   <trkpt lon="6.908948" lat="43.602047"><ele>67.75</ele></trkpt>
   <trkpt lon="6.909234" lat="43.601808"><ele>69.0</ele></trkpt>
   <trkpt lon="6.909480" lat="43.601556"><ele>72.0</ele></trkpt>
   <trkpt lon="6.909501" lat="43.601458"><ele>74.0</ele><sym>left_slight</sym></trkpt>
   <trkpt lon="6.909677" lat="43.601321"><ele>75.75</ele></trkpt>
   <trkpt lon="6.909897" lat="43.601197"><ele>76.5</ele><sym>right_slight</sym></trkpt>
   <trkpt lon="6.909919" lat="43.601094"><ele>78.25</ele><sym>left_slight</sym></trkpt>
   <trkpt lon="6.910012" lat="43.601086"><ele>78.5</ele></trkpt>
   <trkpt lon="6.910115" lat="43.601044"><ele>78.25</ele></trkpt>
   <trkpt lon="6.910223" lat="43.600961"><ele>79.0</ele></trkpt>
   <trkpt lon="6.910265" lat="43.600923"><ele>79.25</ele></trkpt>
   <trkpt lon="6.910429" lat="43.600809"><ele>78.75</ele></trkpt>
   <trkpt lon="6.910706" lat="43.600695"><ele>78.25</ele><sym>pass_place</sym><type>Shaping</type></trkpt>
   <trkpt lon="6.910709" lat="43.600695"><ele>78.25</ele></trkpt>
   <trkpt lon="6.910984" lat="43.600563"><ele>80.5</ele></trkpt>
   <trkpt lon="6.911013" lat="43.600542"><ele>81.0</ele><sym>right_sharp</sym></trkpt>
   <trkpt lon="6.910997" lat="43.600507"><ele>82.5</ele></trkpt>
   <trkpt lon="6.910943" lat="43.600495"><ele>83.5</ele></trkpt>
   <trkpt lon="6.910835" lat="43.600528"><ele>83.0</ele></trkpt>
   <trkpt lon="6.910543" lat="43.600593"><ele>83.75</ele><sym>u-turn_right</sym></trkpt>
   <trkpt lon="6.910543" lat="43.600590"><ele>84.75</ele><sym>pass_place</sym><type>Shaping</type></trkpt>
   <trkpt lon="6.910543" lat="43.600593"><ele>83.75</ele></trkpt>
   <trkpt lon="6.910835" lat="43.600528"><ele>83.0</ele></trkpt>
   <trkpt lon="6.910943" lat="43.600495"><ele>83.5</ele></trkpt>
   <trkpt lon="6.910997" lat="43.600507"><ele>82.5</ele></trkpt>
   <trkpt lon="6.911013" lat="43.600542"><ele>81.0</ele><sym>left</sym></trkpt>
   <trkpt lon="6.910984" lat="43.600563"><ele>80.5</ele></trkpt>
   <trkpt lon="6.910709" lat="43.600695"><ele>78.25</ele></trkpt>
   <trkpt lon="6.910429" lat="43.600809"><ele>78.75</ele></trkpt>
   <trkpt lon="6.910265" lat="43.600923"><ele>79.25</ele></trkpt>
   <trkpt lon="6.910223" lat="43.600961"><ele>79.0</ele></trkpt>
   <trkpt lon="6.910115" lat="43.601044"><ele>78.25</ele></trkpt>
   <trkpt lon="6.910012" lat="43.601086"><ele>78.5</ele></trkpt>
   <trkpt lon="6.909919" lat="43.601094"><ele>78.25</ele><sym>right_slight</sym></trkpt>
   <trkpt lon="6.909897" lat="43.601197"><ele>76.5</ele><sym>left_slight</sym></trkpt>
   <trkpt lon="6.909677" lat="43.601321"><ele>75.75</ele></trkpt>
   <trkpt lon="6.909501" lat="43.601458"><ele>74.0</ele><sym>right_slight</sym></trkpt>
   <trkpt lon="6.909480" lat="43.601556"><ele>72.0</ele></trkpt>
   <trkpt lon="6.909234" lat="43.601808"><ele>69.0</ele></trkpt>
   <trkpt lon="6.908948" lat="43.602047"><ele>67.75</ele></trkpt>
   <trkpt lon="6.908865" lat="43.602167"><ele>65.25</ele></trkpt>
   <trkpt lon="6.908831" lat="43.602256"><ele>63.5</ele></trkpt>
   <trkpt lon="6.908793" lat="43.602408"><ele>60.5</ele></trkpt>
   <trkpt lon="6.908691" lat="43.602765"><ele>53.75</ele></trkpt>
   <trkpt lon="6.908645" lat="43.602849"><ele>53.0</ele><sym>right_slight</sym></trkpt>
   <trkpt lon="6.908716" lat="43.602934"><ele>52.0</ele></trkpt>
   <trkpt lon="6.908773" lat="43.603011"><ele>51.25</ele></trkpt>
   <trkpt lon="6.909044" lat="43.603433"><ele>47.5</ele></trkpt>
   <trkpt lon="6.909200" lat="43.603665"><ele>47.75</ele></trkpt>
   <trkpt lon="6.909409" lat="43.603978"><ele>49.0</ele><sym>right_slight</sym></trkpt>
   <trkpt lon="6.909582" lat="43.604055"><ele>49.0</ele><sym>right_slight</sym></trkpt>
   <trkpt lon="6.909933" lat="43.604057"><ele>46.25</ele></trkpt>
   <trkpt lon="6.910011" lat="43.604060"><ele>45.5</ele></trkpt>
   <trkpt lon="6.911366" lat="43.604096"><ele>38.5</ele></trkpt>
   <trkpt lon="6.911939" lat="43.604116"><ele>35.5</ele></trkpt>
   <trkpt lon="6.912049" lat="43.604153"><ele>34.75</ele></trkpt>
   <trkpt lon="6.912121" lat="43.604227"><ele>34.25</ele></trkpt>
   <trkpt lon="6.912251" lat="43.604456"><ele>32.5</ele></trkpt>
   <trkpt lon="6.912351" lat="43.604636"><ele>32.5</ele></trkpt>
   <trkpt lon="6.912483" lat="43.604776"><ele>32.25</ele></trkpt>
   <trkpt lon="6.912801" lat="43.605046"><ele>30.5</ele></trkpt>
   <trkpt lon="6.912910" lat="43.605145"><ele>30.25</ele></trkpt>
   <trkpt lon="6.912980" lat="43.605238"><ele>29.75</ele></trkpt>
   <trkpt lon="6.913023" lat="43.605356"><ele>28.75</ele></trkpt>
   <trkpt lon="6.913036" lat="43.605474"><ele>28.5</ele></trkpt>
   <trkpt lon="6.912951" lat="43.606184"><ele>32.0</ele></trkpt>
   <trkpt lon="6.912969" lat="43.606692"><ele>30.0</ele></trkpt>
   <trkpt lon="6.913118" lat="43.607180"><ele>29.75</ele></trkpt>
   <trkpt lon="6.913255" lat="43.607486"><ele>30.0</ele></trkpt>
   <trkpt lon="6.913350" lat="43.607606"><ele>30.0</ele></trkpt>
   <trkpt lon="6.913470" lat="43.607699"><ele>30.25</ele></trkpt>
   <trkpt lon="6.913524" lat="43.607730"><ele>30.5</ele></trkpt>
   <trkpt lon="6.913582" lat="43.607763"><ele>30.75</ele></trkpt>
   <trkpt lon="6.913633" lat="43.607780"><ele>30.75</ele></trkpt>
   <trkpt lon="6.913701" lat="43.607802"><ele>30.25</ele></trkpt>
   <trkpt lon="6.913725" lat="43.607810"><ele>30.25</ele></trkpt>
   <trkpt lon="6.913877" lat="43.607868"><ele>29.5</ele></trkpt>
   <trkpt lon="6.914047" lat="43.607927"><ele>29.5</ele></trkpt>
   <trkpt lon="6.914441" lat="43.608065"><ele>31.75</ele></trkpt>
   <trkpt lon="6.914484" lat="43.608077"><ele>31.75</ele></trkpt>
   <trkpt lon="6.914625" lat="43.608107"><ele>31.5</ele><sym>right_slight</sym></trkpt>
   <trkpt lon="6.914826" lat="43.608083"><ele>32.5</ele></trkpt>
   <trkpt lon="6.914919" lat="43.608066"><ele>33.25</ele><sym>roundabout_e2</sym></trkpt>
   <trkpt lon="6.914970" lat="43.608049"><ele>33.5</ele></trkpt>
   <trkpt lon="6.915011" lat="43.608047"><ele>33.75</ele></trkpt>
   <trkpt lon="6.915051" lat="43.608055"><ele>34.0</ele></trkpt>
   <trkpt lon="6.915085" lat="43.608071"><ele>34.25</ele></trkpt>
   <trkpt lon="6.915112" lat="43.608094"><ele>34.5</ele></trkpt>
   <trkpt lon="6.915127" lat="43.608122"><ele>34.5</ele></trkpt>
   <trkpt lon="6.915129" lat="43.608151"><ele>34.75</ele></trkpt>
   <trkpt lon="6.915119" lat="43.608179"><ele>34.75</ele></trkpt>
   <trkpt lon="6.915097" lat="43.608204"><ele>34.75</ele></trkpt>
   <trkpt lon="6.915066" lat="43.608223"><ele>34.75</ele></trkpt>
   <trkpt lon="6.915060" lat="43.608324"><ele>35.0</ele></trkpt>
   <trkpt lon="6.915099" lat="43.608458"><ele>34.5</ele></trkpt>
   <trkpt lon="6.915202" lat="43.608583"><ele>35.5</ele></trkpt>
   <trkpt lon="6.915514" lat="43.608998"><ele>37.5</ele></trkpt>
   <trkpt lon="6.915592" lat="43.609129"><ele>38.75</ele></trkpt>
   <trkpt lon="6.915714" lat="43.609378"><ele>40.75</ele></trkpt>
   <trkpt lon="6.915734" lat="43.609423"><ele>41.0</ele></trkpt>
   <trkpt lon="6.915885" lat="43.609759"><ele>43.0</ele></trkpt>
   <trkpt lon="6.916005" lat="43.610001"><ele>44.5</ele></trkpt>
   <trkpt lon="6.916101" lat="43.610264"><ele>45.75</ele></trkpt>
   <trkpt lon="6.916158" lat="43.610425"><ele>47.0</ele></trkpt>
   <trkpt lon="6.916231" lat="43.610522"><ele>48.0</ele></trkpt>
   <trkpt lon="6.916270" lat="43.610570"><ele>48.5</ele><sym>roundabout_e1</sym></trkpt>
   <trkpt lon="6.916297" lat="43.610591"><ele>49.0</ele></trkpt>
   <trkpt lon="6.916499" lat="43.610587"><ele>49.5</ele><sym>u-turn_right</sym></trkpt>
   <trkpt lon="6.916498" lat="43.610587"><ele>49.5</ele><sym>pass_place</sym><type>Shaping</type></trkpt>
   <trkpt lon="6.916499" lat="43.610587"><ele>49.5</ele></trkpt>
   <trkpt lon="6.917453" lat="43.610390"><ele>53.5</ele></trkpt>
   <trkpt lon="6.917591" lat="43.610386"><ele>54.0</ele></trkpt>
   <trkpt lon="6.917717" lat="43.610400"><ele>54.5</ele></trkpt>
   <trkpt lon="6.917817" lat="43.610422"><ele>54.5</ele></trkpt>
   <trkpt lon="6.917952" lat="43.610471"><ele>54.5</ele></trkpt>
   <trkpt lon="6.918084" lat="43.610536"><ele>55.0</ele></trkpt>
   <trkpt lon="6.918518" lat="43.610779"><ele>57.5</ele></trkpt>
   <trkpt lon="6.918627" lat="43.610859"><ele>57.25</ele></trkpt>
   <trkpt lon="6.918784" lat="43.611020"><ele>57.75</ele></trkpt>
   <trkpt lon="6.919000" lat="43.611253"><ele>58.25</ele></trkpt>
   <trkpt lon="6.919049" lat="43.611325"><ele>59.0</ele></trkpt>
   <trkpt lon="6.919138" lat="43.611518"><ele>60.0</ele></trkpt>
   <trkpt lon="6.919465" lat="43.612318"><ele>64.5</ele></trkpt>
   <trkpt lon="6.919548" lat="43.612521"><ele>66.5</ele></trkpt>
   <trkpt lon="6.919607" lat="43.612673"><ele>67.25</ele></trkpt>
   <trkpt lon="6.919697" lat="43.613043"><ele>67.5</ele></trkpt>
   <trkpt lon="6.919739" lat="43.613204"><ele>67.75</ele></trkpt>
   <trkpt lon="6.919786" lat="43.613337"><ele>67.75</ele></trkpt>
   <trkpt lon="6.919837" lat="43.613457"><ele>68.75</ele></trkpt>
   <trkpt lon="6.919893" lat="43.613550"><ele>69.25</ele></trkpt>
   <trkpt lon="6.919981" lat="43.613669"><ele>69.25</ele></trkpt>
   <trkpt lon="6.920090" lat="43.613774"><ele>68.75</ele></trkpt>
   <trkpt lon="6.920225" lat="43.613888"><ele>68.75</ele></trkpt>
   <trkpt lon="6.920358" lat="43.613973"><ele>69.75</ele></trkpt>
   <trkpt lon="6.920530" lat="43.614057"><ele>69.75</ele></trkpt>
   <trkpt lon="6.920691" lat="43.614154"><ele>70.5</ele></trkpt>
   <trkpt lon="6.920869" lat="43.614286"><ele>71.5</ele></trkpt>
   <trkpt lon="6.921025" lat="43.614431"><ele>72.75</ele></trkpt>
   <trkpt lon="6.921106" lat="43.614524"><ele>71.5</ele></trkpt>
   <trkpt lon="6.921148" lat="43.614606"><ele>71.25</ele></trkpt>
   <trkpt lon="6.921155" lat="43.614681"><ele>71.5</ele></trkpt>
   <trkpt lon="6.921133" lat="43.614962"><ele>71.75</ele></trkpt>
   <trkpt lon="6.921089" lat="43.615564"><ele>75.75</ele></trkpt>
   <trkpt lon="6.921084" lat="43.615667"><ele>76.75</ele></trkpt>
   <trkpt lon="6.921113" lat="43.615802"><ele>76.75</ele></trkpt>
   <trkpt lon="6.921386" lat="43.616512"><ele>77.75</ele></trkpt>
   <trkpt lon="6.921586" lat="43.617113"><ele>81.75</ele></trkpt>
   <trkpt lon="6.921632" lat="43.617321"><ele>81.5</ele></trkpt>
   <trkpt lon="6.921677" lat="43.617681"><ele>81.0</ele></trkpt>
   <trkpt lon="6.921968" lat="43.618804"><ele>86.75</ele></trkpt>
   <trkpt lon="6.922016" lat="43.618937"><ele>87.0</ele></trkpt>
   <trkpt lon="6.922091" lat="43.619060"><ele>87.5</ele></trkpt>
   <trkpt lon="6.922211" lat="43.619152"><ele>87.75</ele></trkpt>
   <trkpt lon="6.922398" lat="43.619254"><ele>89.25</ele></trkpt>
   <trkpt lon="6.922560" lat="43.619296"><ele>90.5</ele></trkpt>
   <trkpt lon="6.922767" lat="43.619323"><ele>91.5</ele></trkpt>
   <trkpt lon="6.923077" lat="43.619343"><ele>91.5</ele></trkpt>
   <trkpt lon="6.924666" lat="43.619477"><ele>93.25</ele></trkpt>
   <trkpt lon="6.924941" lat="43.619516"><ele>95.25</ele></trkpt>
   <trkpt lon="6.925056" lat="43.619573"><ele>97.0</ele></trkpt>
   <trkpt lon="6.925154" lat="43.619645"><ele>98.25</ele></trkpt>
   <trkpt lon="6.925216" lat="43.619754"><ele>99.5</ele></trkpt>
   <trkpt lon="6.925222" lat="43.619880"><ele>100.0</ele></trkpt>
   <trkpt lon="6.925157" lat="43.620194"><ele>102.0</ele></trkpt>
   <trkpt lon="6.925175" lat="43.620307"><ele>101.75</ele></trkpt>
   <trkpt lon="6.925239" lat="43.620453"><ele>102.25</ele></trkpt>
   <trkpt lon="6.925709" lat="43.620977"><ele>103.0</ele></trkpt>
   <trkpt lon="6.925737" lat="43.621080"><ele>103.25</ele></trkpt>
   <trkpt lon="6.925741" lat="43.621182"><ele>103.5</ele></trkpt>
   <trkpt lon="6.925710" lat="43.621290"><ele>104.0</ele></trkpt>
   <trkpt lon="6.925633" lat="43.621392"><ele>104.0</ele></trkpt>
   <trkpt lon="6.925293" lat="43.621747"><ele>105.0</ele></trkpt>
   <trkpt lon="6.925186" lat="43.621892"><ele>106.75</ele><sym>right_slight</sym></trkpt>
   <trkpt lon="6.925121" lat="43.622268"><ele>105.5</ele></trkpt>
   <trkpt lon="6.925249" lat="43.622503"><ele>104.0</ele></trkpt>
   <trkpt lon="6.925369" lat="43.622637"><ele>103.75</ele></trkpt>
   <trkpt lon="6.925478" lat="43.622768"><ele>104.75</ele><sym>pass_place</sym><type>Shaping</type></trkpt>
   <trkpt lon="6.926061" lat="43.623072"><ele>107.0</ele></trkpt>
   <trkpt lon="6.927286" lat="43.623429"><ele>107.25</ele></trkpt>
   <trkpt lon="6.927418" lat="43.623490"><ele>107.25</ele></trkpt>
   <trkpt lon="6.927535" lat="43.623576"><ele>107.75</ele></trkpt>
   <trkpt lon="6.927598" lat="43.623660"><ele>108.5</ele></trkpt>
   <trkpt lon="6.927631" lat="43.623769"><ele>108.25</ele></trkpt>
   <trkpt lon="6.927599" lat="43.623908"><ele>109.5</ele></trkpt>
   <trkpt lon="6.927456" lat="43.624241"><ele>112.25</ele></trkpt>
   <trkpt lon="6.927431" lat="43.624378"><ele>112.5</ele></trkpt>
   <trkpt lon="6.927421" lat="43.624704"><ele>112.0</ele></trkpt>
   <trkpt lon="6.927448" lat="43.625371"><ele>112.5</ele><sym>left_slight</sym></trkpt>
   <trkpt lon="6.927372" lat="43.625392"><ele>113.25</ele></trkpt>
   <trkpt lon="6.927316" lat="43.625431"><ele>113.5</ele></trkpt>
   <trkpt lon="6.927284" lat="43.625491"><ele>113.25</ele></trkpt>
   <trkpt lon="6.927289" lat="43.625613"><ele>113.0</ele></trkpt>
   <trkpt lon="6.927318" lat="43.626741"><ele>118.25</ele></trkpt>
   <trkpt lon="6.927339" lat="43.626937"><ele>119.0</ele></trkpt>
   <trkpt lon="6.927370" lat="43.627142"><ele>120.25</ele></trkpt>
   <trkpt lon="6.927613" lat="43.627790"><ele>121.5</ele></trkpt>
   <trkpt lon="6.927671" lat="43.628452"><ele>126.75</ele></trkpt>
   <trkpt lon="6.927668" lat="43.628703"><ele>127.75</ele></trkpt>
   <trkpt lon="6.927598" lat="43.628857"><ele>128.25</ele></trkpt>
   <trkpt lon="6.927376" lat="43.629063"><ele>130.0</ele></trkpt>
   <trkpt lon="6.927244" lat="43.629127"><ele>130.75</ele></trkpt>
   <trkpt lon="6.927041" lat="43.629189"><ele>131.25</ele></trkpt>
   <trkpt lon="6.926423" lat="43.629214"><ele>133.0</ele></trkpt>
   <trkpt lon="6.925952" lat="43.629258"><ele>135.0</ele></trkpt>
   <trkpt lon="6.925624" lat="43.629347"><ele>136.75</ele></trkpt>
   <trkpt lon="6.925391" lat="43.629371"><ele>137.5</ele><sym>right_slight</sym></trkpt>
   <trkpt lon="6.925260" lat="43.629552"><ele>136.5</ele></trkpt>
   <trkpt lon="6.925222" lat="43.629623"><ele>136.25</ele></trkpt>
   <trkpt lon="6.925234" lat="43.629749"><ele>136.5</ele></trkpt>
   <trkpt lon="6.925479" lat="43.630166"><ele>140.75</ele></trkpt>
   <trkpt lon="6.925743" lat="43.630565"><ele>142.5</ele></trkpt>
   <trkpt lon="6.925792" lat="43.631327"><ele>141.75</ele></trkpt>
   <trkpt lon="6.925750" lat="43.631979"><ele>136.5</ele></trkpt>
   <trkpt lon="6.925743" lat="43.632080"><ele>136.75</ele></trkpt>
   <trkpt lon="6.925746" lat="43.632716"><ele>138.25</ele></trkpt>
   <trkpt lon="6.925747" lat="43.633058"><ele>136.5</ele></trkpt>
   <trkpt lon="6.925729" lat="43.633261"><ele>135.25</ele></trkpt>
   <trkpt lon="6.925666" lat="43.633406"><ele>135.5</ele></trkpt>
   <trkpt lon="6.925583" lat="43.633553"><ele>136.0</ele></trkpt>
   <trkpt lon="6.925185" lat="43.634140"><ele>136.25</ele></trkpt>
   <trkpt lon="6.925008" lat="43.634421"><ele>137.75</ele></trkpt>
   <trkpt lon="6.924869" lat="43.634647"><ele>140.25</ele></trkpt>
   <trkpt lon="6.924835" lat="43.634781"><ele>142.0</ele></trkpt>
   <trkpt lon="6.924824" lat="43.634903"><ele>144.25</ele></trkpt>
   <trkpt lon="6.924922" lat="43.635121"><ele>147.25</ele></trkpt>
   <trkpt lon="6.925077" lat="43.635281"><ele>148.75</ele></trkpt>
   <trkpt lon="6.925117" lat="43.635421"><ele>150.0</ele></trkpt>
   <trkpt lon="6.925025" lat="43.636046"><ele>155.5</ele></trkpt>
   <trkpt lon="6.924961" lat="43.636165"><ele>156.0</ele></trkpt>
   <trkpt lon="6.924847" lat="43.636296"><ele>156.75</ele></trkpt>
   <trkpt lon="6.924342" lat="43.636875"><ele>157.25</ele></trkpt>
   <trkpt lon="6.924338" lat="43.636879"><ele>158.25</ele><sym>pass_place</sym><type>Shaping</type></trkpt>
   <trkpt lon="6.924175" lat="43.637066"><ele>158.25</ele></trkpt>
   <trkpt lon="6.924123" lat="43.637144"><ele>158.5</ele></trkpt>
   <trkpt lon="6.924107" lat="43.637168"><ele>158.5</ele><sym>right</sym></trkpt>
   <trkpt lon="6.924119" lat="43.637222"><ele>158.25</ele></trkpt>
   <trkpt lon="6.924162" lat="43.637261"><ele>157.75</ele><sym>right_slight</sym></trkpt>
   <trkpt lon="6.924313" lat="43.637281"><ele>156.0</ele></trkpt>
   <trkpt lon="6.924943" lat="43.637406"><ele>150.5</ele></trkpt>
   <trkpt lon="6.924966" lat="43.637420"><ele>150.25</ele><sym>right_slight</sym></trkpt>
   <trkpt lon="6.924982" lat="43.637422"><ele>150.25</ele></trkpt>
   <trkpt lon="6.925110" lat="43.637435"><ele>149.5</ele></trkpt>
   <trkpt lon="6.925529" lat="43.637450"><ele>148.75</ele></trkpt>
   <trkpt lon="6.925702" lat="43.637434"><ele>149.25</ele></trkpt>
   <trkpt lon="6.926247" lat="43.637284"><ele>150.75</ele></trkpt>
   <trkpt lon="6.926604" lat="43.637197"><ele>151.5</ele></trkpt>
   <trkpt lon="6.926824" lat="43.637153"><ele>150.75</ele><sym>left_sharp</sym></trkpt>
   <trkpt lon="6.926624" lat="43.638052"><ele>153.25</ele></trkpt>
   <trkpt lon="6.926592" lat="43.638149"><ele>153.5</ele></trkpt>
   <trkpt lon="6.926528" lat="43.638258"><ele>154.0</ele></trkpt>
   <trkpt lon="6.926461" lat="43.638395"><ele>154.75</ele></trkpt>
   <trkpt lon="6.926471" lat="43.638487"><ele>154.25</ele></trkpt>
   <trkpt lon="6.926509" lat="43.638569"><ele>153.75</ele></trkpt>
   <trkpt lon="6.926561" lat="43.638635"><ele>153.0</ele></trkpt>
   <trkpt lon="6.927249" lat="43.638992"><ele>145.75</ele></trkpt>
   <trkpt lon="6.927831" lat="43.639270"><ele>143.0</ele></trkpt>
   <trkpt lon="6.927861" lat="43.639317"><ele>143.0</ele><sym>left_slight</sym></trkpt>
   <trkpt lon="6.927862" lat="43.639371"><ele>143.0</ele></trkpt>
   <trkpt lon="6.927772" lat="43.639640"><ele>143.25</ele></trkpt>
   <trkpt lon="6.927765" lat="43.639734"><ele>143.0</ele></trkpt>
   <trkpt lon="6.927777" lat="43.639825"><ele>143.25</ele></trkpt>
   <trkpt lon="6.927800" lat="43.639927"><ele>143.5</ele></trkpt>
   <trkpt lon="6.927803" lat="43.639996"><ele>143.75</ele></trkpt>
   <trkpt lon="6.927685" lat="43.640362"><ele>145.5</ele></trkpt>
   <trkpt lon="6.927554" lat="43.640703"><ele>147.0</ele></trkpt>
   <trkpt lon="6.927501" lat="43.640841"><ele>148.0</ele></trkpt>
   <trkpt lon="6.927442" lat="43.641047"><ele>148.75</ele></trkpt>
   <trkpt lon="6.927421" lat="43.641198"><ele>149.5</ele></trkpt>
   <trkpt lon="6.927414" lat="43.641265"><ele>150.0</ele></trkpt>
   <trkpt lon="6.927438" lat="43.641365"><ele>150.25</ele></trkpt>
   <trkpt lon="6.927522" lat="43.641524"><ele>151.0</ele></trkpt>
   <trkpt lon="6.927518" lat="43.641597"><ele>151.5</ele></trkpt>
   <trkpt lon="6.927446" lat="43.641719"><ele>152.5</ele></trkpt>
   <trkpt lon="6.927433" lat="43.641799"><ele>153.5</ele></trkpt>
   <trkpt lon="6.927435" lat="43.641883"><ele>154.25</ele></trkpt>
   <trkpt lon="6.927436" lat="43.641928"><ele>154.75</ele></trkpt>
   <trkpt lon="6.927496" lat="43.642087"><ele>155.5</ele></trkpt>
   <trkpt lon="6.927527" lat="43.642246"><ele>156.25</ele></trkpt>
   <trkpt lon="6.927544" lat="43.642281"><ele>156.75</ele></trkpt>
   <trkpt lon="6.927579" lat="43.642301"><ele>157.0</ele></trkpt>
   <trkpt lon="6.927896" lat="43.642316"><ele>157.75</ele></trkpt>
   <trkpt lon="6.928137" lat="43.642359"><ele>159.25</ele></trkpt>
   <trkpt lon="6.928263" lat="43.642401"><ele>160.0</ele></trkpt>
   <trkpt lon="6.928355" lat="43.642432"><ele>160.5</ele></trkpt>
   <trkpt lon="6.928701" lat="43.642610"><ele>164.0</ele></trkpt>
   <trkpt lon="6.929003" lat="43.642822"><ele>167.5</ele></trkpt>
   <trkpt lon="6.929076" lat="43.642900"><ele>168.75</ele></trkpt>
   <trkpt lon="6.929163" lat="43.642973"><ele>169.75</ele></trkpt>
   <trkpt lon="6.929587" lat="43.643147"><ele>172.5</ele></trkpt>
   <trkpt lon="6.929723" lat="43.643228"><ele>175.0</ele></trkpt>
   <trkpt lon="6.929820" lat="43.643303"><ele>175.75</ele></trkpt>
   <trkpt lon="6.929894" lat="43.643348"><ele>175.75</ele></trkpt>
   <trkpt lon="6.929970" lat="43.643382"><ele>176.0</ele></trkpt>
   <trkpt lon="6.930322" lat="43.643466"><ele>176.0</ele></trkpt>
   <trkpt lon="6.930394" lat="43.643475"><ele>175.75</ele><sym>left_slight</sym></trkpt>
   <trkpt lon="6.930436" lat="43.643527"><ele>176.5</ele></trkpt>
   <trkpt lon="6.930517" lat="43.643601"><ele>177.0</ele></trkpt>
   <trkpt lon="6.930535" lat="43.643658"><ele>177.25</ele></trkpt>
   <trkpt lon="6.930539" lat="43.643735"><ele>177.75</ele></trkpt>
   <trkpt lon="6.930512" lat="43.643785"><ele>178.25</ele><sym>right_slight</sym></trkpt>
   <trkpt lon="6.930567" lat="43.643829"><ele>178.25</ele></trkpt>
   <trkpt lon="6.931043" lat="43.644419"><ele>175.75</ele></trkpt>
   <trkpt lon="6.931220" lat="43.644638"><ele>176.25</ele></trkpt>
   <trkpt lon="6.931252" lat="43.644675"><ele>176.25</ele></trkpt>
   <trkpt lon="6.931442" lat="43.644901"><ele>176.5</ele></trkpt>
   <trkpt lon="6.931821" lat="43.645418"><ele>179.25</ele></trkpt>
   <trkpt lon="6.931870" lat="43.645471"><ele>180.0</ele></trkpt>
   <trkpt lon="6.932167" lat="43.645749"><ele>183.5</ele></trkpt>
   <trkpt lon="6.932540" lat="43.646271"><ele>188.75</ele></trkpt>
   <trkpt lon="6.932598" lat="43.646328"><ele>188.75</ele></trkpt>
   <trkpt lon="6.932749" lat="43.646480"><ele>188.25</ele></trkpt>
   <trkpt lon="6.932886" lat="43.646595"><ele>188.75</ele></trkpt>
   <trkpt lon="6.933420" lat="43.646933"><ele>191.75</ele></trkpt>
   <trkpt lon="6.933589" lat="43.646984"><ele>192.5</ele></trkpt>
   <trkpt lon="6.933948" lat="43.647023"><ele>193.5</ele></trkpt>
   <trkpt lon="6.934072" lat="43.647035"><ele>193.25</ele></trkpt>
   <trkpt lon="6.934871" lat="43.647157"><ele>192.5</ele></trkpt>
   <trkpt lon="6.934962" lat="43.647162"><ele>192.25</ele></trkpt>
   <trkpt lon="6.935056" lat="43.647135"><ele>192.25</ele></trkpt>
   <trkpt lon="6.935458" lat="43.646900"><ele>192.25</ele></trkpt>
   <trkpt lon="6.935599" lat="43.646813"><ele>193.0</ele></trkpt>
   <trkpt lon="6.935949" lat="43.646564"><ele>194.5</ele></trkpt>
   <trkpt lon="6.936012" lat="43.646543"><ele>194.75</ele></trkpt>
   <trkpt lon="6.936089" lat="43.646540"><ele>195.5</ele></trkpt>
   <trkpt lon="6.936162" lat="43.646548"><ele>196.0</ele></trkpt>
   <trkpt lon="6.936224" lat="43.646569"><ele>196.75</ele></trkpt>
   <trkpt lon="6.936301" lat="43.646614"><ele>198.0</ele><sym>left_slight</sym></trkpt>
   <trkpt lon="6.936323" lat="43.646652"><ele>199.0</ele></trkpt>
   <trkpt lon="6.936345" lat="43.646813"><ele>200.5</ele></trkpt>
   <trkpt lon="6.936334" lat="43.646885"><ele>201.0</ele></trkpt>
   <trkpt lon="6.936254" lat="43.647169"><ele>202.25</ele></trkpt>
   <trkpt lon="6.936290" lat="43.647403"><ele>204.25</ele></trkpt>
   <trkpt lon="6.936350" lat="43.647444"><ele>205.75</ele><sym>left_slight</sym></trkpt>
   <trkpt lon="6.936315" lat="43.647729"><ele>206.75</ele><sym>right</sym></trkpt>
   <trkpt lon="6.936504" lat="43.647747"><ele>208.5</ele></trkpt>
   <trkpt lon="6.936760" lat="43.647794"><ele>210.0</ele></trkpt>
   <trkpt lon="6.936983" lat="43.647862"><ele>210.0</ele></trkpt>
   <trkpt lon="6.937201" lat="43.647926"><ele>209.25</ele><sym>pass_place</sym><type>Via</type></trkpt>
  </trkseg>
 </trk>
</gpx>
