<?xml version="1.0" encoding="UTF-8"?>
<!-- track-length = 19579 filtered ascend = 75 plain-ascend = 1 cost=26999 energy=.1kwh time=58m 57s -->
<gpx 
 xmlns="http://www.topografix.com/GPX/1/1" 
 xmlns:xsi="http://www.w3.org/2001/XMLSchema-instance" 
 xsi:schemaLocation="http://www.topografix.com/GPX/1/1 http://www.topografix.com/GPX/1/1/gpx.xsd" 
 creator="BRouter-1.7.9" version="1.1"><wpt lat="39.35716" lon="-9.36594"><name>Cafetaria Do Parque</name><sym>Restaurant</sym></wpt><wpt lat="39.3729" lon="-9.33682"><name>Shower</name><sym>Drinking Water</sym></wpt><wpt lat="39.36411" lon="-9.31784"><name>Pasteleria Ferreleja</name><sym>Restaurant</sym></wpt><wpt lat="39.36013" lon="-9.36872"><name>Tina Mar</name><sym>Restaurant</sym></wpt><wpt lat="39.35829" lon="-9.37425"><name>Arcadas do Mar</name><sym>Restaurant</sym></wpt><wpt lat="39.35808" lon="-9.37966"><name>Puro Cake Lab</name><sym>Restaurant</sym></wpt><wpt lat="39.35783" lon="-9.37933"><name>Calè</name><sym>Restaurant</sym></wpt><wpt lat="39.35827" lon="-9.3797"><name>Oceano</name><sym>Restaurant</sym></wpt><wpt lat="39.36375" lon="-9.31618"><name>Café Central</name><sym>Restaurant</sym></wpt><wpt lat="39.35931" lon="-9.36947"><name>Café Onda Jovem</name><sym>Restaurant</sym></wpt><wpt lat="39.35679" lon="-9.38008"><name>Mystic</name><sym>Restaurant</sym></wpt><wpt lat="39.33734" lon="-9.32586"><name>SbikeShop</name><sym>Bike Trail</sym></wpt><wpt lat="39.33592" lon="-9.32524"><name>Arcadas do Jardim</name><sym>Restaurant</sym></wpt><wpt lat="39.33615" lon="-9.3263"><name>Entre Amigos</name><sym>Restaurant</sym></wpt><wpt lat="39.37161" lon="-9.33205"><name>Lagide</name><sym>Restaurant</sym></wpt><wpt lat="39.33984" lon="-9.32715"><name>Forne da Vila</name><sym>Restaurant</sym></wpt><wpt lat="39.37421" lon="-9.34036"><name>Urban Beach Bar</name><sym>Restaurant</sym></wpt><wpt lat="39.37393" lon="-9.34031"><name>Café Central</name><sym>Restaurant</sym></wpt><wpt lat="39.37222" lon="-9.33749"><name>Algamar</name><sym>Restaurant</sym></wpt>
 <trk>
  <src>brouter_fastbike-lowtraffic_0</src>
  <type>bike</type>
  <trkseg>
   <trkpt lon="-9.315982" lat="39.364250"><ele>26.25</ele><sym>pass_place</sym><type>Via</type></trkpt>
   <trkpt lon="-9.315923" lat="39.364295"><ele>26.75</ele></trkpt>
   <trkpt lon="-9.315793" lat="39.364266"><ele>26.5</ele><sym>right</sym></trkpt>
   <trkpt lon="-9.315828" lat="39.364198"><ele>26.0</ele></trkpt>
   <trkpt lon="-9.315915" lat="39.364030"><ele>25.5</ele></trkpt>
   <trkpt lon="-9.315870" lat="39.363883"><ele>24.75</ele><sym>right_slight</sym></trkpt>
   <trkpt lon="-9.315922" lat="39.363731"><ele>24.25</ele></trkpt>
   <trkpt lon="-9.316011" lat="39.363543"><ele>23.25</ele><sym>right</sym></trkpt>
   <trkpt lon="-9.316129" lat="39.363603"><ele>23.75</ele></trkpt>
   <trkpt lon="-9.316215" lat="39.363645"><ele>24.25</ele></trkpt>
   <trkpt lon="-9.316271" lat="39.363673"><ele>24.75</ele><sym>roundabout_e2</sym></trkpt>
   <trkpt lon="-9.316307" lat="39.363709"><ele>25.0</ele></trkpt>
   <trkpt lon="-9.316344" lat="39.363719"><ele>25.0</ele></trkpt>
   <trkpt lon="-9.316384" lat="39.363716"><ele>25.25</ele></trkpt>
   <trkpt lon="-9.316425" lat="39.363693"><ele>25.25</ele></trkpt>
   <trkpt lon="-9.316444" lat="39.363657"><ele>25.0</ele></trkpt>
   <trkpt lon="-9.316435" lat="39.363621"><ele>25.0</ele></trkpt>
   <trkpt lon="-9.316421" lat="39.363605"><ele>24.75</ele></trkpt>
   <trkpt lon="-9.316447" lat="39.363408"><ele>22.75</ele><sym>right_slight</sym></trkpt>
   <trkpt lon="-9.316593" lat="39.363210"><ele>21.75</ele></trkpt>
   <trkpt lon="-9.317096" lat="39.362510"><ele>22.0</ele></trkpt>
   <trkpt lon="-9.318017" lat="39.361207"><ele>19.0</ele></trkpt>
   <trkpt lon="-9.318830" lat="39.360121"><ele>18.25</ele></trkpt>
   <trkpt lon="-9.318993" lat="39.359834"><ele>16.0</ele></trkpt>
   <trkpt lon="-9.319551" lat="39.358390"><ele>9.25</ele></trkpt>
   <trkpt lon="-9.319627" lat="39.358152"><ele>8.5</ele></trkpt>
   <trkpt lon="-9.319665" lat="39.357949"><ele>8.0</ele></trkpt>
   <trkpt lon="-9.319686" lat="39.357623"><ele>8.25</ele></trkpt>
   <trkpt lon="-9.319684" lat="39.357477"><ele>9.0</ele></trkpt>
   <trkpt lon="-9.319664" lat="39.357178"><ele>10.75</ele></trkpt>
   <trkpt lon="-9.319655" lat="39.357073"><ele>10.75</ele></trkpt>
   <trkpt lon="-9.319643" lat="39.356930"><ele>10.75</ele></trkpt>
   <trkpt lon="-9.319622" lat="39.356790"><ele>10.0</ele></trkpt>
   <trkpt lon="-9.319482" lat="39.356185"><ele>10.75</ele></trkpt>
   <trkpt lon="-9.319455" lat="39.356042"><ele>11.25</ele></trkpt>
   <trkpt lon="-9.319443" lat="39.355926"><ele>11.5</ele></trkpt>
   <trkpt lon="-9.319441" lat="39.355790"><ele>12.0</ele></trkpt>
   <trkpt lon="-9.319452" lat="39.355658"><ele>12.5</ele></trkpt>
   <trkpt lon="-9.319584" lat="39.354926"><ele>13.75</ele></trkpt>
   <trkpt lon="-9.319656" lat="39.354683"><ele>15.75</ele></trkpt>
   <trkpt lon="-9.319740" lat="39.354453"><ele>17.75</ele></trkpt>
   <trkpt lon="-9.319798" lat="39.354335"><ele>18.0</ele></trkpt>
   <trkpt lon="-9.319868" lat="39.354217"><ele>18.25</ele></trkpt>
   <trkpt lon="-9.320003" lat="39.354049"><ele>18.5</ele></trkpt>
   <trkpt lon="-9.320081" lat="39.353968"><ele>18.75</ele></trkpt>
   <trkpt lon="-9.320269" lat="39.353815"><ele>19.75</ele></trkpt>
   <trkpt lon="-9.321256" lat="39.353177"><ele>23.5</ele></trkpt>
   <trkpt lon="-9.321558" lat="39.352954"><ele>24.0</ele></trkpt>
   <trkpt lon="-9.321703" lat="39.352831"><ele>24.0</ele></trkpt>
   <trkpt lon="-9.321928" lat="39.352622"><ele>25.5</ele></trkpt>
   <trkpt lon="-9.322250" lat="39.352251"><ele>26.75</ele></trkpt>
   <trkpt lon="-9.322442" lat="39.351953"><ele>27.0</ele></trkpt>
   <trkpt lon="-9.322679" lat="39.351441"><ele>26.75</ele></trkpt>
   <trkpt lon="-9.323175" lat="39.350403"><ele>24.5</ele></trkpt>
   <trkpt lon="-9.323543" lat="39.349610"><ele>22.75</ele><sym>pass_place</sym><type>Shaping</type></trkpt>
   <trkpt lon="-9.324287" lat="39.347495"><ele>10.5</ele></trkpt>
   <trkpt lon="-9.324417" lat="39.347247"><ele>10.0</ele></trkpt>
   <trkpt lon="-9.324549" lat="39.347048"><ele>8.75</ele></trkpt>
   <trkpt lon="-9.324749" lat="39.346842"><ele>7.0</ele></trkpt>
   <trkpt lon="-9.324864" lat="39.346739"><ele>6.75</ele></trkpt>
   <trkpt lon="-9.325199" lat="39.346472"><ele>7.0</ele></trkpt>
   <trkpt lon="-9.325384" lat="39.346336"><ele>7.0</ele></trkpt>
   <trkpt lon="-9.325660" lat="39.346150"><ele>6.5</ele></trkpt>
   <trkpt lon="-9.325834" lat="39.346037"><ele>5.75</ele></trkpt>
   <trkpt lon="-9.326455" lat="39.345608"><ele>5.0</ele></trkpt>
   <trkpt lon="-9.326880" lat="39.345283"><ele>5.75</ele></trkpt>
   <trkpt lon="-9.327028" lat="39.345163"><ele>6.5</ele></trkpt>
   <trkpt lon="-9.327155" lat="39.345049"><ele>7.5</ele></trkpt>
   <trkpt lon="-9.327274" lat="39.344929"><ele>8.25</ele></trkpt>
   <trkpt lon="-9.327349" lat="39.344839"><ele>9.0</ele></trkpt>
   <trkpt lon="-9.327409" lat="39.344752"><ele>9.5</ele></trkpt>
   <trkpt lon="-9.327861" lat="39.343963"><ele>12.5</ele></trkpt>
   <trkpt lon="-9.328065" lat="39.343601"><ele>13.0</ele></trkpt>
   <trkpt lon="-9.328121" lat="39.343453"><ele>13.75</ele></trkpt>
   <trkpt lon="-9.328139" lat="39.343376"><ele>14.0</ele></trkpt>
   <trkpt lon="-9.328146" lat="39.343279"><ele>14.5</ele></trkpt>
   <trkpt lon="-9.328140" lat="39.343182"><ele>14.75</ele></trkpt>
   <trkpt lon="-9.328123" lat="39.343074"><ele>15.0</ele></trkpt>
   <trkpt lon="-9.328044" lat="39.342773"><ele>16.0</ele></trkpt>
   <trkpt lon="-9.327948" lat="39.342455"><ele>17.25</ele></trkpt>
   <trkpt lon="-9.327848" lat="39.342110"><ele>19.5</ele></trkpt>
   <trkpt lon="-9.327721" lat="39.341666"><ele>19.75</ele></trkpt>
   <trkpt lon="-9.327530" lat="39.341059"><ele>21.0</ele></trkpt>
   <trkpt lon="-9.327395" lat="39.340638"><ele>27.25</ele></trkpt>
   <trkpt lon="-9.327342" lat="39.340531"><ele>28.5</ele></trkpt>
   <trkpt lon="-9.327252" lat="39.340372"><ele>29.5</ele></trkpt>
   <trkpt lon="-9.327109" lat="39.340105"><ele>30.25</ele></trkpt>
   <trkpt lon="-9.327074" lat="39.340009"><ele>30.25</ele></trkpt>
   <trkpt lon="-9.327030" lat="39.339800"><ele>30.75</ele></trkpt>
   <trkpt lon="-9.327022" lat="39.339757"><ele>30.75</ele><sym>left</sym></trkpt>
   <trkpt lon="-9.326876" lat="39.339763"><ele>30.75</ele></trkpt>
   <trkpt lon="-9.326741" lat="39.339752"><ele>30.75</ele></trkpt>
   <trkpt lon="-9.326547" lat="39.339722"><ele>30.5</ele></trkpt>
   <trkpt lon="-9.326031" lat="39.339614"><ele>27.0</ele><sym>right</sym></trkpt>
   <trkpt lon="-9.326036" lat="39.339585"><ele>27.25</ele></trkpt>
   <trkpt lon="-9.326117" lat="39.339117"><ele>27.0</ele></trkpt>
   <trkpt lon="-9.326122" lat="39.339076"><ele>27.25</ele></trkpt>
   <trkpt lon="-9.326162" lat="39.338718"><ele>29.0</ele></trkpt>
   <trkpt lon="-9.326195" lat="39.338494"><ele>30.25</ele></trkpt>
   <trkpt lon="-9.326254" lat="39.338136"><ele>29.75</ele></trkpt>
   <trkpt lon="-9.326311" lat="39.337770"><ele>31.0</ele></trkpt>
   <trkpt lon="-9.326388" lat="39.337277"><ele>33.75</ele><sym>left</sym></trkpt>
   <trkpt lon="-9.326078" lat="39.337246"><ele>34.75</ele></trkpt>
   <trkpt lon="-9.325961" lat="39.337210"><ele>35.0</ele><sym>right_slight</sym></trkpt>
   <trkpt lon="-9.325927" lat="39.337166"><ele>35.0</ele></trkpt>
   <trkpt lon="-9.325908" lat="39.337123"><ele>35.25</ele></trkpt>
   <trkpt lon="-9.325902" lat="39.336724"><ele>35.75</ele></trkpt>
   <trkpt lon="-9.325901" lat="39.336644"><ele>35.75</ele></trkpt>
   <trkpt lon="-9.325898" lat="39.336426"><ele>35.75</ele></trkpt>
   <trkpt lon="-9.325884" lat="39.336341"><ele>35.75</ele></trkpt>
   <trkpt lon="-9.325841" lat="39.336283"><ele>35.75</ele><sym>straight</sym></trkpt>
   <trkpt lon="-9.325672" lat="39.336113"><ele>36.5</ele></trkpt>
   <trkpt lon="-9.325611" lat="39.336072"><ele>36.75</ele></trkpt>
   <trkpt lon="-9.325568" lat="39.336056"><ele>36.75</ele><sym>right</sym></trkpt>
   <trkpt lon="-9.325587" lat="39.335989"><ele>36.75</ele></trkpt>
   <trkpt lon="-9.325579" lat="39.335890"><ele>36.75</ele></trkpt>
   <trkpt lon="-9.325464" lat="39.335133"><ele>37.75</ele><sym>right</sym></trkpt>
   <trkpt lon="-9.326153" lat="39.335133"><ele>38.0</ele><sym>stay_left</sym></trkpt>
   <trkpt lon="-9.326153" lat="39.335129"><ele>39.0</ele><sym>pass_place</sym><type>Shaping</type></trkpt>
   <trkpt lon="-9.326153" lat="39.335133"><ele>38.0</ele></trkpt>
   <trkpt lon="-9.326902" lat="39.335144"><ele>38.0</ele></trkpt>
   <trkpt lon="-9.326962" lat="39.335166"><ele>37.75</ele><sym>left</sym></trkpt>
   <trkpt lon="-9.327422" lat="39.334722"><ele>38.25</ele></trkpt>
   <trkpt lon="-9.327544" lat="39.334604"><ele>38.75</ele></trkpt>
   <trkpt lon="-9.328243" lat="39.333901"><ele>41.25</ele><sym>pass_place</sym><type>Shaping</type></trkpt>
   <trkpt lon="-9.328244" lat="39.333899"><ele>41.25</ele></trkpt>
   <trkpt lon="-9.328560" lat="39.333610"><ele>40.0</ele></trkpt>
   <trkpt lon="-9.328705" lat="39.333492"><ele>39.5</ele></trkpt>
   <trkpt lon="-9.328943" lat="39.333323"><ele>38.5</ele></trkpt>
   <trkpt lon="-9.329093" lat="39.333237"><ele>38.0</ele></trkpt>
   <trkpt lon="-9.329357" lat="39.333097"><ele>37.25</ele></trkpt>
   <trkpt lon="-9.329542" lat="39.333008"><ele>36.25</ele></trkpt>
   <trkpt lon="-9.331184" lat="39.332316"><ele>34.0</ele></trkpt>
   <trkpt lon="-9.331538" lat="39.332180"><ele>33.75</ele></trkpt>
   <trkpt lon="-9.331689" lat="39.332114"><ele>33.5</ele></trkpt>
   <trkpt lon="-9.331887" lat="39.332014"><ele>33.75</ele></trkpt>
   <trkpt lon="-9.332393" lat="39.331747"><ele>36.5</ele></trkpt>
   <trkpt lon="-9.333212" lat="39.331347"><ele>39.25</ele></trkpt>
   <trkpt lon="-9.333484" lat="39.331283"><ele>38.25</ele><sym>right_slight</sym></trkpt>
   <trkpt lon="-9.333581" lat="39.331301"><ele>38.0</ele></trkpt>
   <trkpt lon="-9.333668" lat="39.331339"><ele>38.0</ele></trkpt>
   <trkpt lon="-9.333757" lat="39.331396"><ele>37.75</ele><sym>right_slight</sym></trkpt>
   <trkpt lon="-9.333871" lat="39.331627"><ele>38.0</ele></trkpt>
   <trkpt lon="-9.334031" lat="39.331902"><ele>37.5</ele></trkpt>
   <trkpt lon="-9.334176" lat="39.332099"><ele>36.25</ele></trkpt>
   <trkpt lon="-9.334253" lat="39.332189"><ele>36.0</ele></trkpt>
   <trkpt lon="-9.334426" lat="39.332359"><ele>36.75</ele></trkpt>
   <trkpt lon="-9.334543" lat="39.332451"><ele>37.5</ele></trkpt>
   <trkpt lon="-9.334765" lat="39.332603"><ele>38.25</ele></trkpt>
   <trkpt lon="-9.334845" lat="39.332667"><ele>38.25</ele></trkpt>
   <trkpt lon="-9.335042" lat="39.332855"><ele>38.0</ele><sym>right_slight</sym></trkpt>
   <trkpt lon="-9.335106" lat="39.332996"><ele>36.5</ele><sym>left_slight</sym></trkpt>
   <trkpt lon="-9.335145" lat="39.333030"><ele>36.0</ele></trkpt>
   <trkpt lon="-9.335273" lat="39.333093"><ele>34.75</ele><sym>left_slight</sym></trkpt>
   <trkpt lon="-9.335511" lat="39.332968"><ele>33.0</ele></trkpt>
   <trkpt lon="-9.335860" lat="39.332782"><ele>32.75</ele></trkpt>
   <trkpt lon="-9.336083" lat="39.332707"><ele>33.75</ele></trkpt>
   <trkpt lon="-9.336305" lat="39.332655"><ele>34.25</ele></trkpt>
   <trkpt lon="-9.336488" lat="39.332596"><ele>34.5</ele></trkpt>
   <trkpt lon="-9.336635" lat="39.332533"><ele>34.75</ele></trkpt>
   <trkpt lon="-9.337541" lat="39.332051"><ele>34.0</ele></trkpt>
   <trkpt lon="-9.338731" lat="39.331530"><ele>28.0</ele></trkpt>
   <trkpt lon="-9.338929" lat="39.331430"><ele>28.25</ele></trkpt>
   <trkpt lon="-9.339053" lat="39.331357"><ele>29.0</ele></trkpt>
   <trkpt lon="-9.339201" lat="39.331250"><ele>29.5</ele></trkpt>
   <trkpt lon="-9.339306" lat="39.331153"><ele>29.5</ele></trkpt>
   <trkpt lon="-9.339400" lat="39.331042"><ele>29.5</ele></trkpt>
   <trkpt lon="-9.339488" lat="39.330904"><ele>29.0</ele></trkpt>
   <trkpt lon="-9.339695" lat="39.330479"><ele>26.75</ele></trkpt>
   <trkpt lon="-9.339755" lat="39.330380"><ele>26.25</ele></trkpt>
   <trkpt lon="-9.339898" lat="39.330189"><ele>24.5</ele></trkpt>
   <trkpt lon="-9.339985" lat="39.330094"><ele>23.5</ele></trkpt>
   <trkpt lon="-9.340406" lat="39.329724"><ele>19.5</ele></trkpt>
   <trkpt lon="-9.340877" lat="39.329325"><ele>17.25</ele></trkpt>
   <trkpt lon="-9.341112" lat="39.329074"><ele>17.0</ele></trkpt>
   <trkpt lon="-9.341230" lat="39.328948"><ele>17.25</ele></trkpt>
   <trkpt lon="-9.341633" lat="39.328600"><ele>18.0</ele></trkpt>
   <trkpt lon="-9.341727" lat="39.328510"><ele>18.5</ele></trkpt>
   <trkpt lon="-9.341879" lat="39.328322"><ele>19.0</ele></trkpt>
   <trkpt lon="-9.341926" lat="39.328273"><ele>19.25</ele></trkpt>
   <trkpt lon="-9.341981" lat="39.328232"><ele>19.75</ele></trkpt>
   <trkpt lon="-9.342285" lat="39.328082"><ele>21.0</ele></trkpt>
   <trkpt lon="-9.343449" lat="39.327406"><ele>22.75</ele></trkpt>
   <trkpt lon="-9.343719" lat="39.327261"><ele>22.25</ele></trkpt>
   <trkpt lon="-9.343867" lat="39.327194"><ele>22.0</ele><sym>pass_place</sym><type>Shaping</type></trkpt>
   <trkpt lon="-9.344031" lat="39.327132"><ele>22.0</ele></trkpt>
   <trkpt lon="-9.344484" lat="39.326987"><ele>20.5</ele></trkpt>
   <trkpt lon="-9.344740" lat="39.326875"><ele>19.75</ele></trkpt>
   <trkpt lon="-9.344913" lat="39.326809"><ele>19.25</ele></trkpt>
   <trkpt lon="-9.345503" lat="39.326625"><ele>21.25</ele></trkpt>
   <trkpt lon="-9.345566" lat="39.326605"><ele>21.5</ele><sym>right</sym></trkpt>
   <trkpt lon="-9.345683" lat="39.326813"><ele>19.25</ele></trkpt>
   <trkpt lon="-9.345762" lat="39.326927"><ele>18.0</ele></trkpt>
   <trkpt lon="-9.345859" lat="39.327048"><ele>17.5</ele></trkpt>
   <trkpt lon="-9.347595" lat="39.329018"><ele>17.0</ele></trkpt>
   <trkpt lon="-9.347981" lat="39.329473"><ele>15.75</ele></trkpt>
   <trkpt lon="-9.348085" lat="39.329609"><ele>14.75</ele></trkpt>
   <trkpt lon="-9.348148" lat="39.329751"><ele>14.25</ele></trkpt>
   <trkpt lon="-9.349072" lat="39.331970"><ele>10.75</ele></trkpt>
   <trkpt lon="-9.349116" lat="39.332077"><ele>10.25</ele></trkpt>
   <trkpt lon="-9.349483" lat="39.332987"><ele>9.0</ele></trkpt>
   <trkpt lon="-9.349844" lat="39.333849"><ele>8.25</ele></trkpt>
   <trkpt lon="-9.350206" lat="39.334688"><ele>10.25</ele></trkpt>
   <trkpt lon="-9.350305" lat="39.334826"><ele>9.5</ele></trkpt>
   <trkpt lon="-9.350365" lat="39.334886"><ele>9.5</ele></trkpt>
   <trkpt lon="-9.350763" lat="39.335173"><ele>10.0</ele></trkpt>
   <trkpt lon="-9.351047" lat="39.335377"><ele>9.5</ele></trkpt>
   <trkpt lon="-9.351355" lat="39.335581"><ele>9.75</ele></trkpt>
   <trkpt lon="-9.351457" lat="39.335670"><ele>9.5</ele></trkpt>
   <trkpt lon="-9.351631" lat="39.335858"><ele>8.75</ele></trkpt>
   <trkpt lon="-9.351855" lat="39.336099"><ele>8.0</ele></trkpt>
   <trkpt lon="-9.351952" lat="39.336215"><ele>7.5</ele></trkpt>
   <trkpt lon="-9.352009" lat="39.336308"><ele>7.25</ele></trkpt>
   <trkpt lon="-9.352043" lat="39.336382"><ele>7.0</ele></trkpt>
   <trkpt lon="-9.352099" lat="39.336570"><ele>7.0</ele></trkpt>
   <trkpt lon="-9.352106" lat="39.336679"><ele>6.75</ele></trkpt>
   <trkpt lon="-9.352107" lat="39.337061"><ele>5.5</ele></trkpt>
   <trkpt lon="-9.352095" lat="39.337842"><ele>5.5</ele></trkpt>
   <trkpt lon="-9.352095" lat="39.337993"><ele>5.75</ele></trkpt>
   <trkpt lon="-9.352082" lat="39.339493"><ele>7.25</ele></trkpt>
   <trkpt lon="-9.352078" lat="39.339848"><ele>6.0</ele></trkpt>
   <trkpt lon="-9.352082" lat="39.339932"><ele>5.5</ele></trkpt>
   <trkpt lon="-9.352101" lat="39.340248"><ele>5.0</ele></trkpt>
   <trkpt lon="-9.352102" lat="39.340249"><ele>4.75</ele><sym>pass_place</sym><type>Shaping</type></trkpt>
   <trkpt lon="-9.352116" lat="39.340436"><ele>4.75</ele></trkpt>
   <trkpt lon="-9.352197" lat="39.340888"><ele>5.0</ele></trkpt>
   <trkpt lon="-9.352438" lat="39.342316"><ele>4.5</ele></trkpt>
   <trkpt lon="-9.352496" lat="39.342690"><ele>5.25</ele></trkpt>
   <trkpt lon="-9.352530" lat="39.342958"><ele>5.0</ele></trkpt>
   <trkpt lon="-9.352696" lat="39.343842"><ele>5.5</ele></trkpt>
   <trkpt lon="-9.352739" lat="39.344100"><ele>5.75</ele></trkpt>
   <trkpt lon="-9.352758" lat="39.344293"><ele>5.75</ele></trkpt>
   <trkpt lon="-9.352757" lat="39.344386"><ele>5.75</ele></trkpt>
   <trkpt lon="-9.352741" lat="39.344564"><ele>6.0</ele></trkpt>
   <trkpt lon="-9.352621" lat="39.345332"><ele>4.75</ele></trkpt>
   <trkpt lon="-9.352557" lat="39.345778"><ele>4.0</ele></trkpt>
   <trkpt lon="-9.352559" lat="39.345866"><ele>4.25</ele></trkpt>
   <trkpt lon="-9.352585" lat="39.346069"><ele>4.75</ele></trkpt>
   <trkpt lon="-9.352644" lat="39.346243"><ele>4.75</ele></trkpt>
   <trkpt lon="-9.352822" lat="39.346574"><ele>3.25</ele><sym>left_slight</sym></trkpt>
   <trkpt lon="-9.352911" lat="39.346611"><ele>3.5</ele></trkpt>
   <trkpt lon="-9.353003" lat="39.346739"><ele>3.75</ele></trkpt>
   <trkpt lon="-9.353075" lat="39.346806"><ele>4.0</ele></trkpt>
   <trkpt lon="-9.353134" lat="39.346847"><ele>4.25</ele></trkpt>
   <trkpt lon="-9.353233" lat="39.346900"><ele>4.5</ele></trkpt>
   <trkpt lon="-9.353389" lat="39.347067"><ele>5.5</ele></trkpt>
   <trkpt lon="-9.353450" lat="39.347114"><ele>5.75</ele></trkpt>
   <trkpt lon="-9.353501" lat="39.347143"><ele>6.0</ele></trkpt>
   <trkpt lon="-9.355058" lat="39.347744"><ele>4.5</ele></trkpt>
   <trkpt lon="-9.356062" lat="39.348140"><ele>5.75</ele></trkpt>
   <trkpt lon="-9.357560" lat="39.348825"><ele>4.75</ele></trkpt>
   <trkpt lon="-9.357871" lat="39.348952"><ele>4.0</ele></trkpt>
   <trkpt lon="-9.358271" lat="39.349107"><ele>3.5</ele></trkpt>
   <trkpt lon="-9.358957" lat="39.349327"><ele>2.75</ele></trkpt>
   <trkpt lon="-9.359138" lat="39.349406"><ele>2.25</ele><sym>left</sym></trkpt>
   <trkpt lon="-9.359270" lat="39.349341"><ele>2.75</ele></trkpt>
   <trkpt lon="-9.360179" lat="39.349317"><ele>4.0</ele></trkpt>
   <trkpt lon="-9.360314" lat="39.349319"><ele>3.75</ele></trkpt>
   <trkpt lon="-9.360389" lat="39.349366"><ele>3.75</ele></trkpt>
   <trkpt lon="-9.360434" lat="39.349393"><ele>3.75</ele><sym>straight</sym></trkpt>
   <trkpt lon="-9.360505" lat="39.349441"><ele>3.75</ele></trkpt>
   <trkpt lon="-9.360856" lat="39.349705"><ele>6.5</ele></trkpt>
   <trkpt lon="-9.361472" lat="39.350344"><ele>3.75</ele></trkpt>
   <trkpt lon="-9.361767" lat="39.351061"><ele>1.0</ele></trkpt>
   <trkpt lon="-9.361827" lat="39.351218"><ele>1.0</ele></trkpt>
   <trkpt lon="-9.361845" lat="39.351264"><ele>1.0</ele><sym>left</sym></trkpt>
   <trkpt lon="-9.362219" lat="39.351184"><ele>1.5</ele></trkpt>
   <trkpt lon="-9.362795" lat="39.351089"><ele>3.75</ele></trkpt>
   <trkpt lon="-9.363092" lat="39.351061"><ele>4.5</ele><sym>pass_place</sym><type>Shaping</type></trkpt>
   <trkpt lon="-9.363346" lat="39.351079"><ele>5.25</ele></trkpt>
   <trkpt lon="-9.363559" lat="39.351138"><ele>5.25</ele></trkpt>
   <trkpt lon="-9.363676" lat="39.351235"><ele>4.75</ele></trkpt>
   <trkpt lon="-9.364364" lat="39.352116"><ele>1.5</ele></trkpt>
   <trkpt lon="-9.364388" lat="39.352149"><ele>1.75</ele></trkpt>
   <trkpt lon="-9.364427" lat="39.352199"><ele>1.75</ele></trkpt>
   <trkpt lon="-9.364559" lat="39.352389"><ele>2.75</ele></trkpt>
   <trkpt lon="-9.364673" lat="39.352540"><ele>3.25</ele></trkpt>
   <trkpt lon="-9.364792" lat="39.352722"><ele>3.5</ele></trkpt>
   <trkpt lon="-9.364840" lat="39.352849"><ele>3.25</ele><sym>right_slight</sym></trkpt>
   <trkpt lon="-9.364817" lat="39.353070"><ele>2.5</ele></trkpt>
   <trkpt lon="-9.364628" lat="39.353524"><ele>3.5</ele></trkpt>
   <trkpt lon="-9.364461" lat="39.353834"><ele>3.0</ele></trkpt>
   <trkpt lon="-9.364245" lat="39.354337"><ele>3.5</ele></trkpt>
   <trkpt lon="-9.364096" lat="39.354805"><ele>5.25</ele></trkpt>
   <trkpt lon="-9.364081" lat="39.354960"><ele>5.25</ele></trkpt>
   <trkpt lon="-9.364157" lat="39.355322"><ele>4.0</ele></trkpt>
   <trkpt lon="-9.364341" lat="39.355601"><ele>3.75</ele></trkpt>
   <trkpt lon="-9.364668" lat="39.355938"><ele>4.25</ele></trkpt>
   <trkpt lon="-9.365252" lat="39.356349"><ele>3.75</ele></trkpt>
   <trkpt lon="-9.365864" lat="39.356721"><ele>2.5</ele></trkpt>
   <trkpt lon="-9.366270" lat="39.356898"><ele>2.0</ele></trkpt>
   <trkpt lon="-9.366677" lat="39.356977"><ele>2.25</ele></trkpt>
   <trkpt lon="-9.366996" lat="39.356996"><ele>3.0</ele></trkpt>
   <trkpt lon="-9.367369" lat="39.356991"><ele>3.0</ele></trkpt>
   <trkpt lon="-9.367804" lat="39.357049"><ele>3.5</ele></trkpt>
   <trkpt lon="-9.368124" lat="39.357145"><ele>5.25</ele><sym>roundabout_e2</sym></trkpt>
   <trkpt lon="-9.368095" lat="39.357196"><ele>5.75</ele></trkpt>
   <trkpt lon="-9.368073" lat="39.357304"><ele>6.0</ele></trkpt>
   <trkpt lon="-9.368086" lat="39.357348"><ele>6.0</ele></trkpt>
   <trkpt lon="-9.368109" lat="39.357390"><ele>6.0</ele></trkpt>
   <trkpt lon="-9.368154" lat="39.357428"><ele>6.0</ele></trkpt>
   <trkpt lon="-9.368209" lat="39.357461"><ele>6.0</ele></trkpt>
   <trkpt lon="-9.368310" lat="39.357497"><ele>6.0</ele></trkpt>
   <trkpt lon="-9.368632" lat="39.357509"><ele>4.75</ele></trkpt>
   <trkpt lon="-9.368831" lat="39.357571"><ele>4.25</ele></trkpt>
   <trkpt lon="-9.369047" lat="39.357661"><ele>4.5</ele></trkpt>
   <trkpt lon="-9.369433" lat="39.357931"><ele>4.25</ele></trkpt>
   <trkpt lon="-9.369690" lat="39.358109"><ele>4.0</ele></trkpt>
   <trkpt lon="-9.370308" lat="39.358516"><ele>3.0</ele></trkpt>
   <trkpt lon="-9.370500" lat="39.358598"><ele>3.0</ele></trkpt>
   <trkpt lon="-9.370625" lat="39.358638"><ele>2.5</ele></trkpt>
   <trkpt lon="-9.370759" lat="39.358668"><ele>2.0</ele></trkpt>
   <trkpt lon="-9.370891" lat="39.358687"><ele>2.0</ele></trkpt>
   <trkpt lon="-9.371142" lat="39.358694"><ele>2.0</ele></trkpt>
   <trkpt lon="-9.371272" lat="39.358687"><ele>2.0</ele></trkpt>
   <trkpt lon="-9.371414" lat="39.358666"><ele>2.0</ele></trkpt>
   <trkpt lon="-9.371604" lat="39.358620"><ele>2.0</ele></trkpt>
   <trkpt lon="-9.373182" lat="39.358142"><ele>2.25</ele></trkpt>
   <trkpt lon="-9.373343" lat="39.358140"><ele>2.25</ele></trkpt>
   <trkpt lon="-9.373395" lat="39.358139"><ele>2.25</ele><sym>roundabout_e2</sym></trkpt>
   <trkpt lon="-9.373428" lat="39.358150"><ele>2.25</ele></trkpt>
   <trkpt lon="-9.373464" lat="39.358152"><ele>2.25</ele></trkpt>
   <trkpt lon="-9.373499" lat="39.358145"><ele>2.25</ele></trkpt>
   <trkpt lon="-9.373529" lat="39.358131"><ele>2.25</ele></trkpt>
   <trkpt lon="-9.373552" lat="39.358111"><ele>2.25</ele></trkpt>
   <trkpt lon="-9.373565" lat="39.358086"><ele>2.25</ele></trkpt>
   <trkpt lon="-9.373724" lat="39.357977"><ele>2.25</ele></trkpt>
   <trkpt lon="-9.374819" lat="39.357647"><ele>2.25</ele></trkpt>
   <trkpt lon="-9.375008" lat="39.357591"><ele>2.5</ele></trkpt>
   <trkpt lon="-9.375852" lat="39.357339"><ele>4.75</ele></trkpt>
   <trkpt lon="-9.376287" lat="39.357192"><ele>3.25</ele></trkpt>
   <trkpt lon="-9.376445" lat="39.357138"><ele>3.0</ele></trkpt>
   <trkpt lon="-9.376504" lat="39.357121"><ele>2.75</ele><sym>roundabout_e3</sym></trkpt>
   <trkpt lon="-9.376501" lat="39.357119"><ele>3.0</ele><sym>pass_place</sym><type>Shaping</type></trkpt>
   <trkpt lon="-9.376504" lat="39.357121"><ele>2.75</ele></trkpt>
   <trkpt lon="-9.376564" lat="39.357135"><ele>2.5</ele></trkpt>
   <trkpt lon="-9.376630" lat="39.357122"><ele>2.5</ele></trkpt>
   <trkpt lon="-9.376676" lat="39.357084"><ele>2.5</ele></trkpt>
   <trkpt lon="-9.376689" lat="39.357057"><ele>2.5</ele></trkpt>
   <trkpt lon="-9.376690" lat="39.357029"><ele>2.5</ele></trkpt>
   <trkpt lon="-9.376680" lat="39.357001"><ele>2.5</ele></trkpt>
   <trkpt lon="-9.376801" lat="39.356790"><ele>2.75</ele></trkpt>
   <trkpt lon="-9.376839" lat="39.356747"><ele>2.75</ele></trkpt>
   <trkpt lon="-9.376982" lat="39.356584"><ele>3.0</ele></trkpt>
   <trkpt lon="-9.377048" lat="39.356518"><ele>3.25</ele></trkpt>
   <trkpt lon="-9.377111" lat="39.356476"><ele>3.25</ele></trkpt>
   <trkpt lon="-9.377195" lat="39.356444"><ele>3.5</ele></trkpt>
   <trkpt lon="-9.377267" lat="39.356426"><ele>3.5</ele></trkpt>
   <trkpt lon="-9.377350" lat="39.356420"><ele>3.25</ele></trkpt>
   <trkpt lon="-9.377432" lat="39.356428"><ele>2.75</ele></trkpt>
   <trkpt lon="-9.377548" lat="39.356463"><ele>2.0</ele></trkpt>
   <trkpt lon="-9.377985" lat="39.356618"><ele>1.0</ele></trkpt>
   <trkpt lon="-9.378130" lat="39.356710"><ele>2.0</ele></trkpt>
   <trkpt lon="-9.378160" lat="39.356724"><ele>2.25</ele><sym>roundabout_e1</sym></trkpt>
   <trkpt lon="-9.378176" lat="39.356753"><ele>2.75</ele></trkpt>
   <trkpt lon="-9.378202" lat="39.356777"><ele>3.0</ele></trkpt>
   <trkpt lon="-9.378238" lat="39.356792"><ele>3.5</ele></trkpt>
   <trkpt lon="-9.378278" lat="39.356798"><ele>3.75</ele></trkpt>
   <trkpt lon="-9.378318" lat="39.356793"><ele>4.25</ele></trkpt>
   <trkpt lon="-9.378328" lat="39.356817"><ele>4.25</ele></trkpt>
   <trkpt lon="-9.378333" lat="39.356828"><ele>4.5</ele><sym>left</sym></trkpt>
   <trkpt lon="-9.378371" lat="39.356812"><ele>4.75</ele></trkpt>
   <trkpt lon="-9.378414" lat="39.356801"><ele>5.25</ele></trkpt>
   <trkpt lon="-9.378472" lat="39.356759"><ele>5.75</ele><sym>right</sym></trkpt>
   <trkpt lon="-9.378504" lat="39.356775"><ele>6.0</ele></trkpt>
   <trkpt lon="-9.378526" lat="39.356794"><ele>6.5</ele></trkpt>
   <trkpt lon="-9.378586" lat="39.356901"><ele>8.0</ele><sym>u-turn</sym><type>Via</type></trkpt>
   <trkpt lon="-9.378526" lat="39.356794"><ele>6.5</ele></trkpt>
   <trkpt lon="-9.378504" lat="39.356775"><ele>6.0</ele></trkpt>
   <trkpt lon="-9.378472" lat="39.356759"><ele>5.75</ele><sym>left_slight</sym></trkpt>
   <trkpt lon="-9.378414" lat="39.356801"><ele>5.25</ele></trkpt>
   <trkpt lon="-9.378371" lat="39.356812"><ele>4.75</ele></trkpt>
   <trkpt lon="-9.378333" lat="39.356828"><ele>4.5</ele><sym>right_sharp</sym></trkpt>
   <trkpt lon="-9.378328" lat="39.356817"><ele>4.25</ele></trkpt>
   <trkpt lon="-9.378318" lat="39.356793"><ele>4.25</ele><sym>roundabout_e2</sym></trkpt>
   <trkpt lon="-9.378373" lat="39.356763"><ele>4.75</ele></trkpt>
   <trkpt lon="-9.378399" lat="39.356715"><ele>4.75</ele></trkpt>
   <trkpt lon="-9.378397" lat="39.356687"><ele>4.75</ele></trkpt>
   <trkpt lon="-9.378385" lat="39.356660"><ele>4.5</ele></trkpt>
   <trkpt lon="-9.378363" lat="39.356637"><ele>4.0</ele></trkpt>
   <trkpt lon="-9.378333" lat="39.356621"><ele>3.75</ele></trkpt>
   <trkpt lon="-9.378303" lat="39.356613"><ele>3.5</ele></trkpt>
   <trkpt lon="-9.378241" lat="39.356615"><ele>2.75</ele></trkpt>
   <trkpt lon="-9.378189" lat="39.356642"><ele>2.25</ele></trkpt>
   <trkpt lon="-9.377985" lat="39.356618"><ele>1.0</ele></trkpt>
   <trkpt lon="-9.377548" lat="39.356463"><ele>2.0</ele></trkpt>
   <trkpt lon="-9.377432" lat="39.356428"><ele>2.75</ele></trkpt>
   <trkpt lon="-9.377350" lat="39.356420"><ele>3.25</ele></trkpt>
   <trkpt lon="-9.377267" lat="39.356426"><ele>3.5</ele></trkpt>
   <trkpt lon="-9.377195" lat="39.356444"><ele>3.5</ele></trkpt>
   <trkpt lon="-9.377111" lat="39.356476"><ele>3.25</ele></trkpt>
   <trkpt lon="-9.377048" lat="39.356518"><ele>3.25</ele></trkpt>
   <trkpt lon="-9.376982" lat="39.356584"><ele>3.0</ele></trkpt>
   <trkpt lon="-9.376839" lat="39.356747"><ele>2.75</ele></trkpt>
   <trkpt lon="-9.376801" lat="39.356790"><ele>2.75</ele></trkpt>
   <trkpt lon="-9.376611" lat="39.356908"><ele>3.0</ele></trkpt>
   <trkpt lon="-9.376560" lat="39.356945"><ele>3.25</ele><sym>roundabout_e1</sym></trkpt>
   <trkpt lon="-9.376528" lat="39.356949"><ele>3.25</ele></trkpt>
   <trkpt lon="-9.376498" lat="39.356961"><ele>3.5</ele></trkpt>
   <trkpt lon="-9.376473" lat="39.356978"><ele>3.5</ele></trkpt>
   <trkpt lon="-9.376456" lat="39.357000"><ele>3.5</ele></trkpt>
   <trkpt lon="-9.376222" lat="39.357123"><ele>3.5</ele></trkpt>
   <trkpt lon="-9.375852" lat="39.357339"><ele>4.75</ele></trkpt>
   <trkpt lon="-9.375008" lat="39.357591"><ele>2.5</ele></trkpt>
   <trkpt lon="-9.374819" lat="39.357647"><ele>2.25</ele></trkpt>
   <trkpt lon="-9.373724" lat="39.357977"><ele>2.25</ele></trkpt>
   <trkpt lon="-9.373587" lat="39.357992"><ele>2.25</ele></trkpt>
   <trkpt lon="-9.373529" lat="39.357998"><ele>2.25</ele><sym>roundabout_e1</sym></trkpt>
   <trkpt lon="-9.373470" lat="39.357978"><ele>2.25</ele></trkpt>
   <trkpt lon="-9.373431" lat="39.357979"><ele>2.25</ele></trkpt>
   <trkpt lon="-9.373395" lat="39.357990"><ele>2.25</ele></trkpt>
   <trkpt lon="-9.373366" lat="39.358011"><ele>2.25</ele></trkpt>
   <trkpt lon="-9.373347" lat="39.358038"><ele>2.25</ele></trkpt>
   <trkpt lon="-9.373342" lat="39.358068"><ele>2.25</ele></trkpt>
   <trkpt lon="-9.373182" lat="39.358142"><ele>2.0</ele></trkpt>
   <trkpt lon="-9.371604" lat="39.358620"><ele>2.0</ele><sym>right_slight</sym></trkpt>
   <trkpt lon="-9.371353" lat="39.358563"><ele>2.0</ele></trkpt>
   <trkpt lon="-9.370834" lat="39.358567"><ele>2.0</ele></trkpt>
   <trkpt lon="-9.370564" lat="39.358499"><ele>2.75</ele></trkpt>
   <trkpt lon="-9.370308" lat="39.358516"><ele>3.0</ele><sym>right_slight</sym></trkpt>
   <trkpt lon="-9.369690" lat="39.358109"><ele>4.0</ele></trkpt>
   <trkpt lon="-9.369433" lat="39.357931"><ele>4.25</ele></trkpt>
   <trkpt lon="-9.369047" lat="39.357661"><ele>4.5</ele></trkpt>
   <trkpt lon="-9.368965" lat="39.357555"><ele>4.0</ele></trkpt>
   <trkpt lon="-9.368918" lat="39.357447"><ele>3.75</ele></trkpt>
   <trkpt lon="-9.368896" lat="39.357380"><ele>3.75</ele><sym>roundabout_e2</sym></trkpt>
   <trkpt lon="-9.368919" lat="39.357270"><ele>3.75</ele></trkpt>
   <trkpt lon="-9.368903" lat="39.357218"><ele>3.75</ele></trkpt>
   <trkpt lon="-9.368864" lat="39.357165"><ele>3.75</ele></trkpt>
   <trkpt lon="-9.368806" lat="39.357115"><ele>3.75</ele></trkpt>
   <trkpt lon="-9.368732" lat="39.357074"><ele>4.0</ele></trkpt>
   <trkpt lon="-9.368306" lat="39.357050"><ele>4.75</ele></trkpt>
   <trkpt lon="-9.368234" lat="39.357071"><ele>4.75</ele></trkpt>
   <trkpt lon="-9.368166" lat="39.357107"><ele>5.0</ele></trkpt>
   <trkpt lon="-9.368124" lat="39.357145"><ele>5.25</ele></trkpt>
   <trkpt lon="-9.368095" lat="39.357196"><ele>5.75</ele></trkpt>
   <trkpt lon="-9.368073" lat="39.357304"><ele>6.0</ele></trkpt>
   <trkpt lon="-9.367995" lat="39.357410"><ele>5.75</ele></trkpt>
   <trkpt lon="-9.367938" lat="39.357468"><ele>5.75</ele></trkpt>
   <trkpt lon="-9.367858" lat="39.357521"><ele>6.0</ele></trkpt>
   <trkpt lon="-9.367721" lat="39.357593"><ele>6.0</ele><sym>right_slight</sym></trkpt>
   <trkpt lon="-9.367449" lat="39.357630"><ele>6.0</ele></trkpt>
   <trkpt lon="-9.367159" lat="39.357686"><ele>6.5</ele></trkpt>
   <trkpt lon="-9.367051" lat="39.357721"><ele>6.75</ele></trkpt>
   <trkpt lon="-9.366946" lat="39.357765"><ele>6.75</ele></trkpt>
   <trkpt lon="-9.366872" lat="39.357803"><ele>7.0</ele></trkpt>
   <trkpt lon="-9.366792" lat="39.357854"><ele>7.0</ele></trkpt>
   <trkpt lon="-9.366472" lat="39.358123"><ele>5.5</ele></trkpt>
   <trkpt lon="-9.366247" lat="39.358217"><ele>4.25</ele></trkpt>
   <trkpt lon="-9.366156" lat="39.358240"><ele>3.75</ele><sym>roundabout_e2</sym></trkpt>
   <trkpt lon="-9.366078" lat="39.358235"><ele>3.5</ele></trkpt>
   <trkpt lon="-9.366001" lat="39.358248"><ele>3.25</ele></trkpt>
   <trkpt lon="-9.365929" lat="39.358282"><ele>3.0</ele></trkpt>
   <trkpt lon="-9.365876" lat="39.358333"><ele>3.0</ele></trkpt>
   <trkpt lon="-9.365848" lat="39.358394"><ele>2.5</ele></trkpt>
   <trkpt lon="-9.365845" lat="39.358443"><ele>2.0</ele></trkpt>
   <trkpt lon="-9.365858" lat="39.358491"><ele>1.75</ele></trkpt>
   <trkpt lon="-9.365786" lat="39.358627"><ele>1.25</ele></trkpt>
   <trkpt lon="-9.365741" lat="39.358690"><ele>1.5</ele></trkpt>
   <trkpt lon="-9.365684" lat="39.358761"><ele>1.75</ele></trkpt>
   <trkpt lon="-9.365530" lat="39.358857"><ele>1.75</ele></trkpt>
   <trkpt lon="-9.365428" lat="39.358910"><ele>1.75</ele></trkpt>
   <trkpt lon="-9.365330" lat="39.358951"><ele>1.75</ele></trkpt>
   <trkpt lon="-9.365237" lat="39.358983"><ele>2.0</ele></trkpt>
   <trkpt lon="-9.365135" lat="39.359007"><ele>2.0</ele></trkpt>
   <trkpt lon="-9.365013" lat="39.359023"><ele>2.25</ele></trkpt>
   <trkpt lon="-9.364877" lat="39.359032"><ele>2.25</ele></trkpt>
   <trkpt lon="-9.364534" lat="39.359019"><ele>2.5</ele></trkpt>
   <trkpt lon="-9.363973" lat="39.358983"><ele>3.25</ele></trkpt>
   <trkpt lon="-9.363659" lat="39.358963"><ele>3.25</ele></trkpt>
   <trkpt lon="-9.363293" lat="39.358941"><ele>2.25</ele></trkpt>
   <trkpt lon="-9.363197" lat="39.358936"><ele>2.0</ele></trkpt>
   <trkpt lon="-9.362528" lat="39.358879"><ele>2.75</ele></trkpt>
   <trkpt lon="-9.362288" lat="39.358856"><ele>3.5</ele></trkpt>
   <trkpt lon="-9.362069" lat="39.358826"><ele>4.25</ele></trkpt>
   <trkpt lon="-9.361307" lat="39.358702"><ele>7.5</ele></trkpt>
   <trkpt lon="-9.360650" lat="39.358560"><ele>5.0</ele><sym>pass_place</sym><type>Shaping</type></trkpt>
   <trkpt lon="-9.360165" lat="39.358435"><ele>5.0</ele></trkpt>
   <trkpt lon="-9.359909" lat="39.358360"><ele>6.0</ele></trkpt>
   <trkpt lon="-9.359434" lat="39.358204"><ele>8.0</ele></trkpt>
   <trkpt lon="-9.358732" lat="39.357943"><ele>6.75</ele></trkpt>
   <trkpt lon="-9.357511" lat="39.357438"><ele>7.75</ele></trkpt>
   <trkpt lon="-9.357284" lat="39.357343"><ele>7.0</ele></trkpt>
   <trkpt lon="-9.356669" lat="39.357094"><ele>7.75</ele></trkpt>
   <trkpt lon="-9.356561" lat="39.357052"><ele>8.0</ele></trkpt>
   <trkpt lon="-9.356317" lat="39.356974"><ele>8.5</ele></trkpt>
   <trkpt lon="-9.356153" lat="39.356926"><ele>9.0</ele></trkpt>
   <trkpt lon="-9.356036" lat="39.356896"><ele>8.75</ele></trkpt>
   <trkpt lon="-9.355665" lat="39.356835"><ele>7.25</ele></trkpt>
   <trkpt lon="-9.355440" lat="39.356813"><ele>6.75</ele></trkpt>
   <trkpt lon="-9.355076" lat="39.356800"><ele>6.0</ele></trkpt>
   <trkpt lon="-9.354756" lat="39.356821"><ele>6.0</ele></trkpt>
   <trkpt lon="-9.354560" lat="39.356845"><ele>6.25</ele></trkpt>
   <trkpt lon="-9.353924" lat="39.356950"><ele>5.75</ele></trkpt>
   <trkpt lon="-9.347325" lat="39.358056"><ele>13.25</ele></trkpt>
   <trkpt lon="-9.347108" lat="39.358100"><ele>12.0</ele></trkpt>
   <trkpt lon="-9.346753" lat="39.358208"><ele>10.5</ele></trkpt>
   <trkpt lon="-9.346604" lat="39.358268"><ele>10.25</ele></trkpt>
   <trkpt lon="-9.346302" lat="39.358414"><ele>9.25</ele></trkpt>
   <trkpt lon="-9.346146" lat="39.358501"><ele>9.0</ele></trkpt>
   <trkpt lon="-9.344696" lat="39.359423"><ele>8.75</ele></trkpt>
   <trkpt lon="-9.344329" lat="39.359635"><ele>8.25</ele></trkpt>
   <trkpt lon="-9.344012" lat="39.359800"><ele>7.75</ele></trkpt>
   <trkpt lon="-9.343755" lat="39.359933"><ele>8.25</ele></trkpt>
   <trkpt lon="-9.341372" lat="39.361160"><ele>5.5</ele><sym>pass_place</sym><type>Shaping</type></trkpt>
   <trkpt lon="-9.341370" lat="39.361162"><ele>5.5</ele></trkpt>
   <trkpt lon="-9.339333" lat="39.362248"><ele>8.0</ele></trkpt>
   <trkpt lon="-9.339135" lat="39.362390"><ele>8.5</ele></trkpt>
   <trkpt lon="-9.338790" lat="39.362701"><ele>9.25</ele></trkpt>
   <trkpt lon="-9.338557" lat="39.362997"><ele>7.5</ele></trkpt>
   <trkpt lon="-9.338411" lat="39.363244"><ele>7.5</ele></trkpt>
   <trkpt lon="-9.338274" lat="39.363509"><ele>7.75</ele></trkpt>
   <trkpt lon="-9.338189" lat="39.363681"><ele>7.25</ele></trkpt>
   <trkpt lon="-9.338119" lat="39.363822"><ele>7.0</ele></trkpt>
   <trkpt lon="-9.338092" lat="39.363877"><ele>7.0</ele></trkpt>
   <trkpt lon="-9.337982" lat="39.364099"><ele>6.75</ele></trkpt>
   <trkpt lon="-9.337815" lat="39.364436"><ele>4.75</ele></trkpt>
   <trkpt lon="-9.337452" lat="39.365185"><ele>8.25</ele></trkpt>
   <trkpt lon="-9.337383" lat="39.365328"><ele>8.5</ele></trkpt>
   <trkpt lon="-9.337321" lat="39.365457"><ele>8.75</ele></trkpt>
   <trkpt lon="-9.337284" lat="39.365528"><ele>8.75</ele></trkpt>
   <trkpt lon="-9.337151" lat="39.365782"><ele>9.0</ele></trkpt>
   <trkpt lon="-9.337023" lat="39.366029"><ele>9.0</ele></trkpt>
   <trkpt lon="-9.337000" lat="39.366072"><ele>9.0</ele></trkpt>
   <trkpt lon="-9.336977" lat="39.366114"><ele>9.0</ele></trkpt>
   <trkpt lon="-9.336885" lat="39.366315"><ele>9.75</ele></trkpt>
   <trkpt lon="-9.336814" lat="39.366488"><ele>10.5</ele></trkpt>
   <trkpt lon="-9.336770" lat="39.366675"><ele>11.0</ele></trkpt>
   <trkpt lon="-9.336760" lat="39.366758"><ele>11.0</ele></trkpt>
   <trkpt lon="-9.336739" lat="39.366956"><ele>11.0</ele></trkpt>
   <trkpt lon="-9.336719" lat="39.367829"><ele>10.75</ele></trkpt>
   <trkpt lon="-9.336703" lat="39.368525"><ele>9.0</ele></trkpt>
   <trkpt lon="-9.336688" lat="39.369012"><ele>9.5</ele></trkpt>
   <trkpt lon="-9.336685" lat="39.369092"><ele>9.25</ele></trkpt>
   <trkpt lon="-9.336684" lat="39.369184"><ele>9.0</ele></trkpt>
   <trkpt lon="-9.336681" lat="39.369346"><ele>9.5</ele></trkpt>
   <trkpt lon="-9.336675" lat="39.369597"><ele>9.25</ele></trkpt>
   <trkpt lon="-9.336657" lat="39.370513"><ele>7.0</ele></trkpt>
   <trkpt lon="-9.336650" lat="39.370817"><ele>6.75</ele></trkpt>
   <trkpt lon="-9.336642" lat="39.371056"><ele>7.75</ele></trkpt>
   <trkpt lon="-9.336634" lat="39.371301"><ele>8.5</ele></trkpt>
   <trkpt lon="-9.336623" lat="39.371644"><ele>7.0</ele></trkpt>
   <trkpt lon="-9.336614" lat="39.371909"><ele>6.25</ele></trkpt>
   <trkpt lon="-9.336611" lat="39.372005"><ele>6.25</ele><sym>right_slight</sym></trkpt>
   <trkpt lon="-9.336519" lat="39.372146"><ele>7.5</ele></trkpt>
   <trkpt lon="-9.336464" lat="39.372204"><ele>8.25</ele></trkpt>
   <trkpt lon="-9.336391" lat="39.372268"><ele>9.0</ele></trkpt>
   <trkpt lon="-9.336312" lat="39.372320"><ele>9.5</ele></trkpt>
   <trkpt lon="-9.336284" lat="39.372341"><ele>9.5</ele></trkpt>
   <trkpt lon="-9.336165" lat="39.372390"><ele>9.75</ele><sym>left</sym></trkpt>
   <trkpt lon="-9.336177" lat="39.372427"><ele>9.75</ele></trkpt>
   <trkpt lon="-9.336208" lat="39.372477"><ele>9.75</ele></trkpt>
   <trkpt lon="-9.336267" lat="39.372509"><ele>9.75</ele><sym>straight</sym></trkpt>
   <trkpt lon="-9.336401" lat="39.372657"><ele>9.25</ele></trkpt>
   <trkpt lon="-9.336505" lat="39.372758"><ele>8.5</ele></trkpt>
   <trkpt lon="-9.336598" lat="39.372796"><ele>8.0</ele><sym>left</sym></trkpt>
   <trkpt lon="-9.336685" lat="39.372775"><ele>7.75</ele></trkpt>
   <trkpt lon="-9.337072" lat="39.372408"><ele>5.25</ele><sym>right</sym></trkpt>
   <trkpt lon="-9.337438" lat="39.372479"><ele>5.25</ele></trkpt>
   <trkpt lon="-9.337656" lat="39.372553"><ele>5.25</ele></trkpt>
   <trkpt lon="-9.338469" lat="39.372925"><ele>5.25</ele></trkpt>
   <trkpt lon="-9.339841" lat="39.373538"><ele>5.25</ele><sym>u-turn</sym><type>Via</type></trkpt>
   <trkpt lon="-9.338469" lat="39.372925"><ele>5.25</ele></trkpt>
   <trkpt lon="-9.337656" lat="39.372553"><ele>5.25</ele></trkpt>
   <trkpt lon="-9.337438" lat="39.372479"><ele>5.25</ele></trkpt>
   <trkpt lon="-9.337072" lat="39.372408"><ele>5.25</ele><sym>stay_right</sym></trkpt>
   <trkpt lon="-9.336855" lat="39.372416"><ele>7.0</ele><sym>left_slight</sym></trkpt>
   <trkpt lon="-9.336783" lat="39.372455"><ele>7.75</ele></trkpt>
   <trkpt lon="-9.336656" lat="39.372583"><ele>8.5</ele></trkpt>
   <trkpt lon="-9.336579" lat="39.372623"><ele>8.75</ele></trkpt>
   <trkpt lon="-9.336504" lat="39.372623"><ele>9.0</ele></trkpt>
   <trkpt lon="-9.336436" lat="39.372590"><ele>9.5</ele></trkpt>
   <trkpt lon="-9.336394" lat="39.372530"><ele>9.75</ele></trkpt>
   <trkpt lon="-9.336371" lat="39.372478"><ele>9.75</ele><sym>straight</sym></trkpt>
   <trkpt lon="-9.336369" lat="39.372427"><ele>9.75</ele></trkpt>
   <trkpt lon="-9.336353" lat="39.372387"><ele>9.5</ele></trkpt>
   <trkpt lon="-9.336321" lat="39.372360"><ele>9.5</ele></trkpt>
   <trkpt lon="-9.336284" lat="39.372341"><ele>9.5</ele><sym>left</sym></trkpt>
   <trkpt lon="-9.336165" lat="39.372390"><ele>9.75</ele></trkpt>
   <trkpt lon="-9.335900" lat="39.372463"><ele>9.75</ele><sym>right_slight</sym></trkpt>
   <trkpt lon="-9.335502" lat="39.372364"><ele>9.0</ele></trkpt>
   <trkpt lon="-9.335036" lat="39.372249"><ele>10.75</ele></trkpt>
   <trkpt lon="-9.334823" lat="39.372196"><ele>12.0</ele></trkpt>
   <trkpt lon="-9.334754" lat="39.372177"><ele>12.5</ele></trkpt>
   <trkpt lon="-9.333782" lat="39.371915"><ele>13.5</ele></trkpt>
   <trkpt lon="-9.333557" lat="39.371864"><ele>13.0</ele></trkpt>
   <trkpt lon="-9.331932" lat="39.371446"><ele>16.0</ele></trkpt>
   <trkpt lon="-9.331762" lat="39.371401"><ele>16.5</ele></trkpt>
   <trkpt lon="-9.331199" lat="39.371252"><ele>18.5</ele></trkpt>
   <trkpt lon="-9.330496" lat="39.371067"><ele>19.75</ele></trkpt>
   <trkpt lon="-9.330210" lat="39.370992"><ele>19.0</ele></trkpt>
   <trkpt lon="-9.329281" lat="39.370750"><ele>20.25</ele></trkpt>
   <trkpt lon="-9.328936" lat="39.370630"><ele>20.75</ele></trkpt>
   <trkpt lon="-9.328739" lat="39.370525"><ele>21.0</ele></trkpt>
   <trkpt lon="-9.328100" lat="39.370136"><ele>22.5</ele></trkpt>
   <trkpt lon="-9.326988" lat="39.369452"><ele>21.0</ele><sym>pass_place</sym><type>Shaping</type></trkpt>
   <trkpt lon="-9.326987" lat="39.369452"><ele>21.0</ele></trkpt>
   <trkpt lon="-9.326686" lat="39.369260"><ele>20.25</ele></trkpt>
   <trkpt lon="-9.326275" lat="39.369007"><ele>20.75</ele></trkpt>
   <trkpt lon="-9.323690" lat="39.367410"><ele>20.5</ele></trkpt>
   <trkpt lon="-9.323569" lat="39.367336"><ele>20.0</ele></trkpt>
   <trkpt lon="-9.321869" lat="39.366297"><ele>21.5</ele></trkpt>
   <trkpt lon="-9.321174" lat="39.365844"><ele>22.5</ele></trkpt>
   <trkpt lon="-9.321003" lat="39.365736"><ele>22.5</ele></trkpt>
   <trkpt lon="-9.320869" lat="39.365658"><ele>22.25</ele></trkpt>
   <trkpt lon="-9.320298" lat="39.365307"><ele>23.0</ele></trkpt>
   <trkpt lon="-9.320231" lat="39.365263"><ele>22.75</ele></trkpt>
   <trkpt lon="-9.319763" lat="39.364940"><ele>23.0</ele></trkpt>
   <trkpt lon="-9.319506" lat="39.364756"><ele>23.0</ele></trkpt>
   <trkpt lon="-9.319430" lat="39.364701"><ele>22.75</ele></trkpt>
   <trkpt lon="-9.319208" lat="39.364544"><ele>22.25</ele></trkpt>
   <trkpt lon="-9.318982" lat="39.364373"><ele>21.5</ele></trkpt>
   <trkpt lon="-9.318737" lat="39.364188"><ele>22.25</ele></trkpt>
   <trkpt lon="-9.318634" lat="39.364127"><ele>22.75</ele></trkpt>
   <trkpt lon="-9.318577" lat="39.364105"><ele>23.0</ele></trkpt>
   <trkpt lon="-9.318514" lat="39.364095"><ele>23.25</ele></trkpt>
   <trkpt lon="-9.318398" lat="39.364101"><ele>23.5</ele></trkpt>
   <trkpt lon="-9.318080" lat="39.364149"><ele>24.75</ele></trkpt>
   <trkpt lon="-9.317709" lat="39.364209"><ele>26.0</ele></trkpt>
   <trkpt lon="-9.317619" lat="39.364222"><ele>26.0</ele></trkpt>
   <trkpt lon="-9.317516" lat="39.364227"><ele>26.0</ele></trkpt>
   <trkpt lon="-9.317424" lat="39.364224"><ele>26.0</ele></trkpt>
   <trkpt lon="-9.317319" lat="39.364200"><ele>26.0</ele></trkpt>
   <trkpt lon="-9.317248" lat="39.364166"><ele>25.75</ele></trkpt>
   <trkpt lon="-9.316979" lat="39.364001"><ele>26.75</ele></trkpt>
   <trkpt lon="-9.316724" lat="39.363862"><ele>26.75</ele></trkpt>
   <trkpt lon="-9.316676" lat="39.363840"><ele>26.5</ele></trkpt>
   <trkpt lon="-9.316586" lat="39.363801"><ele>26.0</ele><sym>right_slight</sym></trkpt>
   <trkpt lon="-9.316483" lat="39.363699"><ele>25.25</ele></trkpt>
   <trkpt lon="-9.316444" lat="39.363657"><ele>25.0</ele><sym>roundabout_e3</sym></trkpt>
   <trkpt lon="-9.316435" lat="39.363621"><ele>25.0</ele></trkpt>
   <trkpt lon="-9.316421" lat="39.363605"><ele>24.75</ele></trkpt>
   <trkpt lon="-9.316388" lat="39.363587"><ele>24.5</ele></trkpt>
   <trkpt lon="-9.316368" lat="39.363583"><ele>24.5</ele></trkpt>
   <trkpt lon="-9.316328" lat="39.363586"><ele>24.5</ele></trkpt>
   <trkpt lon="-9.316284" lat="39.363611"><ele>24.5</ele></trkpt>
   <trkpt lon="-9.316268" lat="39.363641"><ele>24.5</ele></trkpt>
   <trkpt lon="-9.316271" lat="39.363673"><ele>24.75</ele></trkpt>
   <trkpt lon="-9.316307" lat="39.363709"><ele>25.0</ele></trkpt>
   <trkpt lon="-9.316344" lat="39.363719"><ele>25.0</ele></trkpt>
   <trkpt lon="-9.316384" lat="39.363716"><ele>25.25</ele></trkpt>
   <trkpt lon="-9.316433" lat="39.363737"><ele>25.5</ele><sym>right</sym></trkpt>
   <trkpt lon="-9.316179" lat="39.364118"><ele>25.75</ele><sym>stay_right</sym></trkpt>
   <trkpt lon="-9.316121" lat="39.364143"><ele>25.75</ele></trkpt>
   <trkpt lon="-9.315982" lat="39.364250"><ele>26.75</ele><sym>pass_place</sym><type>Via</type></trkpt>
  </trkseg>
 </trk>
</gpx>
