<?xml version="1.0" encoding="UTF-8"?>
<!-- track-length = 22567 filtered ascend = 91 plain-ascend = 1 cost=37802 energy=.1kwh time=1h 8m 2s -->
<gpx 
 xmlns="http://www.topografix.com/GPX/1/1" 
 xmlns:xsi="http://www.w3.org/2001/XMLSchema-instance" 
 xsi:schemaLocation="http://www.topografix.com/GPX/1/1 http://www.topografix.com/GPX/1/1/gpx.xsd" 
 creator="BRouter-1.7.9" version="1.1"><wpt lat="39.35716" lon="-9.36594"><name>Cafetaria Do Parque</name><sym>Restaurant</sym></wpt><wpt lat="39.3729" lon="-9.33682"><name>Shower</name><sym>Drinking Water</sym></wpt><wpt lat="39.36742" lon="-9.3777"><name>Papôa</name><sym>Restaurant</sym></wpt><wpt lat="39.35936" lon="-9.38352"><name>Quint&#x27;Essência</name><sym>Restaurant</sym></wpt><wpt lat="39.36411" lon="-9.31784"><name>Pasteleria Ferreleja</name><sym>Restaurant</sym></wpt><wpt lat="39.36013" lon="-9.36872"><name>Tina Mar</name><sym>Restaurant</sym></wpt><wpt lat="39.35829" lon="-9.37425"><name>Arcadas do Mar</name><sym>Restaurant</sym></wpt><wpt lat="39.35808" lon="-9.37966"><name>Puro Cake Lab</name><sym>Restaurant</sym></wpt><wpt lat="39.3641" lon="-9.37351"><name>Cafetaria Dina</name><sym>Restaurant</sym></wpt><wpt lat="39.35783" lon="-9.37933"><name>Calè</name><sym>Restaurant</sym></wpt><wpt lat="39.35827" lon="-9.3797"><name>Oceano</name><sym>Restaurant</sym></wpt><wpt lat="39.36628" lon="-9.40302"><name>Café Bar Círios</name><sym>Restaurant</sym></wpt><wpt lat="39.35552" lon="-9.38336"><name>Drinking water</name><sym>Drinking Water</sym></wpt><wpt lat="39.3657" lon="-9.37497"><name>Drinking water</name><sym>Drinking Water</sym></wpt><wpt lat="39.36375" lon="-9.31618"><name>Café Central</name><sym>Restaurant</sym></wpt><wpt lat="39.35931" lon="-9.36947"><name>Café Onda Jovem</name><sym>Restaurant</sym></wpt><wpt lat="39.35616" lon="-9.38378"><name>Café Camões</name><sym>Restaurant</sym></wpt><wpt lat="39.35721" lon="-9.38234"><name>Capri</name><sym>Restaurant</sym></wpt><wpt lat="39.35679" lon="-9.38008"><name>Mystic</name><sym>Restaurant</sym></wpt><wpt lat="39.35823" lon="-9.38558"><name>O Cantinho da Fé</name><sym>Restaurant</sym></wpt><wpt lat="39.36482" lon="-9.38186"><name>A Paparoca</name><sym>Restaurant</sym></wpt><wpt lat="39.36455" lon="-9.38196"><name>Polivalente</name><sym>Restaurant</sym></wpt><wpt lat="39.36603" lon="-9.37638"><name>Café Moderno</name><sym>Restaurant</sym></wpt><wpt lat="39.35939" lon="-9.3898"><name>Ponto Final</name><sym>Restaurant</sym></wpt><wpt lat="39.37161" lon="-9.33205"><name>Lagide</name><sym>Restaurant</sym></wpt><wpt lat="39.37222" lon="-9.33749"><name>Algamar</name><sym>Restaurant</sym></wpt>
 <trk>
  <src>brouter_fastbike-lowtraffic_0</src>
  <type>bike</type>
  <trkseg>
   <trkpt lon="-9.315982" lat="39.364250"><ele>26.1</ele><sym>pass_place</sym><type>Via</type></trkpt>
   <trkpt lon="-9.316121" lat="39.364143"><ele>26.2</ele></trkpt>
   <trkpt lon="-9.316179" lat="39.364118"><ele>26.2</ele><sym>right_slight</sym></trkpt>
   <trkpt lon="-9.316431" lat="39.364122"><ele>26.3</ele><sym>left_slight</sym></trkpt>
   <trkpt lon="-9.316482" lat="39.364123"><ele>26.2</ele></trkpt>
   <trkpt lon="-9.316559" lat="39.364065"><ele>26.2</ele></trkpt>
   <trkpt lon="-9.316606" lat="39.364039"><ele>26.2</ele><sym>left_slight</sym></trkpt>
   <trkpt lon="-9.316724" lat="39.363862"><ele>26.2</ele><sym>right</sym></trkpt>
   <trkpt lon="-9.316979" lat="39.364001"><ele>26.2</ele></trkpt>
   <trkpt lon="-9.317248" lat="39.364166"><ele>26.2</ele></trkpt>
   <trkpt lon="-9.317319" lat="39.364200"><ele>26.1</ele></trkpt>
   <trkpt lon="-9.317424" lat="39.364224"><ele>25.8</ele></trkpt>
   <trkpt lon="-9.317516" lat="39.364227"><ele>25.5</ele></trkpt>
   <trkpt lon="-9.317619" lat="39.364222"><ele>25.2</ele></trkpt>
   <trkpt lon="-9.317709" lat="39.364209"><ele>24.8</ele></trkpt>
   <trkpt lon="-9.318080" lat="39.364149"><ele>24.5</ele></trkpt>
   <trkpt lon="-9.318398" lat="39.364101"><ele>24.1</ele></trkpt>
   <trkpt lon="-9.318514" lat="39.364095"><ele>23.8</ele></trkpt>
   <trkpt lon="-9.318577" lat="39.364105"><ele>23.5</ele></trkpt>
   <trkpt lon="-9.318634" lat="39.364127"><ele>23.2</ele></trkpt>
   <trkpt lon="-9.318737" lat="39.364188"><ele>22.9</ele></trkpt>
   <trkpt lon="-9.318982" lat="39.364373"><ele>22.7</ele></trkpt>
   <trkpt lon="-9.319208" lat="39.364544"><ele>22.7</ele></trkpt>
   <trkpt lon="-9.319430" lat="39.364701"><ele>22.6</ele></trkpt>
   <trkpt lon="-9.319506" lat="39.364756"><ele>22.5</ele></trkpt>
   <trkpt lon="-9.319763" lat="39.364940"><ele>22.5</ele></trkpt>
   <trkpt lon="-9.320231" lat="39.365263"><ele>22.5</ele></trkpt>
   <trkpt lon="-9.320298" lat="39.365307"><ele>22.3</ele></trkpt>
   <trkpt lon="-9.320869" lat="39.365658"><ele>22.2</ele></trkpt>
   <trkpt lon="-9.321003" lat="39.365736"><ele>22.0</ele></trkpt>
   <trkpt lon="-9.321174" lat="39.365844"><ele>21.7</ele></trkpt>
   <trkpt lon="-9.321869" lat="39.366297"><ele>21.5</ele></trkpt>
   <trkpt lon="-9.323569" lat="39.367336"><ele>21.5</ele></trkpt>
   <trkpt lon="-9.323690" lat="39.367410"><ele>21.3</ele></trkpt>
   <trkpt lon="-9.326275" lat="39.369007"><ele>21.2</ele></trkpt>
   <trkpt lon="-9.326686" lat="39.369260"><ele>21.0</ele></trkpt>
   <trkpt lon="-9.326987" lat="39.369452"><ele>20.7</ele></trkpt>
   <trkpt lon="-9.328100" lat="39.370136"><ele>20.5</ele></trkpt>
   <trkpt lon="-9.328739" lat="39.370525"><ele>20.4</ele></trkpt>
   <trkpt lon="-9.328936" lat="39.370630"><ele>20.0</ele></trkpt>
   <trkpt lon="-9.329281" lat="39.370750"><ele>19.6</ele></trkpt>
   <trkpt lon="-9.330210" lat="39.370992"><ele>18.9</ele></trkpt>
   <trkpt lon="-9.330496" lat="39.371067"><ele>18.2</ele></trkpt>
   <trkpt lon="-9.331199" lat="39.371252"><ele>17.3</ele></trkpt>
   <trkpt lon="-9.331762" lat="39.371401"><ele>16.5</ele></trkpt>
   <trkpt lon="-9.331932" lat="39.371446"><ele>15.7</ele></trkpt>
   <trkpt lon="-9.333557" lat="39.371864"><ele>14.8</ele></trkpt>
   <trkpt lon="-9.333559" lat="39.371864"><ele>14.8</ele><sym>pass_place</sym><type>Shaping</type></trkpt>
   <trkpt lon="-9.333782" lat="39.371915"><ele>13.8</ele></trkpt>
   <trkpt lon="-9.334754" lat="39.372177"><ele>13.0</ele></trkpt>
   <trkpt lon="-9.334823" lat="39.372196"><ele>12.3</ele></trkpt>
   <trkpt lon="-9.335036" lat="39.372249"><ele>11.7</ele></trkpt>
   <trkpt lon="-9.335502" lat="39.372364"><ele>11.4</ele></trkpt>
   <trkpt lon="-9.335900" lat="39.372463"><ele>10.9</ele></trkpt>
   <trkpt lon="-9.336170" lat="39.372506"><ele>10.4</ele></trkpt>
   <trkpt lon="-9.336267" lat="39.372509"><ele>10.0</ele><sym>left_slight</sym></trkpt>
   <trkpt lon="-9.336330" lat="39.372497"><ele>9.4</ele></trkpt>
   <trkpt lon="-9.336371" lat="39.372478"><ele>9.0</ele><sym>straight</sym></trkpt>
   <trkpt lon="-9.336527" lat="39.372356"><ele>8.8</ele></trkpt>
   <trkpt lon="-9.336568" lat="39.372297"><ele>8.7</ele></trkpt>
   <trkpt lon="-9.336592" lat="39.372235"><ele>8.5</ele></trkpt>
   <trkpt lon="-9.336611" lat="39.372005"><ele>8.3</ele></trkpt>
   <trkpt lon="-9.336614" lat="39.371909"><ele>8.0</ele></trkpt>
   <trkpt lon="-9.336623" lat="39.371644"><ele>7.8</ele></trkpt>
   <trkpt lon="-9.336634" lat="39.371301"><ele>7.7</ele></trkpt>
   <trkpt lon="-9.336642" lat="39.371056"><ele>7.6</ele></trkpt>
   <trkpt lon="-9.336650" lat="39.370817"><ele>7.5</ele></trkpt>
   <trkpt lon="-9.336657" lat="39.370513"><ele>7.6</ele></trkpt>
   <trkpt lon="-9.336658" lat="39.370508"><ele>7.7</ele><sym>pass_place</sym><type>Shaping</type></trkpt>
   <trkpt lon="-9.336675" lat="39.369597"><ele>7.7</ele></trkpt>
   <trkpt lon="-9.336681" lat="39.369346"><ele>7.7</ele></trkpt>
   <trkpt lon="-9.336684" lat="39.369184"><ele>7.8</ele></trkpt>
   <trkpt lon="-9.336685" lat="39.369092"><ele>8.0</ele></trkpt>
   <trkpt lon="-9.336688" lat="39.369012"><ele>8.2</ele></trkpt>
   <trkpt lon="-9.336703" lat="39.368525"><ele>8.3</ele></trkpt>
   <trkpt lon="-9.336719" lat="39.367829"><ele>8.3</ele></trkpt>
   <trkpt lon="-9.336739" lat="39.366956"><ele>8.3</ele></trkpt>
   <trkpt lon="-9.336760" lat="39.366758"><ele>8.3</ele></trkpt>
   <trkpt lon="-9.336770" lat="39.366675"><ele>8.3</ele></trkpt>
   <trkpt lon="-9.336814" lat="39.366488"><ele>8.2</ele></trkpt>
   <trkpt lon="-9.336885" lat="39.366315"><ele>8.2</ele></trkpt>
   <trkpt lon="-9.336977" lat="39.366114"><ele>8.0</ele></trkpt>
   <trkpt lon="-9.337000" lat="39.366072"><ele>7.8</ele></trkpt>
   <trkpt lon="-9.337023" lat="39.366029"><ele>7.6</ele></trkpt>
   <trkpt lon="-9.337151" lat="39.365782"><ele>7.0</ele></trkpt>
   <trkpt lon="-9.337284" lat="39.365528"><ele>6.6</ele></trkpt>
   <trkpt lon="-9.337321" lat="39.365457"><ele>6.4</ele></trkpt>
   <trkpt lon="-9.337383" lat="39.365328"><ele>6.2</ele></trkpt>
   <trkpt lon="-9.337452" lat="39.365185"><ele>6.1</ele></trkpt>
   <trkpt lon="-9.337815" lat="39.364436"><ele>5.9</ele></trkpt>
   <trkpt lon="-9.337982" lat="39.364099"><ele>5.8</ele></trkpt>
   <trkpt lon="-9.338092" lat="39.363877"><ele>5.7</ele></trkpt>
   <trkpt lon="-9.338119" lat="39.363822"><ele>5.7</ele></trkpt>
   <trkpt lon="-9.338189" lat="39.363681"><ele>5.7</ele></trkpt>
   <trkpt lon="-9.338274" lat="39.363509"><ele>5.7</ele></trkpt>
   <trkpt lon="-9.338411" lat="39.363244"><ele>5.8</ele></trkpt>
   <trkpt lon="-9.338557" lat="39.362997"><ele>5.9</ele></trkpt>
   <trkpt lon="-9.338790" lat="39.362701"><ele>6.0</ele></trkpt>
   <trkpt lon="-9.339135" lat="39.362390"><ele>6.1</ele></trkpt>
   <trkpt lon="-9.339333" lat="39.362248"><ele>6.2</ele></trkpt>
   <trkpt lon="-9.341370" lat="39.361162"><ele>6.3</ele></trkpt>
   <trkpt lon="-9.343755" lat="39.359933"><ele>6.5</ele></trkpt>
   <trkpt lon="-9.344012" lat="39.359800"><ele>6.8</ele></trkpt>
   <trkpt lon="-9.344329" lat="39.359635"><ele>6.9</ele></trkpt>
   <trkpt lon="-9.344696" lat="39.359423"><ele>7.2</ele></trkpt>
   <trkpt lon="-9.346146" lat="39.358501"><ele>7.7</ele></trkpt>
   <trkpt lon="-9.346302" lat="39.358414"><ele>8.4</ele></trkpt>
   <trkpt lon="-9.346604" lat="39.358268"><ele>8.1</ele></trkpt>
   <trkpt lon="-9.346753" lat="39.358208"><ele>8.0</ele></trkpt>
   <trkpt lon="-9.347108" lat="39.358100"><ele>7.8</ele></trkpt>
   <trkpt lon="-9.347321" lat="39.358057"><ele>7.6</ele><sym>pass_place</sym><type>Shaping</type></trkpt>
   <trkpt lon="-9.347325" lat="39.358056"><ele>7.5</ele></trkpt>
   <trkpt lon="-9.353924" lat="39.356950"><ele>7.3</ele></trkpt>
   <trkpt lon="-9.354560" lat="39.356845"><ele>7.2</ele></trkpt>
   <trkpt lon="-9.354756" lat="39.356821"><ele>7.0</ele></trkpt>
   <trkpt lon="-9.355076" lat="39.356800"><ele>6.7</ele></trkpt>
   <trkpt lon="-9.355440" lat="39.356813"><ele>6.2</ele></trkpt>
   <trkpt lon="-9.355665" lat="39.356835"><ele>5.7</ele></trkpt>
   <trkpt lon="-9.356036" lat="39.356896"><ele>5.8</ele></trkpt>
   <trkpt lon="-9.356153" lat="39.356926"><ele>6.0</ele></trkpt>
   <trkpt lon="-9.356317" lat="39.356974"><ele>6.0</ele></trkpt>
   <trkpt lon="-9.356561" lat="39.357052"><ele>6.2</ele></trkpt>
   <trkpt lon="-9.356669" lat="39.357094"><ele>6.2</ele></trkpt>
   <trkpt lon="-9.357284" lat="39.357343"><ele>5.9</ele></trkpt>
   <trkpt lon="-9.357511" lat="39.357438"><ele>5.6</ele></trkpt>
   <trkpt lon="-9.358732" lat="39.357943"><ele>5.5</ele></trkpt>
   <trkpt lon="-9.359434" lat="39.358204"><ele>5.1</ele></trkpt>
   <trkpt lon="-9.359909" lat="39.358360"><ele>4.7</ele></trkpt>
   <trkpt lon="-9.360165" lat="39.358435"><ele>4.2</ele></trkpt>
   <trkpt lon="-9.360650" lat="39.358560"><ele>3.8</ele></trkpt>
   <trkpt lon="-9.361307" lat="39.358702"><ele>3.3</ele></trkpt>
   <trkpt lon="-9.362069" lat="39.358826"><ele>2.9</ele></trkpt>
   <trkpt lon="-9.362288" lat="39.358856"><ele>2.5</ele></trkpt>
   <trkpt lon="-9.362528" lat="39.358879"><ele>2.2</ele></trkpt>
   <trkpt lon="-9.363197" lat="39.358936"><ele>1.9</ele></trkpt>
   <trkpt lon="-9.363293" lat="39.358941"><ele>1.7</ele></trkpt>
   <trkpt lon="-9.363659" lat="39.358963"><ele>1.2</ele></trkpt>
   <trkpt lon="-9.363973" lat="39.358983"><ele>0.9</ele></trkpt>
   <trkpt lon="-9.364534" lat="39.359019"><ele>0.8</ele></trkpt>
   <trkpt lon="-9.364877" lat="39.359032"><ele>0.7</ele></trkpt>
   <trkpt lon="-9.365013" lat="39.359023"><ele>0.7</ele></trkpt>
   <trkpt lon="-9.365135" lat="39.359007"><ele>0.6</ele></trkpt>
   <trkpt lon="-9.365237" lat="39.358983"><ele>0.4</ele></trkpt>
   <trkpt lon="-9.365330" lat="39.358951"><ele>0.2</ele></trkpt>
   <trkpt lon="-9.365428" lat="39.358910"><ele>0.1</ele></trkpt>
   <trkpt lon="-9.365530" lat="39.358857"><ele>-0.0</ele></trkpt>
   <trkpt lon="-9.365684" lat="39.358761"><ele>-0.1</ele></trkpt>
   <trkpt lon="-9.365883" lat="39.358669"><ele>-0.2</ele></trkpt>
   <trkpt lon="-9.365969" lat="39.358637"><ele>-0.2</ele></trkpt>
   <trkpt lon="-9.366040" lat="39.358614"><ele>-0.1</ele><sym>roundabout_e2</sym></trkpt>
   <trkpt lon="-9.366065" lat="39.358619"><ele>-0.1</ele></trkpt>
   <trkpt lon="-9.366131" lat="39.358618"><ele>0.1</ele></trkpt>
   <trkpt lon="-9.366193" lat="39.358604"><ele>0.2</ele></trkpt>
   <trkpt lon="-9.366260" lat="39.358571"><ele>0.7</ele></trkpt>
   <trkpt lon="-9.366311" lat="39.358523"><ele>1.2</ele></trkpt>
   <trkpt lon="-9.366338" lat="39.358465"><ele>1.7</ele></trkpt>
   <trkpt lon="-9.366349" lat="39.358405"><ele>2.3</ele></trkpt>
   <trkpt lon="-9.366339" lat="39.358361"><ele>2.8</ele></trkpt>
   <trkpt lon="-9.366472" lat="39.358123"><ele>3.3</ele></trkpt>
   <trkpt lon="-9.366792" lat="39.357854"><ele>3.7</ele></trkpt>
   <trkpt lon="-9.366872" lat="39.357803"><ele>4.0</ele><sym>pass_place</sym><type>Shaping</type></trkpt>
   <trkpt lon="-9.366946" lat="39.357765"><ele>4.3</ele></trkpt>
   <trkpt lon="-9.367051" lat="39.357721"><ele>4.5</ele></trkpt>
   <trkpt lon="-9.367159" lat="39.357686"><ele>4.6</ele></trkpt>
   <trkpt lon="-9.367449" lat="39.357630"><ele>4.5</ele></trkpt>
   <trkpt lon="-9.367721" lat="39.357593"><ele>4.3</ele></trkpt>
   <trkpt lon="-9.368207" lat="39.357517"><ele>4.0</ele></trkpt>
   <trkpt lon="-9.368310" lat="39.357497"><ele>3.8</ele><sym>roundabout_e1</sym></trkpt>
   <trkpt lon="-9.368632" lat="39.357509"><ele>3.4</ele></trkpt>
   <trkpt lon="-9.368831" lat="39.357571"><ele>3.1</ele></trkpt>
   <trkpt lon="-9.369047" lat="39.357661"><ele>2.8</ele></trkpt>
   <trkpt lon="-9.369433" lat="39.357931"><ele>2.4</ele></trkpt>
   <trkpt lon="-9.369690" lat="39.358109"><ele>2.1</ele></trkpt>
   <trkpt lon="-9.370308" lat="39.358516"><ele>1.7</ele></trkpt>
   <trkpt lon="-9.370500" lat="39.358598"><ele>1.5</ele></trkpt>
   <trkpt lon="-9.370625" lat="39.358638"><ele>1.3</ele></trkpt>
   <trkpt lon="-9.370759" lat="39.358668"><ele>1.1</ele></trkpt>
   <trkpt lon="-9.370891" lat="39.358687"><ele>0.9</ele></trkpt>
   <trkpt lon="-9.371142" lat="39.358694"><ele>0.7</ele></trkpt>
   <trkpt lon="-9.371272" lat="39.358687"><ele>0.7</ele></trkpt>
   <trkpt lon="-9.371414" lat="39.358666"><ele>0.6</ele></trkpt>
   <trkpt lon="-9.371604" lat="39.358620"><ele>0.6</ele></trkpt>
   <trkpt lon="-9.373182" lat="39.358142"><ele>0.6</ele></trkpt>
   <trkpt lon="-9.373343" lat="39.358140"><ele>0.6</ele></trkpt>
   <trkpt lon="-9.373395" lat="39.358139"><ele>0.6</ele><sym>roundabout_e2</sym></trkpt>
   <trkpt lon="-9.373428" lat="39.358150"><ele>0.7</ele></trkpt>
   <trkpt lon="-9.373464" lat="39.358152"><ele>0.7</ele></trkpt>
   <trkpt lon="-9.373499" lat="39.358145"><ele>0.7</ele></trkpt>
   <trkpt lon="-9.373529" lat="39.358131"><ele>0.7</ele></trkpt>
   <trkpt lon="-9.373552" lat="39.358111"><ele>0.9</ele></trkpt>
   <trkpt lon="-9.373565" lat="39.358086"><ele>1.0</ele></trkpt>
   <trkpt lon="-9.373724" lat="39.357977"><ele>1.1</ele></trkpt>
   <trkpt lon="-9.374819" lat="39.357647"><ele>1.2</ele></trkpt>
   <trkpt lon="-9.375008" lat="39.357591"><ele>1.2</ele></trkpt>
   <trkpt lon="-9.375852" lat="39.357339"><ele>1.2</ele></trkpt>
   <trkpt lon="-9.376287" lat="39.357192"><ele>1.2</ele></trkpt>
   <trkpt lon="-9.376445" lat="39.357138"><ele>1.2</ele></trkpt>
   <trkpt lon="-9.376504" lat="39.357121"><ele>1.3</ele><sym>roundabout_e2</sym></trkpt>
   <trkpt lon="-9.376564" lat="39.357135"><ele>1.3</ele></trkpt>
   <trkpt lon="-9.376630" lat="39.357122"><ele>1.3</ele></trkpt>
   <trkpt lon="-9.376676" lat="39.357084"><ele>1.1</ele></trkpt>
   <trkpt lon="-9.376689" lat="39.357057"><ele>1.1</ele></trkpt>
   <trkpt lon="-9.376690" lat="39.357029"><ele>1.1</ele></trkpt>
   <trkpt lon="-9.376680" lat="39.357001"><ele>1.2</ele></trkpt>
   <trkpt lon="-9.376801" lat="39.356790"><ele>1.3</ele></trkpt>
   <trkpt lon="-9.376839" lat="39.356747"><ele>1.4</ele></trkpt>
   <trkpt lon="-9.376982" lat="39.356584"><ele>1.4</ele></trkpt>
   <trkpt lon="-9.377048" lat="39.356518"><ele>1.4</ele></trkpt>
   <trkpt lon="-9.377111" lat="39.356476"><ele>1.4</ele></trkpt>
   <trkpt lon="-9.377195" lat="39.356444"><ele>1.3</ele></trkpt>
   <trkpt lon="-9.377267" lat="39.356426"><ele>1.2</ele></trkpt>
   <trkpt lon="-9.377350" lat="39.356420"><ele>1.2</ele></trkpt>
   <trkpt lon="-9.377432" lat="39.356428"><ele>1.1</ele></trkpt>
   <trkpt lon="-9.377548" lat="39.356463"><ele>1.1</ele></trkpt>
   <trkpt lon="-9.377985" lat="39.356618"><ele>1.1</ele></trkpt>
   <trkpt lon="-9.378130" lat="39.356710"><ele>1.2</ele></trkpt>
   <trkpt lon="-9.378160" lat="39.356724"><ele>1.2</ele><sym>roundabout_e1</sym></trkpt>
   <trkpt lon="-9.378176" lat="39.356753"><ele>1.3</ele></trkpt>
   <trkpt lon="-9.378202" lat="39.356777"><ele>1.5</ele></trkpt>
   <trkpt lon="-9.378238" lat="39.356792"><ele>1.7</ele></trkpt>
   <trkpt lon="-9.378278" lat="39.356798"><ele>2.1</ele></trkpt>
   <trkpt lon="-9.378318" lat="39.356793"><ele>2.4</ele></trkpt>
   <trkpt lon="-9.378328" lat="39.356817"><ele>2.8</ele></trkpt>
   <trkpt lon="-9.378333" lat="39.356828"><ele>3.1</ele><sym>left</sym></trkpt>
   <trkpt lon="-9.378371" lat="39.356812"><ele>3.5</ele></trkpt>
   <trkpt lon="-9.378414" lat="39.356801"><ele>3.9</ele></trkpt>
   <trkpt lon="-9.378472" lat="39.356759"><ele>4.5</ele><sym>right</sym></trkpt>
   <trkpt lon="-9.378504" lat="39.356775"><ele>5.1</ele></trkpt>
   <trkpt lon="-9.378526" lat="39.356794"><ele>5.8</ele></trkpt>
   <trkpt lon="-9.378586" lat="39.356901"><ele>6.4</ele><sym>pass_place</sym><type>Shaping</type></trkpt>
   <trkpt lon="-9.378644" lat="39.357007"><ele>7.0</ele><sym>left</sym></trkpt>
   <trkpt lon="-9.378954" lat="39.356916"><ele>7.6</ele></trkpt>
   <trkpt lon="-9.379173" lat="39.356894"><ele>8.2</ele><sym>straight</sym></trkpt>
   <trkpt lon="-9.379521" lat="39.356837"><ele>8.9</ele><sym>right</sym></trkpt>
   <trkpt lon="-9.379529" lat="39.357099"><ele>9.7</ele><sym>left</sym></trkpt>
   <trkpt lon="-9.379854" lat="39.357063"><ele>10.4</ele></trkpt>
   <trkpt lon="-9.380616" lat="39.357005"><ele>11.1</ele></trkpt>
   <trkpt lon="-9.380976" lat="39.356980"><ele>11.5</ele></trkpt>
   <trkpt lon="-9.381404" lat="39.356961"><ele>11.9</ele></trkpt>
   <trkpt lon="-9.381776" lat="39.356972"><ele>12.1</ele></trkpt>
   <trkpt lon="-9.382325" lat="39.357002"><ele>12.3</ele></trkpt>
   <trkpt lon="-9.382398" lat="39.356981"><ele>12.8</ele></trkpt>
   <trkpt lon="-9.382483" lat="39.356983"><ele>13.2</ele></trkpt>
   <trkpt lon="-9.382709" lat="39.356990"><ele>13.8</ele></trkpt>
   <trkpt lon="-9.383018" lat="39.357004"><ele>14.3</ele></trkpt>
   <trkpt lon="-9.383450" lat="39.357018"><ele>14.7</ele></trkpt>
   <trkpt lon="-9.384360" lat="39.357032"><ele>15.1</ele></trkpt>
   <trkpt lon="-9.384533" lat="39.357034"><ele>15.4</ele></trkpt>
   <trkpt lon="-9.385003" lat="39.357088"><ele>15.7</ele></trkpt>
   <trkpt lon="-9.385209" lat="39.357126"><ele>16.1</ele></trkpt>
   <trkpt lon="-9.385294" lat="39.357143"><ele>16.5</ele></trkpt>
   <trkpt lon="-9.385884" lat="39.357253"><ele>17.0</ele></trkpt>
   <trkpt lon="-9.385982" lat="39.357276"><ele>17.3</ele></trkpt>
   <trkpt lon="-9.386259" lat="39.357363"><ele>17.6</ele></trkpt>
   <trkpt lon="-9.386519" lat="39.357441"><ele>17.6</ele><sym>left</sym></trkpt>
   <trkpt lon="-9.386694" lat="39.357252"><ele>17.6</ele></trkpt>
   <trkpt lon="-9.386796" lat="39.357144"><ele>17.7</ele></trkpt>
   <trkpt lon="-9.386832" lat="39.357108"><ele>17.8</ele></trkpt>
   <trkpt lon="-9.387026" lat="39.356902"><ele>17.9</ele></trkpt>
   <trkpt lon="-9.387176" lat="39.356748"><ele>18.0</ele></trkpt>
   <trkpt lon="-9.387272" lat="39.356651"><ele>18.2</ele></trkpt>
   <trkpt lon="-9.387702" lat="39.356209"><ele>18.3</ele></trkpt>
   <trkpt lon="-9.387756" lat="39.356152"><ele>18.4</ele></trkpt>
   <trkpt lon="-9.387901" lat="39.356045"><ele>18.5</ele></trkpt>
   <trkpt lon="-9.387945" lat="39.356014"><ele>18.5</ele><sym>roundabout_e2</sym></trkpt>
   <trkpt lon="-9.387994" lat="39.355996"><ele>18.5</ele></trkpt>
   <trkpt lon="-9.388034" lat="39.355959"><ele>18.5</ele></trkpt>
   <trkpt lon="-9.388045" lat="39.355935"><ele>18.6</ele></trkpt>
   <trkpt lon="-9.388044" lat="39.355886"><ele>18.7</ele></trkpt>
   <trkpt lon="-9.388097" lat="39.355787"><ele>18.7</ele></trkpt>
   <trkpt lon="-9.388125" lat="39.355762"><ele>18.8</ele></trkpt>
   <trkpt lon="-9.388461" lat="39.355445"><ele>18.8</ele></trkpt>
   <trkpt lon="-9.389089" lat="39.354769"><ele>18.9</ele></trkpt>
   <trkpt lon="-9.389429" lat="39.354430"><ele>19.0</ele></trkpt>
   <trkpt lon="-9.389533" lat="39.354336"><ele>19.2</ele></trkpt>
   <trkpt lon="-9.389672" lat="39.354230"><ele>19.6</ele><sym>pass_place</sym><type>Shaping</type></trkpt>
   <trkpt lon="-9.389674" lat="39.354229"><ele>19.6</ele></trkpt>
   <trkpt lon="-9.389788" lat="39.354159"><ele>20.1</ele></trkpt>
   <trkpt lon="-9.390074" lat="39.354006"><ele>20.2</ele></trkpt>
   <trkpt lon="-9.390247" lat="39.353924"><ele>20.3</ele></trkpt>
   <trkpt lon="-9.390458" lat="39.353845"><ele>20.5</ele></trkpt>
   <trkpt lon="-9.390729" lat="39.353763"><ele>20.7</ele></trkpt>
   <trkpt lon="-9.390902" lat="39.353724"><ele>20.9</ele></trkpt>
   <trkpt lon="-9.391081" lat="39.353698"><ele>20.9</ele></trkpt>
   <trkpt lon="-9.391308" lat="39.353687"><ele>20.7</ele></trkpt>
   <trkpt lon="-9.391503" lat="39.353689"><ele>20.3</ele></trkpt>
   <trkpt lon="-9.391734" lat="39.353706"><ele>19.7</ele></trkpt>
   <trkpt lon="-9.392212" lat="39.353783"><ele>19.2</ele></trkpt>
   <trkpt lon="-9.392595" lat="39.353855"><ele>18.7</ele></trkpt>
   <trkpt lon="-9.392986" lat="39.353929"><ele>18.2</ele></trkpt>
   <trkpt lon="-9.393156" lat="39.353970"><ele>17.9</ele></trkpt>
   <trkpt lon="-9.393325" lat="39.354025"><ele>17.5</ele></trkpt>
   <trkpt lon="-9.393460" lat="39.354087"><ele>17.1</ele></trkpt>
   <trkpt lon="-9.393576" lat="39.354157"><ele>16.6</ele></trkpt>
   <trkpt lon="-9.393663" lat="39.354227"><ele>16.0</ele></trkpt>
   <trkpt lon="-9.393759" lat="39.354324"><ele>15.6</ele></trkpt>
   <trkpt lon="-9.393829" lat="39.354433"><ele>15.2</ele></trkpt>
   <trkpt lon="-9.393864" lat="39.354513"><ele>15.2</ele></trkpt>
   <trkpt lon="-9.393885" lat="39.354606"><ele>15.4</ele></trkpt>
   <trkpt lon="-9.393892" lat="39.354774"><ele>15.6</ele></trkpt>
   <trkpt lon="-9.393868" lat="39.354880"><ele>15.7</ele></trkpt>
   <trkpt lon="-9.393826" lat="39.355017"><ele>15.8</ele></trkpt>
   <trkpt lon="-9.393665" lat="39.355417"><ele>15.9</ele></trkpt>
   <trkpt lon="-9.393633" lat="39.355511"><ele>16.0</ele></trkpt>
   <trkpt lon="-9.393611" lat="39.355624"><ele>16.2</ele></trkpt>
   <trkpt lon="-9.393622" lat="39.355719"><ele>16.6</ele></trkpt>
   <trkpt lon="-9.393663" lat="39.355815"><ele>17.2</ele></trkpt>
   <trkpt lon="-9.393723" lat="39.355886"><ele>17.8</ele></trkpt>
   <trkpt lon="-9.393796" lat="39.355950"><ele>18.1</ele></trkpt>
   <trkpt lon="-9.393891" lat="39.356006"><ele>18.4</ele></trkpt>
   <trkpt lon="-9.393991" lat="39.356043"><ele>18.6</ele></trkpt>
   <trkpt lon="-9.394133" lat="39.356075"><ele>19.0</ele></trkpt>
   <trkpt lon="-9.394294" lat="39.356083"><ele>19.5</ele></trkpt>
   <trkpt lon="-9.394688" lat="39.356062"><ele>19.9</ele></trkpt>
   <trkpt lon="-9.394846" lat="39.356071"><ele>19.9</ele></trkpt>
   <trkpt lon="-9.395002" lat="39.356099"><ele>19.9</ele></trkpt>
   <trkpt lon="-9.395148" lat="39.356142"><ele>19.9</ele></trkpt>
   <trkpt lon="-9.396337" lat="39.356542"><ele>19.7</ele></trkpt>
   <trkpt lon="-9.396610" lat="39.356638"><ele>19.4</ele></trkpt>
   <trkpt lon="-9.396866" lat="39.356726"><ele>19.4</ele></trkpt>
   <trkpt lon="-9.397002" lat="39.356757"><ele>19.5</ele></trkpt>
   <trkpt lon="-9.397130" lat="39.356769"><ele>19.5</ele></trkpt>
   <trkpt lon="-9.397262" lat="39.356768"><ele>19.5</ele></trkpt>
   <trkpt lon="-9.397605" lat="39.356730"><ele>19.2</ele></trkpt>
   <trkpt lon="-9.398686" lat="39.356586"><ele>19.0</ele></trkpt>
   <trkpt lon="-9.399244" lat="39.356516"><ele>19.1</ele></trkpt>
   <trkpt lon="-9.399496" lat="39.356494"><ele>19.4</ele></trkpt>
   <trkpt lon="-9.399728" lat="39.356473"><ele>19.8</ele></trkpt>
   <trkpt lon="-9.399875" lat="39.356467"><ele>20.1</ele></trkpt>
   <trkpt lon="-9.400054" lat="39.356479"><ele>20.5</ele></trkpt>
   <trkpt lon="-9.400208" lat="39.356507"><ele>20.6</ele></trkpt>
   <trkpt lon="-9.400381" lat="39.356556"><ele>20.7</ele></trkpt>
   <trkpt lon="-9.400538" lat="39.356621"><ele>21.0</ele></trkpt>
   <trkpt lon="-9.401237" lat="39.356962"><ele>21.2</ele></trkpt>
   <trkpt lon="-9.401373" lat="39.357028"><ele>21.6</ele></trkpt>
   <trkpt lon="-9.402503" lat="39.357587"><ele>22.1</ele></trkpt>
   <trkpt lon="-9.402654" lat="39.357673"><ele>22.6</ele></trkpt>
   <trkpt lon="-9.402793" lat="39.357768"><ele>23.0</ele></trkpt>
   <trkpt lon="-9.402920" lat="39.357880"><ele>23.3</ele></trkpt>
   <trkpt lon="-9.403019" lat="39.358007"><ele>23.8</ele></trkpt>
   <trkpt lon="-9.403095" lat="39.358159"><ele>24.2</ele></trkpt>
   <trkpt lon="-9.403132" lat="39.358302"><ele>24.2</ele></trkpt>
   <trkpt lon="-9.403149" lat="39.358442"><ele>24.2</ele></trkpt>
   <trkpt lon="-9.403153" lat="39.359008"><ele>23.9</ele></trkpt>
   <trkpt lon="-9.403152" lat="39.359194"><ele>23.7</ele></trkpt>
   <trkpt lon="-9.403122" lat="39.360412"><ele>23.2</ele></trkpt>
   <trkpt lon="-9.403136" lat="39.360814"><ele>22.7</ele></trkpt>
   <trkpt lon="-9.403153" lat="39.360901"><ele>22.2</ele></trkpt>
   <trkpt lon="-9.403191" lat="39.360972"><ele>21.5</ele></trkpt>
   <trkpt lon="-9.403238" lat="39.361039"><ele>20.9</ele></trkpt>
   <trkpt lon="-9.403315" lat="39.361104"><ele>20.3</ele></trkpt>
   <trkpt lon="-9.403432" lat="39.361168"><ele>19.7</ele><sym>pass_place</sym><type>Shaping</type></trkpt>
   <trkpt lon="-9.403435" lat="39.361170"><ele>19.6</ele></trkpt>
   <trkpt lon="-9.403567" lat="39.361219"><ele>19.5</ele></trkpt>
   <trkpt lon="-9.403717" lat="39.361242"><ele>19.4</ele></trkpt>
   <trkpt lon="-9.403811" lat="39.361247"><ele>19.4</ele></trkpt>
   <trkpt lon="-9.404251" lat="39.361241"><ele>19.6</ele></trkpt>
   <trkpt lon="-9.405376" lat="39.361218"><ele>19.8</ele></trkpt>
   <trkpt lon="-9.405565" lat="39.361224"><ele>20.0</ele></trkpt>
   <trkpt lon="-9.405709" lat="39.361237"><ele>20.3</ele></trkpt>
   <trkpt lon="-9.405834" lat="39.361270"><ele>20.6</ele></trkpt>
   <trkpt lon="-9.405941" lat="39.361317"><ele>21.0</ele></trkpt>
   <trkpt lon="-9.406039" lat="39.361376"><ele>21.5</ele></trkpt>
   <trkpt lon="-9.406086" lat="39.361409"><ele>21.8</ele></trkpt>
   <trkpt lon="-9.406147" lat="39.361471"><ele>21.9</ele></trkpt>
   <trkpt lon="-9.406212" lat="39.361560"><ele>22.0</ele></trkpt>
   <trkpt lon="-9.406398" lat="39.361980"><ele>22.0</ele></trkpt>
   <trkpt lon="-9.406416" lat="39.362068"><ele>22.2</ele><sym>left_slight</sym></trkpt>
   <trkpt lon="-9.406464" lat="39.362106"><ele>22.5</ele></trkpt>
   <trkpt lon="-9.406537" lat="39.362136"><ele>22.7</ele></trkpt>
   <trkpt lon="-9.406628" lat="39.362156"><ele>22.6</ele><sym>left</sym></trkpt>
   <trkpt lon="-9.406685" lat="39.362083"><ele>22.6</ele></trkpt>
   <trkpt lon="-9.407423" lat="39.361100"><ele>22.5</ele></trkpt>
   <trkpt lon="-9.407457" lat="39.361064"><ele>22.5</ele></trkpt>
   <trkpt lon="-9.407505" lat="39.361027"><ele>22.9</ele></trkpt>
   <trkpt lon="-9.407859" lat="39.360828"><ele>23.5</ele></trkpt>
   <trkpt lon="-9.407900" lat="39.360796"><ele>24.1</ele></trkpt>
   <trkpt lon="-9.407919" lat="39.360753"><ele>23.8</ele></trkpt>
   <trkpt lon="-9.407919" lat="39.360704"><ele>23.3</ele></trkpt>
   <trkpt lon="-9.407877" lat="39.360491"><ele>22.6</ele></trkpt>
   <trkpt lon="-9.407890" lat="39.360353"><ele>21.9</ele><sym>pass_place</sym><type>Shaping</type></trkpt>
   <trkpt lon="-9.407921" lat="39.360283"><ele>21.1</ele></trkpt>
   <trkpt lon="-9.408211" lat="39.359842"><ele>20.3</ele><sym>right_slight</sym></trkpt>
   <trkpt lon="-9.408267" lat="39.359851"><ele>19.4</ele></trkpt>
   <trkpt lon="-9.408295" lat="39.359845"><ele>18.8</ele></trkpt>
   <trkpt lon="-9.408319" lat="39.359831"><ele>18.3</ele></trkpt>
   <trkpt lon="-9.408471" lat="39.359580"><ele>17.0</ele></trkpt>
   <trkpt lon="-9.408469" lat="39.359560"><ele>16.5</ele></trkpt>
   <trkpt lon="-9.408445" lat="39.359525"><ele>15.9</ele></trkpt>
   <trkpt lon="-9.408425" lat="39.359513"><ele>15.4</ele></trkpt>
   <trkpt lon="-9.408373" lat="39.359505"><ele>14.8</ele></trkpt>
   <trkpt lon="-9.408323" lat="39.359520"><ele>14.2</ele><sym>right</sym></trkpt>
   <trkpt lon="-9.408315" lat="39.359401"><ele>13.9</ele></trkpt>
   <trkpt lon="-9.408293" lat="39.359337"><ele>13.4</ele></trkpt>
   <trkpt lon="-9.408290" lat="39.359281"><ele>12.9</ele></trkpt>
   <trkpt lon="-9.408299" lat="39.359248"><ele>12.4</ele><sym>right</sym></trkpt>
   <trkpt lon="-9.408329" lat="39.359248"><ele>12.0</ele></trkpt>
   <trkpt lon="-9.408491" lat="39.359288"><ele>11.7</ele></trkpt>
   <trkpt lon="-9.408668" lat="39.359248"><ele>11.5</ele></trkpt>
   <trkpt lon="-9.408729" lat="39.359271"><ele>11.4</ele><sym>right_sharp</sym><type>Via</type></trkpt>
   <trkpt lon="-9.408668" lat="39.359248"><ele>11.5</ele></trkpt>
   <trkpt lon="-9.408491" lat="39.359288"><ele>11.7</ele></trkpt>
   <trkpt lon="-9.408329" lat="39.359248"><ele>12.0</ele></trkpt>
   <trkpt lon="-9.408299" lat="39.359248"><ele>12.6</ele><sym>left</sym></trkpt>
   <trkpt lon="-9.408290" lat="39.359281"><ele>13.4</ele></trkpt>
   <trkpt lon="-9.408293" lat="39.359337"><ele>14.5</ele></trkpt>
   <trkpt lon="-9.408315" lat="39.359401"><ele>15.6</ele></trkpt>
   <trkpt lon="-9.408323" lat="39.359520"><ele>16.5</ele><sym>right_slight</sym></trkpt>
   <trkpt lon="-9.408276" lat="39.359598"><ele>17.3</ele></trkpt>
   <trkpt lon="-9.408223" lat="39.359685"><ele>18.1</ele></trkpt>
   <trkpt lon="-9.408189" lat="39.359741"><ele>19.6</ele></trkpt>
   <trkpt lon="-9.408167" lat="39.359776"><ele>20.5</ele></trkpt>
   <trkpt lon="-9.408168" lat="39.359795"><ele>21.0</ele></trkpt>
   <trkpt lon="-9.408176" lat="39.359814"><ele>21.5</ele></trkpt>
   <trkpt lon="-9.408211" lat="39.359842"><ele>22.1</ele><sym>right</sym></trkpt>
   <trkpt lon="-9.407921" lat="39.360283"><ele>22.5</ele></trkpt>
   <trkpt lon="-9.407890" lat="39.360353"><ele>22.7</ele></trkpt>
   <trkpt lon="-9.407877" lat="39.360491"><ele>23.2</ele></trkpt>
   <trkpt lon="-9.407919" lat="39.360704"><ele>23.6</ele></trkpt>
   <trkpt lon="-9.407919" lat="39.360753"><ele>24.1</ele></trkpt>
   <trkpt lon="-9.407900" lat="39.360796"><ele>24.3</ele></trkpt>
   <trkpt lon="-9.407859" lat="39.360828"><ele>23.7</ele></trkpt>
   <trkpt lon="-9.407505" lat="39.361027"><ele>23.1</ele></trkpt>
   <trkpt lon="-9.407457" lat="39.361064"><ele>22.3</ele></trkpt>
   <trkpt lon="-9.407423" lat="39.361100"><ele>21.8</ele></trkpt>
   <trkpt lon="-9.406685" lat="39.362083"><ele>20.8</ele></trkpt>
   <trkpt lon="-9.406628" lat="39.362156"><ele>20.7</ele></trkpt>
   <trkpt lon="-9.406501" lat="39.362344"><ele>20.6</ele></trkpt>
   <trkpt lon="-9.404826" lat="39.364597"><ele>19.9</ele></trkpt>
   <trkpt lon="-9.404000" lat="39.365712"><ele>19.3</ele></trkpt>
   <trkpt lon="-9.403624" lat="39.366232"><ele>18.7</ele><sym>right</sym></trkpt>
   <trkpt lon="-9.402790" lat="39.366085"><ele>18.4</ele><sym>straight</sym></trkpt>
   <trkpt lon="-9.402255" lat="39.365995"><ele>18.0</ele></trkpt>
   <trkpt lon="-9.401420" lat="39.365851"><ele>17.7</ele></trkpt>
   <trkpt lon="-9.400887" lat="39.365740"><ele>17.6</ele></trkpt>
   <trkpt lon="-9.400858" lat="39.365735"><ele>17.6</ele><sym>roundabout_e1</sym></trkpt>
   <trkpt lon="-9.400859" lat="39.365724"><ele>17.9</ele></trkpt>
   <trkpt lon="-9.400849" lat="39.365703"><ele>17.6</ele></trkpt>
   <trkpt lon="-9.400811" lat="39.365690"><ele>17.6</ele></trkpt>
   <trkpt lon="-9.400785" lat="39.365698"><ele>17.7</ele></trkpt>
   <trkpt lon="-9.400769" lat="39.365718"><ele>17.9</ele></trkpt>
   <trkpt lon="-9.400745" lat="39.365712"><ele>18.0</ele></trkpt>
   <trkpt lon="-9.399141" lat="39.365315"><ele>18.1</ele></trkpt>
   <trkpt lon="-9.398422" lat="39.365135"><ele>18.2</ele></trkpt>
   <trkpt lon="-9.398296" lat="39.365089"><ele>18.1</ele></trkpt>
   <trkpt lon="-9.397979" lat="39.364968"><ele>17.9</ele></trkpt>
   <trkpt lon="-9.397841" lat="39.364913"><ele>17.6</ele></trkpt>
   <trkpt lon="-9.397402" lat="39.364729"><ele>17.4</ele></trkpt>
   <trkpt lon="-9.397264" lat="39.364664"><ele>17.2</ele></trkpt>
   <trkpt lon="-9.396011" lat="39.364103"><ele>16.8</ele></trkpt>
   <trkpt lon="-9.395374" lat="39.363805"><ele>16.5</ele></trkpt>
   <trkpt lon="-9.395036" lat="39.363638"><ele>16.2</ele></trkpt>
   <trkpt lon="-9.394736" lat="39.363479"><ele>15.9</ele></trkpt>
   <trkpt lon="-9.394427" lat="39.363294"><ele>15.6</ele></trkpt>
   <trkpt lon="-9.394427" lat="39.363293"><ele>15.6</ele><sym>pass_place</sym><type>Shaping</type></trkpt>
   <trkpt lon="-9.394295" lat="39.363220"><ele>15.5</ele></trkpt>
   <trkpt lon="-9.394285" lat="39.363215"><ele>15.4</ele></trkpt>
   <trkpt lon="-9.394150" lat="39.363153"><ele>15.3</ele></trkpt>
   <trkpt lon="-9.394001" lat="39.363094"><ele>15.2</ele></trkpt>
   <trkpt lon="-9.393282" lat="39.362860"><ele>15.0</ele></trkpt>
   <trkpt lon="-9.392916" lat="39.362704"><ele>14.8</ele></trkpt>
   <trkpt lon="-9.392658" lat="39.362568"><ele>14.7</ele></trkpt>
   <trkpt lon="-9.392618" lat="39.362547"><ele>14.6</ele></trkpt>
   <trkpt lon="-9.392434" lat="39.362452"><ele>14.5</ele></trkpt>
   <trkpt lon="-9.392082" lat="39.362202"><ele>14.4</ele></trkpt>
   <trkpt lon="-9.391980" lat="39.362085"><ele>14.4</ele></trkpt>
   <trkpt lon="-9.391846" lat="39.361925"><ele>14.4</ele></trkpt>
   <trkpt lon="-9.391720" lat="39.361783"><ele>14.5</ele></trkpt>
   <trkpt lon="-9.391598" lat="39.361651"><ele>14.7</ele></trkpt>
   <trkpt lon="-9.391418" lat="39.361473"><ele>14.9</ele></trkpt>
   <trkpt lon="-9.391234" lat="39.361417"><ele>15.2</ele></trkpt>
   <trkpt lon="-9.391145" lat="39.361389"><ele>15.4</ele></trkpt>
   <trkpt lon="-9.391082" lat="39.361366"><ele>15.6</ele></trkpt>
   <trkpt lon="-9.391020" lat="39.361342"><ele>15.8</ele><sym>roundabout_e2</sym></trkpt>
   <trkpt lon="-9.391021" lat="39.361311"><ele>15.9</ele></trkpt>
   <trkpt lon="-9.391012" lat="39.361281"><ele>16.1</ele></trkpt>
   <trkpt lon="-9.390992" lat="39.361254"><ele>16.2</ele></trkpt>
   <trkpt lon="-9.390963" lat="39.361233"><ele>16.2</ele></trkpt>
   <trkpt lon="-9.390926" lat="39.361218"><ele>16.3</ele></trkpt>
   <trkpt lon="-9.390886" lat="39.361213"><ele>16.3</ele></trkpt>
   <trkpt lon="-9.390845" lat="39.361216"><ele>16.3</ele></trkpt>
   <trkpt lon="-9.390807" lat="39.361229"><ele>16.6</ele></trkpt>
   <trkpt lon="-9.390776" lat="39.361250"><ele>17.0</ele></trkpt>
   <trkpt lon="-9.390753" lat="39.361276"><ele>17.4</ele></trkpt>
   <trkpt lon="-9.390689" lat="39.361258"><ele>17.7</ele></trkpt>
   <trkpt lon="-9.390558" lat="39.361222"><ele>17.9</ele></trkpt>
   <trkpt lon="-9.389708" lat="39.360957"><ele>17.7</ele></trkpt>
   <trkpt lon="-9.389438" lat="39.360876"><ele>17.4</ele></trkpt>
   <trkpt lon="-9.388522" lat="39.360590"><ele>17.2</ele></trkpt>
   <trkpt lon="-9.388174" lat="39.360482"><ele>17.0</ele></trkpt>
   <trkpt lon="-9.387951" lat="39.360414"><ele>16.8</ele></trkpt>
   <trkpt lon="-9.387420" lat="39.360278"><ele>16.4</ele></trkpt>
   <trkpt lon="-9.387197" lat="39.360239"><ele>15.8</ele></trkpt>
   <trkpt lon="-9.386932" lat="39.360210"><ele>15.1</ele></trkpt>
   <trkpt lon="-9.386433" lat="39.360184"><ele>14.3</ele></trkpt>
   <trkpt lon="-9.386251" lat="39.360177"><ele>13.6</ele></trkpt>
   <trkpt lon="-9.385983" lat="39.360171"><ele>12.8</ele></trkpt>
   <trkpt lon="-9.385839" lat="39.360159"><ele>12.5</ele></trkpt>
   <trkpt lon="-9.385714" lat="39.360132"><ele>12.3</ele></trkpt>
   <trkpt lon="-9.385604" lat="39.360062"><ele>12.0</ele></trkpt>
   <trkpt lon="-9.384992" lat="39.359565"><ele>11.6</ele></trkpt>
   <trkpt lon="-9.384543" lat="39.359271"><ele>11.3</ele></trkpt>
   <trkpt lon="-9.384511" lat="39.359251"><ele>10.9</ele></trkpt>
   <trkpt lon="-9.384437" lat="39.359212"><ele>10.5</ele></trkpt>
   <trkpt lon="-9.384325" lat="39.359169"><ele>10.1</ele></trkpt>
   <trkpt lon="-9.384243" lat="39.359151"><ele>9.7</ele></trkpt>
   <trkpt lon="-9.384155" lat="39.359145"><ele>9.5</ele><sym>left_slight</sym></trkpt>
   <trkpt lon="-9.383847" lat="39.359294"><ele>9.2</ele></trkpt>
   <trkpt lon="-9.383820" lat="39.359310"><ele>8.9</ele></trkpt>
   <trkpt lon="-9.383714" lat="39.359371"><ele>8.5</ele></trkpt>
   <trkpt lon="-9.383616" lat="39.359426"><ele>8.3</ele></trkpt>
   <trkpt lon="-9.383572" lat="39.359456"><ele>7.9</ele></trkpt>
   <trkpt lon="-9.383406" lat="39.359570"><ele>7.6</ele></trkpt>
   <trkpt lon="-9.383225" lat="39.359715"><ele>7.3</ele></trkpt>
   <trkpt lon="-9.383145" lat="39.359794"><ele>7.1</ele></trkpt>
   <trkpt lon="-9.383073" lat="39.359883"><ele>6.9</ele></trkpt>
   <trkpt lon="-9.382954" lat="39.360058"><ele>6.8</ele></trkpt>
   <trkpt lon="-9.382865" lat="39.360218"><ele>6.6</ele></trkpt>
   <trkpt lon="-9.382795" lat="39.360402"><ele>6.7</ele></trkpt>
   <trkpt lon="-9.382772" lat="39.360469"><ele>6.8</ele></trkpt>
   <trkpt lon="-9.382754" lat="39.360524"><ele>7.0</ele></trkpt>
   <trkpt lon="-9.382737" lat="39.360567"><ele>7.0</ele></trkpt>
   <trkpt lon="-9.382718" lat="39.360623"><ele>7.1</ele></trkpt>
   <trkpt lon="-9.382521" lat="39.361160"><ele>7.2</ele></trkpt>
   <trkpt lon="-9.382472" lat="39.361288"><ele>7.3</ele></trkpt>
   <trkpt lon="-9.382448" lat="39.361348"><ele>7.4</ele><sym>roundabout_e3</sym></trkpt>
   <trkpt lon="-9.382386" lat="39.361342"><ele>7.5</ele></trkpt>
   <trkpt lon="-9.382324" lat="39.361350"><ele>7.6</ele></trkpt>
   <trkpt lon="-9.382268" lat="39.361372"><ele>7.7</ele></trkpt>
   <trkpt lon="-9.382208" lat="39.361423"><ele>7.6</ele></trkpt>
   <trkpt lon="-9.382188" lat="39.361461"><ele>7.5</ele></trkpt>
   <trkpt lon="-9.382180" lat="39.361502"><ele>7.5</ele></trkpt>
   <trkpt lon="-9.382184" lat="39.361538"><ele>7.6</ele></trkpt>
   <trkpt lon="-9.382199" lat="39.361573"><ele>7.7</ele></trkpt>
   <trkpt lon="-9.382232" lat="39.361613"><ele>7.9</ele></trkpt>
   <trkpt lon="-9.382279" lat="39.361644"><ele>8.1</ele></trkpt>
   <trkpt lon="-9.382335" lat="39.361663"><ele>8.4</ele></trkpt>
   <trkpt lon="-9.382303" lat="39.361749"><ele>8.9</ele></trkpt>
   <trkpt lon="-9.382271" lat="39.361836"><ele>9.5</ele></trkpt>
   <trkpt lon="-9.382091" lat="39.362320"><ele>10.3</ele></trkpt>
   <trkpt lon="-9.382031" lat="39.362487"><ele>10.8</ele></trkpt>
   <trkpt lon="-9.381986" lat="39.362603"><ele>11.4</ele></trkpt>
   <trkpt lon="-9.381912" lat="39.362869"><ele>11.8</ele></trkpt>
   <trkpt lon="-9.381889" lat="39.363014"><ele>12.3</ele></trkpt>
   <trkpt lon="-9.381897" lat="39.363150"><ele>12.7</ele></trkpt>
   <trkpt lon="-9.382079" lat="39.363847"><ele>13.0</ele></trkpt>
   <trkpt lon="-9.382114" lat="39.363981"><ele>13.2</ele></trkpt>
   <trkpt lon="-9.382179" lat="39.364223"><ele>13.2</ele></trkpt>
   <trkpt lon="-9.382185" lat="39.364246"><ele>12.9</ele></trkpt>
   <trkpt lon="-9.382285" lat="39.364603"><ele>12.2</ele><sym>right_slight</sym></trkpt>
   <trkpt lon="-9.382171" lat="39.364690"><ele>11.5</ele></trkpt>
   <trkpt lon="-9.381893" lat="39.364924"><ele>10.8</ele></trkpt>
   <trkpt lon="-9.381723" lat="39.365068"><ele>10.2</ele></trkpt>
   <trkpt lon="-9.381493" lat="39.365261"><ele>9.7</ele></trkpt>
   <trkpt lon="-9.381108" lat="39.365587"><ele>9.3</ele></trkpt>
   <trkpt lon="-9.381019" lat="39.365661"><ele>8.9</ele></trkpt>
   <trkpt lon="-9.380644" lat="39.365977"><ele>8.5</ele></trkpt>
   <trkpt lon="-9.380470" lat="39.366126"><ele>8.2</ele></trkpt>
   <trkpt lon="-9.380365" lat="39.366213"><ele>8.0</ele></trkpt>
   <trkpt lon="-9.380233" lat="39.366345"><ele>7.9</ele></trkpt>
   <trkpt lon="-9.380142" lat="39.366435"><ele>8.0</ele></trkpt>
   <trkpt lon="-9.379993" lat="39.366643"><ele>8.2</ele></trkpt>
   <trkpt lon="-9.379833" lat="39.366916"><ele>8.3</ele></trkpt>
   <trkpt lon="-9.379790" lat="39.366954"><ele>8.4</ele><sym>left</sym></trkpt>
   <trkpt lon="-9.379881" lat="39.367041"><ele>8.3</ele><sym>right_slight</sym></trkpt>
   <trkpt lon="-9.379838" lat="39.367099"><ele>8.2</ele></trkpt>
   <trkpt lon="-9.379660" lat="39.367528"><ele>8.3</ele><sym>pass_place</sym><type>Shaping</type></trkpt>
   <trkpt lon="-9.379658" lat="39.367533"><ele>8.3</ele></trkpt>
   <trkpt lon="-9.379427" lat="39.368243"><ele>8.5</ele></trkpt>
   <trkpt lon="-9.379404" lat="39.368307"><ele>8.8</ele><sym>right</sym></trkpt>
   <trkpt lon="-9.379236" lat="39.368276"><ele>9.0</ele></trkpt>
   <trkpt lon="-9.378483" lat="39.368169"><ele>9.3</ele></trkpt>
   <trkpt lon="-9.378268" lat="39.368126"><ele>9.4</ele></trkpt>
   <trkpt lon="-9.378115" lat="39.368078"><ele>9.4</ele></trkpt>
   <trkpt lon="-9.377770" lat="39.367933"><ele>9.6</ele></trkpt>
   <trkpt lon="-9.377538" lat="39.367825"><ele>9.8</ele><sym>right</sym></trkpt>
   <trkpt lon="-9.377576" lat="39.367779"><ele>10.0</ele></trkpt>
   <trkpt lon="-9.377600" lat="39.367593"><ele>10.0</ele></trkpt>
   <trkpt lon="-9.377607" lat="39.367418"><ele>9.9</ele></trkpt>
   <trkpt lon="-9.377616" lat="39.367349"><ele>9.8</ele><sym>right</sym></trkpt>
   <trkpt lon="-9.377666" lat="39.367362"><ele>9.7</ele><sym>right</sym></trkpt>
   <trkpt lon="-9.377664" lat="39.367419"><ele>9.7</ele><sym>u-turn</sym><type>Via</type></trkpt>
   <trkpt lon="-9.377666" lat="39.367362"><ele>9.7</ele><sym>left_slight</sym></trkpt>
   <trkpt lon="-9.377616" lat="39.367349"><ele>9.7</ele><sym>left</sym></trkpt>
   <trkpt lon="-9.377607" lat="39.367418"><ele>9.6</ele></trkpt>
   <trkpt lon="-9.377600" lat="39.367593"><ele>9.5</ele></trkpt>
   <trkpt lon="-9.377576" lat="39.367779"><ele>9.4</ele></trkpt>
   <trkpt lon="-9.377538" lat="39.367825"><ele>9.2</ele><sym>right</sym></trkpt>
   <trkpt lon="-9.377398" lat="39.367754"><ele>9.0</ele></trkpt>
   <trkpt lon="-9.377191" lat="39.367661"><ele>8.9</ele></trkpt>
   <trkpt lon="-9.376705" lat="39.367426"><ele>8.6</ele></trkpt>
   <trkpt lon="-9.376315" lat="39.367240"><ele>8.1</ele></trkpt>
   <trkpt lon="-9.376228" lat="39.367195"><ele>7.4</ele></trkpt>
   <trkpt lon="-9.375906" lat="39.367004"><ele>6.7</ele></trkpt>
   <trkpt lon="-9.375838" lat="39.366945"><ele>6.1</ele></trkpt>
   <trkpt lon="-9.375771" lat="39.366857"><ele>5.6</ele></trkpt>
   <trkpt lon="-9.375387" lat="39.366167"><ele>5.2</ele></trkpt>
   <trkpt lon="-9.375343" lat="39.366086"><ele>4.8</ele></trkpt>
   <trkpt lon="-9.375263" lat="39.365944"><ele>4.3</ele></trkpt>
   <trkpt lon="-9.375147" lat="39.365725"><ele>4.0</ele><sym>roundabout_e2</sym></trkpt>
   <trkpt lon="-9.375172" lat="39.365707"><ele>3.6</ele></trkpt>
   <trkpt lon="-9.375181" lat="39.365691"><ele>3.2</ele></trkpt>
   <trkpt lon="-9.375177" lat="39.365657"><ele>2.8</ele></trkpt>
   <trkpt lon="-9.375164" lat="39.365643"><ele>2.5</ele></trkpt>
   <trkpt lon="-9.375125" lat="39.365628"><ele>2.2</ele></trkpt>
   <trkpt lon="-9.375091" lat="39.365631"><ele>2.0</ele></trkpt>
   <trkpt lon="-9.374927" lat="39.365391"><ele>1.8</ele></trkpt>
   <trkpt lon="-9.374658" lat="39.364987"><ele>1.7</ele></trkpt>
   <trkpt lon="-9.374637" lat="39.364955"><ele>1.6</ele></trkpt>
   <trkpt lon="-9.374530" lat="39.364796"><ele>1.5</ele></trkpt>
   <trkpt lon="-9.374285" lat="39.364551"><ele>1.4</ele></trkpt>
   <trkpt lon="-9.374149" lat="39.364445"><ele>1.3</ele></trkpt>
   <trkpt lon="-9.373914" lat="39.364268"><ele>1.2</ele></trkpt>
   <trkpt lon="-9.373783" lat="39.364172"><ele>1.3</ele></trkpt>
   <trkpt lon="-9.373667" lat="39.364083"><ele>1.4</ele></trkpt>
   <trkpt lon="-9.373532" lat="39.363973"><ele>1.4</ele></trkpt>
   <trkpt lon="-9.373356" lat="39.363847"><ele>1.5</ele></trkpt>
   <trkpt lon="-9.372989" lat="39.363579"><ele>1.9</ele></trkpt>
   <trkpt lon="-9.372663" lat="39.363330"><ele>2.2</ele></trkpt>
   <trkpt lon="-9.372625" lat="39.363301"><ele>2.5</ele></trkpt>
   <trkpt lon="-9.370762" lat="39.361894"><ele>2.7</ele></trkpt>
   <trkpt lon="-9.370604" lat="39.361775"><ele>2.7</ele></trkpt>
   <trkpt lon="-9.369534" lat="39.360986"><ele>2.8</ele></trkpt>
   <trkpt lon="-9.368908" lat="39.360524"><ele>3.0</ele></trkpt>
   <trkpt lon="-9.368793" lat="39.360440"><ele>3.3</ele></trkpt>
   <trkpt lon="-9.368639" lat="39.360326"><ele>3.4</ele></trkpt>
   <trkpt lon="-9.368293" lat="39.360071"><ele>3.6</ele></trkpt>
   <trkpt lon="-9.367422" lat="39.359423"><ele>3.6</ele></trkpt>
   <trkpt lon="-9.367235" lat="39.359284"><ele>3.2</ele></trkpt>
   <trkpt lon="-9.367049" lat="39.359145"><ele>2.8</ele></trkpt>
   <trkpt lon="-9.366992" lat="39.359103"><ele>2.4</ele></trkpt>
   <trkpt lon="-9.366740" lat="39.358916"><ele>2.1</ele></trkpt>
   <trkpt lon="-9.366688" lat="39.358877"><ele>2.0</ele></trkpt>
   <trkpt lon="-9.366480" lat="39.358705"><ele>2.0</ele></trkpt>
   <trkpt lon="-9.366372" lat="39.358534"><ele>1.8</ele></trkpt>
   <trkpt lon="-9.366338" lat="39.358465"><ele>1.6</ele><sym>roundabout_e3</sym></trkpt>
   <trkpt lon="-9.366349" lat="39.358405"><ele>1.4</ele></trkpt>
   <trkpt lon="-9.366339" lat="39.358361"><ele>1.4</ele></trkpt>
   <trkpt lon="-9.366311" lat="39.358325"><ele>1.3</ele></trkpt>
   <trkpt lon="-9.366275" lat="39.358295"><ele>1.3</ele></trkpt>
   <trkpt lon="-9.366221" lat="39.358261"><ele>1.4</ele></trkpt>
   <trkpt lon="-9.366156" lat="39.358240"><ele>1.4</ele></trkpt>
   <trkpt lon="-9.366078" lat="39.358235"><ele>1.3</ele></trkpt>
   <trkpt lon="-9.366001" lat="39.358248"><ele>1.1</ele></trkpt>
   <trkpt lon="-9.365929" lat="39.358282"><ele>0.9</ele></trkpt>
   <trkpt lon="-9.365876" lat="39.358333"><ele>0.7</ele></trkpt>
   <trkpt lon="-9.365848" lat="39.358394"><ele>0.5</ele></trkpt>
   <trkpt lon="-9.365845" lat="39.358443"><ele>0.3</ele></trkpt>
   <trkpt lon="-9.365858" lat="39.358491"><ele>0.2</ele></trkpt>
   <trkpt lon="-9.365786" lat="39.358627"><ele>0.0</ele></trkpt>
   <trkpt lon="-9.365741" lat="39.358690"><ele>-0.1</ele></trkpt>
   <trkpt lon="-9.365684" lat="39.358761"><ele>-0.2</ele></trkpt>
   <trkpt lon="-9.365530" lat="39.358857"><ele>-0.2</ele></trkpt>
   <trkpt lon="-9.365428" lat="39.358910"><ele>-0.2</ele></trkpt>
   <trkpt lon="-9.365330" lat="39.358951"><ele>-0.1</ele></trkpt>
   <trkpt lon="-9.365237" lat="39.358983"><ele>0.1</ele></trkpt>
   <trkpt lon="-9.365135" lat="39.359007"><ele>0.3</ele></trkpt>
   <trkpt lon="-9.365013" lat="39.359023"><ele>0.4</ele></trkpt>
   <trkpt lon="-9.364877" lat="39.359032"><ele>0.5</ele></trkpt>
   <trkpt lon="-9.364534" lat="39.359019"><ele>0.6</ele></trkpt>
   <trkpt lon="-9.363973" lat="39.358983"><ele>0.6</ele></trkpt>
   <trkpt lon="-9.363659" lat="39.358963"><ele>0.7</ele><sym>u-turn_right</sym></trkpt>
   <trkpt lon="-9.363660" lat="39.358958"><ele>0.8</ele><sym>pass_place</sym><type>Shaping</type></trkpt>
   <trkpt lon="-9.363659" lat="39.358963"><ele>0.9</ele></trkpt>
   <trkpt lon="-9.363293" lat="39.358941"><ele>1.4</ele></trkpt>
   <trkpt lon="-9.363197" lat="39.358936"><ele>1.6</ele></trkpt>
   <trkpt lon="-9.362528" lat="39.358879"><ele>1.8</ele></trkpt>
   <trkpt lon="-9.362288" lat="39.358856"><ele>2.0</ele></trkpt>
   <trkpt lon="-9.362069" lat="39.358826"><ele>2.5</ele></trkpt>
   <trkpt lon="-9.361307" lat="39.358702"><ele>2.8</ele></trkpt>
   <trkpt lon="-9.360650" lat="39.358560"><ele>3.3</ele></trkpt>
   <trkpt lon="-9.360165" lat="39.358435"><ele>3.7</ele></trkpt>
   <trkpt lon="-9.359909" lat="39.358360"><ele>4.2</ele></trkpt>
   <trkpt lon="-9.359434" lat="39.358204"><ele>4.6</ele></trkpt>
   <trkpt lon="-9.358732" lat="39.357943"><ele>5.0</ele></trkpt>
   <trkpt lon="-9.357511" lat="39.357438"><ele>5.1</ele></trkpt>
   <trkpt lon="-9.357284" lat="39.357343"><ele>5.5</ele></trkpt>
   <trkpt lon="-9.356669" lat="39.357094"><ele>5.7</ele></trkpt>
   <trkpt lon="-9.356561" lat="39.357052"><ele>5.7</ele></trkpt>
   <trkpt lon="-9.356317" lat="39.356974"><ele>5.5</ele></trkpt>
   <trkpt lon="-9.356153" lat="39.356926"><ele>5.5</ele></trkpt>
   <trkpt lon="-9.356036" lat="39.356896"><ele>5.3</ele></trkpt>
   <trkpt lon="-9.355665" lat="39.356835"><ele>5.2</ele></trkpt>
   <trkpt lon="-9.355440" lat="39.356813"><ele>5.7</ele></trkpt>
   <trkpt lon="-9.355076" lat="39.356800"><ele>6.1</ele></trkpt>
   <trkpt lon="-9.354756" lat="39.356821"><ele>6.3</ele></trkpt>
   <trkpt lon="-9.354560" lat="39.356845"><ele>6.4</ele></trkpt>
   <trkpt lon="-9.353924" lat="39.356950"><ele>6.4</ele></trkpt>
   <trkpt lon="-9.347325" lat="39.358056"><ele>6.6</ele></trkpt>
   <trkpt lon="-9.347108" lat="39.358100"><ele>6.8</ele></trkpt>
   <trkpt lon="-9.346753" lat="39.358208"><ele>7.0</ele></trkpt>
   <trkpt lon="-9.346604" lat="39.358268"><ele>7.1</ele></trkpt>
   <trkpt lon="-9.346302" lat="39.358414"><ele>7.3</ele></trkpt>
   <trkpt lon="-9.346146" lat="39.358501"><ele>7.3</ele></trkpt>
   <trkpt lon="-9.344696" lat="39.359423"><ele>6.8</ele></trkpt>
   <trkpt lon="-9.344329" lat="39.359635"><ele>6.5</ele></trkpt>
   <trkpt lon="-9.344012" lat="39.359800"><ele>6.4</ele><sym>pass_place</sym><type>Shaping</type></trkpt>
   <trkpt lon="-9.343755" lat="39.359933"><ele>6.1</ele></trkpt>
   <trkpt lon="-9.341370" lat="39.361162"><ele>6.0</ele></trkpt>
   <trkpt lon="-9.339333" lat="39.362248"><ele>5.9</ele></trkpt>
   <trkpt lon="-9.339135" lat="39.362390"><ele>5.7</ele></trkpt>
   <trkpt lon="-9.338790" lat="39.362701"><ele>5.6</ele></trkpt>
   <trkpt lon="-9.338557" lat="39.362997"><ele>5.5</ele></trkpt>
   <trkpt lon="-9.338411" lat="39.363244"><ele>5.4</ele></trkpt>
   <trkpt lon="-9.338274" lat="39.363509"><ele>5.3</ele></trkpt>
   <trkpt lon="-9.338189" lat="39.363681"><ele>5.4</ele></trkpt>
   <trkpt lon="-9.338119" lat="39.363822"><ele>5.4</ele></trkpt>
   <trkpt lon="-9.338092" lat="39.363877"><ele>5.3</ele></trkpt>
   <trkpt lon="-9.337982" lat="39.364099"><ele>5.4</ele></trkpt>
   <trkpt lon="-9.337815" lat="39.364436"><ele>5.6</ele></trkpt>
   <trkpt lon="-9.337452" lat="39.365185"><ele>5.7</ele></trkpt>
   <trkpt lon="-9.337383" lat="39.365328"><ele>5.8</ele></trkpt>
   <trkpt lon="-9.337321" lat="39.365457"><ele>6.0</ele></trkpt>
   <trkpt lon="-9.337284" lat="39.365528"><ele>6.3</ele></trkpt>
   <trkpt lon="-9.337151" lat="39.365782"><ele>6.6</ele></trkpt>
   <trkpt lon="-9.337023" lat="39.366029"><ele>7.2</ele></trkpt>
   <trkpt lon="-9.337000" lat="39.366072"><ele>7.4</ele></trkpt>
   <trkpt lon="-9.336977" lat="39.366114"><ele>7.7</ele></trkpt>
   <trkpt lon="-9.336885" lat="39.366315"><ele>7.8</ele></trkpt>
   <trkpt lon="-9.336814" lat="39.366488"><ele>7.9</ele></trkpt>
   <trkpt lon="-9.336770" lat="39.366675"><ele>7.9</ele></trkpt>
   <trkpt lon="-9.336760" lat="39.366758"><ele>7.9</ele></trkpt>
   <trkpt lon="-9.336739" lat="39.366956"><ele>7.9</ele></trkpt>
   <trkpt lon="-9.336719" lat="39.367829"><ele>8.0</ele></trkpt>
   <trkpt lon="-9.336703" lat="39.368525"><ele>7.9</ele></trkpt>
   <trkpt lon="-9.336688" lat="39.369012"><ele>7.6</ele></trkpt>
   <trkpt lon="-9.336685" lat="39.369092"><ele>7.2</ele></trkpt>
   <trkpt lon="-9.336684" lat="39.369184"><ele>6.9</ele></trkpt>
   <trkpt lon="-9.336681" lat="39.369346"><ele>6.7</ele></trkpt>
   <trkpt lon="-9.336675" lat="39.369597"><ele>6.4</ele></trkpt>
   <trkpt lon="-9.336657" lat="39.370513"><ele>6.1</ele></trkpt>
   <trkpt lon="-9.336650" lat="39.370817"><ele>5.8</ele></trkpt>
   <trkpt lon="-9.336642" lat="39.371056"><ele>5.7</ele></trkpt>
   <trkpt lon="-9.336634" lat="39.371301"><ele>5.6</ele></trkpt>
   <trkpt lon="-9.336623" lat="39.371644"><ele>5.5</ele></trkpt>
   <trkpt lon="-9.336614" lat="39.371909"><ele>5.6</ele></trkpt>
   <trkpt lon="-9.336611" lat="39.372005"><ele>5.8</ele><sym>right_slight</sym></trkpt>
   <trkpt lon="-9.336519" lat="39.372146"><ele>6.1</ele></trkpt>
   <trkpt lon="-9.336464" lat="39.372204"><ele>6.3</ele></trkpt>
   <trkpt lon="-9.336391" lat="39.372268"><ele>6.3</ele></trkpt>
   <trkpt lon="-9.336312" lat="39.372320"><ele>6.6</ele></trkpt>
   <trkpt lon="-9.336284" lat="39.372341"><ele>7.2</ele></trkpt>
   <trkpt lon="-9.336165" lat="39.372390"><ele>7.7</ele></trkpt>
   <trkpt lon="-9.335900" lat="39.372463"><ele>8.1</ele><sym>right_slight</sym></trkpt>
   <trkpt lon="-9.335502" lat="39.372364"><ele>8.5</ele></trkpt>
   <trkpt lon="-9.335036" lat="39.372249"><ele>8.9</ele></trkpt>
   <trkpt lon="-9.334823" lat="39.372196"><ele>9.4</ele></trkpt>
   <trkpt lon="-9.334822" lat="39.372195"><ele>9.4</ele><sym>pass_place</sym><type>Shaping</type></trkpt>
   <trkpt lon="-9.334754" lat="39.372177"><ele>10.2</ele></trkpt>
   <trkpt lon="-9.333782" lat="39.371915"><ele>11.1</ele></trkpt>
   <trkpt lon="-9.333557" lat="39.371864"><ele>11.9</ele></trkpt>
   <trkpt lon="-9.331932" lat="39.371446"><ele>12.7</ele></trkpt>
   <trkpt lon="-9.331762" lat="39.371401"><ele>13.5</ele></trkpt>
   <trkpt lon="-9.331199" lat="39.371252"><ele>14.3</ele></trkpt>
   <trkpt lon="-9.330496" lat="39.371067"><ele>15.2</ele></trkpt>
   <trkpt lon="-9.330210" lat="39.370992"><ele>15.9</ele></trkpt>
   <trkpt lon="-9.329281" lat="39.370750"><ele>16.5</ele></trkpt>
   <trkpt lon="-9.328936" lat="39.370630"><ele>16.9</ele></trkpt>
   <trkpt lon="-9.328739" lat="39.370525"><ele>17.3</ele></trkpt>
   <trkpt lon="-9.328100" lat="39.370136"><ele>17.4</ele></trkpt>
   <trkpt lon="-9.326987" lat="39.369452"><ele>17.6</ele></trkpt>
   <trkpt lon="-9.326686" lat="39.369260"><ele>17.9</ele></trkpt>
   <trkpt lon="-9.326275" lat="39.369007"><ele>18.1</ele></trkpt>
   <trkpt lon="-9.323690" lat="39.367410"><ele>18.3</ele></trkpt>
   <trkpt lon="-9.323569" lat="39.367336"><ele>18.4</ele></trkpt>
   <trkpt lon="-9.321869" lat="39.366297"><ele>18.5</ele></trkpt>
   <trkpt lon="-9.321174" lat="39.365844"><ele>18.7</ele></trkpt>
   <trkpt lon="-9.321003" lat="39.365736"><ele>18.9</ele></trkpt>
   <trkpt lon="-9.320869" lat="39.365658"><ele>19.1</ele></trkpt>
   <trkpt lon="-9.320298" lat="39.365307"><ele>19.2</ele></trkpt>
   <trkpt lon="-9.320231" lat="39.365263"><ele>19.4</ele></trkpt>
   <trkpt lon="-9.319763" lat="39.364940"><ele>19.4</ele></trkpt>
   <trkpt lon="-9.319506" lat="39.364756"><ele>19.5</ele></trkpt>
   <trkpt lon="-9.319430" lat="39.364701"><ele>19.5</ele></trkpt>
   <trkpt lon="-9.319208" lat="39.364544"><ele>19.6</ele></trkpt>
   <trkpt lon="-9.318982" lat="39.364373"><ele>19.7</ele></trkpt>
   <trkpt lon="-9.318737" lat="39.364188"><ele>19.8</ele></trkpt>
   <trkpt lon="-9.318634" lat="39.364127"><ele>20.1</ele></trkpt>
   <trkpt lon="-9.318577" lat="39.364105"><ele>20.4</ele></trkpt>
   <trkpt lon="-9.318514" lat="39.364095"><ele>20.7</ele></trkpt>
   <trkpt lon="-9.318398" lat="39.364101"><ele>21.0</ele></trkpt>
   <trkpt lon="-9.318080" lat="39.364149"><ele>21.4</ele></trkpt>
   <trkpt lon="-9.317709" lat="39.364209"><ele>21.7</ele></trkpt>
   <trkpt lon="-9.317619" lat="39.364222"><ele>22.1</ele></trkpt>
   <trkpt lon="-9.317516" lat="39.364227"><ele>22.4</ele></trkpt>
   <trkpt lon="-9.317424" lat="39.364224"><ele>22.7</ele></trkpt>
   <trkpt lon="-9.317319" lat="39.364200"><ele>23.0</ele></trkpt>
   <trkpt lon="-9.317248" lat="39.364166"><ele>23.0</ele></trkpt>
   <trkpt lon="-9.316979" lat="39.364001"><ele>22.9</ele></trkpt>
   <trkpt lon="-9.316724" lat="39.363862"><ele>22.8</ele></trkpt>
   <trkpt lon="-9.316676" lat="39.363840"><ele>22.7</ele></trkpt>
   <trkpt lon="-9.316586" lat="39.363801"><ele>22.6</ele><sym>right_slight</sym></trkpt>
   <trkpt lon="-9.316483" lat="39.363699"><ele>22.4</ele></trkpt>
   <trkpt lon="-9.316444" lat="39.363657"><ele>22.3</ele><sym>roundabout_e3</sym></trkpt>
   <trkpt lon="-9.316435" lat="39.363621"><ele>22.1</ele></trkpt>
   <trkpt lon="-9.316421" lat="39.363605"><ele>21.9</ele></trkpt>
   <trkpt lon="-9.316388" lat="39.363587"><ele>21.8</ele></trkpt>
   <trkpt lon="-9.316368" lat="39.363583"><ele>21.7</ele></trkpt>
   <trkpt lon="-9.316328" lat="39.363586"><ele>21.7</ele></trkpt>
   <trkpt lon="-9.316284" lat="39.363611"><ele>21.7</ele></trkpt>
   <trkpt lon="-9.316268" lat="39.363641"><ele>21.7</ele></trkpt>
   <trkpt lon="-9.316271" lat="39.363673"><ele>21.8</ele></trkpt>
   <trkpt lon="-9.316307" lat="39.363709"><ele>21.9</ele></trkpt>
   <trkpt lon="-9.316344" lat="39.363719"><ele>22.1</ele></trkpt>
   <trkpt lon="-9.316384" lat="39.363716"><ele>22.2</ele></trkpt>
   <trkpt lon="-9.316433" lat="39.363737"><ele>22.3</ele><sym>right</sym></trkpt>
   <trkpt lon="-9.316179" lat="39.364118"><ele>22.4</ele><sym>straight</sym></trkpt>
   <trkpt lon="-9.316121" lat="39.364143"><ele>22.5</ele></trkpt>
   <trkpt lon="-9.315982" lat="39.364250"><ele>22.6</ele><sym>pass_place</sym><type>Via</type></trkpt>
  </trkseg>
 </trk>
</gpx>
