<?xml version="1.0" encoding="UTF-8"?>
<!-- track-length = 30777 filtered ascend = 396 plain-ascend = 1 cost=45902 energy=.2kwh time=1h 52m 45s -->
<gpx 
 xmlns="http://www.topografix.com/GPX/1/1" 
 xmlns:xsi="http://www.w3.org/2001/XMLSchema-instance" 
 xsi:schemaLocation="http://www.topografix.com/GPX/1/1 http://www.topografix.com/GPX/1/1/gpx.xsd" 
 creator="BRouter-1.7.9" version="1.1"><wpt lat="39.36411" lon="-9.31784"><name>Pasteleria Ferreleja</name><sym>Restaurant</sym></wpt><wpt lat="39.33206" lon="-9.26988"><name>A Serrana</name><sym>Restaurant</sym></wpt><wpt lat="39.34957" lon="-9.28944"><name>cafe Mercearia</name><sym>Restaurant</sym></wpt><wpt lat="39.36375" lon="-9.31618"><name>Café Central</name><sym>Restaurant</sym></wpt><wpt lat="39.33734" lon="-9.32586"><name>SbikeShop</name><sym>Bike Trail</sym></wpt><wpt lat="39.33592" lon="-9.32524"><name>Arcadas do Jardim</name><sym>Restaurant</sym></wpt><wpt lat="39.33615" lon="-9.3263"><name>Entre Amigos</name><sym>Restaurant</sym></wpt><wpt lat="39.33984" lon="-9.32715"><name>Forne da Vila</name><sym>Restaurant</sym></wpt>
 <trk>
  <src>brouter_fastbike-lowtraffic_0</src>
  <type>bike</type>
  <trkseg>
   <trkpt lon="-9.315982" lat="39.364250"><ele>26.25</ele><sym>pass_place</sym><type>Via</type></trkpt>
   <trkpt lon="-9.315923" lat="39.364295"><ele>26.75</ele></trkpt>
   <trkpt lon="-9.315793" lat="39.364266"><ele>26.5</ele><sym>right</sym></trkpt>
   <trkpt lon="-9.315828" lat="39.364198"><ele>26.0</ele></trkpt>
   <trkpt lon="-9.315915" lat="39.364030"><ele>25.5</ele></trkpt>
   <trkpt lon="-9.315870" lat="39.363883"><ele>24.75</ele><sym>right_slight</sym></trkpt>
   <trkpt lon="-9.315922" lat="39.363731"><ele>24.25</ele></trkpt>
   <trkpt lon="-9.316011" lat="39.363543"><ele>23.25</ele><sym>right</sym></trkpt>
   <trkpt lon="-9.316129" lat="39.363603"><ele>23.75</ele></trkpt>
   <trkpt lon="-9.316215" lat="39.363645"><ele>24.25</ele></trkpt>
   <trkpt lon="-9.316271" lat="39.363673"><ele>24.75</ele><sym>roundabout_e2</sym></trkpt>
   <trkpt lon="-9.316307" lat="39.363709"><ele>25.0</ele></trkpt>
   <trkpt lon="-9.316344" lat="39.363719"><ele>25.0</ele></trkpt>
   <trkpt lon="-9.316384" lat="39.363716"><ele>25.25</ele></trkpt>
   <trkpt lon="-9.316425" lat="39.363693"><ele>25.25</ele></trkpt>
   <trkpt lon="-9.316444" lat="39.363657"><ele>25.0</ele></trkpt>
   <trkpt lon="-9.316435" lat="39.363621"><ele>25.0</ele></trkpt>
   <trkpt lon="-9.316421" lat="39.363605"><ele>24.75</ele></trkpt>
   <trkpt lon="-9.316447" lat="39.363408"><ele>22.75</ele><sym>right_slight</sym></trkpt>
   <trkpt lon="-9.316593" lat="39.363210"><ele>21.75</ele></trkpt>
   <trkpt lon="-9.317096" lat="39.362510"><ele>22.0</ele></trkpt>
   <trkpt lon="-9.318017" lat="39.361207"><ele>19.0</ele></trkpt>
   <trkpt lon="-9.318830" lat="39.360121"><ele>18.25</ele></trkpt>
   <trkpt lon="-9.318993" lat="39.359834"><ele>16.0</ele></trkpt>
   <trkpt lon="-9.319551" lat="39.358390"><ele>9.25</ele></trkpt>
   <trkpt lon="-9.319627" lat="39.358152"><ele>8.5</ele></trkpt>
   <trkpt lon="-9.319665" lat="39.357949"><ele>8.0</ele></trkpt>
   <trkpt lon="-9.319686" lat="39.357623"><ele>8.25</ele></trkpt>
   <trkpt lon="-9.319684" lat="39.357477"><ele>9.0</ele></trkpt>
   <trkpt lon="-9.319664" lat="39.357178"><ele>10.75</ele></trkpt>
   <trkpt lon="-9.319655" lat="39.357073"><ele>10.75</ele></trkpt>
   <trkpt lon="-9.319643" lat="39.356930"><ele>10.75</ele></trkpt>
   <trkpt lon="-9.319622" lat="39.356790"><ele>10.0</ele></trkpt>
   <trkpt lon="-9.319482" lat="39.356185"><ele>10.75</ele></trkpt>
   <trkpt lon="-9.319455" lat="39.356042"><ele>11.25</ele></trkpt>
   <trkpt lon="-9.319443" lat="39.355926"><ele>11.5</ele></trkpt>
   <trkpt lon="-9.319441" lat="39.355790"><ele>12.0</ele></trkpt>
   <trkpt lon="-9.319452" lat="39.355658"><ele>12.5</ele></trkpt>
   <trkpt lon="-9.319584" lat="39.354926"><ele>13.75</ele></trkpt>
   <trkpt lon="-9.319656" lat="39.354683"><ele>15.75</ele></trkpt>
   <trkpt lon="-9.319740" lat="39.354453"><ele>17.75</ele></trkpt>
   <trkpt lon="-9.319798" lat="39.354335"><ele>18.0</ele></trkpt>
   <trkpt lon="-9.319868" lat="39.354217"><ele>18.25</ele></trkpt>
   <trkpt lon="-9.320003" lat="39.354049"><ele>18.5</ele></trkpt>
   <trkpt lon="-9.320081" lat="39.353968"><ele>18.75</ele></trkpt>
   <trkpt lon="-9.320269" lat="39.353815"><ele>19.75</ele></trkpt>
   <trkpt lon="-9.321256" lat="39.353177"><ele>23.5</ele></trkpt>
   <trkpt lon="-9.321558" lat="39.352954"><ele>24.0</ele></trkpt>
   <trkpt lon="-9.321703" lat="39.352831"><ele>24.0</ele></trkpt>
   <trkpt lon="-9.321928" lat="39.352622"><ele>25.5</ele></trkpt>
   <trkpt lon="-9.322250" lat="39.352251"><ele>26.75</ele></trkpt>
   <trkpt lon="-9.322442" lat="39.351953"><ele>27.0</ele></trkpt>
   <trkpt lon="-9.322679" lat="39.351441"><ele>26.75</ele></trkpt>
   <trkpt lon="-9.323175" lat="39.350403"><ele>24.5</ele></trkpt>
   <trkpt lon="-9.323543" lat="39.349610"><ele>22.75</ele><sym>pass_place</sym><type>Shaping</type></trkpt>
   <trkpt lon="-9.324287" lat="39.347495"><ele>10.5</ele></trkpt>
   <trkpt lon="-9.324417" lat="39.347247"><ele>10.0</ele></trkpt>
   <trkpt lon="-9.324549" lat="39.347048"><ele>8.75</ele></trkpt>
   <trkpt lon="-9.324749" lat="39.346842"><ele>7.0</ele></trkpt>
   <trkpt lon="-9.324864" lat="39.346739"><ele>6.75</ele></trkpt>
   <trkpt lon="-9.325199" lat="39.346472"><ele>7.0</ele></trkpt>
   <trkpt lon="-9.325384" lat="39.346336"><ele>7.0</ele></trkpt>
   <trkpt lon="-9.325660" lat="39.346150"><ele>6.5</ele></trkpt>
   <trkpt lon="-9.325834" lat="39.346037"><ele>5.75</ele></trkpt>
   <trkpt lon="-9.326455" lat="39.345608"><ele>5.0</ele></trkpt>
   <trkpt lon="-9.326880" lat="39.345283"><ele>5.75</ele></trkpt>
   <trkpt lon="-9.327028" lat="39.345163"><ele>6.5</ele></trkpt>
   <trkpt lon="-9.327155" lat="39.345049"><ele>7.5</ele></trkpt>
   <trkpt lon="-9.327274" lat="39.344929"><ele>8.25</ele></trkpt>
   <trkpt lon="-9.327349" lat="39.344839"><ele>9.0</ele></trkpt>
   <trkpt lon="-9.327409" lat="39.344752"><ele>9.5</ele></trkpt>
   <trkpt lon="-9.327861" lat="39.343963"><ele>12.5</ele></trkpt>
   <trkpt lon="-9.328065" lat="39.343601"><ele>13.0</ele></trkpt>
   <trkpt lon="-9.328121" lat="39.343453"><ele>13.75</ele></trkpt>
   <trkpt lon="-9.328139" lat="39.343376"><ele>14.0</ele></trkpt>
   <trkpt lon="-9.328146" lat="39.343279"><ele>14.5</ele></trkpt>
   <trkpt lon="-9.328140" lat="39.343182"><ele>14.75</ele></trkpt>
   <trkpt lon="-9.328123" lat="39.343074"><ele>15.0</ele></trkpt>
   <trkpt lon="-9.328044" lat="39.342773"><ele>16.0</ele></trkpt>
   <trkpt lon="-9.327948" lat="39.342455"><ele>17.25</ele></trkpt>
   <trkpt lon="-9.327848" lat="39.342110"><ele>19.5</ele></trkpt>
   <trkpt lon="-9.327721" lat="39.341666"><ele>19.75</ele></trkpt>
   <trkpt lon="-9.327530" lat="39.341059"><ele>21.0</ele></trkpt>
   <trkpt lon="-9.327395" lat="39.340638"><ele>27.25</ele></trkpt>
   <trkpt lon="-9.327342" lat="39.340531"><ele>28.5</ele></trkpt>
   <trkpt lon="-9.327252" lat="39.340372"><ele>29.5</ele></trkpt>
   <trkpt lon="-9.327109" lat="39.340105"><ele>30.25</ele></trkpt>
   <trkpt lon="-9.327074" lat="39.340009"><ele>30.25</ele></trkpt>
   <trkpt lon="-9.327030" lat="39.339800"><ele>30.75</ele></trkpt>
   <trkpt lon="-9.327022" lat="39.339757"><ele>30.75</ele><sym>left</sym></trkpt>
   <trkpt lon="-9.326876" lat="39.339763"><ele>30.75</ele></trkpt>
   <trkpt lon="-9.326741" lat="39.339752"><ele>30.75</ele></trkpt>
   <trkpt lon="-9.326547" lat="39.339722"><ele>30.5</ele></trkpt>
   <trkpt lon="-9.326031" lat="39.339614"><ele>27.0</ele><sym>right</sym></trkpt>
   <trkpt lon="-9.326036" lat="39.339585"><ele>27.25</ele></trkpt>
   <trkpt lon="-9.326117" lat="39.339117"><ele>27.0</ele></trkpt>
   <trkpt lon="-9.326122" lat="39.339076"><ele>27.25</ele></trkpt>
   <trkpt lon="-9.326162" lat="39.338718"><ele>29.0</ele></trkpt>
   <trkpt lon="-9.326195" lat="39.338494"><ele>30.25</ele></trkpt>
   <trkpt lon="-9.326254" lat="39.338136"><ele>29.75</ele></trkpt>
   <trkpt lon="-9.326311" lat="39.337770"><ele>31.0</ele></trkpt>
   <trkpt lon="-9.326388" lat="39.337277"><ele>33.75</ele><sym>left</sym></trkpt>
   <trkpt lon="-9.326078" lat="39.337246"><ele>34.75</ele></trkpt>
   <trkpt lon="-9.325961" lat="39.337210"><ele>35.0</ele><sym>right_slight</sym></trkpt>
   <trkpt lon="-9.325927" lat="39.337166"><ele>35.0</ele></trkpt>
   <trkpt lon="-9.325908" lat="39.337123"><ele>35.25</ele></trkpt>
   <trkpt lon="-9.325902" lat="39.336724"><ele>35.75</ele></trkpt>
   <trkpt lon="-9.325901" lat="39.336644"><ele>35.75</ele></trkpt>
   <trkpt lon="-9.325898" lat="39.336426"><ele>35.75</ele></trkpt>
   <trkpt lon="-9.325884" lat="39.336341"><ele>35.75</ele></trkpt>
   <trkpt lon="-9.325841" lat="39.336283"><ele>35.75</ele><sym>straight</sym></trkpt>
   <trkpt lon="-9.325672" lat="39.336113"><ele>36.5</ele></trkpt>
   <trkpt lon="-9.325611" lat="39.336072"><ele>36.75</ele></trkpt>
   <trkpt lon="-9.325568" lat="39.336056"><ele>36.75</ele><sym>right</sym></trkpt>
   <trkpt lon="-9.325587" lat="39.335989"><ele>36.75</ele></trkpt>
   <trkpt lon="-9.325579" lat="39.335890"><ele>36.75</ele></trkpt>
   <trkpt lon="-9.325464" lat="39.335133"><ele>37.75</ele><sym>u-turn_right</sym></trkpt>
   <trkpt lon="-9.325464" lat="39.335129"><ele>41.5</ele><sym>pass_place</sym><type>Shaping</type></trkpt>
   <trkpt lon="-9.325464" lat="39.335133"><ele>37.75</ele></trkpt>
   <trkpt lon="-9.325579" lat="39.335890"><ele>36.75</ele></trkpt>
   <trkpt lon="-9.325587" lat="39.335989"><ele>36.75</ele></trkpt>
   <trkpt lon="-9.325568" lat="39.336056"><ele>36.75</ele><sym>right</sym></trkpt>
   <trkpt lon="-9.325469" lat="39.336034"><ele>37.0</ele></trkpt>
   <trkpt lon="-9.324800" lat="39.336005"><ele>35.25</ele><sym>left</sym></trkpt>
   <trkpt lon="-9.324709" lat="39.336666"><ele>33.75</ele><sym>right</sym></trkpt>
   <trkpt lon="-9.324354" lat="39.336694"><ele>32.25</ele></trkpt>
   <trkpt lon="-9.324166" lat="39.336699"><ele>32.75</ele></trkpt>
   <trkpt lon="-9.323938" lat="39.336688"><ele>32.75</ele></trkpt>
   <trkpt lon="-9.323571" lat="39.336582"><ele>33.25</ele></trkpt>
   <trkpt lon="-9.323302" lat="39.336466"><ele>33.5</ele></trkpt>
   <trkpt lon="-9.322629" lat="39.336173"><ele>33.5</ele></trkpt>
   <trkpt lon="-9.322387" lat="39.336032"><ele>33.75</ele><sym>right_slight</sym></trkpt>
   <trkpt lon="-9.322319" lat="39.335894"><ele>35.75</ele></trkpt>
   <trkpt lon="-9.322264" lat="39.335327"><ele>41.25</ele><sym>left</sym></trkpt>
   <trkpt lon="-9.321674" lat="39.335281"><ele>39.0</ele></trkpt>
   <trkpt lon="-9.321341" lat="39.335227"><ele>38.5</ele></trkpt>
   <trkpt lon="-9.321162" lat="39.335167"><ele>39.5</ele></trkpt>
   <trkpt lon="-9.320994" lat="39.335087"><ele>41.25</ele></trkpt>
   <trkpt lon="-9.320035" lat="39.334394"><ele>42.0</ele></trkpt>
   <trkpt lon="-9.319526" lat="39.334016"><ele>42.75</ele></trkpt>
   <trkpt lon="-9.319370" lat="39.333938"><ele>42.0</ele></trkpt>
   <trkpt lon="-9.319235" lat="39.333900"><ele>40.5</ele><sym>straight</sym></trkpt>
   <trkpt lon="-9.318965" lat="39.333859"><ele>39.25</ele></trkpt>
   <trkpt lon="-9.318779" lat="39.333822"><ele>38.75</ele></trkpt>
   <trkpt lon="-9.318710" lat="39.333816"><ele>38.75</ele></trkpt>
   <trkpt lon="-9.318634" lat="39.333818"><ele>38.75</ele></trkpt>
   <trkpt lon="-9.318559" lat="39.333830"><ele>38.75</ele></trkpt>
   <trkpt lon="-9.318486" lat="39.333852"><ele>38.75</ele></trkpt>
   <trkpt lon="-9.317453" lat="39.334512"><ele>35.5</ele></trkpt>
   <trkpt lon="-9.316518" lat="39.335109"><ele>44.75</ele></trkpt>
   <trkpt lon="-9.316310" lat="39.335194"><ele>45.5</ele></trkpt>
   <trkpt lon="-9.316117" lat="39.335252"><ele>45.75</ele></trkpt>
   <trkpt lon="-9.315864" lat="39.335281"><ele>46.75</ele></trkpt>
   <trkpt lon="-9.315555" lat="39.335255"><ele>46.75</ele></trkpt>
   <trkpt lon="-9.315366" lat="39.335239"><ele>47.0</ele></trkpt>
   <trkpt lon="-9.315252" lat="39.335230"><ele>46.75</ele></trkpt>
   <trkpt lon="-9.313436" lat="39.335093"><ele>46.0</ele></trkpt>
   <trkpt lon="-9.313161" lat="39.335119"><ele>48.0</ele></trkpt>
   <trkpt lon="-9.312893" lat="39.335186"><ele>49.75</ele></trkpt>
   <trkpt lon="-9.312516" lat="39.335424"><ele>52.0</ele></trkpt>
   <trkpt lon="-9.311501" lat="39.336149"><ele>55.0</ele><sym>pass_place</sym><type>Shaping</type></trkpt>
   <trkpt lon="-9.311499" lat="39.336151"><ele>55.0</ele></trkpt>
   <trkpt lon="-9.311347" lat="39.336254"><ele>55.0</ele></trkpt>
   <trkpt lon="-9.311283" lat="39.336306"><ele>55.0</ele></trkpt>
   <trkpt lon="-9.311138" lat="39.336372"><ele>55.0</ele></trkpt>
   <trkpt lon="-9.311092" lat="39.336411"><ele>54.75</ele></trkpt>
   <trkpt lon="-9.311062" lat="39.336450"><ele>54.75</ele><sym>right</sym></trkpt>
   <trkpt lon="-9.310669" lat="39.336362"><ele>55.75</ele></trkpt>
   <trkpt lon="-9.310415" lat="39.336306"><ele>56.5</ele></trkpt>
   <trkpt lon="-9.309428" lat="39.336083"><ele>60.0</ele></trkpt>
   <trkpt lon="-9.309311" lat="39.336058"><ele>60.0</ele></trkpt>
   <trkpt lon="-9.308847" lat="39.335964"><ele>60.0</ele></trkpt>
   <trkpt lon="-9.308574" lat="39.335923"><ele>60.5</ele></trkpt>
   <trkpt lon="-9.308240" lat="39.335886"><ele>61.0</ele></trkpt>
   <trkpt lon="-9.307487" lat="39.335837"><ele>62.0</ele></trkpt>
   <trkpt lon="-9.304894" lat="39.335700"><ele>63.5</ele></trkpt>
   <trkpt lon="-9.304751" lat="39.335692"><ele>63.25</ele></trkpt>
   <trkpt lon="-9.301622" lat="39.335527"><ele>70.0</ele></trkpt>
   <trkpt lon="-9.301356" lat="39.335514"><ele>71.0</ele></trkpt>
   <trkpt lon="-9.300565" lat="39.335465"><ele>76.25</ele></trkpt>
   <trkpt lon="-9.300201" lat="39.335424"><ele>77.75</ele></trkpt>
   <trkpt lon="-9.299741" lat="39.335364"><ele>78.75</ele></trkpt>
   <trkpt lon="-9.299397" lat="39.335316"><ele>79.25</ele></trkpt>
   <trkpt lon="-9.298522" lat="39.335188"><ele>80.5</ele></trkpt>
   <trkpt lon="-9.297416" lat="39.335034"><ele>82.5</ele></trkpt>
   <trkpt lon="-9.292465" lat="39.334318"><ele>83.5</ele></trkpt>
   <trkpt lon="-9.290034" lat="39.333971"><ele>86.0</ele><sym>pass_place</sym><type>Shaping</type></trkpt>
   <trkpt lon="-9.289789" lat="39.333925"><ele>86.75</ele></trkpt>
   <trkpt lon="-9.289645" lat="39.333884"><ele>87.5</ele></trkpt>
   <trkpt lon="-9.289478" lat="39.333826"><ele>88.25</ele></trkpt>
   <trkpt lon="-9.289314" lat="39.333750"><ele>88.0</ele></trkpt>
   <trkpt lon="-9.289158" lat="39.333667"><ele>88.0</ele></trkpt>
   <trkpt lon="-9.288947" lat="39.333545"><ele>88.5</ele></trkpt>
   <trkpt lon="-9.288589" lat="39.333331"><ele>88.0</ele></trkpt>
   <trkpt lon="-9.287674" lat="39.332803"><ele>91.75</ele></trkpt>
   <trkpt lon="-9.287453" lat="39.332667"><ele>92.0</ele></trkpt>
   <trkpt lon="-9.287361" lat="39.332603"><ele>92.0</ele></trkpt>
   <trkpt lon="-9.287188" lat="39.332468"><ele>92.0</ele></trkpt>
   <trkpt lon="-9.287116" lat="39.332401"><ele>92.25</ele></trkpt>
   <trkpt lon="-9.286540" lat="39.331818"><ele>93.5</ele></trkpt>
   <trkpt lon="-9.286181" lat="39.331455"><ele>96.0</ele></trkpt>
   <trkpt lon="-9.286082" lat="39.331364"><ele>97.0</ele></trkpt>
   <trkpt lon="-9.285986" lat="39.331286"><ele>97.5</ele></trkpt>
   <trkpt lon="-9.285906" lat="39.331232"><ele>97.5</ele></trkpt>
   <trkpt lon="-9.285803" lat="39.331168"><ele>97.5</ele></trkpt>
   <trkpt lon="-9.285688" lat="39.331112"><ele>97.25</ele></trkpt>
   <trkpt lon="-9.285607" lat="39.331074"><ele>97.25</ele></trkpt>
   <trkpt lon="-9.285321" lat="39.330978"><ele>97.0</ele></trkpt>
   <trkpt lon="-9.285157" lat="39.330932"><ele>97.25</ele></trkpt>
   <trkpt lon="-9.284619" lat="39.330798"><ele>99.25</ele></trkpt>
   <trkpt lon="-9.284405" lat="39.330744"><ele>99.75</ele></trkpt>
   <trkpt lon="-9.283786" lat="39.330580"><ele>103.5</ele></trkpt>
   <trkpt lon="-9.283612" lat="39.330534"><ele>105.0</ele></trkpt>
   <trkpt lon="-9.283332" lat="39.330460"><ele>106.5</ele></trkpt>
   <trkpt lon="-9.283221" lat="39.330430"><ele>106.25</ele></trkpt>
   <trkpt lon="-9.283038" lat="39.330381"><ele>106.0</ele></trkpt>
   <trkpt lon="-9.282244" lat="39.330169"><ele>107.25</ele></trkpt>
   <trkpt lon="-9.281940" lat="39.330088"><ele>106.75</ele></trkpt>
   <trkpt lon="-9.281521" lat="39.329982"><ele>107.5</ele></trkpt>
   <trkpt lon="-9.281272" lat="39.329941"><ele>108.75</ele></trkpt>
   <trkpt lon="-9.281167" lat="39.329930"><ele>109.25</ele></trkpt>
   <trkpt lon="-9.281063" lat="39.329922"><ele>109.5</ele></trkpt>
   <trkpt lon="-9.280806" lat="39.329922"><ele>109.75</ele></trkpt>
   <trkpt lon="-9.279776" lat="39.329978"><ele>110.0</ele></trkpt>
   <trkpt lon="-9.279205" lat="39.330008"><ele>109.75</ele></trkpt>
   <trkpt lon="-9.278196" lat="39.330067"><ele>113.0</ele></trkpt>
   <trkpt lon="-9.277704" lat="39.330096"><ele>115.5</ele></trkpt>
   <trkpt lon="-9.276577" lat="39.330162"><ele>117.5</ele></trkpt>
   <trkpt lon="-9.275891" lat="39.330203"><ele>117.75</ele></trkpt>
   <trkpt lon="-9.275434" lat="39.330229"><ele>119.75</ele></trkpt>
   <trkpt lon="-9.275305" lat="39.330243"><ele>120.25</ele></trkpt>
   <trkpt lon="-9.275064" lat="39.330277"><ele>121.5</ele></trkpt>
   <trkpt lon="-9.274902" lat="39.330315"><ele>122.5</ele></trkpt>
   <trkpt lon="-9.274607" lat="39.330401"><ele>123.75</ele></trkpt>
   <trkpt lon="-9.273998" lat="39.330617"><ele>124.75</ele></trkpt>
   <trkpt lon="-9.273698" lat="39.330724"><ele>126.0</ele></trkpt>
   <trkpt lon="-9.273354" lat="39.330846"><ele>127.75</ele></trkpt>
   <trkpt lon="-9.273244" lat="39.330879"><ele>128.25</ele></trkpt>
   <trkpt lon="-9.273060" lat="39.330919"><ele>129.25</ele></trkpt>
   <trkpt lon="-9.272925" lat="39.330917"><ele>129.75</ele></trkpt>
   <trkpt lon="-9.272841" lat="39.330903"><ele>130.25</ele></trkpt>
   <trkpt lon="-9.272544" lat="39.330817"><ele>131.75</ele></trkpt>
   <trkpt lon="-9.272441" lat="39.330799"><ele>132.25</ele></trkpt>
   <trkpt lon="-9.272283" lat="39.330796"><ele>132.75</ele></trkpt>
   <trkpt lon="-9.272207" lat="39.330809"><ele>133.0</ele></trkpt>
   <trkpt lon="-9.271983" lat="39.330870"><ele>134.25</ele></trkpt>
   <trkpt lon="-9.271271" lat="39.331098"><ele>134.5</ele></trkpt>
   <trkpt lon="-9.271177" lat="39.331130"><ele>134.0</ele></trkpt>
   <trkpt lon="-9.271112" lat="39.331150"><ele>133.75</ele><sym>pass_place</sym><type>Shaping</type></trkpt>
   <trkpt lon="-9.271108" lat="39.331151"><ele>133.75</ele></trkpt>
   <trkpt lon="-9.270751" lat="39.331286"><ele>133.0</ele></trkpt>
   <trkpt lon="-9.270694" lat="39.331313"><ele>133.25</ele></trkpt>
   <trkpt lon="-9.270359" lat="39.331458"><ele>133.25</ele></trkpt>
   <trkpt lon="-9.270130" lat="39.331573"><ele>133.0</ele></trkpt>
   <trkpt lon="-9.270003" lat="39.331645"><ele>132.75</ele></trkpt>
   <trkpt lon="-9.269960" lat="39.331672"><ele>132.75</ele></trkpt>
   <trkpt lon="-9.269910" lat="39.331705"><ele>132.5</ele></trkpt>
   <trkpt lon="-9.269754" lat="39.331804"><ele>132.25</ele></trkpt>
   <trkpt lon="-9.269610" lat="39.331896"><ele>132.75</ele></trkpt>
   <trkpt lon="-9.269472" lat="39.331972"><ele>133.0</ele></trkpt>
   <trkpt lon="-9.269370" lat="39.332018"><ele>133.25</ele></trkpt>
   <trkpt lon="-9.269269" lat="39.332062"><ele>133.5</ele></trkpt>
   <trkpt lon="-9.269143" lat="39.332104"><ele>134.0</ele></trkpt>
   <trkpt lon="-9.268969" lat="39.332158"><ele>134.0</ele></trkpt>
   <trkpt lon="-9.268898" lat="39.332179"><ele>134.0</ele></trkpt>
   <trkpt lon="-9.268593" lat="39.332273"><ele>133.75</ele></trkpt>
   <trkpt lon="-9.267860" lat="39.332500"><ele>134.5</ele></trkpt>
   <trkpt lon="-9.267804" lat="39.332517"><ele>134.75</ele></trkpt>
   <trkpt lon="-9.267505" lat="39.332610"><ele>134.0</ele></trkpt>
   <trkpt lon="-9.267262" lat="39.332685"><ele>133.0</ele></trkpt>
   <trkpt lon="-9.267056" lat="39.332749"><ele>132.25</ele></trkpt>
   <trkpt lon="-9.266728" lat="39.332841"><ele>132.0</ele></trkpt>
   <trkpt lon="-9.266544" lat="39.332886"><ele>132.25</ele></trkpt>
   <trkpt lon="-9.266362" lat="39.332920"><ele>133.0</ele><sym>left</sym></trkpt>
   <trkpt lon="-9.266371" lat="39.332968"><ele>133.0</ele></trkpt>
   <trkpt lon="-9.266377" lat="39.332999"><ele>133.0</ele><sym>right</sym></trkpt>
   <trkpt lon="-9.266238" lat="39.333032"><ele>133.25</ele></trkpt>
   <trkpt lon="-9.265664" lat="39.333208"><ele>134.25</ele></trkpt>
   <trkpt lon="-9.264493" lat="39.333571"><ele>134.75</ele></trkpt>
   <trkpt lon="-9.263870" lat="39.333772"><ele>135.75</ele></trkpt>
   <trkpt lon="-9.262470" lat="39.334195"><ele>138.5</ele></trkpt>
   <trkpt lon="-9.262469" lat="39.334195"><ele>137.75</ele><sym>pass_place</sym><type>Shaping</type></trkpt>
   <trkpt lon="-9.262169" lat="39.334289"><ele>137.75</ele></trkpt>
   <trkpt lon="-9.261233" lat="39.334476"><ele>135.75</ele></trkpt>
   <trkpt lon="-9.260732" lat="39.334545"><ele>136.5</ele></trkpt>
   <trkpt lon="-9.260668" lat="39.334554"><ele>136.5</ele></trkpt>
   <trkpt lon="-9.260219" lat="39.334617"><ele>136.0</ele></trkpt>
   <trkpt lon="-9.259506" lat="39.334688"><ele>136.0</ele></trkpt>
   <trkpt lon="-9.259157" lat="39.334750"><ele>136.5</ele></trkpt>
   <trkpt lon="-9.258358" lat="39.334916"><ele>135.5</ele></trkpt>
   <trkpt lon="-9.257633" lat="39.334945"><ele>138.0</ele></trkpt>
   <trkpt lon="-9.256957" lat="39.335028"><ele>136.75</ele></trkpt>
   <trkpt lon="-9.256603" lat="39.335040"><ele>136.0</ele></trkpt>
   <trkpt lon="-9.256078" lat="39.335003"><ele>136.75</ele></trkpt>
   <trkpt lon="-9.255579" lat="39.334902"><ele>136.75</ele></trkpt>
   <trkpt lon="-9.253274" lat="39.334502"><ele>136.5</ele></trkpt>
   <trkpt lon="-9.252945" lat="39.334443"><ele>136.0</ele></trkpt>
   <trkpt lon="-9.252167" lat="39.334327"><ele>133.25</ele></trkpt>
   <trkpt lon="-9.251389" lat="39.334219"><ele>128.0</ele></trkpt>
   <trkpt lon="-9.250821" lat="39.334148"><ele>127.0</ele></trkpt>
   <trkpt lon="-9.250021" lat="39.334003"><ele>124.0</ele></trkpt>
   <trkpt lon="-9.249615" lat="39.333916"><ele>124.25</ele></trkpt>
   <trkpt lon="-9.249378" lat="39.333866"><ele>123.75</ele></trkpt>
   <trkpt lon="-9.248771" lat="39.333754"><ele>123.5</ele></trkpt>
   <trkpt lon="-9.248471" lat="39.333688"><ele>123.75</ele></trkpt>
   <trkpt lon="-9.248290" lat="39.333713"><ele>123.25</ele></trkpt>
   <trkpt lon="-9.247865" lat="39.333793"><ele>122.25</ele></trkpt>
   <trkpt lon="-9.247736" lat="39.333835"><ele>122.5</ele></trkpt>
   <trkpt lon="-9.247543" lat="39.333968"><ele>122.5</ele></trkpt>
   <trkpt lon="-9.247183" lat="39.334176"><ele>122.75</ele><sym>left_slight</sym></trkpt>
   <trkpt lon="-9.247087" lat="39.334430"><ele>121.5</ele></trkpt>
   <trkpt lon="-9.246931" lat="39.334791"><ele>118.25</ele></trkpt>
   <trkpt lon="-9.246872" lat="39.334895"><ele>117.25</ele></trkpt>
   <trkpt lon="-9.246792" lat="39.335019"><ele>116.75</ele></trkpt>
   <trkpt lon="-9.246658" lat="39.335173"><ele>116.75</ele></trkpt>
   <trkpt lon="-9.246477" lat="39.335309"><ele>116.75</ele></trkpt>
   <trkpt lon="-9.246357" lat="39.335430"><ele>116.5</ele></trkpt>
   <trkpt lon="-9.246229" lat="39.335580"><ele>116.0</ele></trkpt>
   <trkpt lon="-9.246068" lat="39.335696"><ele>116.5</ele></trkpt>
   <trkpt lon="-9.245885" lat="39.335758"><ele>116.25</ele></trkpt>
   <trkpt lon="-9.245612" lat="39.335833"><ele>116.0</ele></trkpt>
   <trkpt lon="-9.245220" lat="39.335899"><ele>115.75</ele></trkpt>
   <trkpt lon="-9.244915" lat="39.335957"><ele>115.5</ele></trkpt>
   <trkpt lon="-9.244668" lat="39.335986"><ele>115.25</ele></trkpt>
   <trkpt lon="-9.244485" lat="39.335970"><ele>115.5</ele></trkpt>
   <trkpt lon="-9.244394" lat="39.335974"><ele>115.25</ele></trkpt>
   <trkpt lon="-9.244292" lat="39.335994"><ele>115.25</ele></trkpt>
   <trkpt lon="-9.244190" lat="39.336044"><ele>115.0</ele></trkpt>
   <trkpt lon="-9.244080" lat="39.336124"><ele>114.75</ele></trkpt>
   <trkpt lon="-9.243836" lat="39.336268"><ele>114.5</ele></trkpt>
   <trkpt lon="-9.243515" lat="39.336480"><ele>113.0</ele></trkpt>
   <trkpt lon="-9.243273" lat="39.336651"><ele>112.25</ele><sym>pass_place</sym><type>Shaping</type></trkpt>
   <trkpt lon="-9.243268" lat="39.336654"><ele>112.25</ele></trkpt>
   <trkpt lon="-9.242978" lat="39.336869"><ele>112.5</ele></trkpt>
   <trkpt lon="-9.242645" lat="39.337106"><ele>113.0</ele></trkpt>
   <trkpt lon="-9.242506" lat="39.337185"><ele>113.0</ele></trkpt>
   <trkpt lon="-9.242377" lat="39.337227"><ele>112.5</ele></trkpt>
   <trkpt lon="-9.242222" lat="39.337243"><ele>111.75</ele></trkpt>
   <trkpt lon="-9.242066" lat="39.337247"><ele>111.25</ele></trkpt>
   <trkpt lon="-9.241953" lat="39.337297"><ele>111.0</ele></trkpt>
   <trkpt lon="-9.241800" lat="39.337386"><ele>110.25</ele></trkpt>
   <trkpt lon="-9.241596" lat="39.337485"><ele>109.25</ele></trkpt>
   <trkpt lon="-9.241390" lat="39.337575"><ele>108.25</ele></trkpt>
   <trkpt lon="-9.241154" lat="39.337654"><ele>107.25</ele></trkpt>
   <trkpt lon="-9.240816" lat="39.337741"><ele>106.5</ele></trkpt>
   <trkpt lon="-9.240564" lat="39.337824"><ele>105.0</ele></trkpt>
   <trkpt lon="-9.240339" lat="39.337890"><ele>103.75</ele></trkpt>
   <trkpt lon="-9.239947" lat="39.338048"><ele>102.5</ele></trkpt>
   <trkpt lon="-9.239228" lat="39.338231"><ele>100.5</ele></trkpt>
   <trkpt lon="-9.238712" lat="39.338253"><ele>96.0</ele></trkpt>
   <trkpt lon="-9.237936" lat="39.338235"><ele>87.75</ele></trkpt>
   <trkpt lon="-9.237769" lat="39.338239"><ele>86.75</ele></trkpt>
   <trkpt lon="-9.237609" lat="39.338271"><ele>85.5</ele></trkpt>
   <trkpt lon="-9.237232" lat="39.338335"><ele>83.0</ele></trkpt>
   <trkpt lon="-9.237152" lat="39.338327"><ele>82.25</ele></trkpt>
   <trkpt lon="-9.237085" lat="39.338301"><ele>81.5</ele></trkpt>
   <trkpt lon="-9.236949" lat="39.338213"><ele>80.0</ele></trkpt>
   <trkpt lon="-9.236901" lat="39.338169"><ele>79.25</ele><sym>left</sym></trkpt>
   <trkpt lon="-9.236819" lat="39.338212"><ele>78.75</ele></trkpt>
   <trkpt lon="-9.236619" lat="39.338312"><ele>77.5</ele></trkpt>
   <trkpt lon="-9.236358" lat="39.338450"><ele>76.75</ele></trkpt>
   <trkpt lon="-9.236049" lat="39.338602"><ele>75.5</ele></trkpt>
   <trkpt lon="-9.235102" lat="39.339060"><ele>69.75</ele></trkpt>
   <trkpt lon="-9.234891" lat="39.339163"><ele>67.5</ele></trkpt>
   <trkpt lon="-9.234629" lat="39.339290"><ele>66.75</ele></trkpt>
   <trkpt lon="-9.234486" lat="39.339360"><ele>66.5</ele></trkpt>
   <trkpt lon="-9.234246" lat="39.339478"><ele>65.75</ele></trkpt>
   <trkpt lon="-9.233949" lat="39.339632"><ele>64.5</ele></trkpt>
   <trkpt lon="-9.232619" lat="39.340283"><ele>58.25</ele></trkpt>
   <trkpt lon="-9.232191" lat="39.340461"><ele>55.75</ele></trkpt>
   <trkpt lon="-9.231936" lat="39.340538"><ele>52.75</ele></trkpt>
   <trkpt lon="-9.231809" lat="39.340570"><ele>52.0</ele></trkpt>
   <trkpt lon="-9.231519" lat="39.340620"><ele>50.25</ele></trkpt>
   <trkpt lon="-9.231238" lat="39.340643"><ele>48.5</ele></trkpt>
   <trkpt lon="-9.230821" lat="39.340634"><ele>46.75</ele></trkpt>
   <trkpt lon="-9.230513" lat="39.340596"><ele>45.25</ele></trkpt>
   <trkpt lon="-9.230359" lat="39.340567"><ele>44.25</ele></trkpt>
   <trkpt lon="-9.230223" lat="39.340536"><ele>43.5</ele></trkpt>
   <trkpt lon="-9.230014" lat="39.340471"><ele>42.0</ele></trkpt>
   <trkpt lon="-9.229766" lat="39.340372"><ele>40.25</ele></trkpt>
   <trkpt lon="-9.229372" lat="39.340215"><ele>37.0</ele></trkpt>
   <trkpt lon="-9.229029" lat="39.340116"><ele>37.5</ele></trkpt>
   <trkpt lon="-9.228919" lat="39.340100"><ele>38.0</ele></trkpt>
   <trkpt lon="-9.228792" lat="39.340090"><ele>39.0</ele></trkpt>
   <trkpt lon="-9.228592" lat="39.340084"><ele>40.25</ele></trkpt>
   <trkpt lon="-9.228443" lat="39.340089"><ele>40.75</ele></trkpt>
   <trkpt lon="-9.228315" lat="39.340102"><ele>41.25</ele></trkpt>
   <trkpt lon="-9.227937" lat="39.340162"><ele>40.25</ele></trkpt>
   <trkpt lon="-9.225615" lat="39.340647"><ele>34.0</ele></trkpt>
   <trkpt lon="-9.225458" lat="39.340677"><ele>33.5</ele></trkpt>
   <trkpt lon="-9.223638" lat="39.341048"><ele>32.0</ele><sym>stay_left</sym></trkpt>
   <trkpt lon="-9.223639" lat="39.341050"><ele>31.25</ele><sym>pass_place</sym><type>Shaping</type></trkpt>
   <trkpt lon="-9.223638" lat="39.341048"><ele>32.0</ele></trkpt>
   <trkpt lon="-9.223522" lat="39.341070"><ele>30.75</ele></trkpt>
   <trkpt lon="-9.222929" lat="39.341196"><ele>27.5</ele></trkpt>
   <trkpt lon="-9.222486" lat="39.341290"><ele>26.5</ele></trkpt>
   <trkpt lon="-9.221842" lat="39.341427"><ele>30.0</ele></trkpt>
   <trkpt lon="-9.221702" lat="39.341456"><ele>31.75</ele><sym>right_slight</sym></trkpt>
   <trkpt lon="-9.221594" lat="39.341440"><ele>33.5</ele></trkpt>
   <trkpt lon="-9.221511" lat="39.341422"><ele>35.25</ele></trkpt>
   <trkpt lon="-9.221384" lat="39.341374"><ele>38.0</ele></trkpt>
   <trkpt lon="-9.221307" lat="39.341336"><ele>39.0</ele><sym>roundabout_e3</sym></trkpt>
   <trkpt lon="-9.221282" lat="39.341299"><ele>39.75</ele></trkpt>
   <trkpt lon="-9.221211" lat="39.341242"><ele>41.0</ele></trkpt>
   <trkpt lon="-9.221147" lat="39.341218"><ele>41.75</ele></trkpt>
   <trkpt lon="-9.220879" lat="39.341148"><ele>40.75</ele></trkpt>
   <trkpt lon="-9.220816" lat="39.341143"><ele>40.25</ele></trkpt>
   <trkpt lon="-9.220756" lat="39.341151"><ele>39.75</ele></trkpt>
   <trkpt lon="-9.220638" lat="39.341202"><ele>38.5</ele></trkpt>
   <trkpt lon="-9.220586" lat="39.341258"><ele>38.0</ele></trkpt>
   <trkpt lon="-9.220567" lat="39.341302"><ele>37.5</ele></trkpt>
   <trkpt lon="-9.220558" lat="39.341351"><ele>37.25</ele></trkpt>
   <trkpt lon="-9.220565" lat="39.341420"><ele>36.25</ele></trkpt>
   <trkpt lon="-9.220587" lat="39.341464"><ele>35.25</ele></trkpt>
   <trkpt lon="-9.220586" lat="39.341534"><ele>33.75</ele></trkpt>
   <trkpt lon="-9.220571" lat="39.341587"><ele>32.75</ele></trkpt>
   <trkpt lon="-9.220552" lat="39.341626"><ele>31.75</ele></trkpt>
   <trkpt lon="-9.220524" lat="39.341658"><ele>31.0</ele></trkpt>
   <trkpt lon="-9.220468" lat="39.341705"><ele>30.25</ele><sym>right_slight</sym></trkpt>
   <trkpt lon="-9.220371" lat="39.341726"><ele>29.75</ele></trkpt>
   <trkpt lon="-9.219207" lat="39.341963"><ele>31.25</ele></trkpt>
   <trkpt lon="-9.217765" lat="39.342255"><ele>40.75</ele></trkpt>
   <trkpt lon="-9.215646" lat="39.342693"><ele>43.25</ele></trkpt>
   <trkpt lon="-9.214340" lat="39.342970"><ele>36.25</ele></trkpt>
   <trkpt lon="-9.213523" lat="39.343136"><ele>34.25</ele></trkpt>
   <trkpt lon="-9.212991" lat="39.343249"><ele>33.25</ele></trkpt>
   <trkpt lon="-9.212430" lat="39.343367"><ele>31.75</ele></trkpt>
   <trkpt lon="-9.212142" lat="39.343432"><ele>31.25</ele></trkpt>
   <trkpt lon="-9.211888" lat="39.343488"><ele>32.0</ele></trkpt>
   <trkpt lon="-9.211762" lat="39.343520"><ele>31.75</ele></trkpt>
   <trkpt lon="-9.211510" lat="39.343587"><ele>31.75</ele></trkpt>
   <trkpt lon="-9.211391" lat="39.343619"><ele>32.0</ele></trkpt>
   <trkpt lon="-9.210944" lat="39.343743"><ele>31.75</ele></trkpt>
   <trkpt lon="-9.210606" lat="39.343844"><ele>29.5</ele></trkpt>
   <trkpt lon="-9.210269" lat="39.343960"><ele>28.0</ele></trkpt>
   <trkpt lon="-9.210033" lat="39.344056"><ele>28.25</ele></trkpt>
   <trkpt lon="-9.209795" lat="39.344160"><ele>28.75</ele></trkpt>
   <trkpt lon="-9.209553" lat="39.344267"><ele>28.75</ele></trkpt>
   <trkpt lon="-9.208541" lat="39.344717"><ele>29.0</ele></trkpt>
   <trkpt lon="-9.208435" lat="39.344751"><ele>29.75</ele></trkpt>
   <trkpt lon="-9.208236" lat="39.344800"><ele>30.5</ele></trkpt>
   <trkpt lon="-9.208116" lat="39.344820"><ele>31.0</ele></trkpt>
   <trkpt lon="-9.207812" lat="39.344842"><ele>31.25</ele></trkpt>
   <trkpt lon="-9.207643" lat="39.344843"><ele>31.75</ele></trkpt>
   <trkpt lon="-9.206601" lat="39.344778"><ele>31.25</ele></trkpt>
   <trkpt lon="-9.206302" lat="39.344760"><ele>31.0</ele></trkpt>
   <trkpt lon="-9.205493" lat="39.344711"><ele>31.0</ele></trkpt>
   <trkpt lon="-9.205101" lat="39.344688"><ele>30.75</ele></trkpt>
   <trkpt lon="-9.204563" lat="39.344659"><ele>30.75</ele></trkpt>
   <trkpt lon="-9.204348" lat="39.344647"><ele>31.0</ele></trkpt>
   <trkpt lon="-9.203686" lat="39.344608"><ele>33.0</ele></trkpt>
   <trkpt lon="-9.203500" lat="39.344597"><ele>33.0</ele><sym>left</sym></trkpt>
   <trkpt lon="-9.203507" lat="39.344671"><ele>33.25</ele></trkpt>
   <trkpt lon="-9.203520" lat="39.344769"><ele>33.5</ele><sym>stay_left</sym></trkpt>
   <trkpt lon="-9.203521" lat="39.344769"><ele>39.75</ele><sym>pass_place</sym><type>Shaping</type></trkpt>
   <trkpt lon="-9.203638" lat="39.345655"><ele>39.75</ele></trkpt>
   <trkpt lon="-9.203694" lat="39.345941"><ele>42.25</ele></trkpt>
   <trkpt lon="-9.203777" lat="39.346105"><ele>44.5</ele><sym>left_slight</sym></trkpt>
   <trkpt lon="-9.204679" lat="39.346623"><ele>53.25</ele></trkpt>
   <trkpt lon="-9.205298" lat="39.346897"><ele>61.0</ele></trkpt>
   <trkpt lon="-9.205606" lat="39.347017"><ele>63.5</ele></trkpt>
   <trkpt lon="-9.205888" lat="39.347107"><ele>64.75</ele></trkpt>
   <trkpt lon="-9.206446" lat="39.347210"><ele>66.5</ele></trkpt>
   <trkpt lon="-9.206546" lat="39.347260"><ele>67.25</ele></trkpt>
   <trkpt lon="-9.206626" lat="39.347325"><ele>68.25</ele></trkpt>
   <trkpt lon="-9.206910" lat="39.347606"><ele>75.25</ele></trkpt>
   <trkpt lon="-9.206947" lat="39.347655"><ele>76.0</ele></trkpt>
   <trkpt lon="-9.206955" lat="39.347688"><ele>76.5</ele></trkpt>
   <trkpt lon="-9.206945" lat="39.347726"><ele>77.25</ele><sym>left_slight</sym></trkpt>
   <trkpt lon="-9.207023" lat="39.347825"><ele>78.25</ele></trkpt>
   <trkpt lon="-9.207057" lat="39.347897"><ele>78.75</ele></trkpt>
   <trkpt lon="-9.207084" lat="39.347986"><ele>79.25</ele></trkpt>
   <trkpt lon="-9.207123" lat="39.348227"><ele>80.25</ele></trkpt>
   <trkpt lon="-9.207148" lat="39.348512"><ele>81.25</ele></trkpt>
   <trkpt lon="-9.207128" lat="39.348685"><ele>81.5</ele></trkpt>
   <trkpt lon="-9.206884" lat="39.349446"><ele>79.75</ele></trkpt>
   <trkpt lon="-9.206790" lat="39.349913"><ele>78.5</ele></trkpt>
   <trkpt lon="-9.206777" lat="39.350030"><ele>78.0</ele></trkpt>
   <trkpt lon="-9.206773" lat="39.350120"><ele>77.5</ele></trkpt>
   <trkpt lon="-9.206784" lat="39.350233"><ele>76.75</ele></trkpt>
   <trkpt lon="-9.206804" lat="39.350330"><ele>76.0</ele></trkpt>
   <trkpt lon="-9.206855" lat="39.350490"><ele>75.0</ele></trkpt>
   <trkpt lon="-9.206890" lat="39.350546"><ele>74.75</ele></trkpt>
   <trkpt lon="-9.207178" lat="39.350903"><ele>76.5</ele></trkpt>
   <trkpt lon="-9.207259" lat="39.350992"><ele>76.25</ele></trkpt>
   <trkpt lon="-9.207628" lat="39.351471"><ele>77.0</ele></trkpt>
   <trkpt lon="-9.207757" lat="39.351644"><ele>77.75</ele></trkpt>
   <trkpt lon="-9.207993" lat="39.351995"><ele>78.75</ele></trkpt>
   <trkpt lon="-9.208305" lat="39.352401"><ele>77.0</ele></trkpt>
   <trkpt lon="-9.208373" lat="39.352500"><ele>76.5</ele></trkpt>
   <trkpt lon="-9.208467" lat="39.352684"><ele>76.5</ele></trkpt>
   <trkpt lon="-9.208492" lat="39.352773"><ele>76.75</ele></trkpt>
   <trkpt lon="-9.208522" lat="39.352894"><ele>76.75</ele></trkpt>
   <trkpt lon="-9.208563" lat="39.353121"><ele>76.5</ele></trkpt>
   <trkpt lon="-9.208700" lat="39.353914"><ele>72.75</ele></trkpt>
   <trkpt lon="-9.208776" lat="39.354198"><ele>70.75</ele></trkpt>
   <trkpt lon="-9.208893" lat="39.354498"><ele>69.25</ele></trkpt>
   <trkpt lon="-9.209160" lat="39.355080"><ele>69.25</ele></trkpt>
   <trkpt lon="-9.209610" lat="39.356083"><ele>63.25</ele></trkpt>
   <trkpt lon="-9.209674" lat="39.356212"><ele>62.75</ele></trkpt>
   <trkpt lon="-9.209743" lat="39.356317"><ele>62.0</ele></trkpt>
   <trkpt lon="-9.209855" lat="39.356453"><ele>61.0</ele></trkpt>
   <trkpt lon="-9.209956" lat="39.356557"><ele>60.75</ele></trkpt>
   <trkpt lon="-9.210211" lat="39.356795"><ele>58.5</ele></trkpt>
   <trkpt lon="-9.211579" lat="39.358053"><ele>46.5</ele></trkpt>
   <trkpt lon="-9.211680" lat="39.358161"><ele>45.75</ele></trkpt>
   <trkpt lon="-9.211823" lat="39.358367"><ele>43.25</ele></trkpt>
   <trkpt lon="-9.211879" lat="39.358479"><ele>41.75</ele><sym>pass_place</sym><type>Shaping</type></trkpt>
   <trkpt lon="-9.211949" lat="39.358648"><ele>39.5</ele></trkpt>
   <trkpt lon="-9.211971" lat="39.358737"><ele>38.75</ele></trkpt>
   <trkpt lon="-9.211980" lat="39.358814"><ele>38.0</ele></trkpt>
   <trkpt lon="-9.211984" lat="39.358904"><ele>37.25</ele></trkpt>
   <trkpt lon="-9.211966" lat="39.358990"><ele>37.0</ele></trkpt>
   <trkpt lon="-9.211677" lat="39.359794"><ele>31.25</ele></trkpt>
   <trkpt lon="-9.211654" lat="39.359897"><ele>30.75</ele></trkpt>
   <trkpt lon="-9.211647" lat="39.359998"><ele>30.0</ele></trkpt>
   <trkpt lon="-9.211664" lat="39.360123"><ele>29.5</ele></trkpt>
   <trkpt lon="-9.211787" lat="39.360561"><ele>26.75</ele></trkpt>
   <trkpt lon="-9.211800" lat="39.360594"><ele>27.0</ele><sym>stay_left</sym></trkpt>
   <trkpt lon="-9.211846" lat="39.360690"><ele>27.75</ele></trkpt>
   <trkpt lon="-9.211892" lat="39.360769"><ele>28.25</ele></trkpt>
   <trkpt lon="-9.211964" lat="39.360869"><ele>29.0</ele></trkpt>
   <trkpt lon="-9.212043" lat="39.360958"><ele>29.25</ele></trkpt>
   <trkpt lon="-9.212140" lat="39.361053"><ele>29.75</ele></trkpt>
   <trkpt lon="-9.212660" lat="39.361504"><ele>32.0</ele></trkpt>
   <trkpt lon="-9.213887" lat="39.362560"><ele>49.5</ele></trkpt>
   <trkpt lon="-9.214154" lat="39.362749"><ele>52.0</ele></trkpt>
   <trkpt lon="-9.214206" lat="39.362786"><ele>52.25</ele></trkpt>
   <trkpt lon="-9.214282" lat="39.362831"><ele>53.0</ele><sym>left</sym></trkpt>
   <trkpt lon="-9.214325" lat="39.362785"><ele>54.0</ele></trkpt>
   <trkpt lon="-9.214369" lat="39.362727"><ele>55.0</ele></trkpt>
   <trkpt lon="-9.214421" lat="39.362676"><ele>56.0</ele></trkpt>
   <trkpt lon="-9.214777" lat="39.362492"><ele>57.5</ele></trkpt>
   <trkpt lon="-9.214919" lat="39.362301"><ele>56.75</ele></trkpt>
   <trkpt lon="-9.215070" lat="39.362191"><ele>56.5</ele><sym>left_slight</sym></trkpt>
   <trkpt lon="-9.215104" lat="39.362071"><ele>56.25</ele></trkpt>
   <trkpt lon="-9.215153" lat="39.361986"><ele>56.25</ele></trkpt>
   <trkpt lon="-9.215708" lat="39.361309"><ele>55.0</ele></trkpt>
   <trkpt lon="-9.215777" lat="39.361206"><ele>55.5</ele></trkpt>
   <trkpt lon="-9.215842" lat="39.361048"><ele>56.0</ele></trkpt>
   <trkpt lon="-9.215915" lat="39.360740"><ele>58.25</ele></trkpt>
   <trkpt lon="-9.215990" lat="39.360422"><ele>61.0</ele></trkpt>
   <trkpt lon="-9.216016" lat="39.360358"><ele>61.5</ele></trkpt>
   <trkpt lon="-9.216153" lat="39.360130"><ele>63.0</ele></trkpt>
   <trkpt lon="-9.216362" lat="39.359684"><ele>61.5</ele></trkpt>
   <trkpt lon="-9.216403" lat="39.359573"><ele>60.75</ele></trkpt>
   <trkpt lon="-9.216438" lat="39.359478"><ele>60.25</ele></trkpt>
   <trkpt lon="-9.216585" lat="39.359265"><ele>60.0</ele></trkpt>
   <trkpt lon="-9.216700" lat="39.359151"><ele>59.75</ele></trkpt>
   <trkpt lon="-9.216958" lat="39.358999"><ele>59.25</ele></trkpt>
   <trkpt lon="-9.217137" lat="39.358907"><ele>59.5</ele><sym>u-turn_right</sym></trkpt>
   <trkpt lon="-9.217141" lat="39.358907"><ele>59.75</ele><sym>pass_place</sym><type>Shaping</type></trkpt>
   <trkpt lon="-9.217137" lat="39.358907"><ele>59.5</ele></trkpt>
   <trkpt lon="-9.217325" lat="39.358784"><ele>59.75</ele></trkpt>
   <trkpt lon="-9.217407" lat="39.358710"><ele>60.0</ele></trkpt>
   <trkpt lon="-9.217535" lat="39.358576"><ele>61.0</ele></trkpt>
   <trkpt lon="-9.217628" lat="39.358430"><ele>61.25</ele></trkpt>
   <trkpt lon="-9.217701" lat="39.358278"><ele>61.75</ele></trkpt>
   <trkpt lon="-9.217760" lat="39.358133"><ele>62.0</ele></trkpt>
   <trkpt lon="-9.217832" lat="39.358038"><ele>62.5</ele></trkpt>
   <trkpt lon="-9.218036" lat="39.357843"><ele>64.5</ele></trkpt>
   <trkpt lon="-9.218167" lat="39.357708"><ele>65.25</ele></trkpt>
   <trkpt lon="-9.218613" lat="39.357212"><ele>63.0</ele></trkpt>
   <trkpt lon="-9.218774" lat="39.357004"><ele>65.25</ele></trkpt>
   <trkpt lon="-9.218903" lat="39.356795"><ele>67.75</ele></trkpt>
   <trkpt lon="-9.218996" lat="39.356667"><ele>69.5</ele></trkpt>
   <trkpt lon="-9.219114" lat="39.356451"><ele>72.25</ele></trkpt>
   <trkpt lon="-9.219216" lat="39.356233"><ele>74.5</ele></trkpt>
   <trkpt lon="-9.219318" lat="39.356046"><ele>76.25</ele></trkpt>
   <trkpt lon="-9.219399" lat="39.355785"><ele>78.0</ele></trkpt>
   <trkpt lon="-9.219485" lat="39.355546"><ele>80.0</ele></trkpt>
   <trkpt lon="-9.219565" lat="39.355396"><ele>81.0</ele></trkpt>
   <trkpt lon="-9.219632" lat="39.355289"><ele>81.75</ele></trkpt>
   <trkpt lon="-9.219659" lat="39.355208"><ele>82.25</ele></trkpt>
   <trkpt lon="-9.219691" lat="39.354783"><ele>83.5</ele></trkpt>
   <trkpt lon="-9.219787" lat="39.354427"><ele>84.25</ele></trkpt>
   <trkpt lon="-9.219884" lat="39.354204"><ele>84.5</ele></trkpt>
   <trkpt lon="-9.219930" lat="39.353966"><ele>85.25</ele></trkpt>
   <trkpt lon="-9.219943" lat="39.353748"><ele>85.5</ele></trkpt>
   <trkpt lon="-9.219943" lat="39.353592"><ele>85.75</ele></trkpt>
   <trkpt lon="-9.220010" lat="39.353362"><ele>86.0</ele></trkpt>
   <trkpt lon="-9.220126" lat="39.353188"><ele>85.0</ele></trkpt>
   <trkpt lon="-9.220222" lat="39.353103"><ele>84.5</ele></trkpt>
   <trkpt lon="-9.220378" lat="39.353001"><ele>83.5</ele></trkpt>
   <trkpt lon="-9.220654" lat="39.352846"><ele>83.75</ele></trkpt>
   <trkpt lon="-9.221121" lat="39.352566"><ele>86.75</ele></trkpt>
   <trkpt lon="-9.221242" lat="39.352457"><ele>86.5</ele></trkpt>
   <trkpt lon="-9.221260" lat="39.352441"><ele>86.25</ele></trkpt>
   <trkpt lon="-9.221362" lat="39.352282"><ele>84.5</ele></trkpt>
   <trkpt lon="-9.221550" lat="39.351879"><ele>78.75</ele></trkpt>
   <trkpt lon="-9.221684" lat="39.351525"><ele>76.25</ele></trkpt>
   <trkpt lon="-9.222153" lat="39.349598"><ele>61.5</ele></trkpt>
   <trkpt lon="-9.222221" lat="39.349288"><ele>58.25</ele></trkpt>
   <trkpt lon="-9.222231" lat="39.349227"><ele>57.5</ele></trkpt>
   <trkpt lon="-9.222234" lat="39.348955"><ele>56.0</ele></trkpt>
   <trkpt lon="-9.222221" lat="39.348378"><ele>57.75</ele></trkpt>
   <trkpt lon="-9.222215" lat="39.347437"><ele>56.5</ele></trkpt>
   <trkpt lon="-9.222193" lat="39.346475"><ele>52.25</ele></trkpt>
   <trkpt lon="-9.222172" lat="39.345294"><ele>39.0</ele></trkpt>
   <trkpt lon="-9.222175" lat="39.345091"><ele>38.0</ele></trkpt>
   <trkpt lon="-9.222151" lat="39.344563"><ele>36.75</ele></trkpt>
   <trkpt lon="-9.222162" lat="39.344365"><ele>36.0</ele></trkpt>
   <trkpt lon="-9.222153" lat="39.344063"><ele>34.5</ele></trkpt>
   <trkpt lon="-9.222124" lat="39.343842"><ele>33.5</ele></trkpt>
   <trkpt lon="-9.222078" lat="39.343660"><ele>33.25</ele><sym>pass_place</sym><type>Shaping</type></trkpt>
   <trkpt lon="-9.222077" lat="39.343658"><ele>33.25</ele></trkpt>
   <trkpt lon="-9.221973" lat="39.343426"><ele>32.75</ele></trkpt>
   <trkpt lon="-9.221180" lat="39.341766"><ele>33.0</ele><sym>right_slight</sym></trkpt>
   <trkpt lon="-9.221208" lat="39.341644"><ele>34.0</ele></trkpt>
   <trkpt lon="-9.221229" lat="39.341588"><ele>34.75</ele><sym>roundabout_e1</sym></trkpt>
   <trkpt lon="-9.221282" lat="39.341544"><ele>35.5</ele></trkpt>
   <trkpt lon="-9.221444" lat="39.341513"><ele>34.75</ele></trkpt>
   <trkpt lon="-9.221702" lat="39.341456"><ele>31.75</ele></trkpt>
   <trkpt lon="-9.221842" lat="39.341427"><ele>30.0</ele></trkpt>
   <trkpt lon="-9.222486" lat="39.341290"><ele>26.5</ele></trkpt>
   <trkpt lon="-9.222929" lat="39.341196"><ele>27.5</ele></trkpt>
   <trkpt lon="-9.223522" lat="39.341070"><ele>30.75</ele></trkpt>
   <trkpt lon="-9.223638" lat="39.341048"><ele>32.0</ele><sym>stay_left</sym></trkpt>
   <trkpt lon="-9.225458" lat="39.340677"><ele>33.5</ele></trkpt>
   <trkpt lon="-9.225615" lat="39.340647"><ele>34.0</ele></trkpt>
   <trkpt lon="-9.227937" lat="39.340162"><ele>40.25</ele></trkpt>
   <trkpt lon="-9.228315" lat="39.340102"><ele>41.25</ele></trkpt>
   <trkpt lon="-9.228443" lat="39.340089"><ele>40.75</ele></trkpt>
   <trkpt lon="-9.228592" lat="39.340084"><ele>40.25</ele></trkpt>
   <trkpt lon="-9.228792" lat="39.340090"><ele>39.0</ele></trkpt>
   <trkpt lon="-9.228919" lat="39.340100"><ele>38.0</ele></trkpt>
   <trkpt lon="-9.229029" lat="39.340116"><ele>37.5</ele></trkpt>
   <trkpt lon="-9.229372" lat="39.340215"><ele>37.0</ele><sym>stay_left</sym></trkpt>
   <trkpt lon="-9.229766" lat="39.340372"><ele>40.25</ele></trkpt>
   <trkpt lon="-9.230014" lat="39.340471"><ele>42.0</ele></trkpt>
   <trkpt lon="-9.230223" lat="39.340536"><ele>43.5</ele></trkpt>
   <trkpt lon="-9.230359" lat="39.340567"><ele>44.25</ele></trkpt>
   <trkpt lon="-9.230513" lat="39.340596"><ele>45.25</ele></trkpt>
   <trkpt lon="-9.230821" lat="39.340634"><ele>46.75</ele></trkpt>
   <trkpt lon="-9.231238" lat="39.340643"><ele>48.5</ele></trkpt>
   <trkpt lon="-9.231519" lat="39.340620"><ele>50.25</ele></trkpt>
   <trkpt lon="-9.231809" lat="39.340570"><ele>52.0</ele></trkpt>
   <trkpt lon="-9.231936" lat="39.340538"><ele>52.75</ele></trkpt>
   <trkpt lon="-9.232191" lat="39.340461"><ele>55.75</ele></trkpt>
   <trkpt lon="-9.232619" lat="39.340283"><ele>58.25</ele></trkpt>
   <trkpt lon="-9.233949" lat="39.339632"><ele>64.5</ele></trkpt>
   <trkpt lon="-9.234246" lat="39.339478"><ele>65.75</ele></trkpt>
   <trkpt lon="-9.234486" lat="39.339360"><ele>66.5</ele></trkpt>
   <trkpt lon="-9.234629" lat="39.339290"><ele>66.75</ele></trkpt>
   <trkpt lon="-9.234891" lat="39.339163"><ele>67.5</ele></trkpt>
   <trkpt lon="-9.235102" lat="39.339060"><ele>69.75</ele></trkpt>
   <trkpt lon="-9.236049" lat="39.338602"><ele>75.5</ele></trkpt>
   <trkpt lon="-9.236358" lat="39.338450"><ele>76.75</ele></trkpt>
   <trkpt lon="-9.236619" lat="39.338312"><ele>77.5</ele></trkpt>
   <trkpt lon="-9.236819" lat="39.338212"><ele>78.75</ele></trkpt>
   <trkpt lon="-9.236901" lat="39.338169"><ele>79.25</ele><sym>right_slight</sym></trkpt>
   <trkpt lon="-9.236949" lat="39.338213"><ele>80.0</ele></trkpt>
   <trkpt lon="-9.237085" lat="39.338301"><ele>81.5</ele></trkpt>
   <trkpt lon="-9.237152" lat="39.338327"><ele>82.25</ele></trkpt>
   <trkpt lon="-9.237232" lat="39.338335"><ele>83.0</ele></trkpt>
   <trkpt lon="-9.237609" lat="39.338271"><ele>85.5</ele></trkpt>
   <trkpt lon="-9.237769" lat="39.338239"><ele>86.75</ele></trkpt>
   <trkpt lon="-9.237936" lat="39.338235"><ele>87.75</ele><sym>pass_place</sym><type>Shaping</type></trkpt>
   <trkpt lon="-9.238712" lat="39.338253"><ele>96.0</ele></trkpt>
   <trkpt lon="-9.239228" lat="39.338231"><ele>100.5</ele></trkpt>
   <trkpt lon="-9.239947" lat="39.338048"><ele>102.5</ele></trkpt>
   <trkpt lon="-9.240339" lat="39.337890"><ele>103.75</ele></trkpt>
   <trkpt lon="-9.240564" lat="39.337824"><ele>105.0</ele></trkpt>
   <trkpt lon="-9.240816" lat="39.337741"><ele>106.5</ele></trkpt>
   <trkpt lon="-9.241154" lat="39.337654"><ele>107.25</ele></trkpt>
   <trkpt lon="-9.241390" lat="39.337575"><ele>108.25</ele></trkpt>
   <trkpt lon="-9.241596" lat="39.337485"><ele>109.25</ele></trkpt>
   <trkpt lon="-9.241800" lat="39.337386"><ele>110.25</ele></trkpt>
   <trkpt lon="-9.241953" lat="39.337297"><ele>111.0</ele></trkpt>
   <trkpt lon="-9.242066" lat="39.337247"><ele>111.25</ele></trkpt>
   <trkpt lon="-9.242222" lat="39.337243"><ele>111.75</ele></trkpt>
   <trkpt lon="-9.242377" lat="39.337227"><ele>112.5</ele></trkpt>
   <trkpt lon="-9.242506" lat="39.337185"><ele>113.0</ele></trkpt>
   <trkpt lon="-9.242645" lat="39.337106"><ele>113.0</ele></trkpt>
   <trkpt lon="-9.242978" lat="39.336869"><ele>112.5</ele></trkpt>
   <trkpt lon="-9.243268" lat="39.336654"><ele>112.25</ele></trkpt>
   <trkpt lon="-9.243515" lat="39.336480"><ele>113.0</ele></trkpt>
   <trkpt lon="-9.243836" lat="39.336268"><ele>114.5</ele></trkpt>
   <trkpt lon="-9.244080" lat="39.336124"><ele>114.75</ele></trkpt>
   <trkpt lon="-9.244190" lat="39.336044"><ele>115.0</ele></trkpt>
   <trkpt lon="-9.244292" lat="39.335994"><ele>115.25</ele></trkpt>
   <trkpt lon="-9.244394" lat="39.335974"><ele>115.25</ele></trkpt>
   <trkpt lon="-9.244485" lat="39.335970"><ele>115.5</ele></trkpt>
   <trkpt lon="-9.244668" lat="39.335986"><ele>115.25</ele></trkpt>
   <trkpt lon="-9.244915" lat="39.335957"><ele>115.5</ele></trkpt>
   <trkpt lon="-9.245220" lat="39.335899"><ele>115.75</ele></trkpt>
   <trkpt lon="-9.245612" lat="39.335833"><ele>116.0</ele></trkpt>
   <trkpt lon="-9.245885" lat="39.335758"><ele>116.25</ele></trkpt>
   <trkpt lon="-9.246068" lat="39.335696"><ele>116.5</ele></trkpt>
   <trkpt lon="-9.246229" lat="39.335580"><ele>116.0</ele></trkpt>
   <trkpt lon="-9.246357" lat="39.335430"><ele>116.5</ele></trkpt>
   <trkpt lon="-9.246477" lat="39.335309"><ele>116.75</ele></trkpt>
   <trkpt lon="-9.246658" lat="39.335173"><ele>116.75</ele></trkpt>
   <trkpt lon="-9.246792" lat="39.335019"><ele>116.75</ele></trkpt>
   <trkpt lon="-9.246872" lat="39.334895"><ele>117.25</ele></trkpt>
   <trkpt lon="-9.246931" lat="39.334791"><ele>118.25</ele></trkpt>
   <trkpt lon="-9.247087" lat="39.334430"><ele>121.5</ele></trkpt>
   <trkpt lon="-9.247183" lat="39.334176"><ele>122.75</ele><sym>right_slight</sym></trkpt>
   <trkpt lon="-9.247543" lat="39.333968"><ele>122.5</ele></trkpt>
   <trkpt lon="-9.247736" lat="39.333835"><ele>122.5</ele></trkpt>
   <trkpt lon="-9.247865" lat="39.333793"><ele>122.25</ele></trkpt>
   <trkpt lon="-9.248290" lat="39.333713"><ele>123.25</ele></trkpt>
   <trkpt lon="-9.248471" lat="39.333688"><ele>123.75</ele></trkpt>
   <trkpt lon="-9.248771" lat="39.333754"><ele>123.5</ele></trkpt>
   <trkpt lon="-9.249378" lat="39.333866"><ele>123.75</ele></trkpt>
   <trkpt lon="-9.249615" lat="39.333916"><ele>124.25</ele></trkpt>
   <trkpt lon="-9.250021" lat="39.334003"><ele>124.0</ele></trkpt>
   <trkpt lon="-9.250821" lat="39.334148"><ele>127.0</ele></trkpt>
   <trkpt lon="-9.251389" lat="39.334219"><ele>128.0</ele></trkpt>
   <trkpt lon="-9.252167" lat="39.334327"><ele>133.25</ele></trkpt>
   <trkpt lon="-9.252945" lat="39.334443"><ele>136.0</ele></trkpt>
   <trkpt lon="-9.253274" lat="39.334502"><ele>136.5</ele></trkpt>
   <trkpt lon="-9.255579" lat="39.334902"><ele>136.75</ele></trkpt>
   <trkpt lon="-9.256078" lat="39.335003"><ele>136.75</ele></trkpt>
   <trkpt lon="-9.256601" lat="39.335039"><ele>136.0</ele><sym>pass_place</sym><type>Shaping</type></trkpt>
   <trkpt lon="-9.256603" lat="39.335040"><ele>136.0</ele></trkpt>
   <trkpt lon="-9.256957" lat="39.335028"><ele>136.75</ele></trkpt>
   <trkpt lon="-9.257633" lat="39.334945"><ele>138.0</ele></trkpt>
   <trkpt lon="-9.258358" lat="39.334916"><ele>135.5</ele></trkpt>
   <trkpt lon="-9.259157" lat="39.334750"><ele>136.5</ele></trkpt>
   <trkpt lon="-9.259506" lat="39.334688"><ele>136.0</ele></trkpt>
   <trkpt lon="-9.260219" lat="39.334617"><ele>136.0</ele></trkpt>
   <trkpt lon="-9.260668" lat="39.334554"><ele>136.5</ele></trkpt>
   <trkpt lon="-9.260732" lat="39.334545"><ele>136.5</ele></trkpt>
   <trkpt lon="-9.261233" lat="39.334476"><ele>135.75</ele></trkpt>
   <trkpt lon="-9.262169" lat="39.334289"><ele>137.75</ele></trkpt>
   <trkpt lon="-9.262470" lat="39.334195"><ele>138.5</ele></trkpt>
   <trkpt lon="-9.263870" lat="39.333772"><ele>135.75</ele></trkpt>
   <trkpt lon="-9.264493" lat="39.333571"><ele>134.75</ele><sym>right_slight</sym></trkpt>
   <trkpt lon="-9.264628" lat="39.333625"><ele>134.0</ele></trkpt>
   <trkpt lon="-9.264779" lat="39.333648"><ele>133.5</ele></trkpt>
   <trkpt lon="-9.265337" lat="39.333576"><ele>133.25</ele></trkpt>
   <trkpt lon="-9.265540" lat="39.333559"><ele>133.25</ele></trkpt>
   <trkpt lon="-9.265900" lat="39.333582"><ele>133.0</ele><sym>left_slight</sym></trkpt>
   <trkpt lon="-9.266525" lat="39.333435"><ele>132.75</ele></trkpt>
   <trkpt lon="-9.266881" lat="39.333250"><ele>131.25</ele><sym>right</sym></trkpt>
   <trkpt lon="-9.267076" lat="39.333499"><ele>130.0</ele><sym>right_slight</sym></trkpt>
   <trkpt lon="-9.266968" lat="39.333819"><ele>129.75</ele></trkpt>
   <trkpt lon="-9.266902" lat="39.333941"><ele>129.0</ele></trkpt>
   <trkpt lon="-9.266663" lat="39.334425"><ele>124.0</ele></trkpt>
   <trkpt lon="-9.266533" lat="39.334677"><ele>122.25</ele></trkpt>
   <trkpt lon="-9.266419" lat="39.334992"><ele>121.75</ele><sym>left</sym></trkpt>
   <trkpt lon="-9.267067" lat="39.335299"><ele>116.25</ele></trkpt>
   <trkpt lon="-9.267221" lat="39.335424"><ele>115.25</ele></trkpt>
   <trkpt lon="-9.267258" lat="39.335454"><ele>115.0</ele></trkpt>
   <trkpt lon="-9.267285" lat="39.335492"><ele>115.0</ele></trkpt>
   <trkpt lon="-9.267595" lat="39.335940"><ele>112.25</ele></trkpt>
   <trkpt lon="-9.267764" lat="39.336096"><ele>111.0</ele></trkpt>
   <trkpt lon="-9.267863" lat="39.336169"><ele>110.75</ele></trkpt>
   <trkpt lon="-9.267993" lat="39.336234"><ele>110.5</ele></trkpt>
   <trkpt lon="-9.268418" lat="39.336450"><ele>110.75</ele><sym>right_slight</sym></trkpt>
   <trkpt lon="-9.268698" lat="39.336657"><ele>110.0</ele></trkpt>
   <trkpt lon="-9.268775" lat="39.336714"><ele>109.75</ele><sym>right_slight</sym></trkpt>
   <trkpt lon="-9.268837" lat="39.336878"><ele>109.0</ele><sym>left_slight</sym></trkpt>
   <trkpt lon="-9.269189" lat="39.337218"><ele>107.0</ele><sym>left_slight</sym></trkpt>
   <trkpt lon="-9.269556" lat="39.337325"><ele>107.0</ele></trkpt>
   <trkpt lon="-9.269623" lat="39.337347"><ele>107.0</ele></trkpt>
   <trkpt lon="-9.270235" lat="39.337592"><ele>106.5</ele></trkpt>
   <trkpt lon="-9.271726" lat="39.338440"><ele>104.75</ele></trkpt>
   <trkpt lon="-9.272267" lat="39.338678"><ele>105.0</ele></trkpt>
   <trkpt lon="-9.272446" lat="39.338757"><ele>105.0</ele><sym>pass_place</sym><type>Shaping</type></trkpt>
   <trkpt lon="-9.272881" lat="39.338907"><ele>106.25</ele><sym>left_slight</sym></trkpt>
   <trkpt lon="-9.273417" lat="39.338979"><ele>105.25</ele></trkpt>
   <trkpt lon="-9.273624" lat="39.338986"><ele>104.25</ele></trkpt>
   <trkpt lon="-9.273827" lat="39.338981"><ele>104.0</ele></trkpt>
   <trkpt lon="-9.274081" lat="39.338959"><ele>103.25</ele></trkpt>
   <trkpt lon="-9.274177" lat="39.338957"><ele>102.75</ele></trkpt>
   <trkpt lon="-9.274257" lat="39.338946"><ele>102.5</ele><sym>roundabout_e1</sym></trkpt>
   <trkpt lon="-9.274267" lat="39.338981"><ele>102.5</ele></trkpt>
   <trkpt lon="-9.274291" lat="39.339010"><ele>102.5</ele></trkpt>
   <trkpt lon="-9.274326" lat="39.339032"><ele>102.25</ele></trkpt>
   <trkpt lon="-9.274369" lat="39.339045"><ele>102.25</ele></trkpt>
   <trkpt lon="-9.274434" lat="39.339041"><ele>102.0</ele></trkpt>
   <trkpt lon="-9.274453" lat="39.339090"><ele>102.0</ele></trkpt>
   <trkpt lon="-9.275162" lat="39.340768"><ele>105.5</ele></trkpt>
   <trkpt lon="-9.275662" lat="39.341938"><ele>101.5</ele></trkpt>
   <trkpt lon="-9.275777" lat="39.342165"><ele>101.0</ele></trkpt>
   <trkpt lon="-9.275833" lat="39.342259"><ele>101.0</ele></trkpt>
   <trkpt lon="-9.275890" lat="39.342346"><ele>101.5</ele></trkpt>
   <trkpt lon="-9.275954" lat="39.342427"><ele>102.0</ele></trkpt>
   <trkpt lon="-9.276047" lat="39.342519"><ele>102.75</ele></trkpt>
   <trkpt lon="-9.276124" lat="39.342577"><ele>103.5</ele></trkpt>
   <trkpt lon="-9.276284" lat="39.342672"><ele>105.0</ele></trkpt>
   <trkpt lon="-9.277527" lat="39.343259"><ele>108.5</ele></trkpt>
   <trkpt lon="-9.277883" lat="39.343419"><ele>109.5</ele><sym>straight</sym></trkpt>
   <trkpt lon="-9.278192" lat="39.343569"><ele>108.75</ele></trkpt>
   <trkpt lon="-9.278391" lat="39.343662"><ele>107.0</ele></trkpt>
   <trkpt lon="-9.279882" lat="39.344349"><ele>107.0</ele></trkpt>
   <trkpt lon="-9.281284" lat="39.345000"><ele>108.0</ele></trkpt>
   <trkpt lon="-9.281568" lat="39.345125"><ele>109.75</ele></trkpt>
   <trkpt lon="-9.282756" lat="39.345684"><ele>122.25</ele></trkpt>
   <trkpt lon="-9.284592" lat="39.346537"><ele>109.75</ele></trkpt>
   <trkpt lon="-9.284673" lat="39.346573"><ele>108.5</ele></trkpt>
   <trkpt lon="-9.285243" lat="39.346831"><ele>106.0</ele></trkpt>
   <trkpt lon="-9.285370" lat="39.346898"><ele>105.5</ele></trkpt>
   <trkpt lon="-9.285517" lat="39.346979"><ele>104.5</ele></trkpt>
   <trkpt lon="-9.285637" lat="39.347060"><ele>103.75</ele></trkpt>
   <trkpt lon="-9.285728" lat="39.347136"><ele>103.25</ele></trkpt>
   <trkpt lon="-9.285815" lat="39.347226"><ele>103.0</ele></trkpt>
   <trkpt lon="-9.285896" lat="39.347340"><ele>103.75</ele></trkpt>
   <trkpt lon="-9.285967" lat="39.347467"><ele>104.75</ele></trkpt>
   <trkpt lon="-9.286155" lat="39.347893"><ele>103.25</ele></trkpt>
   <trkpt lon="-9.286439" lat="39.348501"><ele>99.5</ele></trkpt>
   <trkpt lon="-9.286821" lat="39.349329"><ele>95.25</ele><sym>pass_place</sym><type>Shaping</type></trkpt>
   <trkpt lon="-9.286822" lat="39.349333"><ele>95.25</ele></trkpt>
   <trkpt lon="-9.286882" lat="39.349404"><ele>95.0</ele></trkpt>
   <trkpt lon="-9.286939" lat="39.349452"><ele>94.75</ele></trkpt>
   <trkpt lon="-9.286997" lat="39.349496"><ele>94.75</ele></trkpt>
   <trkpt lon="-9.287059" lat="39.349523"><ele>94.5</ele></trkpt>
   <trkpt lon="-9.287209" lat="39.349565"><ele>94.5</ele></trkpt>
   <trkpt lon="-9.287602" lat="39.349634"><ele>92.25</ele></trkpt>
   <trkpt lon="-9.287723" lat="39.349656"><ele>91.5</ele></trkpt>
   <trkpt lon="-9.287900" lat="39.349687"><ele>90.75</ele></trkpt>
   <trkpt lon="-9.288220" lat="39.349743"><ele>88.5</ele></trkpt>
   <trkpt lon="-9.288366" lat="39.349762"><ele>87.25</ele></trkpt>
   <trkpt lon="-9.289007" lat="39.349775"><ele>83.0</ele></trkpt>
   <trkpt lon="-9.289331" lat="39.349770"><ele>81.25</ele></trkpt>
   <trkpt lon="-9.289424" lat="39.349770"><ele>80.75</ele></trkpt>
   <trkpt lon="-9.289525" lat="39.349768"><ele>80.75</ele></trkpt>
   <trkpt lon="-9.289768" lat="39.349784"><ele>80.5</ele></trkpt>
   <trkpt lon="-9.290212" lat="39.349853"><ele>78.25</ele></trkpt>
   <trkpt lon="-9.290334" lat="39.349874"><ele>77.75</ele></trkpt>
   <trkpt lon="-9.290697" lat="39.349957"><ele>77.0</ele></trkpt>
   <trkpt lon="-9.290819" lat="39.349989"><ele>77.0</ele></trkpt>
   <trkpt lon="-9.291258" lat="39.350111"><ele>76.25</ele></trkpt>
   <trkpt lon="-9.291860" lat="39.350278"><ele>75.0</ele></trkpt>
   <trkpt lon="-9.292386" lat="39.350412"><ele>73.25</ele><sym>right</sym></trkpt>
   <trkpt lon="-9.292375" lat="39.350462"><ele>73.25</ele></trkpt>
   <trkpt lon="-9.292311" lat="39.350671"><ele>72.5</ele></trkpt>
   <trkpt lon="-9.292294" lat="39.350746"><ele>72.0</ele></trkpt>
   <trkpt lon="-9.292277" lat="39.351035"><ele>67.75</ele></trkpt>
   <trkpt lon="-9.292281" lat="39.351090"><ele>66.75</ele></trkpt>
   <trkpt lon="-9.292292" lat="39.351214"><ele>65.0</ele></trkpt>
   <trkpt lon="-9.292345" lat="39.351409"><ele>62.75</ele></trkpt>
   <trkpt lon="-9.292390" lat="39.351526"><ele>62.5</ele></trkpt>
   <trkpt lon="-9.293292" lat="39.353544"><ele>56.75</ele></trkpt>
   <trkpt lon="-9.293851" lat="39.354795"><ele>58.75</ele></trkpt>
   <trkpt lon="-9.293980" lat="39.355040"><ele>58.0</ele></trkpt>
   <trkpt lon="-9.294156" lat="39.355314"><ele>56.5</ele></trkpt>
   <trkpt lon="-9.294243" lat="39.355432"><ele>55.25</ele></trkpt>
   <trkpt lon="-9.294461" lat="39.355689"><ele>54.25</ele></trkpt>
   <trkpt lon="-9.294580" lat="39.355812"><ele>54.0</ele></trkpt>
   <trkpt lon="-9.294879" lat="39.356084"><ele>52.25</ele></trkpt>
   <trkpt lon="-9.295026" lat="39.356209"><ele>50.25</ele></trkpt>
   <trkpt lon="-9.295330" lat="39.356424"><ele>48.5</ele></trkpt>
   <trkpt lon="-9.295503" lat="39.356530"><ele>48.0</ele></trkpt>
   <trkpt lon="-9.295831" lat="39.356692"><ele>47.0</ele></trkpt>
   <trkpt lon="-9.296023" lat="39.356768"><ele>48.75</ele></trkpt>
   <trkpt lon="-9.296723" lat="39.357010"><ele>53.75</ele></trkpt>
   <trkpt lon="-9.298450" lat="39.357575"><ele>52.5</ele></trkpt>
   <trkpt lon="-9.298926" lat="39.357736"><ele>51.75</ele></trkpt>
   <trkpt lon="-9.299985" lat="39.358092"><ele>52.5</ele></trkpt>
   <trkpt lon="-9.301152" lat="39.358481"><ele>50.0</ele></trkpt>
   <trkpt lon="-9.307830" lat="39.360690"><ele>43.25</ele><sym>pass_place</sym><type>Shaping</type></trkpt>
   <trkpt lon="-9.307833" lat="39.360692"><ele>43.25</ele></trkpt>
   <trkpt lon="-9.308003" lat="39.360743"><ele>43.5</ele></trkpt>
   <trkpt lon="-9.308145" lat="39.360777"><ele>43.25</ele></trkpt>
   <trkpt lon="-9.308307" lat="39.360804"><ele>42.75</ele></trkpt>
   <trkpt lon="-9.308494" lat="39.360827"><ele>41.0</ele></trkpt>
   <trkpt lon="-9.308951" lat="39.360873"><ele>37.0</ele></trkpt>
   <trkpt lon="-9.309834" lat="39.360963"><ele>35.75</ele></trkpt>
   <trkpt lon="-9.310458" lat="39.361022"><ele>31.75</ele></trkpt>
   <trkpt lon="-9.310642" lat="39.361054"><ele>30.5</ele></trkpt>
   <trkpt lon="-9.310753" lat="39.361081"><ele>29.5</ele></trkpt>
   <trkpt lon="-9.310851" lat="39.361121"><ele>29.0</ele></trkpt>
   <trkpt lon="-9.311275" lat="39.361384"><ele>29.25</ele></trkpt>
   <trkpt lon="-9.311754" lat="39.361705"><ele>27.5</ele></trkpt>
   <trkpt lon="-9.311935" lat="39.361834"><ele>27.25</ele></trkpt>
   <trkpt lon="-9.312235" lat="39.362073"><ele>27.25</ele></trkpt>
   <trkpt lon="-9.312491" lat="39.362259"><ele>28.0</ele></trkpt>
   <trkpt lon="-9.312576" lat="39.362311"><ele>28.0</ele></trkpt>
   <trkpt lon="-9.312963" lat="39.362530"><ele>29.0</ele></trkpt>
   <trkpt lon="-9.313275" lat="39.362684"><ele>28.0</ele></trkpt>
   <trkpt lon="-9.313590" lat="39.362829"><ele>27.25</ele></trkpt>
   <trkpt lon="-9.313724" lat="39.362881"><ele>27.5</ele></trkpt>
   <trkpt lon="-9.314201" lat="39.363036"><ele>27.5</ele></trkpt>
   <trkpt lon="-9.314839" lat="39.363222"><ele>25.5</ele></trkpt>
   <trkpt lon="-9.314981" lat="39.363255"><ele>24.75</ele></trkpt>
   <trkpt lon="-9.315109" lat="39.363273"><ele>24.25</ele></trkpt>
   <trkpt lon="-9.315249" lat="39.363288"><ele>23.75</ele></trkpt>
   <trkpt lon="-9.315367" lat="39.363300"><ele>23.5</ele></trkpt>
   <trkpt lon="-9.315602" lat="39.363352"><ele>22.75</ele></trkpt>
   <trkpt lon="-9.315787" lat="39.363428"><ele>22.75</ele></trkpt>
   <trkpt lon="-9.316011" lat="39.363543"><ele>23.25</ele></trkpt>
   <trkpt lon="-9.316129" lat="39.363603"><ele>23.75</ele></trkpt>
   <trkpt lon="-9.316215" lat="39.363645"><ele>24.25</ele></trkpt>
   <trkpt lon="-9.316271" lat="39.363673"><ele>24.75</ele><sym>roundabout_e1</sym></trkpt>
   <trkpt lon="-9.316307" lat="39.363709"><ele>25.0</ele></trkpt>
   <trkpt lon="-9.316344" lat="39.363719"><ele>25.0</ele></trkpt>
   <trkpt lon="-9.316384" lat="39.363716"><ele>25.25</ele></trkpt>
   <trkpt lon="-9.316433" lat="39.363737"><ele>25.5</ele><sym>right</sym></trkpt>
   <trkpt lon="-9.316179" lat="39.364118"><ele>25.75</ele><sym>stay_right</sym></trkpt>
   <trkpt lon="-9.316121" lat="39.364143"><ele>25.75</ele></trkpt>
   <trkpt lon="-9.315982" lat="39.364250"><ele>26.75</ele><sym>pass_place</sym><type>Via</type></trkpt>
  </trkseg>
 </trk>
</gpx>
