<?xml version="1.0" encoding="UTF-8"?>
<!-- track-length = 40687 filtered ascend = 437 plain-ascend = 1 cost=56731 energy=.2kwh time=2h 23m 25s -->
<gpx 
 xmlns="http://www.topografix.com/GPX/1/1" 
 xmlns:xsi="http://www.w3.org/2001/XMLSchema-instance" 
 xsi:schemaLocation="http://www.topografix.com/GPX/1/1 http://www.topografix.com/GPX/1/1/gpx.xsd" 
 creator="BRouter-1.7.9" version="1.1"><wpt lat="39.28708" lon="-9.21641"><name>Natinhas do Céu</name><sym>Restaurant</sym></wpt><wpt lat="39.30693" lon="-9.1934"><name>Chafariz da Columbeira</name><sym>Drinking Water</sym></wpt><wpt lat="39.30993" lon="-9.21495"><name>Mãe de Água</name><sym>Drinking Water</sym></wpt><wpt lat="39.36411" lon="-9.31784"><name>Pasteleria Ferreleja</name><sym>Restaurant</sym></wpt><wpt lat="39.28705" lon="-9.21622"><name>Drinking water</name><sym>Drinking Water</sym></wpt><wpt lat="39.33206" lon="-9.26988"><name>A Serrana</name><sym>Restaurant</sym></wpt><wpt lat="39.34957" lon="-9.28944"><name>cafe Mercearia</name><sym>Restaurant</sym></wpt><wpt lat="39.30981" lon="-9.21494"><name>Café</name><sym>Restaurant</sym></wpt><wpt lat="39.27993" lon="-9.24544"><name>Drinking water</name><sym>Drinking Water</sym></wpt><wpt lat="39.279" lon="-9.24643"><name>Drinking water</name><sym>Drinking Water</sym></wpt><wpt lat="39.36375" lon="-9.31618"><name>Café Central</name><sym>Restaurant</sym></wpt><wpt lat="39.30995" lon="-9.2183"><name>Drinking water</name><sym>Drinking Water</sym></wpt><wpt lat="39.33734" lon="-9.32586"><name>SbikeShop</name><sym>Bike Trail</sym></wpt><wpt lat="39.33592" lon="-9.32524"><name>Arcadas do Jardim</name><sym>Restaurant</sym></wpt><wpt lat="39.33615" lon="-9.3263"><name>Entre Amigos</name><sym>Restaurant</sym></wpt><wpt lat="39.33984" lon="-9.32715"><name>Forne da Vila</name><sym>Restaurant</sym></wpt><wpt lat="39.32703" lon="-9.23309"><name>Café Boémia</name><sym>Restaurant</sym></wpt><wpt lat="39.30987" lon="-9.21522"><name>Café</name><sym>Restaurant</sym></wpt>
 <trk>
  <src>brouter_fastbike-lowtraffic_0</src>
  <type>bike</type>
  <trkseg>
   <trkpt lon="-9.315982" lat="39.364250"><ele>26.0</ele><sym>pass_place</sym><type>Via</type></trkpt>
   <trkpt lon="-9.315923" lat="39.364295"><ele>25.7</ele></trkpt>
   <trkpt lon="-9.315793" lat="39.364266"><ele>25.4</ele><sym>right</sym></trkpt>
   <trkpt lon="-9.315828" lat="39.364198"><ele>25.2</ele></trkpt>
   <trkpt lon="-9.315915" lat="39.364030"><ele>25.1</ele></trkpt>
   <trkpt lon="-9.315870" lat="39.363883"><ele>25.1</ele><sym>right_slight</sym></trkpt>
   <trkpt lon="-9.315922" lat="39.363731"><ele>25.0</ele></trkpt>
   <trkpt lon="-9.316011" lat="39.363543"><ele>24.8</ele><sym>right</sym></trkpt>
   <trkpt lon="-9.316129" lat="39.363603"><ele>24.7</ele></trkpt>
   <trkpt lon="-9.316215" lat="39.363645"><ele>24.6</ele></trkpt>
   <trkpt lon="-9.316271" lat="39.363673"><ele>24.6</ele><sym>roundabout_e2</sym></trkpt>
   <trkpt lon="-9.316307" lat="39.363709"><ele>24.6</ele></trkpt>
   <trkpt lon="-9.316344" lat="39.363719"><ele>24.7</ele></trkpt>
   <trkpt lon="-9.316384" lat="39.363716"><ele>24.6</ele></trkpt>
   <trkpt lon="-9.316425" lat="39.363693"><ele>24.4</ele></trkpt>
   <trkpt lon="-9.316444" lat="39.363657"><ele>24.2</ele></trkpt>
   <trkpt lon="-9.316435" lat="39.363621"><ele>23.7</ele></trkpt>
   <trkpt lon="-9.316421" lat="39.363605"><ele>23.2</ele></trkpt>
   <trkpt lon="-9.316447" lat="39.363408"><ele>22.4</ele><sym>right_slight</sym></trkpt>
   <trkpt lon="-9.316593" lat="39.363210"><ele>21.0</ele></trkpt>
   <trkpt lon="-9.317096" lat="39.362510"><ele>19.4</ele></trkpt>
   <trkpt lon="-9.318017" lat="39.361207"><ele>17.9</ele></trkpt>
   <trkpt lon="-9.318830" lat="39.360121"><ele>16.4</ele></trkpt>
   <trkpt lon="-9.318993" lat="39.359834"><ele>14.9</ele></trkpt>
   <trkpt lon="-9.319551" lat="39.358390"><ele>13.8</ele></trkpt>
   <trkpt lon="-9.319627" lat="39.358152"><ele>12.8</ele></trkpt>
   <trkpt lon="-9.319665" lat="39.357949"><ele>11.8</ele></trkpt>
   <trkpt lon="-9.319686" lat="39.357623"><ele>11.0</ele></trkpt>
   <trkpt lon="-9.319684" lat="39.357477"><ele>10.3</ele></trkpt>
   <trkpt lon="-9.319664" lat="39.357178"><ele>9.9</ele></trkpt>
   <trkpt lon="-9.319655" lat="39.357073"><ele>10.1</ele></trkpt>
   <trkpt lon="-9.319643" lat="39.356930"><ele>10.4</ele></trkpt>
   <trkpt lon="-9.319622" lat="39.356790"><ele>10.8</ele></trkpt>
   <trkpt lon="-9.319482" lat="39.356185"><ele>11.3</ele></trkpt>
   <trkpt lon="-9.319455" lat="39.356042"><ele>11.9</ele></trkpt>
   <trkpt lon="-9.319443" lat="39.355926"><ele>12.6</ele></trkpt>
   <trkpt lon="-9.319441" lat="39.355790"><ele>13.2</ele></trkpt>
   <trkpt lon="-9.319452" lat="39.355658"><ele>13.9</ele></trkpt>
   <trkpt lon="-9.319584" lat="39.354926"><ele>14.7</ele></trkpt>
   <trkpt lon="-9.319656" lat="39.354683"><ele>15.4</ele></trkpt>
   <trkpt lon="-9.319740" lat="39.354453"><ele>16.2</ele></trkpt>
   <trkpt lon="-9.319798" lat="39.354335"><ele>17.3</ele></trkpt>
   <trkpt lon="-9.319868" lat="39.354217"><ele>18.4</ele></trkpt>
   <trkpt lon="-9.320003" lat="39.354049"><ele>19.4</ele></trkpt>
   <trkpt lon="-9.320081" lat="39.353968"><ele>20.5</ele></trkpt>
   <trkpt lon="-9.320269" lat="39.353815"><ele>21.5</ele></trkpt>
   <trkpt lon="-9.321256" lat="39.353177"><ele>22.3</ele></trkpt>
   <trkpt lon="-9.321558" lat="39.352954"><ele>23.1</ele></trkpt>
   <trkpt lon="-9.321703" lat="39.352831"><ele>23.7</ele></trkpt>
   <trkpt lon="-9.321928" lat="39.352622"><ele>24.1</ele></trkpt>
   <trkpt lon="-9.322250" lat="39.352251"><ele>23.3</ele></trkpt>
   <trkpt lon="-9.322442" lat="39.351953"><ele>22.4</ele></trkpt>
   <trkpt lon="-9.322679" lat="39.351441"><ele>21.1</ele></trkpt>
   <trkpt lon="-9.323175" lat="39.350403"><ele>19.6</ele></trkpt>
   <trkpt lon="-9.323543" lat="39.349610"><ele>18.0</ele><sym>pass_place</sym><type>Shaping</type></trkpt>
   <trkpt lon="-9.324287" lat="39.347495"><ele>16.3</ele></trkpt>
   <trkpt lon="-9.324417" lat="39.347247"><ele>14.5</ele></trkpt>
   <trkpt lon="-9.324549" lat="39.347048"><ele>12.6</ele></trkpt>
   <trkpt lon="-9.324749" lat="39.346842"><ele>10.7</ele></trkpt>
   <trkpt lon="-9.324864" lat="39.346739"><ele>9.0</ele></trkpt>
   <trkpt lon="-9.325199" lat="39.346472"><ele>7.4</ele></trkpt>
   <trkpt lon="-9.325384" lat="39.346336"><ele>7.1</ele></trkpt>
   <trkpt lon="-9.325660" lat="39.346150"><ele>6.8</ele></trkpt>
   <trkpt lon="-9.325834" lat="39.346037"><ele>6.8</ele></trkpt>
   <trkpt lon="-9.326455" lat="39.345608"><ele>7.0</ele></trkpt>
   <trkpt lon="-9.326880" lat="39.345283"><ele>7.2</ele></trkpt>
   <trkpt lon="-9.327028" lat="39.345163"><ele>7.7</ele></trkpt>
   <trkpt lon="-9.327155" lat="39.345049"><ele>8.3</ele></trkpt>
   <trkpt lon="-9.327274" lat="39.344929"><ele>8.9</ele></trkpt>
   <trkpt lon="-9.327349" lat="39.344839"><ele>9.7</ele></trkpt>
   <trkpt lon="-9.327409" lat="39.344752"><ele>10.5</ele></trkpt>
   <trkpt lon="-9.327861" lat="39.343963"><ele>11.3</ele></trkpt>
   <trkpt lon="-9.328065" lat="39.343601"><ele>12.1</ele></trkpt>
   <trkpt lon="-9.328121" lat="39.343453"><ele>12.9</ele></trkpt>
   <trkpt lon="-9.328139" lat="39.343376"><ele>13.7</ele></trkpt>
   <trkpt lon="-9.328146" lat="39.343279"><ele>14.7</ele></trkpt>
   <trkpt lon="-9.328140" lat="39.343182"><ele>15.6</ele></trkpt>
   <trkpt lon="-9.328123" lat="39.343074"><ele>16.4</ele></trkpt>
   <trkpt lon="-9.328044" lat="39.342773"><ele>17.7</ele></trkpt>
   <trkpt lon="-9.327948" lat="39.342455"><ele>19.0</ele></trkpt>
   <trkpt lon="-9.327848" lat="39.342110"><ele>20.4</ele></trkpt>
   <trkpt lon="-9.327721" lat="39.341666"><ele>21.8</ele></trkpt>
   <trkpt lon="-9.327530" lat="39.341059"><ele>23.3</ele></trkpt>
   <trkpt lon="-9.327395" lat="39.340638"><ele>24.7</ele></trkpt>
   <trkpt lon="-9.327342" lat="39.340531"><ele>26.0</ele></trkpt>
   <trkpt lon="-9.327252" lat="39.340372"><ele>27.3</ele></trkpt>
   <trkpt lon="-9.327109" lat="39.340105"><ele>28.3</ele></trkpt>
   <trkpt lon="-9.327074" lat="39.340009"><ele>29.3</ele></trkpt>
   <trkpt lon="-9.327030" lat="39.339800"><ele>29.8</ele></trkpt>
   <trkpt lon="-9.327022" lat="39.339757"><ele>29.8</ele><sym>left</sym></trkpt>
   <trkpt lon="-9.326876" lat="39.339763"><ele>29.7</ele></trkpt>
   <trkpt lon="-9.326741" lat="39.339752"><ele>29.5</ele></trkpt>
   <trkpt lon="-9.326547" lat="39.339722"><ele>29.3</ele></trkpt>
   <trkpt lon="-9.326031" lat="39.339614"><ele>29.3</ele><sym>right</sym></trkpt>
   <trkpt lon="-9.326036" lat="39.339585"><ele>29.3</ele></trkpt>
   <trkpt lon="-9.326117" lat="39.339117"><ele>29.3</ele></trkpt>
   <trkpt lon="-9.326122" lat="39.339076"><ele>29.6</ele></trkpt>
   <trkpt lon="-9.326162" lat="39.338718"><ele>29.9</ele></trkpt>
   <trkpt lon="-9.326195" lat="39.338494"><ele>30.3</ele></trkpt>
   <trkpt lon="-9.326254" lat="39.338136"><ele>31.1</ele></trkpt>
   <trkpt lon="-9.326311" lat="39.337770"><ele>31.8</ele></trkpt>
   <trkpt lon="-9.326388" lat="39.337277"><ele>32.6</ele><sym>left</sym></trkpt>
   <trkpt lon="-9.326078" lat="39.337246"><ele>33.3</ele></trkpt>
   <trkpt lon="-9.325961" lat="39.337210"><ele>34.0</ele><sym>right_slight</sym></trkpt>
   <trkpt lon="-9.325927" lat="39.337166"><ele>34.5</ele></trkpt>
   <trkpt lon="-9.325908" lat="39.337123"><ele>35.0</ele></trkpt>
   <trkpt lon="-9.325902" lat="39.336724"><ele>35.5</ele></trkpt>
   <trkpt lon="-9.325901" lat="39.336644"><ele>35.8</ele></trkpt>
   <trkpt lon="-9.325898" lat="39.336426"><ele>36.0</ele></trkpt>
   <trkpt lon="-9.325884" lat="39.336341"><ele>36.1</ele></trkpt>
   <trkpt lon="-9.325841" lat="39.336283"><ele>36.3</ele><sym>straight</sym></trkpt>
   <trkpt lon="-9.325672" lat="39.336113"><ele>36.5</ele></trkpt>
   <trkpt lon="-9.325611" lat="39.336072"><ele>36.7</ele></trkpt>
   <trkpt lon="-9.325568" lat="39.336056"><ele>36.9</ele><sym>right</sym></trkpt>
   <trkpt lon="-9.325587" lat="39.335989"><ele>37.1</ele></trkpt>
   <trkpt lon="-9.325579" lat="39.335890"><ele>37.3</ele></trkpt>
   <trkpt lon="-9.325464" lat="39.335133"><ele>37.8</ele></trkpt>
   <trkpt lon="-9.325464" lat="39.335129"><ele>37.9</ele><sym>pass_place</sym><type>Shaping</type></trkpt>
   <trkpt lon="-9.325311" lat="39.334408"><ele>38.4</ele></trkpt>
   <trkpt lon="-9.325264" lat="39.334104"><ele>38.9</ele></trkpt>
   <trkpt lon="-9.325165" lat="39.333908"><ele>39.5</ele></trkpt>
   <trkpt lon="-9.325054" lat="39.332408"><ele>40.4</ele><sym>left_slight</sym></trkpt>
   <trkpt lon="-9.324925" lat="39.331966"><ele>41.2</ele></trkpt>
   <trkpt lon="-9.324894" lat="39.331882"><ele>42.1</ele></trkpt>
   <trkpt lon="-9.324729" lat="39.331548"><ele>43.4</ele></trkpt>
   <trkpt lon="-9.324573" lat="39.331343"><ele>45.1</ele></trkpt>
   <trkpt lon="-9.323618" lat="39.330165"><ele>46.7</ele></trkpt>
   <trkpt lon="-9.323046" lat="39.329316"><ele>48.1</ele></trkpt>
   <trkpt lon="-9.322707" lat="39.328798"><ele>49.5</ele></trkpt>
   <trkpt lon="-9.322188" lat="39.327972"><ele>51.2</ele></trkpt>
   <trkpt lon="-9.321802" lat="39.326998"><ele>52.9</ele></trkpt>
   <trkpt lon="-9.321565" lat="39.326431"><ele>54.4</ele></trkpt>
   <trkpt lon="-9.321526" lat="39.326374"><ele>55.8</ele></trkpt>
   <trkpt lon="-9.321131" lat="39.325801"><ele>57.4</ele></trkpt>
   <trkpt lon="-9.320295" lat="39.324390"><ele>59.0</ele></trkpt>
   <trkpt lon="-9.319741" lat="39.323399"><ele>60.2</ele></trkpt>
   <trkpt lon="-9.319513" lat="39.322425"><ele>61.1</ele></trkpt>
   <trkpt lon="-9.319321" lat="39.322089"><ele>61.9</ele></trkpt>
   <trkpt lon="-9.319025" lat="39.321107"><ele>62.9</ele></trkpt>
   <trkpt lon="-9.318558" lat="39.320276"><ele>63.9</ele></trkpt>
   <trkpt lon="-9.318363" lat="39.319663"><ele>64.8</ele><sym>pass_place</sym><type>Shaping</type></trkpt>
   <trkpt lon="-9.318237" lat="39.319366"><ele>65.8</ele></trkpt>
   <trkpt lon="-9.318156" lat="39.319176"><ele>67.1</ele></trkpt>
   <trkpt lon="-9.317907" lat="39.318731"><ele>68.6</ele></trkpt>
   <trkpt lon="-9.317756" lat="39.318277"><ele>69.8</ele><sym>right_slight</sym></trkpt>
   <trkpt lon="-9.317913" lat="39.318049"><ele>71.2</ele></trkpt>
   <trkpt lon="-9.317972" lat="39.317824"><ele>72.8</ele></trkpt>
   <trkpt lon="-9.317874" lat="39.316698"><ele>74.4</ele></trkpt>
   <trkpt lon="-9.317700" lat="39.316060"><ele>76.1</ele></trkpt>
   <trkpt lon="-9.317603" lat="39.315220"><ele>77.4</ele></trkpt>
   <trkpt lon="-9.317418" lat="39.314347"><ele>78.7</ele></trkpt>
   <trkpt lon="-9.317190" lat="39.313591"><ele>79.9</ele></trkpt>
   <trkpt lon="-9.317017" lat="39.312827"><ele>80.9</ele></trkpt>
   <trkpt lon="-9.316973" lat="39.312390"><ele>81.8</ele></trkpt>
   <trkpt lon="-9.317038" lat="39.311852"><ele>82.5</ele></trkpt>
   <trkpt lon="-9.317210" lat="39.311340"><ele>83.1</ele><sym>straight</sym></trkpt>
   <trkpt lon="-9.317255" lat="39.311206"><ele>83.2</ele></trkpt>
   <trkpt lon="-9.317245" lat="39.310853"><ele>83.3</ele></trkpt>
   <trkpt lon="-9.317189" lat="39.310653"><ele>83.3</ele></trkpt>
   <trkpt lon="-9.316952" lat="39.309745"><ele>83.3</ele></trkpt>
   <trkpt lon="-9.316778" lat="39.309224"><ele>83.9</ele></trkpt>
   <trkpt lon="-9.316724" lat="39.308846"><ele>85.1</ele></trkpt>
   <trkpt lon="-9.316702" lat="39.308510"><ele>86.5</ele></trkpt>
   <trkpt lon="-9.316655" lat="39.308012"><ele>87.9</ele></trkpt>
   <trkpt lon="-9.316427" lat="39.307345"><ele>89.9</ele></trkpt>
   <trkpt lon="-9.315784" lat="39.306501"><ele>91.7</ele></trkpt>
   <trkpt lon="-9.314937" lat="39.305445"><ele>93.8</ele></trkpt>
   <trkpt lon="-9.314419" lat="39.304711"><ele>96.1</ele></trkpt>
   <trkpt lon="-9.314106" lat="39.304401"><ele>98.4</ele></trkpt>
   <trkpt lon="-9.313039" lat="39.303552"><ele>100.7</ele><sym>right_slight</sym></trkpt>
   <trkpt lon="-9.313039" lat="39.303550"><ele>100.8</ele><sym>pass_place</sym><type>Shaping</type></trkpt>
   <trkpt lon="-9.312929" lat="39.303224"><ele>102.7</ele></trkpt>
   <trkpt lon="-9.312799" lat="39.302582"><ele>104.1</ele></trkpt>
   <trkpt lon="-9.312755" lat="39.302448"><ele>105.0</ele></trkpt>
   <trkpt lon="-9.312670" lat="39.302332"><ele>105.9</ele></trkpt>
   <trkpt lon="-9.312117" lat="39.301983"><ele>106.4</ele></trkpt>
   <trkpt lon="-9.311590" lat="39.301681"><ele>106.7</ele></trkpt>
   <trkpt lon="-9.311310" lat="39.301590"><ele>106.9</ele></trkpt>
   <trkpt lon="-9.311266" lat="39.301561"><ele>106.7</ele></trkpt>
   <trkpt lon="-9.311238" lat="39.301521"><ele>106.6</ele></trkpt>
   <trkpt lon="-9.311222" lat="39.301479"><ele>106.6</ele><sym>left</sym></trkpt>
   <trkpt lon="-9.310887" lat="39.301522"><ele>106.6</ele></trkpt>
   <trkpt lon="-9.310560" lat="39.301549"><ele>106.6</ele></trkpt>
   <trkpt lon="-9.310024" lat="39.301589"><ele>106.8</ele></trkpt>
   <trkpt lon="-9.309894" lat="39.301612"><ele>107.0</ele></trkpt>
   <trkpt lon="-9.309805" lat="39.301639"><ele>107.1</ele></trkpt>
   <trkpt lon="-9.309739" lat="39.301674"><ele>107.3</ele></trkpt>
   <trkpt lon="-9.309652" lat="39.301737"><ele>107.6</ele></trkpt>
   <trkpt lon="-9.309240" lat="39.301995"><ele>108.1</ele></trkpt>
   <trkpt lon="-9.309035" lat="39.302138"><ele>108.2</ele></trkpt>
   <trkpt lon="-9.308991" lat="39.302177"><ele>108.0</ele></trkpt>
   <trkpt lon="-9.308770" lat="39.302400"><ele>107.7</ele></trkpt>
   <trkpt lon="-9.308710" lat="39.302433"><ele>107.2</ele></trkpt>
   <trkpt lon="-9.308636" lat="39.302456"><ele>106.5</ele></trkpt>
   <trkpt lon="-9.307781" lat="39.302678"><ele>105.4</ele></trkpt>
   <trkpt lon="-9.307252" lat="39.302808"><ele>104.3</ele></trkpt>
   <trkpt lon="-9.307071" lat="39.302843"><ele>102.6</ele></trkpt>
   <trkpt lon="-9.306819" lat="39.302873"><ele>100.8</ele></trkpt>
   <trkpt lon="-9.306609" lat="39.302868"><ele>98.9</ele></trkpt>
   <trkpt lon="-9.306479" lat="39.302856"><ele>97.0</ele></trkpt>
   <trkpt lon="-9.306362" lat="39.302837"><ele>95.5</ele></trkpt>
   <trkpt lon="-9.305438" lat="39.302642"><ele>94.2</ele></trkpt>
   <trkpt lon="-9.305220" lat="39.302608"><ele>93.2</ele></trkpt>
   <trkpt lon="-9.305122" lat="39.302600"><ele>92.3</ele></trkpt>
   <trkpt lon="-9.305017" lat="39.302598"><ele>91.6</ele></trkpt>
   <trkpt lon="-9.304826" lat="39.302609"><ele>91.7</ele></trkpt>
   <trkpt lon="-9.304630" lat="39.302653"><ele>92.0</ele></trkpt>
   <trkpt lon="-9.304519" lat="39.302689"><ele>92.8</ele></trkpt>
   <trkpt lon="-9.304445" lat="39.302728"><ele>93.8</ele></trkpt>
   <trkpt lon="-9.304278" lat="39.302828"><ele>94.7</ele></trkpt>
   <trkpt lon="-9.303141" lat="39.303696"><ele>95.8</ele></trkpt>
   <trkpt lon="-9.303004" lat="39.303785"><ele>96.6</ele></trkpt>
   <trkpt lon="-9.302830" lat="39.303885"><ele>97.3</ele></trkpt>
   <trkpt lon="-9.302753" lat="39.303918"><ele>97.8</ele></trkpt>
   <trkpt lon="-9.302673" lat="39.303947"><ele>98.2</ele></trkpt>
   <trkpt lon="-9.302496" lat="39.303994"><ele>96.0</ele></trkpt>
   <trkpt lon="-9.302182" lat="39.304034"><ele>92.2</ele></trkpt>
   <trkpt lon="-9.302039" lat="39.304043"><ele>89.5</ele></trkpt>
   <trkpt lon="-9.301889" lat="39.304046"><ele>86.6</ele></trkpt>
   <trkpt lon="-9.301648" lat="39.304041"><ele>82.6</ele></trkpt>
   <trkpt lon="-9.298646" lat="39.303857"><ele>78.7</ele></trkpt>
   <trkpt lon="-9.295831" lat="39.303671"><ele>74.7</ele></trkpt>
   <trkpt lon="-9.295162" lat="39.303633"><ele>70.8</ele></trkpt>
   <trkpt lon="-9.295020" lat="39.303622"><ele>68.1</ele><sym>pass_place</sym><type>Shaping</type></trkpt>
   <trkpt lon="-9.295018" lat="39.303622"><ele>68.0</ele></trkpt>
   <trkpt lon="-9.294128" lat="39.303554"><ele>64.3</ele></trkpt>
   <trkpt lon="-9.293163" lat="39.303490"><ele>63.2</ele></trkpt>
   <trkpt lon="-9.292824" lat="39.303475"><ele>62.9</ele></trkpt>
   <trkpt lon="-9.292543" lat="39.303464"><ele>62.7</ele></trkpt>
   <trkpt lon="-9.292317" lat="39.303445"><ele>62.5</ele></trkpt>
   <trkpt lon="-9.291914" lat="39.303395"><ele>62.2</ele></trkpt>
   <trkpt lon="-9.291784" lat="39.303376"><ele>61.9</ele></trkpt>
   <trkpt lon="-9.291638" lat="39.303346"><ele>61.7</ele></trkpt>
   <trkpt lon="-9.291333" lat="39.303278"><ele>61.4</ele></trkpt>
   <trkpt lon="-9.291101" lat="39.303242"><ele>61.2</ele></trkpt>
   <trkpt lon="-9.291011" lat="39.303233"><ele>61.1</ele></trkpt>
   <trkpt lon="-9.290907" lat="39.303195"><ele>60.9</ele></trkpt>
   <trkpt lon="-9.290869" lat="39.303181"><ele>60.7</ele><sym>roundabout_e1</sym></trkpt>
   <trkpt lon="-9.290832" lat="39.303145"><ele>60.6</ele></trkpt>
   <trkpt lon="-9.290776" lat="39.303130"><ele>60.4</ele></trkpt>
   <trkpt lon="-9.290646" lat="39.303074"><ele>60.3</ele></trkpt>
   <trkpt lon="-9.290568" lat="39.303037"><ele>60.3</ele></trkpt>
   <trkpt lon="-9.290479" lat="39.303013"><ele>60.3</ele></trkpt>
   <trkpt lon="-9.290253" lat="39.302970"><ele>60.4</ele></trkpt>
   <trkpt lon="-9.290046" lat="39.302909"><ele>60.5</ele></trkpt>
   <trkpt lon="-9.289967" lat="39.302874"><ele>60.6</ele></trkpt>
   <trkpt lon="-9.289896" lat="39.302828"><ele>60.6</ele></trkpt>
   <trkpt lon="-9.289824" lat="39.302765"><ele>60.2</ele></trkpt>
   <trkpt lon="-9.289723" lat="39.302643"><ele>59.6</ele></trkpt>
   <trkpt lon="-9.289631" lat="39.302483"><ele>59.2</ele></trkpt>
   <trkpt lon="-9.289559" lat="39.302317"><ele>58.9</ele></trkpt>
   <trkpt lon="-9.289526" lat="39.302163"><ele>58.6</ele></trkpt>
   <trkpt lon="-9.289491" lat="39.301782"><ele>58.4</ele></trkpt>
   <trkpt lon="-9.289450" lat="39.300550"><ele>58.3</ele></trkpt>
   <trkpt lon="-9.289455" lat="39.300420"><ele>58.1</ele></trkpt>
   <trkpt lon="-9.289471" lat="39.300292"><ele>57.8</ele></trkpt>
   <trkpt lon="-9.289524" lat="39.300039"><ele>57.5</ele></trkpt>
   <trkpt lon="-9.289607" lat="39.299719"><ele>57.4</ele></trkpt>
   <trkpt lon="-9.289992" lat="39.298161"><ele>57.6</ele></trkpt>
   <trkpt lon="-9.289999" lat="39.298083"><ele>57.9</ele></trkpt>
   <trkpt lon="-9.289993" lat="39.298007"><ele>57.9</ele></trkpt>
   <trkpt lon="-9.289974" lat="39.297937"><ele>57.7</ele></trkpt>
   <trkpt lon="-9.289937" lat="39.297868"><ele>57.2</ele></trkpt>
   <trkpt lon="-9.289861" lat="39.297815"><ele>56.7</ele></trkpt>
   <trkpt lon="-9.289749" lat="39.297784"><ele>56.4</ele></trkpt>
   <trkpt lon="-9.289566" lat="39.297768"><ele>56.2</ele></trkpt>
   <trkpt lon="-9.289124" lat="39.297743"><ele>56.1</ele></trkpt>
   <trkpt lon="-9.288222" lat="39.297645"><ele>55.9</ele></trkpt>
   <trkpt lon="-9.288017" lat="39.297625"><ele>55.8</ele></trkpt>
   <trkpt lon="-9.287051" lat="39.297509"><ele>55.8</ele></trkpt>
   <trkpt lon="-9.286901" lat="39.297497"><ele>55.9</ele></trkpt>
   <trkpt lon="-9.286782" lat="39.297497"><ele>56.1</ele></trkpt>
   <trkpt lon="-9.286649" lat="39.297511"><ele>56.6</ele></trkpt>
   <trkpt lon="-9.286455" lat="39.297560"><ele>57.4</ele></trkpt>
   <trkpt lon="-9.286255" lat="39.297661"><ele>58.1</ele></trkpt>
   <trkpt lon="-9.286148" lat="39.297725"><ele>58.5</ele></trkpt>
   <trkpt lon="-9.285772" lat="39.297925"><ele>58.9</ele></trkpt>
   <trkpt lon="-9.285691" lat="39.297982"><ele>59.3</ele></trkpt>
   <trkpt lon="-9.285441" lat="39.298171"><ele>59.7</ele></trkpt>
   <trkpt lon="-9.285394" lat="39.298198"><ele>60.1</ele></trkpt>
   <trkpt lon="-9.285330" lat="39.298210"><ele>60.5</ele></trkpt>
   <trkpt lon="-9.285244" lat="39.298208"><ele>60.7</ele><sym>left</sym></trkpt>
   <trkpt lon="-9.285244" lat="39.298240"><ele>60.9</ele><sym>u-turn</sym><type>Via</type></trkpt>
   <trkpt lon="-9.285244" lat="39.298208"><ele>60.9</ele></trkpt>
   <trkpt lon="-9.285249" lat="39.298164"><ele>60.8</ele></trkpt>
   <trkpt lon="-9.285252" lat="39.297887"><ele>60.7</ele></trkpt>
   <trkpt lon="-9.285234" lat="39.297436"><ele>60.6</ele></trkpt>
   <trkpt lon="-9.285227" lat="39.297286"><ele>60.4</ele></trkpt>
   <trkpt lon="-9.285222" lat="39.297193"><ele>60.3</ele></trkpt>
   <trkpt lon="-9.285181" lat="39.296850"><ele>60.1</ele></trkpt>
   <trkpt lon="-9.285140" lat="39.296567"><ele>59.9</ele></trkpt>
   <trkpt lon="-9.285118" lat="39.296474"><ele>59.7</ele></trkpt>
   <trkpt lon="-9.285083" lat="39.296391"><ele>59.6</ele></trkpt>
   <trkpt lon="-9.285039" lat="39.296324"><ele>59.6</ele></trkpt>
   <trkpt lon="-9.284987" lat="39.296264"><ele>59.5</ele></trkpt>
   <trkpt lon="-9.284613" lat="39.295983"><ele>59.5</ele></trkpt>
   <trkpt lon="-9.284547" lat="39.295934"><ele>59.6</ele></trkpt>
   <trkpt lon="-9.284377" lat="39.295830"><ele>59.6</ele></trkpt>
   <trkpt lon="-9.284330" lat="39.295800"><ele>59.8</ele></trkpt>
   <trkpt lon="-9.284153" lat="39.295692"><ele>60.0</ele></trkpt>
   <trkpt lon="-9.284031" lat="39.295617"><ele>60.2</ele></trkpt>
   <trkpt lon="-9.282645" lat="39.294757"><ele>60.4</ele></trkpt>
   <trkpt lon="-9.282576" lat="39.294716"><ele>60.8</ele></trkpt>
   <trkpt lon="-9.282412" lat="39.294606"><ele>61.2</ele></trkpt>
   <trkpt lon="-9.282309" lat="39.294532"><ele>61.6</ele></trkpt>
   <trkpt lon="-9.282026" lat="39.294318"><ele>62.1</ele></trkpt>
   <trkpt lon="-9.281982" lat="39.294285"><ele>62.7</ele></trkpt>
   <trkpt lon="-9.281297" lat="39.293766"><ele>63.3</ele></trkpt>
   <trkpt lon="-9.281002" lat="39.293529"><ele>64.0</ele></trkpt>
   <trkpt lon="-9.280800" lat="39.293328"><ele>64.7</ele></trkpt>
   <trkpt lon="-9.280726" lat="39.293231"><ele>65.4</ele></trkpt>
   <trkpt lon="-9.280492" lat="39.292856"><ele>65.9</ele></trkpt>
   <trkpt lon="-9.280458" lat="39.292800"><ele>66.5</ele></trkpt>
   <trkpt lon="-9.280247" lat="39.292445"><ele>66.9</ele></trkpt>
   <trkpt lon="-9.280234" lat="39.292360"><ele>67.3</ele></trkpt>
   <trkpt lon="-9.280227" lat="39.292320"><ele>67.6</ele><sym>roundabout_e1</sym></trkpt>
   <trkpt lon="-9.280245" lat="39.292299"><ele>68.0</ele></trkpt>
   <trkpt lon="-9.280254" lat="39.292275"><ele>68.1</ele></trkpt>
   <trkpt lon="-9.280246" lat="39.292226"><ele>68.2</ele></trkpt>
   <trkpt lon="-9.280226" lat="39.292202"><ele>68.1</ele></trkpt>
   <trkpt lon="-9.280265" lat="39.292083"><ele>68.0</ele></trkpt>
   <trkpt lon="-9.280841" lat="39.290602"><ele>68.0</ele></trkpt>
   <trkpt lon="-9.281018" lat="39.290111"><ele>68.1</ele></trkpt>
   <trkpt lon="-9.281061" lat="39.289986"><ele>68.3</ele></trkpt>
   <trkpt lon="-9.281119" lat="39.289779"><ele>68.4</ele></trkpt>
   <trkpt lon="-9.281192" lat="39.289399"><ele>68.4</ele></trkpt>
   <trkpt lon="-9.281250" lat="39.289024"><ele>68.6</ele></trkpt>
   <trkpt lon="-9.281253" lat="39.288837"><ele>68.6</ele></trkpt>
   <trkpt lon="-9.281238" lat="39.288755"><ele>68.8</ele></trkpt>
   <trkpt lon="-9.281156" lat="39.288524"><ele>69.1</ele></trkpt>
   <trkpt lon="-9.280930" lat="39.288057"><ele>69.7</ele></trkpt>
   <trkpt lon="-9.280883" lat="39.287947"><ele>70.3</ele></trkpt>
   <trkpt lon="-9.280852" lat="39.287847"><ele>70.6</ele></trkpt>
   <trkpt lon="-9.280832" lat="39.287744"><ele>70.8</ele></trkpt>
   <trkpt lon="-9.280824" lat="39.287617"><ele>71.2</ele></trkpt>
   <trkpt lon="-9.280831" lat="39.285201"><ele>71.6</ele></trkpt>
   <trkpt lon="-9.280848" lat="39.285051"><ele>72.0</ele></trkpt>
   <trkpt lon="-9.281025" lat="39.284268"><ele>72.3</ele></trkpt>
   <trkpt lon="-9.281050" lat="39.284124"><ele>72.6</ele></trkpt>
   <trkpt lon="-9.281063" lat="39.283984"><ele>72.8</ele></trkpt>
   <trkpt lon="-9.281055" lat="39.283443"><ele>72.9</ele></trkpt>
   <trkpt lon="-9.281056" lat="39.283438"><ele>72.8</ele><sym>pass_place</sym><type>Shaping</type></trkpt>
   <trkpt lon="-9.281066" lat="39.283295"><ele>72.5</ele></trkpt>
   <trkpt lon="-9.281098" lat="39.283204"><ele>72.4</ele></trkpt>
   <trkpt lon="-9.281146" lat="39.283120"><ele>72.3</ele></trkpt>
   <trkpt lon="-9.282176" lat="39.281788"><ele>72.2</ele></trkpt>
   <trkpt lon="-9.282216" lat="39.281713"><ele>72.4</ele></trkpt>
   <trkpt lon="-9.282249" lat="39.281630"><ele>73.0</ele></trkpt>
   <trkpt lon="-9.282267" lat="39.281542"><ele>73.6</ele></trkpt>
   <trkpt lon="-9.282273" lat="39.281444"><ele>74.3</ele></trkpt>
   <trkpt lon="-9.282262" lat="39.281347"><ele>75.4</ele></trkpt>
   <trkpt lon="-9.282109" lat="39.280556"><ele>76.7</ele></trkpt>
   <trkpt lon="-9.282038" lat="39.280297"><ele>78.2</ele></trkpt>
   <trkpt lon="-9.281994" lat="39.280178"><ele>80.0</ele></trkpt>
   <trkpt lon="-9.281934" lat="39.280054"><ele>81.8</ele></trkpt>
   <trkpt lon="-9.281730" lat="39.279692"><ele>83.7</ele></trkpt>
   <trkpt lon="-9.281660" lat="39.279591"><ele>85.5</ele></trkpt>
   <trkpt lon="-9.281575" lat="39.279499"><ele>87.5</ele></trkpt>
   <trkpt lon="-9.281339" lat="39.279296"><ele>89.7</ele></trkpt>
   <trkpt lon="-9.281232" lat="39.279191"><ele>92.1</ele></trkpt>
   <trkpt lon="-9.281143" lat="39.279090"><ele>94.5</ele></trkpt>
   <trkpt lon="-9.281066" lat="39.278971"><ele>96.7</ele></trkpt>
   <trkpt lon="-9.280852" lat="39.278579"><ele>98.8</ele></trkpt>
   <trkpt lon="-9.280629" lat="39.278092"><ele>100.9</ele></trkpt>
   <trkpt lon="-9.280594" lat="39.277956"><ele>102.6</ele></trkpt>
   <trkpt lon="-9.280579" lat="39.277543"><ele>104.3</ele></trkpt>
   <trkpt lon="-9.280590" lat="39.277445"><ele>106.0</ele></trkpt>
   <trkpt lon="-9.280613" lat="39.277368"><ele>107.6</ele></trkpt>
   <trkpt lon="-9.280684" lat="39.277217"><ele>109.0</ele></trkpt>
   <trkpt lon="-9.280723" lat="39.277116"><ele>110.0</ele></trkpt>
   <trkpt lon="-9.280730" lat="39.277049"><ele>110.8</ele></trkpt>
   <trkpt lon="-9.280724" lat="39.276980"><ele>111.5</ele></trkpt>
   <trkpt lon="-9.280703" lat="39.276908"><ele>112.1</ele></trkpt>
   <trkpt lon="-9.280586" lat="39.276690"><ele>112.7</ele></trkpt>
   <trkpt lon="-9.280504" lat="39.276469"><ele>113.5</ele></trkpt>
   <trkpt lon="-9.280487" lat="39.276373"><ele>114.4</ele></trkpt>
   <trkpt lon="-9.280474" lat="39.276297"><ele>115.2</ele><sym>straight</sym></trkpt>
   <trkpt lon="-9.280393" lat="39.276125"><ele>116.0</ele></trkpt>
   <trkpt lon="-9.280312" lat="39.275952"><ele>116.7</ele></trkpt>
   <trkpt lon="-9.279854" lat="39.275444"><ele>117.4</ele></trkpt>
   <trkpt lon="-9.279764" lat="39.275316"><ele>118.0</ele></trkpt>
   <trkpt lon="-9.279608" lat="39.275165"><ele>118.7</ele></trkpt>
   <trkpt lon="-9.279594" lat="39.275106"><ele>119.5</ele><sym>left</sym></trkpt>
   <trkpt lon="-9.279495" lat="39.275108"><ele>120.3</ele></trkpt>
   <trkpt lon="-9.279395" lat="39.275099"><ele>121.1</ele></trkpt>
   <trkpt lon="-9.279099" lat="39.275037"><ele>121.7</ele></trkpt>
   <trkpt lon="-9.278802" lat="39.274976"><ele>122.3</ele></trkpt>
   <trkpt lon="-9.278682" lat="39.274971"><ele>123.2</ele></trkpt>
   <trkpt lon="-9.278603" lat="39.274983"><ele>124.2</ele></trkpt>
   <trkpt lon="-9.278536" lat="39.275009"><ele>125.0</ele></trkpt>
   <trkpt lon="-9.278440" lat="39.275064"><ele>125.9</ele></trkpt>
   <trkpt lon="-9.278346" lat="39.275132"><ele>126.6</ele></trkpt>
   <trkpt lon="-9.278073" lat="39.275357"><ele>127.2</ele></trkpt>
   <trkpt lon="-9.277974" lat="39.275440"><ele>127.8</ele></trkpt>
   <trkpt lon="-9.277902" lat="39.275480"><ele>128.3</ele></trkpt>
   <trkpt lon="-9.277812" lat="39.275498"><ele>128.8</ele></trkpt>
   <trkpt lon="-9.277729" lat="39.275496"><ele>129.2</ele></trkpt>
   <trkpt lon="-9.277651" lat="39.275478"><ele>129.7</ele></trkpt>
   <trkpt lon="-9.277573" lat="39.275443"><ele>129.8</ele></trkpt>
   <trkpt lon="-9.277479" lat="39.275375"><ele>129.7</ele></trkpt>
   <trkpt lon="-9.277381" lat="39.275283"><ele>129.6</ele></trkpt>
   <trkpt lon="-9.277315" lat="39.275199"><ele>129.5</ele></trkpt>
   <trkpt lon="-9.277111" lat="39.274887"><ele>129.5</ele></trkpt>
   <trkpt lon="-9.277064" lat="39.274815"><ele>129.4</ele></trkpt>
   <trkpt lon="-9.276888" lat="39.274552"><ele>129.3</ele></trkpt>
   <trkpt lon="-9.276849" lat="39.274494"><ele>129.2</ele></trkpt>
   <trkpt lon="-9.275971" lat="39.273204"><ele>129.1</ele></trkpt>
   <trkpt lon="-9.275868" lat="39.273046"><ele>129.0</ele></trkpt>
   <trkpt lon="-9.275806" lat="39.272981"><ele>128.9</ele></trkpt>
   <trkpt lon="-9.275737" lat="39.272923"><ele>128.8</ele></trkpt>
   <trkpt lon="-9.275665" lat="39.272876"><ele>129.3</ele></trkpt>
   <trkpt lon="-9.275577" lat="39.272846"><ele>129.7</ele></trkpt>
   <trkpt lon="-9.275475" lat="39.272822"><ele>130.4</ele></trkpt>
   <trkpt lon="-9.275345" lat="39.272815"><ele>131.1</ele></trkpt>
   <trkpt lon="-9.275205" lat="39.272828"><ele>131.9</ele></trkpt>
   <trkpt lon="-9.274029" lat="39.273007"><ele>132.7</ele></trkpt>
   <trkpt lon="-9.273081" lat="39.273160"><ele>133.4</ele></trkpt>
   <trkpt lon="-9.269352" lat="39.273740"><ele>134.2</ele><sym>pass_place</sym><type>Shaping</type></trkpt>
   <trkpt lon="-9.269348" lat="39.273741"><ele>134.3</ele></trkpt>
   <trkpt lon="-9.269217" lat="39.273767"><ele>135.3</ele></trkpt>
   <trkpt lon="-9.269086" lat="39.273796"><ele>136.4</ele></trkpt>
   <trkpt lon="-9.268960" lat="39.273839"><ele>137.1</ele></trkpt>
   <trkpt lon="-9.268824" lat="39.273896"><ele>138.0</ele></trkpt>
   <trkpt lon="-9.268301" lat="39.274197"><ele>138.4</ele></trkpt>
   <trkpt lon="-9.268160" lat="39.274272"><ele>139.0</ele></trkpt>
   <trkpt lon="-9.266607" lat="39.275208"><ele>139.2</ele></trkpt>
   <trkpt lon="-9.266132" lat="39.275491"><ele>139.4</ele></trkpt>
   <trkpt lon="-9.266005" lat="39.275559"><ele>139.2</ele></trkpt>
   <trkpt lon="-9.265923" lat="39.275592"><ele>139.9</ele></trkpt>
   <trkpt lon="-9.265666" lat="39.275671"><ele>140.4</ele></trkpt>
   <trkpt lon="-9.264458" lat="39.275978"><ele>141.0</ele></trkpt>
   <trkpt lon="-9.263194" lat="39.276298"><ele>141.4</ele></trkpt>
   <trkpt lon="-9.260913" lat="39.276887"><ele>141.8</ele></trkpt>
   <trkpt lon="-9.258991" lat="39.277381"><ele>142.3</ele></trkpt>
   <trkpt lon="-9.258658" lat="39.277481"><ele>142.8</ele></trkpt>
   <trkpt lon="-9.258478" lat="39.277550"><ele>143.2</ele></trkpt>
   <trkpt lon="-9.258334" lat="39.277613"><ele>143.9</ele></trkpt>
   <trkpt lon="-9.258209" lat="39.277669"><ele>144.7</ele></trkpt>
   <trkpt lon="-9.257961" lat="39.277776"><ele>145.5</ele></trkpt>
   <trkpt lon="-9.257848" lat="39.277807"><ele>145.4</ele></trkpt>
   <trkpt lon="-9.257724" lat="39.277824"><ele>145.4</ele></trkpt>
   <trkpt lon="-9.257602" lat="39.277827"><ele>145.3</ele></trkpt>
   <trkpt lon="-9.257180" lat="39.277823"><ele>145.2</ele></trkpt>
   <trkpt lon="-9.255324" lat="39.277818"><ele>145.1</ele></trkpt>
   <trkpt lon="-9.255091" lat="39.277818"><ele>144.7</ele></trkpt>
   <trkpt lon="-9.254916" lat="39.277816"><ele>144.0</ele></trkpt>
   <trkpt lon="-9.254698" lat="39.277814"><ele>143.5</ele></trkpt>
   <trkpt lon="-9.253943" lat="39.277814"><ele>143.1</ele></trkpt>
   <trkpt lon="-9.253786" lat="39.277823"><ele>142.6</ele></trkpt>
   <trkpt lon="-9.253117" lat="39.277912"><ele>142.3</ele></trkpt>
   <trkpt lon="-9.250778" lat="39.278246"><ele>142.1</ele></trkpt>
   <trkpt lon="-9.249333" lat="39.278455"><ele>142.6</ele></trkpt>
   <trkpt lon="-9.249330" lat="39.278455"><ele>142.6</ele><sym>pass_place</sym><type>Shaping</type></trkpt>
   <trkpt lon="-9.246615" lat="39.278848"><ele>143.1</ele></trkpt>
   <trkpt lon="-9.246480" lat="39.278867"><ele>143.5</ele></trkpt>
   <trkpt lon="-9.246319" lat="39.278891"><ele>144.6</ele></trkpt>
   <trkpt lon="-9.244479" lat="39.279142"><ele>145.8</ele></trkpt>
   <trkpt lon="-9.244322" lat="39.279162"><ele>146.6</ele></trkpt>
   <trkpt lon="-9.239818" lat="39.279800"><ele>148.0</ele></trkpt>
   <trkpt lon="-9.239392" lat="39.279861"><ele>149.8</ele></trkpt>
   <trkpt lon="-9.238065" lat="39.280049"><ele>151.4</ele></trkpt>
   <trkpt lon="-9.238007" lat="39.280058"><ele>152.5</ele></trkpt>
   <trkpt lon="-9.236372" lat="39.280293"><ele>153.4</ele></trkpt>
   <trkpt lon="-9.235342" lat="39.280438"><ele>154.5</ele></trkpt>
   <trkpt lon="-9.234668" lat="39.280535"><ele>155.7</ele></trkpt>
   <trkpt lon="-9.234334" lat="39.280603"><ele>156.8</ele></trkpt>
   <trkpt lon="-9.233518" lat="39.280794"><ele>157.6</ele></trkpt>
   <trkpt lon="-9.232844" lat="39.280962"><ele>158.4</ele></trkpt>
   <trkpt lon="-9.231712" lat="39.281230"><ele>159.5</ele><sym>pass_place</sym><type>Shaping</type></trkpt>
   <trkpt lon="-9.231710" lat="39.281231"><ele>159.5</ele></trkpt>
   <trkpt lon="-9.231569" lat="39.281253"><ele>159.3</ele></trkpt>
   <trkpt lon="-9.231438" lat="39.281254"><ele>159.2</ele></trkpt>
   <trkpt lon="-9.231317" lat="39.281240"><ele>159.0</ele></trkpt>
   <trkpt lon="-9.231200" lat="39.281209"><ele>158.3</ele></trkpt>
   <trkpt lon="-9.230595" lat="39.280960"><ele>157.4</ele></trkpt>
   <trkpt lon="-9.230459" lat="39.280892"><ele>156.4</ele></trkpt>
   <trkpt lon="-9.230342" lat="39.280824"><ele>155.5</ele></trkpt>
   <trkpt lon="-9.230239" lat="39.280748"><ele>154.6</ele></trkpt>
   <trkpt lon="-9.229537" lat="39.280142"><ele>153.8</ele></trkpt>
   <trkpt lon="-9.229437" lat="39.280069"><ele>153.0</ele></trkpt>
   <trkpt lon="-9.229330" lat="39.280008"><ele>152.5</ele></trkpt>
   <trkpt lon="-9.229226" lat="39.279965"><ele>152.0</ele></trkpt>
   <trkpt lon="-9.229128" lat="39.279945"><ele>151.5</ele></trkpt>
   <trkpt lon="-9.229037" lat="39.279942"><ele>151.4</ele></trkpt>
   <trkpt lon="-9.228941" lat="39.279951"><ele>151.7</ele></trkpt>
   <trkpt lon="-9.228847" lat="39.279970"><ele>151.9</ele></trkpt>
   <trkpt lon="-9.228754" lat="39.280008"><ele>152.1</ele></trkpt>
   <trkpt lon="-9.228571" lat="39.280123"><ele>152.4</ele></trkpt>
   <trkpt lon="-9.227255" lat="39.281204"><ele>152.8</ele></trkpt>
   <trkpt lon="-9.227167" lat="39.281269"><ele>153.2</ele></trkpt>
   <trkpt lon="-9.227059" lat="39.281333"><ele>153.6</ele></trkpt>
   <trkpt lon="-9.226963" lat="39.281388"><ele>154.1</ele></trkpt>
   <trkpt lon="-9.224954" lat="39.282313"><ele>154.5</ele></trkpt>
   <trkpt lon="-9.224759" lat="39.282408"><ele>155.1</ele></trkpt>
   <trkpt lon="-9.224647" lat="39.282431"><ele>155.3</ele></trkpt>
   <trkpt lon="-9.224594" lat="39.282442"><ele>155.5</ele><sym>roundabout_e2</sym></trkpt>
   <trkpt lon="-9.224568" lat="39.282431"><ele>155.7</ele></trkpt>
   <trkpt lon="-9.224516" lat="39.282429"><ele>155.9</ele></trkpt>
   <trkpt lon="-9.224470" lat="39.282449"><ele>155.9</ele></trkpt>
   <trkpt lon="-9.224454" lat="39.282465"><ele>155.8</ele></trkpt>
   <trkpt lon="-9.224442" lat="39.282505"><ele>155.6</ele></trkpt>
   <trkpt lon="-9.224329" lat="39.282614"><ele>155.4</ele></trkpt>
   <trkpt lon="-9.224255" lat="39.282666"><ele>155.1</ele></trkpt>
   <trkpt lon="-9.224202" lat="39.282718"><ele>154.6</ele></trkpt>
   <trkpt lon="-9.224174" lat="39.282760"><ele>154.1</ele></trkpt>
   <trkpt lon="-9.224151" lat="39.282813"><ele>153.4</ele></trkpt>
   <trkpt lon="-9.224132" lat="39.282884"><ele>152.7</ele></trkpt>
   <trkpt lon="-9.224089" lat="39.283188"><ele>151.8</ele></trkpt>
   <trkpt lon="-9.224065" lat="39.283265"><ele>150.8</ele></trkpt>
   <trkpt lon="-9.224034" lat="39.283328"><ele>149.7</ele></trkpt>
   <trkpt lon="-9.223983" lat="39.283391"><ele>148.6</ele></trkpt>
   <trkpt lon="-9.223892" lat="39.283464"><ele>147.5</ele></trkpt>
   <trkpt lon="-9.223805" lat="39.283521"><ele>146.3</ele></trkpt>
   <trkpt lon="-9.223659" lat="39.283600"><ele>145.3</ele></trkpt>
   <trkpt lon="-9.223591" lat="39.283622"><ele>144.3</ele></trkpt>
   <trkpt lon="-9.223516" lat="39.283638"><ele>143.4</ele></trkpt>
   <trkpt lon="-9.223446" lat="39.283639"><ele>142.6</ele></trkpt>
   <trkpt lon="-9.223364" lat="39.283628"><ele>141.9</ele></trkpt>
   <trkpt lon="-9.223274" lat="39.283600"><ele>141.4</ele></trkpt>
   <trkpt lon="-9.222808" lat="39.283430"><ele>141.0</ele></trkpt>
   <trkpt lon="-9.222723" lat="39.283413"><ele>140.4</ele></trkpt>
   <trkpt lon="-9.222632" lat="39.283407"><ele>139.8</ele></trkpt>
   <trkpt lon="-9.222543" lat="39.283417"><ele>139.1</ele></trkpt>
   <trkpt lon="-9.222445" lat="39.283445"><ele>138.4</ele></trkpt>
   <trkpt lon="-9.222325" lat="39.283498"><ele>137.7</ele></trkpt>
   <trkpt lon="-9.221799" lat="39.283826"><ele>137.1</ele></trkpt>
   <trkpt lon="-9.221605" lat="39.283905"><ele>136.5</ele></trkpt>
   <trkpt lon="-9.221506" lat="39.283924"><ele>135.9</ele></trkpt>
   <trkpt lon="-9.221395" lat="39.283936"><ele>135.3</ele></trkpt>
   <trkpt lon="-9.221240" lat="39.283931"><ele>134.5</ele></trkpt>
   <trkpt lon="-9.221083" lat="39.283933"><ele>133.5</ele></trkpt>
   <trkpt lon="-9.220930" lat="39.283948"><ele>132.7</ele></trkpt>
   <trkpt lon="-9.220711" lat="39.284014"><ele>132.0</ele></trkpt>
   <trkpt lon="-9.220600" lat="39.284072"><ele>131.3</ele></trkpt>
   <trkpt lon="-9.220503" lat="39.284136"><ele>130.4</ele></trkpt>
   <trkpt lon="-9.220139" lat="39.284408"><ele>129.5</ele></trkpt>
   <trkpt lon="-9.219813" lat="39.284650"><ele>128.6</ele></trkpt>
   <trkpt lon="-9.219700" lat="39.284741"><ele>127.7</ele><sym>left</sym></trkpt>
   <trkpt lon="-9.219860" lat="39.284883"><ele>126.7</ele><sym>right_slight</sym></trkpt>
   <trkpt lon="-9.219787" lat="39.285144"><ele>125.9</ele></trkpt>
   <trkpt lon="-9.219676" lat="39.285428"><ele>125.2</ele></trkpt>
   <trkpt lon="-9.219548" lat="39.285679"><ele>124.8</ele></trkpt>
   <trkpt lon="-9.219417" lat="39.285887"><ele>124.5</ele><sym>right_slight</sym></trkpt>
   <trkpt lon="-9.219125" lat="39.286040"><ele>124.3</ele></trkpt>
   <trkpt lon="-9.218971" lat="39.286128"><ele>124.2</ele></trkpt>
   <trkpt lon="-9.218773" lat="39.286252"><ele>124.1</ele></trkpt>
   <trkpt lon="-9.218484" lat="39.286433"><ele>123.9</ele></trkpt>
   <trkpt lon="-9.218272" lat="39.286602"><ele>123.4</ele></trkpt>
   <trkpt lon="-9.217984" lat="39.286753"><ele>122.7</ele></trkpt>
   <trkpt lon="-9.217698" lat="39.286853"><ele>122.0</ele></trkpt>
   <trkpt lon="-9.217379" lat="39.286944"><ele>121.3</ele></trkpt>
   <trkpt lon="-9.217125" lat="39.286990"><ele>120.6</ele></trkpt>
   <trkpt lon="-9.216818" lat="39.286971"><ele>120.0</ele></trkpt>
   <trkpt lon="-9.216506" lat="39.286993"><ele>119.4</ele></trkpt>
   <trkpt lon="-9.216399" lat="39.286993"><ele>118.7</ele></trkpt>
   <trkpt lon="-9.216264" lat="39.286961"><ele>118.0</ele><sym>left</sym></trkpt>
   <trkpt lon="-9.216200" lat="39.287011"><ele>117.4</ele></trkpt>
   <trkpt lon="-9.216151" lat="39.287081"><ele>117.0</ele></trkpt>
   <trkpt lon="-9.216118" lat="39.287165"><ele>116.8</ele><sym>u-turn_right</sym></trkpt>
   <trkpt lon="-9.216118" lat="39.287168"><ele>116.8</ele><sym>pass_place</sym><type>Shaping</type></trkpt>
   <trkpt lon="-9.216118" lat="39.287165"><ele>116.9</ele></trkpt>
   <trkpt lon="-9.216151" lat="39.287081"><ele>117.1</ele></trkpt>
   <trkpt lon="-9.216200" lat="39.287011"><ele>117.4</ele></trkpt>
   <trkpt lon="-9.216264" lat="39.286961"><ele>117.9</ele><sym>left_sharp</sym></trkpt>
   <trkpt lon="-9.216100" lat="39.286929"><ele>118.4</ele><sym>left_slight</sym></trkpt>
   <trkpt lon="-9.215936" lat="39.286985"><ele>119.2</ele></trkpt>
   <trkpt lon="-9.215818" lat="39.287067"><ele>120.2</ele></trkpt>
   <trkpt lon="-9.215737" lat="39.287114"><ele>121.4</ele></trkpt>
   <trkpt lon="-9.215570" lat="39.287193"><ele>122.6</ele></trkpt>
   <trkpt lon="-9.215355" lat="39.287356"><ele>124.0</ele></trkpt>
   <trkpt lon="-9.215189" lat="39.287444"><ele>125.5</ele></trkpt>
   <trkpt lon="-9.214931" lat="39.287529"><ele>127.0</ele></trkpt>
   <trkpt lon="-9.214845" lat="39.287605"><ele>128.5</ele></trkpt>
   <trkpt lon="-9.214814" lat="39.287654"><ele>129.8</ele></trkpt>
   <trkpt lon="-9.214479" lat="39.287835"><ele>131.0</ele><sym>right</sym></trkpt>
   <trkpt lon="-9.214308" lat="39.287684"><ele>132.0</ele></trkpt>
   <trkpt lon="-9.214120" lat="39.287486"><ele>132.8</ele></trkpt>
   <trkpt lon="-9.214055" lat="39.287406"><ele>133.0</ele></trkpt>
   <trkpt lon="-9.214004" lat="39.287365"><ele>133.2</ele><sym>left</sym></trkpt>
   <trkpt lon="-9.213919" lat="39.287416"><ele>133.8</ele></trkpt>
   <trkpt lon="-9.213847" lat="39.287444"><ele>134.4</ele></trkpt>
   <trkpt lon="-9.213471" lat="39.287563"><ele>134.9</ele></trkpt>
   <trkpt lon="-9.212984" lat="39.287748"><ele>135.3</ele></trkpt>
   <trkpt lon="-9.212834" lat="39.287794"><ele>136.1</ele></trkpt>
   <trkpt lon="-9.211046" lat="39.288249"><ele>136.8</ele></trkpt>
   <trkpt lon="-9.210923" lat="39.288291"><ele>137.4</ele></trkpt>
   <trkpt lon="-9.210818" lat="39.288334"><ele>138.0</ele></trkpt>
   <trkpt lon="-9.210724" lat="39.288387"><ele>138.6</ele></trkpt>
   <trkpt lon="-9.210336" lat="39.288627"><ele>139.4</ele></trkpt>
   <trkpt lon="-9.210262" lat="39.288685"><ele>140.3</ele></trkpt>
   <trkpt lon="-9.210204" lat="39.288743"><ele>140.3</ele></trkpt>
   <trkpt lon="-9.210067" lat="39.288940"><ele>140.2</ele></trkpt>
   <trkpt lon="-9.209852" lat="39.289336"><ele>140.0</ele></trkpt>
   <trkpt lon="-9.209773" lat="39.289502"><ele>139.8</ele></trkpt>
   <trkpt lon="-9.209652" lat="39.289817"><ele>139.2</ele></trkpt>
   <trkpt lon="-9.209336" lat="39.290898"><ele>138.6</ele></trkpt>
   <trkpt lon="-9.209296" lat="39.291004"><ele>137.9</ele></trkpt>
   <trkpt lon="-9.209239" lat="39.291105"><ele>137.2</ele></trkpt>
   <trkpt lon="-9.209168" lat="39.291205"><ele>136.5</ele></trkpt>
   <trkpt lon="-9.209084" lat="39.291308"><ele>135.7</ele></trkpt>
   <trkpt lon="-9.208681" lat="39.291719"><ele>134.7</ele></trkpt>
   <trkpt lon="-9.208495" lat="39.291889"><ele>134.1</ele></trkpt>
   <trkpt lon="-9.208421" lat="39.291941"><ele>133.5</ele></trkpt>
   <trkpt lon="-9.208339" lat="39.291986"><ele>133.0</ele></trkpt>
   <trkpt lon="-9.208236" lat="39.292032"><ele>132.4</ele></trkpt>
   <trkpt lon="-9.207522" lat="39.292268"><ele>131.7</ele></trkpt>
   <trkpt lon="-9.207447" lat="39.292298"><ele>131.2</ele></trkpt>
   <trkpt lon="-9.207388" lat="39.292331"><ele>130.7</ele></trkpt>
   <trkpt lon="-9.207328" lat="39.292374"><ele>130.3</ele></trkpt>
   <trkpt lon="-9.207279" lat="39.292436"><ele>129.9</ele></trkpt>
   <trkpt lon="-9.207252" lat="39.292495"><ele>129.5</ele></trkpt>
   <trkpt lon="-9.207175" lat="39.292810"><ele>129.4</ele></trkpt>
   <trkpt lon="-9.207138" lat="39.292877"><ele>129.3</ele></trkpt>
   <trkpt lon="-9.207090" lat="39.292933"><ele>129.2</ele></trkpt>
   <trkpt lon="-9.207028" lat="39.292983"><ele>129.1</ele></trkpt>
   <trkpt lon="-9.206944" lat="39.293037"><ele>129.1</ele></trkpt>
   <trkpt lon="-9.206646" lat="39.293203"><ele>129.1</ele></trkpt>
   <trkpt lon="-9.205969" lat="39.293550"><ele>129.1</ele></trkpt>
   <trkpt lon="-9.205884" lat="39.293602"><ele>129.2</ele></trkpt>
   <trkpt lon="-9.205822" lat="39.293652"><ele>129.3</ele></trkpt>
   <trkpt lon="-9.205778" lat="39.293699"><ele>129.4</ele></trkpt>
   <trkpt lon="-9.205738" lat="39.293758"><ele>129.5</ele></trkpt>
   <trkpt lon="-9.205692" lat="39.293854"><ele>129.5</ele></trkpt>
   <trkpt lon="-9.205634" lat="39.293997"><ele>129.5</ele></trkpt>
   <trkpt lon="-9.205580" lat="39.294084"><ele>129.5</ele></trkpt>
   <trkpt lon="-9.205526" lat="39.294151"><ele>129.5</ele></trkpt>
   <trkpt lon="-9.205403" lat="39.294253"><ele>129.5</ele></trkpt>
   <trkpt lon="-9.205247" lat="39.294351"><ele>129.4</ele></trkpt>
   <trkpt lon="-9.205167" lat="39.294386"><ele>129.2</ele></trkpt>
   <trkpt lon="-9.204715" lat="39.294507"><ele>129.0</ele></trkpt>
   <trkpt lon="-9.204593" lat="39.294565"><ele>128.8</ele></trkpt>
   <trkpt lon="-9.204535" lat="39.294620"><ele>128.4</ele></trkpt>
   <trkpt lon="-9.204419" lat="39.294762"><ele>127.5</ele></trkpt>
   <trkpt lon="-9.204354" lat="39.294819"><ele>126.6</ele></trkpt>
   <trkpt lon="-9.204289" lat="39.294864"><ele>125.6</ele></trkpt>
   <trkpt lon="-9.204216" lat="39.294901"><ele>124.6</ele></trkpt>
   <trkpt lon="-9.204134" lat="39.294933"><ele>123.5</ele></trkpt>
   <trkpt lon="-9.202736" lat="39.295415"><ele>122.5</ele></trkpt>
   <trkpt lon="-9.202538" lat="39.295490"><ele>121.5</ele></trkpt>
   <trkpt lon="-9.202466" lat="39.295524"><ele>119.9</ele></trkpt>
   <trkpt lon="-9.202401" lat="39.295568"><ele>118.4</ele></trkpt>
   <trkpt lon="-9.202349" lat="39.295621"><ele>116.9</ele></trkpt>
   <trkpt lon="-9.202311" lat="39.295673"><ele>115.5</ele></trkpt>
   <trkpt lon="-9.202273" lat="39.295747"><ele>114.6</ele></trkpt>
   <trkpt lon="-9.201676" lat="39.297320"><ele>114.0</ele><sym>pass_place</sym><type>Shaping</type></trkpt>
   <trkpt lon="-9.201675" lat="39.297322"><ele>113.9</ele></trkpt>
   <trkpt lon="-9.201648" lat="39.297438"><ele>113.3</ele></trkpt>
   <trkpt lon="-9.201638" lat="39.297632"><ele>112.6</ele></trkpt>
   <trkpt lon="-9.201625" lat="39.297707"><ele>111.8</ele></trkpt>
   <trkpt lon="-9.201590" lat="39.297796"><ele>110.4</ele></trkpt>
   <trkpt lon="-9.201521" lat="39.297874"><ele>109.6</ele></trkpt>
   <trkpt lon="-9.201476" lat="39.297902"><ele>108.6</ele></trkpt>
   <trkpt lon="-9.201423" lat="39.297926"><ele>107.8</ele></trkpt>
   <trkpt lon="-9.201352" lat="39.297940"><ele>106.9</ele></trkpt>
   <trkpt lon="-9.201046" lat="39.297950"><ele>106.0</ele></trkpt>
   <trkpt lon="-9.200971" lat="39.297943"><ele>105.1</ele></trkpt>
   <trkpt lon="-9.200847" lat="39.297909"><ele>104.1</ele></trkpt>
   <trkpt lon="-9.200757" lat="39.297851"><ele>103.4</ele></trkpt>
   <trkpt lon="-9.200610" lat="39.297715"><ele>103.1</ele></trkpt>
   <trkpt lon="-9.200546" lat="39.297630"><ele>103.0</ele></trkpt>
   <trkpt lon="-9.200512" lat="39.297551"><ele>103.4</ele></trkpt>
   <trkpt lon="-9.200505" lat="39.297506"><ele>103.3</ele></trkpt>
   <trkpt lon="-9.200507" lat="39.297445"><ele>103.2</ele></trkpt>
   <trkpt lon="-9.200559" lat="39.297240"><ele>103.3</ele></trkpt>
   <trkpt lon="-9.200565" lat="39.297193"><ele>103.0</ele></trkpt>
   <trkpt lon="-9.200556" lat="39.297077"><ele>102.7</ele></trkpt>
   <trkpt lon="-9.200322" lat="39.296388"><ele>102.3</ele></trkpt>
   <trkpt lon="-9.200302" lat="39.296314"><ele>101.9</ele></trkpt>
   <trkpt lon="-9.200276" lat="39.296152"><ele>101.1</ele></trkpt>
   <trkpt lon="-9.200263" lat="39.296009"><ele>99.9</ele></trkpt>
   <trkpt lon="-9.200273" lat="39.295920"><ele>98.5</ele></trkpt>
   <trkpt lon="-9.200356" lat="39.295733"><ele>97.1</ele></trkpt>
   <trkpt lon="-9.200380" lat="39.295644"><ele>96.2</ele></trkpt>
   <trkpt lon="-9.200430" lat="39.295091"><ele>95.2</ele></trkpt>
   <trkpt lon="-9.200423" lat="39.294883"><ele>94.0</ele></trkpt>
   <trkpt lon="-9.200405" lat="39.294760"><ele>93.0</ele></trkpt>
   <trkpt lon="-9.200372" lat="39.294632"><ele>92.0</ele></trkpt>
   <trkpt lon="-9.200305" lat="39.294507"><ele>91.1</ele></trkpt>
   <trkpt lon="-9.200168" lat="39.294305"><ele>90.2</ele></trkpt>
   <trkpt lon="-9.200123" lat="39.294177"><ele>89.6</ele></trkpt>
   <trkpt lon="-9.200120" lat="39.294078"><ele>89.1</ele><sym>left_sharp</sym></trkpt>
   <trkpt lon="-9.200046" lat="39.294086"><ele>88.8</ele></trkpt>
   <trkpt lon="-9.199831" lat="39.294160"><ele>88.7</ele></trkpt>
   <trkpt lon="-9.199730" lat="39.294180"><ele>88.7</ele></trkpt>
   <trkpt lon="-9.199677" lat="39.294196"><ele>89.0</ele></trkpt>
   <trkpt lon="-9.199634" lat="39.294220"><ele>89.2</ele></trkpt>
   <trkpt lon="-9.199577" lat="39.294274"><ele>89.4</ele></trkpt>
   <trkpt lon="-9.199541" lat="39.294334"><ele>89.5</ele></trkpt>
   <trkpt lon="-9.199527" lat="39.294379"><ele>89.6</ele></trkpt>
   <trkpt lon="-9.199524" lat="39.294460"><ele>89.5</ele></trkpt>
   <trkpt lon="-9.199533" lat="39.294503"><ele>89.2</ele></trkpt>
   <trkpt lon="-9.199576" lat="39.294588"><ele>88.8</ele></trkpt>
   <trkpt lon="-9.199724" lat="39.294790"><ele>88.2</ele></trkpt>
   <trkpt lon="-9.199776" lat="39.294880"><ele>87.5</ele></trkpt>
   <trkpt lon="-9.199847" lat="39.295134"><ele>86.8</ele></trkpt>
   <trkpt lon="-9.199872" lat="39.295327"><ele>86.1</ele></trkpt>
   <trkpt lon="-9.199861" lat="39.295390"><ele>85.6</ele></trkpt>
   <trkpt lon="-9.199849" lat="39.295436"><ele>85.2</ele></trkpt>
   <trkpt lon="-9.199825" lat="39.295482"><ele>85.0</ele></trkpt>
   <trkpt lon="-9.199788" lat="39.295530"><ele>84.9</ele></trkpt>
   <trkpt lon="-9.199747" lat="39.295578"><ele>84.8</ele></trkpt>
   <trkpt lon="-9.199501" lat="39.295811"><ele>84.9</ele></trkpt>
   <trkpt lon="-9.199454" lat="39.295863"><ele>84.8</ele></trkpt>
   <trkpt lon="-9.199408" lat="39.295941"><ele>84.6</ele></trkpt>
   <trkpt lon="-9.199396" lat="39.295979"><ele>84.4</ele></trkpt>
   <trkpt lon="-9.199391" lat="39.296076"><ele>84.2</ele></trkpt>
   <trkpt lon="-9.199408" lat="39.296176"><ele>83.9</ele></trkpt>
   <trkpt lon="-9.199594" lat="39.296656"><ele>83.3</ele></trkpt>
   <trkpt lon="-9.199744" lat="39.296942"><ele>82.5</ele></trkpt>
   <trkpt lon="-9.199782" lat="39.297034"><ele>81.8</ele></trkpt>
   <trkpt lon="-9.199792" lat="39.297124"><ele>81.1</ele></trkpt>
   <trkpt lon="-9.199783" lat="39.297219"><ele>80.4</ele></trkpt>
   <trkpt lon="-9.199769" lat="39.297271"><ele>79.7</ele></trkpt>
   <trkpt lon="-9.199703" lat="39.297409"><ele>79.1</ele></trkpt>
   <trkpt lon="-9.199675" lat="39.297486"><ele>78.6</ele></trkpt>
   <trkpt lon="-9.199669" lat="39.297526"><ele>77.9</ele></trkpt>
   <trkpt lon="-9.199673" lat="39.297567"><ele>77.6</ele></trkpt>
   <trkpt lon="-9.199682" lat="39.297598"><ele>77.3</ele></trkpt>
   <trkpt lon="-9.199726" lat="39.297656"><ele>76.9</ele></trkpt>
   <trkpt lon="-9.199823" lat="39.297730"><ele>76.5</ele></trkpt>
   <trkpt lon="-9.199911" lat="39.297797"><ele>75.7</ele></trkpt>
   <trkpt lon="-9.200339" lat="39.298125"><ele>74.5</ele></trkpt>
   <trkpt lon="-9.200404" lat="39.298208"><ele>73.6</ele></trkpt>
   <trkpt lon="-9.200434" lat="39.298291"><ele>72.7</ele></trkpt>
   <trkpt lon="-9.200422" lat="39.298379"><ele>70.9</ele></trkpt>
   <trkpt lon="-9.200205" lat="39.299000"><ele>68.9</ele></trkpt>
   <trkpt lon="-9.200004" lat="39.299531"><ele>67.0</ele></trkpt>
   <trkpt lon="-9.199953" lat="39.299751"><ele>65.2</ele></trkpt>
   <trkpt lon="-9.199862" lat="39.299945"><ele>63.4</ele></trkpt>
   <trkpt lon="-9.199753" lat="39.300619"><ele>61.8</ele></trkpt>
   <trkpt lon="-9.199741" lat="39.300777"><ele>60.2</ele></trkpt>
   <trkpt lon="-9.199742" lat="39.300936"><ele>59.0</ele></trkpt>
   <trkpt lon="-9.199785" lat="39.301276"><ele>57.9</ele></trkpt>
   <trkpt lon="-9.199784" lat="39.301419"><ele>56.6</ele></trkpt>
   <trkpt lon="-9.199770" lat="39.301490"><ele>55.0</ele></trkpt>
   <trkpt lon="-9.199719" lat="39.301611"><ele>54.4</ele></trkpt>
   <trkpt lon="-9.199681" lat="39.301669"><ele>54.0</ele></trkpt>
   <trkpt lon="-9.199630" lat="39.301721"><ele>53.7</ele></trkpt>
   <trkpt lon="-9.199559" lat="39.301777"><ele>53.1</ele></trkpt>
   <trkpt lon="-9.199416" lat="39.301861"><ele>52.6</ele></trkpt>
   <trkpt lon="-9.199340" lat="39.301919"><ele>51.1</ele></trkpt>
   <trkpt lon="-9.199316" lat="39.301961"><ele>50.0</ele></trkpt>
   <trkpt lon="-9.199297" lat="39.302014"><ele>48.6</ele></trkpt>
   <trkpt lon="-9.199282" lat="39.302158"><ele>47.3</ele></trkpt>
   <trkpt lon="-9.199281" lat="39.302261"><ele>46.0</ele></trkpt>
   <trkpt lon="-9.199321" lat="39.302844"><ele>44.8</ele></trkpt>
   <trkpt lon="-9.199313" lat="39.302942"><ele>43.9</ele></trkpt>
   <trkpt lon="-9.199280" lat="39.303035"><ele>43.0</ele></trkpt>
   <trkpt lon="-9.199218" lat="39.303113"><ele>42.2</ele></trkpt>
   <trkpt lon="-9.199169" lat="39.303156"><ele>41.3</ele></trkpt>
   <trkpt lon="-9.198565" lat="39.303554"><ele>40.5</ele></trkpt>
   <trkpt lon="-9.198104" lat="39.303842"><ele>40.6</ele><sym>pass_place</sym><type>Shaping</type></trkpt>
   <trkpt lon="-9.198102" lat="39.303844"><ele>40.7</ele></trkpt>
   <trkpt lon="-9.197977" lat="39.303896"><ele>40.8</ele></trkpt>
   <trkpt lon="-9.197684" lat="39.303965"><ele>41.0</ele></trkpt>
   <trkpt lon="-9.197606" lat="39.303975"><ele>41.3</ele></trkpt>
   <trkpt lon="-9.197518" lat="39.303970"><ele>41.6</ele></trkpt>
   <trkpt lon="-9.197131" lat="39.303920"><ele>41.7</ele></trkpt>
   <trkpt lon="-9.197068" lat="39.303916"><ele>41.8</ele></trkpt>
   <trkpt lon="-9.197022" lat="39.303923"><ele>41.9</ele></trkpt>
   <trkpt lon="-9.196976" lat="39.303947"><ele>41.9</ele></trkpt>
   <trkpt lon="-9.196836" lat="39.304097"><ele>41.9</ele></trkpt>
   <trkpt lon="-9.196766" lat="39.304145"><ele>41.8</ele></trkpt>
   <trkpt lon="-9.196725" lat="39.304181"><ele>41.8</ele></trkpt>
   <trkpt lon="-9.196680" lat="39.304252"><ele>41.8</ele></trkpt>
   <trkpt lon="-9.196592" lat="39.304431"><ele>41.9</ele></trkpt>
   <trkpt lon="-9.196577" lat="39.304459"><ele>41.9</ele></trkpt>
   <trkpt lon="-9.196526" lat="39.304554"><ele>41.8</ele></trkpt>
   <trkpt lon="-9.196469" lat="39.304661"><ele>41.7</ele></trkpt>
   <trkpt lon="-9.196440" lat="39.304702"><ele>41.6</ele></trkpt>
   <trkpt lon="-9.196414" lat="39.304731"><ele>41.5</ele></trkpt>
   <trkpt lon="-9.196353" lat="39.304780"><ele>41.3</ele></trkpt>
   <trkpt lon="-9.195970" lat="39.305003"><ele>41.1</ele></trkpt>
   <trkpt lon="-9.195859" lat="39.305067"><ele>40.9</ele></trkpt>
   <trkpt lon="-9.195803" lat="39.305090"><ele>40.6</ele></trkpt>
   <trkpt lon="-9.195739" lat="39.305108"><ele>40.4</ele></trkpt>
   <trkpt lon="-9.195520" lat="39.305147"><ele>40.1</ele></trkpt>
   <trkpt lon="-9.195480" lat="39.305165"><ele>39.8</ele></trkpt>
   <trkpt lon="-9.195443" lat="39.305191"><ele>39.6</ele></trkpt>
   <trkpt lon="-9.195395" lat="39.305255"><ele>39.4</ele></trkpt>
   <trkpt lon="-9.195337" lat="39.305348"><ele>39.3</ele></trkpt>
   <trkpt lon="-9.195243" lat="39.305508"><ele>39.2</ele></trkpt>
   <trkpt lon="-9.195224" lat="39.305539"><ele>39.2</ele></trkpt>
   <trkpt lon="-9.195131" lat="39.305694"><ele>39.1</ele></trkpt>
   <trkpt lon="-9.194596" lat="39.306712"><ele>39.1</ele></trkpt>
   <trkpt lon="-9.194499" lat="39.306895"><ele>39.1</ele></trkpt>
   <trkpt lon="-9.194420" lat="39.307006"><ele>39.1</ele></trkpt>
   <trkpt lon="-9.194380" lat="39.307035"><ele>38.9</ele></trkpt>
   <trkpt lon="-9.194337" lat="39.307052"><ele>38.7</ele></trkpt>
   <trkpt lon="-9.194300" lat="39.307058"><ele>38.5</ele></trkpt>
   <trkpt lon="-9.194224" lat="39.307061"><ele>38.3</ele></trkpt>
   <trkpt lon="-9.194113" lat="39.307055"><ele>37.9</ele></trkpt>
   <trkpt lon="-9.193308" lat="39.306998"><ele>37.5</ele></trkpt>
   <trkpt lon="-9.193104" lat="39.306982"><ele>37.2</ele></trkpt>
   <trkpt lon="-9.193006" lat="39.306977"><ele>36.8</ele></trkpt>
   <trkpt lon="-9.192587" lat="39.306953"><ele>36.4</ele></trkpt>
   <trkpt lon="-9.191895" lat="39.306913"><ele>36.0</ele></trkpt>
   <trkpt lon="-9.191810" lat="39.306913"><ele>35.3</ele></trkpt>
   <trkpt lon="-9.191716" lat="39.306921"><ele>34.8</ele></trkpt>
   <trkpt lon="-9.191558" lat="39.306953"><ele>34.3</ele></trkpt>
   <trkpt lon="-9.191463" lat="39.306979"><ele>33.9</ele></trkpt>
   <trkpt lon="-9.191320" lat="39.307029"><ele>33.4</ele></trkpt>
   <trkpt lon="-9.190197" lat="39.307426"><ele>33.2</ele></trkpt>
   <trkpt lon="-9.189438" lat="39.307690"><ele>33.1</ele></trkpt>
   <trkpt lon="-9.189112" lat="39.307820"><ele>33.0</ele></trkpt>
   <trkpt lon="-9.188948" lat="39.307921"><ele>32.8</ele></trkpt>
   <trkpt lon="-9.188875" lat="39.307984"><ele>32.6</ele></trkpt>
   <trkpt lon="-9.188815" lat="39.308043"><ele>32.2</ele></trkpt>
   <trkpt lon="-9.187344" lat="39.309717"><ele>32.1</ele></trkpt>
   <trkpt lon="-9.186820" lat="39.310299"><ele>31.9</ele></trkpt>
   <trkpt lon="-9.186690" lat="39.310424"><ele>31.8</ele></trkpt>
   <trkpt lon="-9.186560" lat="39.310511"><ele>31.7</ele></trkpt>
   <trkpt lon="-9.185770" lat="39.310980"><ele>31.7</ele></trkpt>
   <trkpt lon="-9.185589" lat="39.311081"><ele>31.6</ele></trkpt>
   <trkpt lon="-9.185226" lat="39.311316"><ele>31.3</ele></trkpt>
   <trkpt lon="-9.185059" lat="39.311446"><ele>31.1</ele></trkpt>
   <trkpt lon="-9.184979" lat="39.311509"><ele>31.0</ele></trkpt>
   <trkpt lon="-9.184800" lat="39.311676"><ele>31.1</ele></trkpt>
   <trkpt lon="-9.184715" lat="39.311776"><ele>31.4</ele></trkpt>
   <trkpt lon="-9.184521" lat="39.312026"><ele>31.7</ele></trkpt>
   <trkpt lon="-9.184266" lat="39.312381"><ele>33.2</ele></trkpt>
   <trkpt lon="-9.183982" lat="39.312746"><ele>34.6</ele></trkpt>
   <trkpt lon="-9.183886" lat="39.312860"><ele>36.0</ele></trkpt>
   <trkpt lon="-9.183676" lat="39.313074"><ele>37.4</ele><sym>left</sym></trkpt>
   <trkpt lon="-9.183725" lat="39.313105"><ele>38.6</ele></trkpt>
   <trkpt lon="-9.186266" lat="39.314200"><ele>39.7</ele></trkpt>
   <trkpt lon="-9.186270" lat="39.314201"><ele>39.8</ele><sym>pass_place</sym><type>Shaping</type></trkpt>
   <trkpt lon="-9.186665" lat="39.314345"><ele>39.9</ele></trkpt>
   <trkpt lon="-9.186878" lat="39.314418"><ele>40.0</ele></trkpt>
   <trkpt lon="-9.187931" lat="39.314759"><ele>40.1</ele></trkpt>
   <trkpt lon="-9.188137" lat="39.314831"><ele>40.1</ele></trkpt>
   <trkpt lon="-9.190575" lat="39.315853"><ele>39.0</ele></trkpt>
   <trkpt lon="-9.190796" lat="39.315923"><ele>38.1</ele></trkpt>
   <trkpt lon="-9.190926" lat="39.315949"><ele>37.1</ele></trkpt>
   <trkpt lon="-9.191118" lat="39.315965"><ele>36.3</ele></trkpt>
   <trkpt lon="-9.191330" lat="39.315960"><ele>35.5</ele></trkpt>
   <trkpt lon="-9.192278" lat="39.315845"><ele>34.9</ele></trkpt>
   <trkpt lon="-9.192450" lat="39.315813"><ele>35.2</ele></trkpt>
   <trkpt lon="-9.192552" lat="39.315786"><ele>35.6</ele></trkpt>
   <trkpt lon="-9.192738" lat="39.315709"><ele>35.8</ele></trkpt>
   <trkpt lon="-9.193833" lat="39.315134"><ele>35.8</ele></trkpt>
   <trkpt lon="-9.193967" lat="39.315065"><ele>35.7</ele></trkpt>
   <trkpt lon="-9.194103" lat="39.315004"><ele>35.4</ele></trkpt>
   <trkpt lon="-9.194292" lat="39.314929"><ele>35.1</ele></trkpt>
   <trkpt lon="-9.196257" lat="39.314156"><ele>35.0</ele></trkpt>
   <trkpt lon="-9.196592" lat="39.314037"><ele>34.8</ele></trkpt>
   <trkpt lon="-9.197813" lat="39.313626"><ele>34.5</ele></trkpt>
   <trkpt lon="-9.198060" lat="39.313559"><ele>33.8</ele></trkpt>
   <trkpt lon="-9.198242" lat="39.313520"><ele>33.0</ele></trkpt>
   <trkpt lon="-9.198645" lat="39.313453"><ele>32.0</ele></trkpt>
   <trkpt lon="-9.198828" lat="39.313438"><ele>31.3</ele></trkpt>
   <trkpt lon="-9.199387" lat="39.313413"><ele>30.8</ele></trkpt>
   <trkpt lon="-9.199971" lat="39.313413"><ele>30.6</ele></trkpt>
   <trkpt lon="-9.201627" lat="39.313420"><ele>30.4</ele></trkpt>
   <trkpt lon="-9.202289" lat="39.313429"><ele>30.1</ele></trkpt>
   <trkpt lon="-9.205698" lat="39.313458"><ele>29.5</ele></trkpt>
   <trkpt lon="-9.205849" lat="39.313453"><ele>29.0</ele></trkpt>
   <trkpt lon="-9.206012" lat="39.313433"><ele>28.7</ele><sym>pass_place</sym><type>Shaping</type></trkpt>
   <trkpt lon="-9.206013" lat="39.313433"><ele>28.7</ele></trkpt>
   <trkpt lon="-9.206538" lat="39.313320"><ele>28.6</ele></trkpt>
   <trkpt lon="-9.207049" lat="39.313193"><ele>28.3</ele></trkpt>
   <trkpt lon="-9.208142" lat="39.312945"><ele>28.0</ele></trkpt>
   <trkpt lon="-9.208312" lat="39.312913"><ele>27.8</ele></trkpt>
   <trkpt lon="-9.208490" lat="39.312889"><ele>27.5</ele></trkpt>
   <trkpt lon="-9.208689" lat="39.312870"><ele>27.5</ele></trkpt>
   <trkpt lon="-9.210576" lat="39.312772"><ele>27.6</ele></trkpt>
   <trkpt lon="-9.210717" lat="39.312768"><ele>27.8</ele></trkpt>
   <trkpt lon="-9.211361" lat="39.312737"><ele>27.9</ele></trkpt>
   <trkpt lon="-9.211739" lat="39.312726"><ele>28.1</ele></trkpt>
   <trkpt lon="-9.212157" lat="39.312703"><ele>28.8</ele></trkpt>
   <trkpt lon="-9.212368" lat="39.312670"><ele>29.6</ele></trkpt>
   <trkpt lon="-9.212480" lat="39.312638"><ele>30.7</ele></trkpt>
   <trkpt lon="-9.212613" lat="39.312592"><ele>31.9</ele></trkpt>
   <trkpt lon="-9.212676" lat="39.312563"><ele>33.1</ele></trkpt>
   <trkpt lon="-9.213036" lat="39.312337"><ele>34.3</ele></trkpt>
   <trkpt lon="-9.213113" lat="39.312287"><ele>35.3</ele></trkpt>
   <trkpt lon="-9.213216" lat="39.312235"><ele>36.3</ele></trkpt>
   <trkpt lon="-9.213500" lat="39.312112"><ele>37.3</ele></trkpt>
   <trkpt lon="-9.213650" lat="39.312037"><ele>38.3</ele></trkpt>
   <trkpt lon="-9.213710" lat="39.312008"><ele>39.6</ele></trkpt>
   <trkpt lon="-9.213769" lat="39.311969"><ele>40.6</ele></trkpt>
   <trkpt lon="-9.213805" lat="39.311938"><ele>41.6</ele></trkpt>
   <trkpt lon="-9.213876" lat="39.311862"><ele>42.5</ele></trkpt>
   <trkpt lon="-9.213945" lat="39.311757"><ele>43.3</ele></trkpt>
   <trkpt lon="-9.214254" lat="39.311164"><ele>44.0</ele></trkpt>
   <trkpt lon="-9.214307" lat="39.311085"><ele>44.7</ele></trkpt>
   <trkpt lon="-9.214397" lat="39.310971"><ele>45.4</ele></trkpt>
   <trkpt lon="-9.214444" lat="39.310920"><ele>46.2</ele></trkpt>
   <trkpt lon="-9.214562" lat="39.310790"><ele>47.0</ele></trkpt>
   <trkpt lon="-9.214600" lat="39.310747"><ele>47.8</ele></trkpt>
   <trkpt lon="-9.214673" lat="39.310649"><ele>48.2</ele></trkpt>
   <trkpt lon="-9.214697" lat="39.310593"><ele>48.6</ele></trkpt>
   <trkpt lon="-9.214733" lat="39.310495"><ele>49.0</ele></trkpt>
   <trkpt lon="-9.214808" lat="39.310337"><ele>49.5</ele></trkpt>
   <trkpt lon="-9.215040" lat="39.309874"><ele>50.0</ele></trkpt>
   <trkpt lon="-9.215051" lat="39.309843"><ele>50.5</ele></trkpt>
   <trkpt lon="-9.215083" lat="39.309742"><ele>51.0</ele><sym>right</sym></trkpt>
   <trkpt lon="-9.215203" lat="39.309724"><ele>51.5</ele></trkpt>
   <trkpt lon="-9.215734" lat="39.309776"><ele>52.0</ele></trkpt>
   <trkpt lon="-9.215885" lat="39.309792"><ele>52.5</ele></trkpt>
   <trkpt lon="-9.216113" lat="39.309817"><ele>53.0</ele></trkpt>
   <trkpt lon="-9.216190" lat="39.309818"><ele>53.6</ele></trkpt>
   <trkpt lon="-9.216782" lat="39.309775"><ele>54.3</ele></trkpt>
   <trkpt lon="-9.217005" lat="39.309769"><ele>55.0</ele></trkpt>
   <trkpt lon="-9.217146" lat="39.309765"><ele>55.4</ele></trkpt>
   <trkpt lon="-9.217407" lat="39.309770"><ele>55.8</ele></trkpt>
   <trkpt lon="-9.217720" lat="39.309783"><ele>56.2</ele></trkpt>
   <trkpt lon="-9.217919" lat="39.309824"><ele>56.2</ele></trkpt>
   <trkpt lon="-9.218048" lat="39.309863"><ele>56.1</ele></trkpt>
   <trkpt lon="-9.218134" lat="39.309896"><ele>55.9</ele></trkpt>
   <trkpt lon="-9.218200" lat="39.309929"><ele>55.5</ele></trkpt>
   <trkpt lon="-9.218264" lat="39.309983"><ele>55.0</ele></trkpt>
   <trkpt lon="-9.218692" lat="39.310403"><ele>54.3</ele></trkpt>
   <trkpt lon="-9.218759" lat="39.310472"><ele>53.6</ele></trkpt>
   <trkpt lon="-9.218854" lat="39.310572"><ele>52.6</ele></trkpt>
   <trkpt lon="-9.219414" lat="39.311139"><ele>51.6</ele></trkpt>
   <trkpt lon="-9.219512" lat="39.311242"><ele>50.8</ele></trkpt>
   <trkpt lon="-9.220044" lat="39.311804"><ele>49.9</ele></trkpt>
   <trkpt lon="-9.220151" lat="39.311915"><ele>49.2</ele></trkpt>
   <trkpt lon="-9.220806" lat="39.312584"><ele>48.3</ele></trkpt>
   <trkpt lon="-9.220932" lat="39.312707"><ele>47.3</ele></trkpt>
   <trkpt lon="-9.221223" lat="39.313016"><ele>46.6</ele></trkpt>
   <trkpt lon="-9.221381" lat="39.313175"><ele>45.8</ele></trkpt>
   <trkpt lon="-9.221503" lat="39.313295"><ele>45.0</ele></trkpt>
   <trkpt lon="-9.222057" lat="39.313872"><ele>44.1</ele></trkpt>
   <trkpt lon="-9.222137" lat="39.313947"><ele>43.6</ele></trkpt>
   <trkpt lon="-9.222140" lat="39.313949"><ele>43.5</ele><sym>pass_place</sym><type>Shaping</type></trkpt>
   <trkpt lon="-9.222285" lat="39.314086"><ele>42.8</ele></trkpt>
   <trkpt lon="-9.222435" lat="39.314220"><ele>42.5</ele></trkpt>
   <trkpt lon="-9.222851" lat="39.314599"><ele>42.2</ele></trkpt>
   <trkpt lon="-9.222957" lat="39.314707"><ele>42.3</ele></trkpt>
   <trkpt lon="-9.223065" lat="39.314832"><ele>42.6</ele></trkpt>
   <trkpt lon="-9.223334" lat="39.315173"><ele>43.2</ele></trkpt>
   <trkpt lon="-9.223749" lat="39.315752"><ele>43.9</ele></trkpt>
   <trkpt lon="-9.223962" lat="39.316039"><ele>44.9</ele></trkpt>
   <trkpt lon="-9.224116" lat="39.316243"><ele>46.4</ele></trkpt>
   <trkpt lon="-9.224232" lat="39.316399"><ele>47.0</ele></trkpt>
   <trkpt lon="-9.224527" lat="39.316808"><ele>47.8</ele></trkpt>
   <trkpt lon="-9.224574" lat="39.316887"><ele>48.5</ele></trkpt>
   <trkpt lon="-9.224666" lat="39.317114"><ele>48.8</ele></trkpt>
   <trkpt lon="-9.224743" lat="39.317458"><ele>49.2</ele></trkpt>
   <trkpt lon="-9.224943" lat="39.318581"><ele>50.0</ele></trkpt>
   <trkpt lon="-9.225060" lat="39.319204"><ele>50.7</ele></trkpt>
   <trkpt lon="-9.225125" lat="39.319537"><ele>51.1</ele></trkpt>
   <trkpt lon="-9.225155" lat="39.319689"><ele>51.7</ele></trkpt>
   <trkpt lon="-9.225333" lat="39.320637"><ele>52.4</ele></trkpt>
   <trkpt lon="-9.225494" lat="39.321435"><ele>53.0</ele></trkpt>
   <trkpt lon="-9.225535" lat="39.321588"><ele>53.8</ele></trkpt>
   <trkpt lon="-9.225686" lat="39.321956"><ele>54.1</ele></trkpt>
   <trkpt lon="-9.225818" lat="39.322228"><ele>54.4</ele></trkpt>
   <trkpt lon="-9.226020" lat="39.322565"><ele>54.7</ele></trkpt>
   <trkpt lon="-9.226151" lat="39.322758"><ele>55.1</ele></trkpt>
   <trkpt lon="-9.226569" lat="39.323310"><ele>55.0</ele></trkpt>
   <trkpt lon="-9.227142" lat="39.324026"><ele>54.8</ele></trkpt>
   <trkpt lon="-9.227220" lat="39.324112"><ele>54.6</ele></trkpt>
   <trkpt lon="-9.227336" lat="39.324210"><ele>53.8</ele></trkpt>
   <trkpt lon="-9.228205" lat="39.324690"><ele>52.6</ele></trkpt>
   <trkpt lon="-9.228335" lat="39.324791"><ele>51.2</ele></trkpt>
   <trkpt lon="-9.228454" lat="39.324901"><ele>50.3</ele></trkpt>
   <trkpt lon="-9.228736" lat="39.325196"><ele>49.9</ele></trkpt>
   <trkpt lon="-9.229453" lat="39.325982"><ele>49.7</ele></trkpt>
   <trkpt lon="-9.229536" lat="39.326061"><ele>49.5</ele></trkpt>
   <trkpt lon="-9.229789" lat="39.326303"><ele>49.3</ele></trkpt>
   <trkpt lon="-9.230232" lat="39.326684"><ele>49.2</ele></trkpt>
   <trkpt lon="-9.230831" lat="39.327193"><ele>49.3</ele></trkpt>
   <trkpt lon="-9.231097" lat="39.327419"><ele>49.5</ele></trkpt>
   <trkpt lon="-9.231177" lat="39.327506"><ele>50.0</ele></trkpt>
   <trkpt lon="-9.231293" lat="39.327631"><ele>50.5</ele></trkpt>
   <trkpt lon="-9.231370" lat="39.327730"><ele>51.0</ele></trkpt>
   <trkpt lon="-9.231687" lat="39.328251"><ele>51.5</ele><sym>pass_place</sym><type>Shaping</type></trkpt>
   <trkpt lon="-9.231688" lat="39.328254"><ele>51.6</ele></trkpt>
   <trkpt lon="-9.231774" lat="39.328347"><ele>52.1</ele></trkpt>
   <trkpt lon="-9.231888" lat="39.328451"><ele>52.5</ele></trkpt>
   <trkpt lon="-9.231937" lat="39.328488"><ele>52.8</ele></trkpt>
   <trkpt lon="-9.232023" lat="39.328546"><ele>53.1</ele></trkpt>
   <trkpt lon="-9.232123" lat="39.328583"><ele>52.9</ele></trkpt>
   <trkpt lon="-9.232374" lat="39.328634"><ele>52.6</ele></trkpt>
   <trkpt lon="-9.232420" lat="39.328652"><ele>52.3</ele></trkpt>
   <trkpt lon="-9.232449" lat="39.328675"><ele>51.9</ele></trkpt>
   <trkpt lon="-9.232474" lat="39.328707"><ele>51.4</ele></trkpt>
   <trkpt lon="-9.232532" lat="39.328796"><ele>51.0</ele></trkpt>
   <trkpt lon="-9.232633" lat="39.328959"><ele>50.4</ele></trkpt>
   <trkpt lon="-9.232697" lat="39.329044"><ele>49.7</ele></trkpt>
   <trkpt lon="-9.232750" lat="39.329116"><ele>49.1</ele></trkpt>
   <trkpt lon="-9.232835" lat="39.329204"><ele>48.5</ele></trkpt>
   <trkpt lon="-9.232941" lat="39.329291"><ele>47.8</ele></trkpt>
   <trkpt lon="-9.233089" lat="39.329412"><ele>47.1</ele></trkpt>
   <trkpt lon="-9.233383" lat="39.329701"><ele>46.7</ele><sym>left_slight</sym></trkpt>
   <trkpt lon="-9.233414" lat="39.329696"><ele>46.5</ele></trkpt>
   <trkpt lon="-9.233455" lat="39.329699"><ele>46.4</ele></trkpt>
   <trkpt lon="-9.233828" lat="39.329852"><ele>46.3</ele></trkpt>
   <trkpt lon="-9.234052" lat="39.329902"><ele>46.3</ele></trkpt>
   <trkpt lon="-9.235078" lat="39.329921"><ele>46.3</ele></trkpt>
   <trkpt lon="-9.235719" lat="39.329912"><ele>46.5</ele></trkpt>
   <trkpt lon="-9.235937" lat="39.329925"><ele>46.8</ele></trkpt>
   <trkpt lon="-9.236107" lat="39.329936"><ele>47.2</ele></trkpt>
   <trkpt lon="-9.236359" lat="39.330002"><ele>48.3</ele></trkpt>
   <trkpt lon="-9.236782" lat="39.330216"><ele>50.1</ele><sym>right_slight</sym></trkpt>
   <trkpt lon="-9.237191" lat="39.330494"><ele>52.1</ele><sym>left_slight</sym></trkpt>
   <trkpt lon="-9.237948" lat="39.330756"><ele>54.0</ele></trkpt>
   <trkpt lon="-9.238426" lat="39.330887"><ele>56.6</ele></trkpt>
   <trkpt lon="-9.238938" lat="39.331547"><ele>59.5</ele></trkpt>
   <trkpt lon="-9.239537" lat="39.332134"><ele>62.5</ele></trkpt>
   <trkpt lon="-9.239670" lat="39.332175"><ele>65.2</ele><sym>left_slight</sym></trkpt>
   <trkpt lon="-9.239840" lat="39.332178"><ele>68.5</ele></trkpt>
   <trkpt lon="-9.240699" lat="39.332116"><ele>72.0</ele></trkpt>
   <trkpt lon="-9.241364" lat="39.332134"><ele>76.0</ele></trkpt>
   <trkpt lon="-9.241520" lat="39.332164"><ele>79.1</ele></trkpt>
   <trkpt lon="-9.241636" lat="39.332186"><ele>81.3</ele></trkpt>
   <trkpt lon="-9.241908" lat="39.332161"><ele>84.8</ele></trkpt>
   <trkpt lon="-9.242298" lat="39.332115"><ele>88.3</ele></trkpt>
   <trkpt lon="-9.242665" lat="39.332209"><ele>91.1</ele></trkpt>
   <trkpt lon="-9.242847" lat="39.332299"><ele>93.8</ele><sym>right_slight</sym></trkpt>
   <trkpt lon="-9.243168" lat="39.332579"><ele>96.5</ele></trkpt>
   <trkpt lon="-9.243256" lat="39.332668"><ele>99.2</ele></trkpt>
   <trkpt lon="-9.243361" lat="39.332751"><ele>101.7</ele></trkpt>
   <trkpt lon="-9.243467" lat="39.332822"><ele>104.0</ele></trkpt>
   <trkpt lon="-9.243583" lat="39.332884"><ele>105.9</ele></trkpt>
   <trkpt lon="-9.243689" lat="39.332931"><ele>107.6</ele></trkpt>
   <trkpt lon="-9.243807" lat="39.332969"><ele>108.9</ele></trkpt>
   <trkpt lon="-9.244440" lat="39.333138"><ele>110.1</ele></trkpt>
   <trkpt lon="-9.244628" lat="39.333219"><ele>111.3</ele></trkpt>
   <trkpt lon="-9.244933" lat="39.333396"><ele>112.5</ele><sym>left_slight</sym></trkpt>
   <trkpt lon="-9.244971" lat="39.333421"><ele>113.5</ele></trkpt>
   <trkpt lon="-9.245177" lat="39.333447"><ele>114.9</ele></trkpt>
   <trkpt lon="-9.245486" lat="39.333420"><ele>116.2</ele></trkpt>
   <trkpt lon="-9.245582" lat="39.333405"><ele>117.7</ele></trkpt>
   <trkpt lon="-9.245901" lat="39.333389"><ele>119.1</ele></trkpt>
   <trkpt lon="-9.246029" lat="39.333376"><ele>120.3</ele></trkpt>
   <trkpt lon="-9.246331" lat="39.333347"><ele>121.4</ele></trkpt>
   <trkpt lon="-9.246599" lat="39.333335"><ele>122.5</ele></trkpt>
   <trkpt lon="-9.246908" lat="39.333358"><ele>123.3</ele></trkpt>
   <trkpt lon="-9.247098" lat="39.333385"><ele>124.0</ele></trkpt>
   <trkpt lon="-9.247206" lat="39.333366"><ele>124.6</ele></trkpt>
   <trkpt lon="-9.247559" lat="39.333393"><ele>125.1</ele></trkpt>
   <trkpt lon="-9.247656" lat="39.333504"><ele>125.3</ele></trkpt>
   <trkpt lon="-9.247736" lat="39.333835"><ele>125.4</ele><sym>left</sym></trkpt>
   <trkpt lon="-9.247865" lat="39.333793"><ele>125.4</ele></trkpt>
   <trkpt lon="-9.248290" lat="39.333713"><ele>125.4</ele></trkpt>
   <trkpt lon="-9.248471" lat="39.333688"><ele>125.6</ele></trkpt>
   <trkpt lon="-9.248771" lat="39.333754"><ele>125.9</ele></trkpt>
   <trkpt lon="-9.249378" lat="39.333866"><ele>126.8</ele><sym>pass_place</sym><type>Shaping</type></trkpt>
   <trkpt lon="-9.249615" lat="39.333916"><ele>128.0</ele></trkpt>
   <trkpt lon="-9.250021" lat="39.334003"><ele>129.3</ele></trkpt>
   <trkpt lon="-9.250821" lat="39.334148"><ele>130.5</ele></trkpt>
   <trkpt lon="-9.251389" lat="39.334219"><ele>131.7</ele></trkpt>
   <trkpt lon="-9.252167" lat="39.334327"><ele>132.9</ele></trkpt>
   <trkpt lon="-9.252945" lat="39.334443"><ele>134.0</ele></trkpt>
   <trkpt lon="-9.253274" lat="39.334502"><ele>135.3</ele></trkpt>
   <trkpt lon="-9.255579" lat="39.334902"><ele>136.3</ele></trkpt>
   <trkpt lon="-9.256078" lat="39.335003"><ele>137.2</ele></trkpt>
   <trkpt lon="-9.256603" lat="39.335040"><ele>137.9</ele></trkpt>
   <trkpt lon="-9.256957" lat="39.335028"><ele>138.2</ele></trkpt>
   <trkpt lon="-9.257633" lat="39.334945"><ele>138.2</ele></trkpt>
   <trkpt lon="-9.258358" lat="39.334916"><ele>138.2</ele></trkpt>
   <trkpt lon="-9.259157" lat="39.334750"><ele>138.1</ele></trkpt>
   <trkpt lon="-9.259506" lat="39.334688"><ele>138.2</ele></trkpt>
   <trkpt lon="-9.260219" lat="39.334617"><ele>138.4</ele></trkpt>
   <trkpt lon="-9.260668" lat="39.334554"><ele>138.4</ele></trkpt>
   <trkpt lon="-9.260732" lat="39.334545"><ele>138.1</ele></trkpt>
   <trkpt lon="-9.261233" lat="39.334476"><ele>137.9</ele></trkpt>
   <trkpt lon="-9.262169" lat="39.334289"><ele>137.6</ele></trkpt>
   <trkpt lon="-9.262470" lat="39.334195"><ele>137.4</ele></trkpt>
   <trkpt lon="-9.263870" lat="39.333772"><ele>137.1</ele></trkpt>
   <trkpt lon="-9.264493" lat="39.333571"><ele>136.8</ele><sym>right_slight</sym></trkpt>
   <trkpt lon="-9.264628" lat="39.333625"><ele>136.5</ele></trkpt>
   <trkpt lon="-9.264779" lat="39.333648"><ele>136.1</ele></trkpt>
   <trkpt lon="-9.265337" lat="39.333576"><ele>135.5</ele></trkpt>
   <trkpt lon="-9.265540" lat="39.333559"><ele>135.0</ele></trkpt>
   <trkpt lon="-9.265900" lat="39.333582"><ele>134.8</ele><sym>left_slight</sym></trkpt>
   <trkpt lon="-9.266525" lat="39.333435"><ele>134.7</ele></trkpt>
   <trkpt lon="-9.266881" lat="39.333250"><ele>134.6</ele></trkpt>
   <trkpt lon="-9.267228" lat="39.333070"><ele>134.5</ele></trkpt>
   <trkpt lon="-9.267445" lat="39.332968"><ele>134.5</ele></trkpt>
   <trkpt lon="-9.267747" lat="39.332838"><ele>134.2</ele></trkpt>
   <trkpt lon="-9.267806" lat="39.332784"><ele>133.7</ele><sym>right_slight</sym></trkpt>
   <trkpt lon="-9.267898" lat="39.332813"><ele>133.1</ele></trkpt>
   <trkpt lon="-9.268059" lat="39.332774"><ele>132.7</ele></trkpt>
   <trkpt lon="-9.268129" lat="39.332747"><ele>132.1</ele><sym>right</sym></trkpt>
   <trkpt lon="-9.268234" lat="39.332905"><ele>131.5</ele></trkpt>
   <trkpt lon="-9.268309" lat="39.333017"><ele>130.7</ele></trkpt>
   <trkpt lon="-9.268510" lat="39.333189"><ele>129.7</ele><sym>left_slight</sym></trkpt>
   <trkpt lon="-9.268555" lat="39.333203"><ele>128.8</ele></trkpt>
   <trkpt lon="-9.268600" lat="39.333216"><ele>127.9</ele></trkpt>
   <trkpt lon="-9.268821" lat="39.333193"><ele>126.6</ele></trkpt>
   <trkpt lon="-9.268884" lat="39.333186"><ele>125.6</ele><sym>right_sharp</sym></trkpt>
   <trkpt lon="-9.268591" lat="39.333700"><ele>124.5</ele><sym>pass_place</sym><type>Shaping</type></trkpt>
   <trkpt lon="-9.268447" lat="39.333922"><ele>123.4</ele></trkpt>
   <trkpt lon="-9.268414" lat="39.333963"><ele>122.3</ele></trkpt>
   <trkpt lon="-9.268296" lat="39.334108"><ele>121.0</ele></trkpt>
   <trkpt lon="-9.268207" lat="39.334231"><ele>119.5</ele><sym>left_slight</sym></trkpt>
   <trkpt lon="-9.268245" lat="39.334677"><ele>118.1</ele></trkpt>
   <trkpt lon="-9.268308" lat="39.335235"><ele>116.7</ele></trkpt>
   <trkpt lon="-9.268369" lat="39.335443"><ele>115.5</ele></trkpt>
   <trkpt lon="-9.268634" lat="39.336335"><ele>114.4</ele></trkpt>
   <trkpt lon="-9.268775" lat="39.336714"><ele>113.3</ele></trkpt>
   <trkpt lon="-9.268837" lat="39.336878"><ele>112.0</ele><sym>left_slight</sym></trkpt>
   <trkpt lon="-9.269189" lat="39.337218"><ele>111.0</ele><sym>left_slight</sym></trkpt>
   <trkpt lon="-9.269556" lat="39.337325"><ele>110.2</ele></trkpt>
   <trkpt lon="-9.269623" lat="39.337347"><ele>109.5</ele></trkpt>
   <trkpt lon="-9.270235" lat="39.337592"><ele>109.0</ele></trkpt>
   <trkpt lon="-9.271726" lat="39.338440"><ele>108.5</ele></trkpt>
   <trkpt lon="-9.272267" lat="39.338678"><ele>108.0</ele></trkpt>
   <trkpt lon="-9.272446" lat="39.338757"><ele>107.7</ele></trkpt>
   <trkpt lon="-9.272881" lat="39.338907"><ele>107.3</ele><sym>left_slight</sym></trkpt>
   <trkpt lon="-9.273417" lat="39.338979"><ele>106.9</ele></trkpt>
   <trkpt lon="-9.273624" lat="39.338986"><ele>106.5</ele></trkpt>
   <trkpt lon="-9.273827" lat="39.338981"><ele>106.3</ele></trkpt>
   <trkpt lon="-9.274081" lat="39.338959"><ele>106.1</ele></trkpt>
   <trkpt lon="-9.274177" lat="39.338957"><ele>105.8</ele></trkpt>
   <trkpt lon="-9.274257" lat="39.338946"><ele>105.4</ele><sym>roundabout_e1</sym></trkpt>
   <trkpt lon="-9.274267" lat="39.338981"><ele>105.1</ele></trkpt>
   <trkpt lon="-9.274291" lat="39.339010"><ele>105.3</ele></trkpt>
   <trkpt lon="-9.274326" lat="39.339032"><ele>105.0</ele></trkpt>
   <trkpt lon="-9.274369" lat="39.339045"><ele>104.8</ele></trkpt>
   <trkpt lon="-9.274434" lat="39.339041"><ele>104.7</ele></trkpt>
   <trkpt lon="-9.274453" lat="39.339090"><ele>104.6</ele></trkpt>
   <trkpt lon="-9.275162" lat="39.340768"><ele>104.5</ele></trkpt>
   <trkpt lon="-9.275662" lat="39.341938"><ele>104.5</ele></trkpt>
   <trkpt lon="-9.275777" lat="39.342165"><ele>104.7</ele></trkpt>
   <trkpt lon="-9.275833" lat="39.342259"><ele>104.9</ele></trkpt>
   <trkpt lon="-9.275890" lat="39.342346"><ele>105.5</ele></trkpt>
   <trkpt lon="-9.275954" lat="39.342427"><ele>106.2</ele></trkpt>
   <trkpt lon="-9.276047" lat="39.342519"><ele>106.5</ele></trkpt>
   <trkpt lon="-9.276124" lat="39.342577"><ele>107.0</ele></trkpt>
   <trkpt lon="-9.276284" lat="39.342672"><ele>107.5</ele></trkpt>
   <trkpt lon="-9.277527" lat="39.343259"><ele>108.2</ele></trkpt>
   <trkpt lon="-9.277883" lat="39.343419"><ele>108.9</ele><sym>straight</sym></trkpt>
   <trkpt lon="-9.278192" lat="39.343569"><ele>110.8</ele></trkpt>
   <trkpt lon="-9.278391" lat="39.343662"><ele>111.4</ele></trkpt>
   <trkpt lon="-9.279882" lat="39.344349"><ele>111.8</ele></trkpt>
   <trkpt lon="-9.281284" lat="39.345000"><ele>111.9</ele><sym>pass_place</sym><type>Shaping</type></trkpt>
   <trkpt lon="-9.281568" lat="39.345125"><ele>111.7</ele></trkpt>
   <trkpt lon="-9.282756" lat="39.345684"><ele>111.2</ele></trkpt>
   <trkpt lon="-9.284592" lat="39.346537"><ele>110.8</ele></trkpt>
   <trkpt lon="-9.284673" lat="39.346573"><ele>110.4</ele></trkpt>
   <trkpt lon="-9.285243" lat="39.346831"><ele>110.0</ele></trkpt>
   <trkpt lon="-9.285370" lat="39.346898"><ele>109.7</ele></trkpt>
   <trkpt lon="-9.285517" lat="39.346979"><ele>109.2</ele></trkpt>
   <trkpt lon="-9.285637" lat="39.347060"><ele>107.5</ele></trkpt>
   <trkpt lon="-9.285728" lat="39.347136"><ele>106.5</ele></trkpt>
   <trkpt lon="-9.285815" lat="39.347226"><ele>105.3</ele></trkpt>
   <trkpt lon="-9.285896" lat="39.347340"><ele>104.3</ele></trkpt>
   <trkpt lon="-9.285967" lat="39.347467"><ele>103.4</ele></trkpt>
   <trkpt lon="-9.286155" lat="39.347893"><ele>102.5</ele></trkpt>
   <trkpt lon="-9.286439" lat="39.348501"><ele>101.6</ele></trkpt>
   <trkpt lon="-9.286822" lat="39.349333"><ele>100.8</ele></trkpt>
   <trkpt lon="-9.286882" lat="39.349404"><ele>99.9</ele></trkpt>
   <trkpt lon="-9.286939" lat="39.349452"><ele>98.8</ele></trkpt>
   <trkpt lon="-9.286997" lat="39.349496"><ele>97.5</ele></trkpt>
   <trkpt lon="-9.287059" lat="39.349523"><ele>96.1</ele></trkpt>
   <trkpt lon="-9.287209" lat="39.349565"><ele>95.0</ele></trkpt>
   <trkpt lon="-9.287602" lat="39.349634"><ele>93.9</ele></trkpt>
   <trkpt lon="-9.287723" lat="39.349656"><ele>92.7</ele></trkpt>
   <trkpt lon="-9.287900" lat="39.349687"><ele>91.4</ele></trkpt>
   <trkpt lon="-9.288220" lat="39.349743"><ele>90.1</ele></trkpt>
   <trkpt lon="-9.288366" lat="39.349762"><ele>88.8</ele></trkpt>
   <trkpt lon="-9.289007" lat="39.349775"><ele>87.4</ele></trkpt>
   <trkpt lon="-9.289331" lat="39.349770"><ele>86.0</ele></trkpt>
   <trkpt lon="-9.289424" lat="39.349770"><ele>84.7</ele></trkpt>
   <trkpt lon="-9.289525" lat="39.349768"><ele>83.5</ele></trkpt>
   <trkpt lon="-9.289768" lat="39.349784"><ele>82.4</ele></trkpt>
   <trkpt lon="-9.290212" lat="39.349853"><ele>81.3</ele></trkpt>
   <trkpt lon="-9.290334" lat="39.349874"><ele>80.4</ele></trkpt>
   <trkpt lon="-9.290697" lat="39.349957"><ele>79.6</ele></trkpt>
   <trkpt lon="-9.290819" lat="39.349989"><ele>78.9</ele></trkpt>
   <trkpt lon="-9.291258" lat="39.350111"><ele>78.1</ele></trkpt>
   <trkpt lon="-9.291860" lat="39.350278"><ele>76.9</ele></trkpt>
   <trkpt lon="-9.292386" lat="39.350412"><ele>75.9</ele><sym>right</sym></trkpt>
   <trkpt lon="-9.292375" lat="39.350462"><ele>74.7</ele></trkpt>
   <trkpt lon="-9.292311" lat="39.350671"><ele>73.4</ele></trkpt>
   <trkpt lon="-9.292294" lat="39.350746"><ele>72.1</ele></trkpt>
   <trkpt lon="-9.292277" lat="39.351035"><ele>70.3</ele></trkpt>
   <trkpt lon="-9.292281" lat="39.351090"><ele>69.0</ele></trkpt>
   <trkpt lon="-9.292292" lat="39.351214"><ele>67.6</ele></trkpt>
   <trkpt lon="-9.292345" lat="39.351409"><ele>66.1</ele></trkpt>
   <trkpt lon="-9.292390" lat="39.351526"><ele>64.5</ele></trkpt>
   <trkpt lon="-9.293292" lat="39.353544"><ele>63.0</ele></trkpt>
   <trkpt lon="-9.293851" lat="39.354795"><ele>61.8</ele></trkpt>
   <trkpt lon="-9.293980" lat="39.355040"><ele>60.6</ele></trkpt>
   <trkpt lon="-9.294156" lat="39.355314"><ele>59.5</ele></trkpt>
   <trkpt lon="-9.294242" lat="39.355429"><ele>58.3</ele><sym>pass_place</sym><type>Shaping</type></trkpt>
   <trkpt lon="-9.294243" lat="39.355432"><ele>58.2</ele></trkpt>
   <trkpt lon="-9.294461" lat="39.355689"><ele>57.4</ele></trkpt>
   <trkpt lon="-9.294580" lat="39.355812"><ele>56.4</ele></trkpt>
   <trkpt lon="-9.294879" lat="39.356084"><ele>55.5</ele></trkpt>
   <trkpt lon="-9.295026" lat="39.356209"><ele>55.3</ele></trkpt>
   <trkpt lon="-9.295330" lat="39.356424"><ele>55.0</ele></trkpt>
   <trkpt lon="-9.295503" lat="39.356530"><ele>54.7</ele></trkpt>
   <trkpt lon="-9.295831" lat="39.356692"><ele>54.6</ele></trkpt>
   <trkpt lon="-9.296023" lat="39.356768"><ele>54.2</ele></trkpt>
   <trkpt lon="-9.296723" lat="39.357010"><ele>53.4</ele></trkpt>
   <trkpt lon="-9.298450" lat="39.357575"><ele>52.8</ele></trkpt>
   <trkpt lon="-9.298926" lat="39.357736"><ele>52.3</ele></trkpt>
   <trkpt lon="-9.299985" lat="39.358092"><ele>51.8</ele></trkpt>
   <trkpt lon="-9.301152" lat="39.358481"><ele>51.3</ele></trkpt>
   <trkpt lon="-9.307833" lat="39.360692"><ele>50.2</ele></trkpt>
   <trkpt lon="-9.308003" lat="39.360743"><ele>48.6</ele></trkpt>
   <trkpt lon="-9.308145" lat="39.360777"><ele>46.7</ele></trkpt>
   <trkpt lon="-9.308307" lat="39.360804"><ele>44.7</ele></trkpt>
   <trkpt lon="-9.308494" lat="39.360827"><ele>42.6</ele></trkpt>
   <trkpt lon="-9.308951" lat="39.360873"><ele>40.7</ele></trkpt>
   <trkpt lon="-9.309834" lat="39.360963"><ele>39.5</ele></trkpt>
   <trkpt lon="-9.310458" lat="39.361022"><ele>38.0</ele></trkpt>
   <trkpt lon="-9.310642" lat="39.361054"><ele>36.6</ele></trkpt>
   <trkpt lon="-9.310753" lat="39.361081"><ele>35.1</ele></trkpt>
   <trkpt lon="-9.310851" lat="39.361121"><ele>34.0</ele></trkpt>
   <trkpt lon="-9.311275" lat="39.361384"><ele>33.1</ele></trkpt>
   <trkpt lon="-9.311754" lat="39.361705"><ele>32.5</ele></trkpt>
   <trkpt lon="-9.311935" lat="39.361834"><ele>32.3</ele></trkpt>
   <trkpt lon="-9.312235" lat="39.362073"><ele>32.1</ele></trkpt>
   <trkpt lon="-9.312491" lat="39.362259"><ele>31.9</ele></trkpt>
   <trkpt lon="-9.312576" lat="39.362311"><ele>31.7</ele></trkpt>
   <trkpt lon="-9.312962" lat="39.362528"><ele>31.6</ele><sym>pass_place</sym><type>Shaping</type></trkpt>
   <trkpt lon="-9.312963" lat="39.362530"><ele>31.5</ele></trkpt>
   <trkpt lon="-9.313275" lat="39.362684"><ele>31.3</ele></trkpt>
   <trkpt lon="-9.313590" lat="39.362829"><ele>31.0</ele></trkpt>
   <trkpt lon="-9.313724" lat="39.362881"><ele>30.6</ele></trkpt>
   <trkpt lon="-9.314201" lat="39.363036"><ele>30.2</ele></trkpt>
   <trkpt lon="-9.314839" lat="39.363222"><ele>29.6</ele></trkpt>
   <trkpt lon="-9.314981" lat="39.363255"><ele>29.1</ele></trkpt>
   <trkpt lon="-9.315109" lat="39.363273"><ele>28.6</ele></trkpt>
   <trkpt lon="-9.315249" lat="39.363288"><ele>28.3</ele></trkpt>
   <trkpt lon="-9.315367" lat="39.363300"><ele>28.0</ele></trkpt>
   <trkpt lon="-9.315602" lat="39.363352"><ele>27.8</ele></trkpt>
   <trkpt lon="-9.315787" lat="39.363428"><ele>27.7</ele></trkpt>
   <trkpt lon="-9.316011" lat="39.363543"><ele>27.8</ele></trkpt>
   <trkpt lon="-9.316129" lat="39.363603"><ele>27.8</ele></trkpt>
   <trkpt lon="-9.316215" lat="39.363645"><ele>28.0</ele></trkpt>
   <trkpt lon="-9.316271" lat="39.363673"><ele>28.2</ele><sym>roundabout_e1</sym></trkpt>
   <trkpt lon="-9.316307" lat="39.363709"><ele>28.5</ele></trkpt>
   <trkpt lon="-9.316344" lat="39.363719"><ele>28.8</ele></trkpt>
   <trkpt lon="-9.316384" lat="39.363716"><ele>29.0</ele></trkpt>
   <trkpt lon="-9.316433" lat="39.363737"><ele>29.2</ele><sym>right</sym></trkpt>
   <trkpt lon="-9.316179" lat="39.364118"><ele>29.3</ele><sym>stay_right</sym></trkpt>
   <trkpt lon="-9.316121" lat="39.364143"><ele>29.4</ele></trkpt>
   <trkpt lon="-9.315982" lat="39.364250"><ele>29.5</ele><sym>pass_place</sym><type>Via</type></trkpt>
  </trkseg>
 </trk>
</gpx>
