<?xml version="1.0" encoding="UTF-8"?>
<!-- track-length = 43972 filtered ascend = 480 plain-ascend = 1 cost=60951 energy=.3kwh time=2h 37m 46s -->
<gpx 
 xmlns="http://www.topografix.com/GPX/1/1" 
 xmlns:xsi="http://www.w3.org/2001/XMLSchema-instance" 
 xsi:schemaLocation="http://www.topografix.com/GPX/1/1 http://www.topografix.com/GPX/1/1/gpx.xsd" 
 creator="BRouter-1.7.9" version="1.1"><wpt lat="39.25165" lon="-9.31303"><name>Snack Café Bora Bora</name><sym>Restaurant</sym></wpt><wpt lat="39.28708" lon="-9.21641"><name>Natinhas do Céu</name><sym>Restaurant</sym></wpt><wpt lat="39.36411" lon="-9.31784"><name>Pasteleria Ferreleja</name><sym>Restaurant</sym></wpt><wpt lat="39.24245" lon="-9.31309"><name>Drinking water</name><sym>Drinking Water</sym></wpt><wpt lat="39.28705" lon="-9.21622"><name>Drinking water</name><sym>Drinking Water</sym></wpt><wpt lat="39.24241" lon="-9.31336"><name>Café Central</name><sym>Restaurant</sym></wpt><wpt lat="39.33206" lon="-9.26988"><name>A Serrana</name><sym>Restaurant</sym></wpt><wpt lat="39.34957" lon="-9.28944"><name>cafe Mercearia</name><sym>Restaurant</sym></wpt><wpt lat="39.27993" lon="-9.24544"><name>Drinking water</name><sym>Drinking Water</sym></wpt><wpt lat="39.279" lon="-9.24643"><name>Drinking water</name><sym>Drinking Water</sym></wpt><wpt lat="39.24291" lon="-9.31223"><name>Drinking water</name><sym>Drinking Water</sym></wpt><wpt lat="39.36375" lon="-9.31618"><name>Café Central</name><sym>Restaurant</sym></wpt><wpt lat="39.24895" lon="-9.31417"><name>Drinking water</name><sym>Drinking Water</sym></wpt><wpt lat="39.24213" lon="-9.31269"><name>Magnolia</name><sym>Restaurant</sym></wpt><wpt lat="39.33734" lon="-9.32586"><name>SbikeShop</name><sym>Bike Trail</sym></wpt><wpt lat="39.33592" lon="-9.32524"><name>Arcadas do Jardim</name><sym>Restaurant</sym></wpt><wpt lat="39.33615" lon="-9.3263"><name>Entre Amigos</name><sym>Restaurant</sym></wpt><wpt lat="39.32509" lon="-9.23313"><name>Drinking water</name><sym>Drinking Water</sym></wpt><wpt lat="39.33984" lon="-9.32715"><name>Forne da Vila</name><sym>Restaurant</sym></wpt><wpt lat="39.25744" lon="-9.28736"><name>Café de Gina</name><sym>Restaurant</sym></wpt><wpt lat="39.32703" lon="-9.23309"><name>Café Boémia</name><sym>Restaurant</sym></wpt><wpt lat="39.3014" lon="-9.2403"><name>Café da Associação</name><sym>Restaurant</sym></wpt>
 <trk>
  <src>brouter_fastbike-lowtraffic_0</src>
  <type>bike</type>
  <trkseg>
   <trkpt lon="-9.315982" lat="39.364250"><ele>26.25</ele><sym>pass_place</sym><type>Via</type></trkpt>
   <trkpt lon="-9.315923" lat="39.364295"><ele>26.75</ele></trkpt>
   <trkpt lon="-9.315793" lat="39.364266"><ele>26.5</ele><sym>right</sym></trkpt>
   <trkpt lon="-9.315828" lat="39.364198"><ele>26.0</ele></trkpt>
   <trkpt lon="-9.315915" lat="39.364030"><ele>25.5</ele></trkpt>
   <trkpt lon="-9.315870" lat="39.363883"><ele>24.75</ele><sym>right_slight</sym></trkpt>
   <trkpt lon="-9.315922" lat="39.363731"><ele>24.25</ele></trkpt>
   <trkpt lon="-9.316011" lat="39.363543"><ele>23.25</ele><sym>right</sym></trkpt>
   <trkpt lon="-9.316129" lat="39.363603"><ele>23.75</ele></trkpt>
   <trkpt lon="-9.316215" lat="39.363645"><ele>24.25</ele></trkpt>
   <trkpt lon="-9.316271" lat="39.363673"><ele>24.75</ele><sym>roundabout_e2</sym></trkpt>
   <trkpt lon="-9.316307" lat="39.363709"><ele>25.0</ele></trkpt>
   <trkpt lon="-9.316344" lat="39.363719"><ele>25.0</ele></trkpt>
   <trkpt lon="-9.316384" lat="39.363716"><ele>25.25</ele></trkpt>
   <trkpt lon="-9.316425" lat="39.363693"><ele>25.25</ele></trkpt>
   <trkpt lon="-9.316444" lat="39.363657"><ele>25.0</ele></trkpt>
   <trkpt lon="-9.316435" lat="39.363621"><ele>25.0</ele></trkpt>
   <trkpt lon="-9.316421" lat="39.363605"><ele>24.75</ele></trkpt>
   <trkpt lon="-9.316447" lat="39.363408"><ele>22.75</ele><sym>right_slight</sym></trkpt>
   <trkpt lon="-9.316593" lat="39.363210"><ele>21.75</ele></trkpt>
   <trkpt lon="-9.317096" lat="39.362510"><ele>22.0</ele></trkpt>
   <trkpt lon="-9.318017" lat="39.361207"><ele>19.0</ele></trkpt>
   <trkpt lon="-9.318830" lat="39.360121"><ele>18.25</ele></trkpt>
   <trkpt lon="-9.318993" lat="39.359834"><ele>16.0</ele></trkpt>
   <trkpt lon="-9.319551" lat="39.358390"><ele>9.25</ele></trkpt>
   <trkpt lon="-9.319627" lat="39.358152"><ele>8.5</ele></trkpt>
   <trkpt lon="-9.319665" lat="39.357949"><ele>8.0</ele></trkpt>
   <trkpt lon="-9.319686" lat="39.357623"><ele>8.25</ele></trkpt>
   <trkpt lon="-9.319684" lat="39.357477"><ele>9.0</ele></trkpt>
   <trkpt lon="-9.319664" lat="39.357178"><ele>10.75</ele></trkpt>
   <trkpt lon="-9.319655" lat="39.357073"><ele>10.75</ele></trkpt>
   <trkpt lon="-9.319643" lat="39.356930"><ele>10.75</ele></trkpt>
   <trkpt lon="-9.319622" lat="39.356790"><ele>10.0</ele></trkpt>
   <trkpt lon="-9.319482" lat="39.356185"><ele>10.75</ele></trkpt>
   <trkpt lon="-9.319455" lat="39.356042"><ele>11.25</ele></trkpt>
   <trkpt lon="-9.319443" lat="39.355926"><ele>11.5</ele></trkpt>
   <trkpt lon="-9.319441" lat="39.355790"><ele>12.0</ele></trkpt>
   <trkpt lon="-9.319452" lat="39.355658"><ele>12.5</ele></trkpt>
   <trkpt lon="-9.319584" lat="39.354926"><ele>13.75</ele></trkpt>
   <trkpt lon="-9.319656" lat="39.354683"><ele>15.75</ele></trkpt>
   <trkpt lon="-9.319740" lat="39.354453"><ele>17.75</ele></trkpt>
   <trkpt lon="-9.319798" lat="39.354335"><ele>18.0</ele></trkpt>
   <trkpt lon="-9.319868" lat="39.354217"><ele>18.25</ele></trkpt>
   <trkpt lon="-9.320003" lat="39.354049"><ele>18.5</ele></trkpt>
   <trkpt lon="-9.320081" lat="39.353968"><ele>18.75</ele></trkpt>
   <trkpt lon="-9.320269" lat="39.353815"><ele>19.75</ele></trkpt>
   <trkpt lon="-9.321256" lat="39.353177"><ele>23.5</ele></trkpt>
   <trkpt lon="-9.321558" lat="39.352954"><ele>24.0</ele></trkpt>
   <trkpt lon="-9.321703" lat="39.352831"><ele>24.0</ele></trkpt>
   <trkpt lon="-9.321928" lat="39.352622"><ele>25.5</ele></trkpt>
   <trkpt lon="-9.322250" lat="39.352251"><ele>26.75</ele></trkpt>
   <trkpt lon="-9.322442" lat="39.351953"><ele>27.0</ele></trkpt>
   <trkpt lon="-9.322679" lat="39.351441"><ele>26.75</ele></trkpt>
   <trkpt lon="-9.323175" lat="39.350403"><ele>24.5</ele></trkpt>
   <trkpt lon="-9.323543" lat="39.349610"><ele>22.75</ele><sym>pass_place</sym><type>Shaping</type></trkpt>
   <trkpt lon="-9.324287" lat="39.347495"><ele>10.5</ele></trkpt>
   <trkpt lon="-9.324417" lat="39.347247"><ele>10.0</ele></trkpt>
   <trkpt lon="-9.324549" lat="39.347048"><ele>8.75</ele></trkpt>
   <trkpt lon="-9.324749" lat="39.346842"><ele>7.0</ele></trkpt>
   <trkpt lon="-9.324864" lat="39.346739"><ele>6.75</ele></trkpt>
   <trkpt lon="-9.325199" lat="39.346472"><ele>7.0</ele></trkpt>
   <trkpt lon="-9.325384" lat="39.346336"><ele>7.0</ele></trkpt>
   <trkpt lon="-9.325660" lat="39.346150"><ele>6.5</ele></trkpt>
   <trkpt lon="-9.325834" lat="39.346037"><ele>5.75</ele></trkpt>
   <trkpt lon="-9.326455" lat="39.345608"><ele>5.0</ele></trkpt>
   <trkpt lon="-9.326880" lat="39.345283"><ele>5.75</ele></trkpt>
   <trkpt lon="-9.327028" lat="39.345163"><ele>6.5</ele></trkpt>
   <trkpt lon="-9.327155" lat="39.345049"><ele>7.5</ele></trkpt>
   <trkpt lon="-9.327274" lat="39.344929"><ele>8.25</ele></trkpt>
   <trkpt lon="-9.327349" lat="39.344839"><ele>9.0</ele></trkpt>
   <trkpt lon="-9.327409" lat="39.344752"><ele>9.5</ele></trkpt>
   <trkpt lon="-9.327861" lat="39.343963"><ele>12.5</ele></trkpt>
   <trkpt lon="-9.328065" lat="39.343601"><ele>13.0</ele></trkpt>
   <trkpt lon="-9.328121" lat="39.343453"><ele>13.75</ele></trkpt>
   <trkpt lon="-9.328139" lat="39.343376"><ele>14.0</ele></trkpt>
   <trkpt lon="-9.328146" lat="39.343279"><ele>14.5</ele></trkpt>
   <trkpt lon="-9.328140" lat="39.343182"><ele>14.75</ele></trkpt>
   <trkpt lon="-9.328123" lat="39.343074"><ele>15.0</ele></trkpt>
   <trkpt lon="-9.328044" lat="39.342773"><ele>16.0</ele></trkpt>
   <trkpt lon="-9.327948" lat="39.342455"><ele>17.25</ele></trkpt>
   <trkpt lon="-9.327848" lat="39.342110"><ele>19.5</ele></trkpt>
   <trkpt lon="-9.327721" lat="39.341666"><ele>19.75</ele></trkpt>
   <trkpt lon="-9.327530" lat="39.341059"><ele>21.0</ele></trkpt>
   <trkpt lon="-9.327395" lat="39.340638"><ele>27.25</ele></trkpt>
   <trkpt lon="-9.327342" lat="39.340531"><ele>28.5</ele></trkpt>
   <trkpt lon="-9.327252" lat="39.340372"><ele>29.5</ele></trkpt>
   <trkpt lon="-9.327109" lat="39.340105"><ele>30.25</ele></trkpt>
   <trkpt lon="-9.327074" lat="39.340009"><ele>30.25</ele></trkpt>
   <trkpt lon="-9.327030" lat="39.339800"><ele>30.75</ele></trkpt>
   <trkpt lon="-9.327022" lat="39.339757"><ele>30.75</ele><sym>left</sym></trkpt>
   <trkpt lon="-9.326876" lat="39.339763"><ele>30.75</ele></trkpt>
   <trkpt lon="-9.326741" lat="39.339752"><ele>30.75</ele></trkpt>
   <trkpt lon="-9.326547" lat="39.339722"><ele>30.5</ele></trkpt>
   <trkpt lon="-9.326031" lat="39.339614"><ele>27.0</ele><sym>right</sym></trkpt>
   <trkpt lon="-9.326036" lat="39.339585"><ele>27.25</ele></trkpt>
   <trkpt lon="-9.326117" lat="39.339117"><ele>27.0</ele></trkpt>
   <trkpt lon="-9.326122" lat="39.339076"><ele>27.25</ele></trkpt>
   <trkpt lon="-9.326162" lat="39.338718"><ele>29.0</ele></trkpt>
   <trkpt lon="-9.326195" lat="39.338494"><ele>30.25</ele></trkpt>
   <trkpt lon="-9.326254" lat="39.338136"><ele>29.75</ele></trkpt>
   <trkpt lon="-9.326311" lat="39.337770"><ele>31.0</ele></trkpt>
   <trkpt lon="-9.326388" lat="39.337277"><ele>33.75</ele><sym>left</sym></trkpt>
   <trkpt lon="-9.326078" lat="39.337246"><ele>34.75</ele></trkpt>
   <trkpt lon="-9.325961" lat="39.337210"><ele>35.0</ele><sym>right_slight</sym></trkpt>
   <trkpt lon="-9.325927" lat="39.337166"><ele>35.0</ele></trkpt>
   <trkpt lon="-9.325908" lat="39.337123"><ele>35.25</ele></trkpt>
   <trkpt lon="-9.325902" lat="39.336724"><ele>35.75</ele></trkpt>
   <trkpt lon="-9.325901" lat="39.336644"><ele>35.75</ele></trkpt>
   <trkpt lon="-9.325898" lat="39.336426"><ele>35.75</ele></trkpt>
   <trkpt lon="-9.325884" lat="39.336341"><ele>35.75</ele></trkpt>
   <trkpt lon="-9.325841" lat="39.336283"><ele>35.75</ele><sym>straight</sym></trkpt>
   <trkpt lon="-9.325672" lat="39.336113"><ele>36.5</ele></trkpt>
   <trkpt lon="-9.325611" lat="39.336072"><ele>36.75</ele></trkpt>
   <trkpt lon="-9.325568" lat="39.336056"><ele>36.75</ele><sym>right</sym></trkpt>
   <trkpt lon="-9.325587" lat="39.335989"><ele>36.75</ele></trkpt>
   <trkpt lon="-9.325579" lat="39.335890"><ele>36.75</ele></trkpt>
   <trkpt lon="-9.325464" lat="39.335133"><ele>37.75</ele></trkpt>
   <trkpt lon="-9.325464" lat="39.335129"><ele>41.5</ele><sym>pass_place</sym><type>Shaping</type></trkpt>
   <trkpt lon="-9.325311" lat="39.334408"><ele>41.5</ele></trkpt>
   <trkpt lon="-9.325264" lat="39.334104"><ele>41.25</ele></trkpt>
   <trkpt lon="-9.325165" lat="39.333908"><ele>42.25</ele></trkpt>
   <trkpt lon="-9.325054" lat="39.332408"><ele>44.25</ele><sym>left_slight</sym></trkpt>
   <trkpt lon="-9.324925" lat="39.331966"><ele>45.75</ele></trkpt>
   <trkpt lon="-9.324894" lat="39.331882"><ele>46.0</ele></trkpt>
   <trkpt lon="-9.324729" lat="39.331548"><ele>46.75</ele></trkpt>
   <trkpt lon="-9.324573" lat="39.331343"><ele>47.0</ele></trkpt>
   <trkpt lon="-9.323618" lat="39.330165"><ele>50.0</ele></trkpt>
   <trkpt lon="-9.323046" lat="39.329316"><ele>50.0</ele></trkpt>
   <trkpt lon="-9.322707" lat="39.328798"><ele>51.75</ele></trkpt>
   <trkpt lon="-9.322188" lat="39.327972"><ele>55.5</ele></trkpt>
   <trkpt lon="-9.321802" lat="39.326998"><ele>59.75</ele></trkpt>
   <trkpt lon="-9.321565" lat="39.326431"><ele>59.75</ele></trkpt>
   <trkpt lon="-9.321526" lat="39.326374"><ele>60.0</ele></trkpt>
   <trkpt lon="-9.321131" lat="39.325801"><ele>60.75</ele></trkpt>
   <trkpt lon="-9.320295" lat="39.324390"><ele>65.0</ele></trkpt>
   <trkpt lon="-9.319741" lat="39.323399"><ele>65.0</ele></trkpt>
   <trkpt lon="-9.319513" lat="39.322425"><ele>64.5</ele></trkpt>
   <trkpt lon="-9.319321" lat="39.322089"><ele>64.5</ele></trkpt>
   <trkpt lon="-9.319025" lat="39.321107"><ele>67.5</ele></trkpt>
   <trkpt lon="-9.318558" lat="39.320276"><ele>70.0</ele></trkpt>
   <trkpt lon="-9.318363" lat="39.319663"><ele>68.75</ele><sym>pass_place</sym><type>Shaping</type></trkpt>
   <trkpt lon="-9.318237" lat="39.319366"><ele>69.0</ele></trkpt>
   <trkpt lon="-9.318156" lat="39.319176"><ele>69.5</ele></trkpt>
   <trkpt lon="-9.317907" lat="39.318731"><ele>70.5</ele></trkpt>
   <trkpt lon="-9.317756" lat="39.318277"><ele>72.25</ele><sym>right_slight</sym></trkpt>
   <trkpt lon="-9.317913" lat="39.318049"><ele>74.0</ele></trkpt>
   <trkpt lon="-9.317972" lat="39.317824"><ele>76.25</ele></trkpt>
   <trkpt lon="-9.317874" lat="39.316698"><ele>78.5</ele></trkpt>
   <trkpt lon="-9.317700" lat="39.316060"><ele>81.5</ele></trkpt>
   <trkpt lon="-9.317603" lat="39.315220"><ele>80.5</ele></trkpt>
   <trkpt lon="-9.317418" lat="39.314347"><ele>85.5</ele></trkpt>
   <trkpt lon="-9.317190" lat="39.313591"><ele>86.0</ele></trkpt>
   <trkpt lon="-9.317017" lat="39.312827"><ele>87.5</ele></trkpt>
   <trkpt lon="-9.316973" lat="39.312390"><ele>87.25</ele></trkpt>
   <trkpt lon="-9.317038" lat="39.311852"><ele>85.25</ele></trkpt>
   <trkpt lon="-9.317210" lat="39.311340"><ele>86.25</ele><sym>right_slight</sym></trkpt>
   <trkpt lon="-9.318823" lat="39.310232"><ele>79.75</ele></trkpt>
   <trkpt lon="-9.318871" lat="39.310062"><ele>79.25</ele></trkpt>
   <trkpt lon="-9.318949" lat="39.309971"><ele>78.25</ele></trkpt>
   <trkpt lon="-9.319046" lat="39.309896"><ele>77.5</ele></trkpt>
   <trkpt lon="-9.319147" lat="39.309867"><ele>76.5</ele></trkpt>
   <trkpt lon="-9.319838" lat="39.309866"><ele>76.75</ele></trkpt>
   <trkpt lon="-9.320211" lat="39.309934"><ele>78.5</ele></trkpt>
   <trkpt lon="-9.321271" lat="39.310152"><ele>78.5</ele></trkpt>
   <trkpt lon="-9.321572" lat="39.310156"><ele>76.75</ele></trkpt>
   <trkpt lon="-9.322078" lat="39.310374"><ele>75.75</ele></trkpt>
   <trkpt lon="-9.322904" lat="39.310769"><ele>75.75</ele></trkpt>
   <trkpt lon="-9.322998" lat="39.310805"><ele>75.75</ele></trkpt>
   <trkpt lon="-9.323085" lat="39.310814"><ele>76.0</ele></trkpt>
   <trkpt lon="-9.323167" lat="39.310801"><ele>76.0</ele><sym>left</sym></trkpt>
   <trkpt lon="-9.323098" lat="39.310669"><ele>76.5</ele></trkpt>
   <trkpt lon="-9.322755" lat="39.310002"><ele>78.75</ele></trkpt>
   <trkpt lon="-9.319834" lat="39.304322"><ele>99.25</ele></trkpt>
   <trkpt lon="-9.319833" lat="39.304319"><ele>101.25</ele><sym>pass_place</sym><type>Shaping</type></trkpt>
   <trkpt lon="-9.319712" lat="39.304078"><ele>101.25</ele></trkpt>
   <trkpt lon="-9.319122" lat="39.302900"><ele>105.5</ele></trkpt>
   <trkpt lon="-9.318864" lat="39.302386"><ele>106.25</ele></trkpt>
   <trkpt lon="-9.318705" lat="39.302100"><ele>106.0</ele></trkpt>
   <trkpt lon="-9.318496" lat="39.301691"><ele>108.0</ele></trkpt>
   <trkpt lon="-9.318461" lat="39.301622"><ele>108.75</ele></trkpt>
   <trkpt lon="-9.318408" lat="39.301517"><ele>109.75</ele></trkpt>
   <trkpt lon="-9.318206" lat="39.301131"><ele>110.75</ele></trkpt>
   <trkpt lon="-9.318059" lat="39.300857"><ele>111.0</ele></trkpt>
   <trkpt lon="-9.317960" lat="39.300664"><ele>110.25</ele></trkpt>
   <trkpt lon="-9.317827" lat="39.300395"><ele>108.75</ele></trkpt>
   <trkpt lon="-9.317710" lat="39.300166"><ele>107.5</ele></trkpt>
   <trkpt lon="-9.317384" lat="39.299526"><ele>109.25</ele></trkpt>
   <trkpt lon="-9.317352" lat="39.299468"><ele>109.75</ele></trkpt>
   <trkpt lon="-9.317246" lat="39.299260"><ele>110.5</ele></trkpt>
   <trkpt lon="-9.317186" lat="39.299143"><ele>110.75</ele></trkpt>
   <trkpt lon="-9.317105" lat="39.298984"><ele>110.5</ele></trkpt>
   <trkpt lon="-9.316914" lat="39.298607"><ele>109.75</ele></trkpt>
   <trkpt lon="-9.316839" lat="39.298461"><ele>109.0</ele></trkpt>
   <trkpt lon="-9.316126" lat="39.297040"><ele>113.5</ele></trkpt>
   <trkpt lon="-9.316091" lat="39.296974"><ele>113.75</ele></trkpt>
   <trkpt lon="-9.315932" lat="39.296648"><ele>114.25</ele></trkpt>
   <trkpt lon="-9.315906" lat="39.296577"><ele>114.5</ele></trkpt>
   <trkpt lon="-9.315812" lat="39.296289"><ele>115.0</ele></trkpt>
   <trkpt lon="-9.315749" lat="39.296058"><ele>114.75</ele></trkpt>
   <trkpt lon="-9.315695" lat="39.295792"><ele>113.75</ele></trkpt>
   <trkpt lon="-9.315651" lat="39.295565"><ele>112.5</ele></trkpt>
   <trkpt lon="-9.315576" lat="39.295057"><ele>112.75</ele></trkpt>
   <trkpt lon="-9.315557" lat="39.294827"><ele>112.75</ele></trkpt>
   <trkpt lon="-9.315549" lat="39.294676"><ele>112.75</ele></trkpt>
   <trkpt lon="-9.315558" lat="39.294256"><ele>110.5</ele></trkpt>
   <trkpt lon="-9.315588" lat="39.293803"><ele>109.0</ele></trkpt>
   <trkpt lon="-9.315652" lat="39.293383"><ele>110.0</ele></trkpt>
   <trkpt lon="-9.315733" lat="39.293015"><ele>109.0</ele></trkpt>
   <trkpt lon="-9.315788" lat="39.292830"><ele>108.25</ele></trkpt>
   <trkpt lon="-9.315818" lat="39.292710"><ele>107.25</ele></trkpt>
   <trkpt lon="-9.315968" lat="39.292290"><ele>104.0</ele></trkpt>
   <trkpt lon="-9.317449" lat="39.288801"><ele>90.5</ele></trkpt>
   <trkpt lon="-9.317450" lat="39.288798"><ele>89.75</ele><sym>pass_place</sym><type>Shaping</type></trkpt>
   <trkpt lon="-9.317489" lat="39.288707"><ele>89.75</ele></trkpt>
   <trkpt lon="-9.317703" lat="39.288200"><ele>86.75</ele></trkpt>
   <trkpt lon="-9.318159" lat="39.287122"><ele>83.0</ele></trkpt>
   <trkpt lon="-9.319295" lat="39.284437"><ele>78.75</ele></trkpt>
   <trkpt lon="-9.319436" lat="39.284105"><ele>77.5</ele></trkpt>
   <trkpt lon="-9.320950" lat="39.280533"><ele>65.75</ele></trkpt>
   <trkpt lon="-9.321467" lat="39.279314"><ele>63.75</ele></trkpt>
   <trkpt lon="-9.321583" lat="39.279050"><ele>65.25</ele></trkpt>
   <trkpt lon="-9.321944" lat="39.278191"><ele>65.75</ele></trkpt>
   <trkpt lon="-9.322075" lat="39.277988"><ele>64.75</ele></trkpt>
   <trkpt lon="-9.322474" lat="39.277373"><ele>62.5</ele></trkpt>
   <trkpt lon="-9.322746" lat="39.277000"><ele>60.25</ele></trkpt>
   <trkpt lon="-9.323037" lat="39.276602"><ele>58.5</ele></trkpt>
   <trkpt lon="-9.323073" lat="39.276552"><ele>58.0</ele></trkpt>
   <trkpt lon="-9.323159" lat="39.276435"><ele>57.5</ele></trkpt>
   <trkpt lon="-9.323324" lat="39.276209"><ele>56.5</ele></trkpt>
   <trkpt lon="-9.323944" lat="39.275361"><ele>57.0</ele></trkpt>
   <trkpt lon="-9.324627" lat="39.274426"><ele>50.25</ele></trkpt>
   <trkpt lon="-9.324877" lat="39.274083"><ele>48.25</ele></trkpt>
   <trkpt lon="-9.324896" lat="39.274058"><ele>48.25</ele></trkpt>
   <trkpt lon="-9.325137" lat="39.273728"><ele>47.25</ele><sym>pass_place</sym><type>Shaping</type></trkpt>
   <trkpt lon="-9.325417" lat="39.273344"><ele>45.75</ele></trkpt>
   <trkpt lon="-9.325685" lat="39.272977"><ele>43.0</ele></trkpt>
   <trkpt lon="-9.325846" lat="39.272627"><ele>41.75</ele></trkpt>
   <trkpt lon="-9.325872" lat="39.272301"><ele>40.25</ele></trkpt>
   <trkpt lon="-9.325770" lat="39.272030"><ele>38.75</ele></trkpt>
   <trkpt lon="-9.324781" lat="39.270122"><ele>29.75</ele></trkpt>
   <trkpt lon="-9.324685" lat="39.269861"><ele>28.5</ele></trkpt>
   <trkpt lon="-9.324678" lat="39.269646"><ele>26.75</ele></trkpt>
   <trkpt lon="-9.324700" lat="39.269408"><ele>26.0</ele></trkpt>
   <trkpt lon="-9.325120" lat="39.267935"><ele>18.0</ele></trkpt>
   <trkpt lon="-9.325217" lat="39.267714"><ele>17.5</ele></trkpt>
   <trkpt lon="-9.325345" lat="39.267524"><ele>17.0</ele></trkpt>
   <trkpt lon="-9.325486" lat="39.267360"><ele>16.0</ele></trkpt>
   <trkpt lon="-9.326306" lat="39.266563"><ele>9.75</ele></trkpt>
   <trkpt lon="-9.326806" lat="39.266122"><ele>8.5</ele></trkpt>
   <trkpt lon="-9.327041" lat="39.265900"><ele>8.75</ele></trkpt>
   <trkpt lon="-9.327395" lat="39.265502"><ele>10.0</ele></trkpt>
   <trkpt lon="-9.327547" lat="39.265374"><ele>10.75</ele></trkpt>
   <trkpt lon="-9.327629" lat="39.265263"><ele>11.75</ele></trkpt>
   <trkpt lon="-9.327702" lat="39.265126"><ele>11.5</ele></trkpt>
   <trkpt lon="-9.327745" lat="39.265026"><ele>11.0</ele></trkpt>
   <trkpt lon="-9.327764" lat="39.264831"><ele>9.5</ele></trkpt>
   <trkpt lon="-9.327766" lat="39.264722"><ele>8.75</ele></trkpt>
   <trkpt lon="-9.327760" lat="39.264653"><ele>8.0</ele></trkpt>
   <trkpt lon="-9.327700" lat="39.264489"><ele>6.25</ele></trkpt>
   <trkpt lon="-9.327598" lat="39.264321"><ele>5.5</ele></trkpt>
   <trkpt lon="-9.327394" lat="39.264102"><ele>5.25</ele></trkpt>
   <trkpt lon="-9.327260" lat="39.263983"><ele>5.75</ele></trkpt>
   <trkpt lon="-9.326195" lat="39.262949"><ele>5.5</ele></trkpt>
   <trkpt lon="-9.326168" lat="39.262932"><ele>5.75</ele></trkpt>
   <trkpt lon="-9.325961" lat="39.262697"><ele>6.5</ele></trkpt>
   <trkpt lon="-9.325773" lat="39.262483"><ele>7.0</ele></trkpt>
   <trkpt lon="-9.325704" lat="39.262361"><ele>7.0</ele></trkpt>
   <trkpt lon="-9.325675" lat="39.262311"><ele>7.25</ele></trkpt>
   <trkpt lon="-9.325627" lat="39.262142"><ele>7.75</ele></trkpt>
   <trkpt lon="-9.325589" lat="39.262009"><ele>8.5</ele></trkpt>
   <trkpt lon="-9.325580" lat="39.261918"><ele>9.0</ele></trkpt>
   <trkpt lon="-9.325574" lat="39.261860"><ele>9.25</ele></trkpt>
   <trkpt lon="-9.325586" lat="39.261709"><ele>10.25</ele></trkpt>
   <trkpt lon="-9.325607" lat="39.261589"><ele>11.25</ele></trkpt>
   <trkpt lon="-9.325661" lat="39.261411"><ele>13.0</ele></trkpt>
   <trkpt lon="-9.325744" lat="39.261225"><ele>14.0</ele></trkpt>
   <trkpt lon="-9.325843" lat="39.261044"><ele>14.25</ele></trkpt>
   <trkpt lon="-9.325980" lat="39.260795"><ele>14.5</ele></trkpt>
   <trkpt lon="-9.326025" lat="39.260667"><ele>14.5</ele></trkpt>
   <trkpt lon="-9.326036" lat="39.260533"><ele>15.0</ele></trkpt>
   <trkpt lon="-9.326018" lat="39.260410"><ele>15.0</ele></trkpt>
   <trkpt lon="-9.325953" lat="39.260261"><ele>15.5</ele></trkpt>
   <trkpt lon="-9.325920" lat="39.260202"><ele>15.5</ele></trkpt>
   <trkpt lon="-9.325488" lat="39.259766"><ele>18.0</ele></trkpt>
   <trkpt lon="-9.324583" lat="39.258918"><ele>19.25</ele><sym>pass_place</sym><type>Shaping</type></trkpt>
   <trkpt lon="-9.324582" lat="39.258918"><ele>19.25</ele></trkpt>
   <trkpt lon="-9.324365" lat="39.258772"><ele>18.75</ele></trkpt>
   <trkpt lon="-9.323915" lat="39.258603"><ele>15.75</ele></trkpt>
   <trkpt lon="-9.323466" lat="39.258449"><ele>14.25</ele></trkpt>
   <trkpt lon="-9.323231" lat="39.258382"><ele>13.5</ele></trkpt>
   <trkpt lon="-9.322975" lat="39.258356"><ele>13.75</ele></trkpt>
   <trkpt lon="-9.322739" lat="39.258389"><ele>15.5</ele></trkpt>
   <trkpt lon="-9.322502" lat="39.258395"><ele>16.25</ele></trkpt>
   <trkpt lon="-9.322432" lat="39.258385"><ele>15.75</ele></trkpt>
   <trkpt lon="-9.322362" lat="39.258362"><ele>15.0</ele></trkpt>
   <trkpt lon="-9.322316" lat="39.258351"><ele>14.5</ele></trkpt>
   <trkpt lon="-9.322173" lat="39.258255"><ele>13.5</ele></trkpt>
   <trkpt lon="-9.322080" lat="39.258144"><ele>13.25</ele></trkpt>
   <trkpt lon="-9.322029" lat="39.258033"><ele>12.5</ele></trkpt>
   <trkpt lon="-9.321919" lat="39.257667"><ele>13.0</ele></trkpt>
   <trkpt lon="-9.321731" lat="39.257466"><ele>14.25</ele></trkpt>
   <trkpt lon="-9.321302" lat="39.257119"><ele>16.5</ele></trkpt>
   <trkpt lon="-9.320974" lat="39.256937"><ele>17.25</ele></trkpt>
   <trkpt lon="-9.319584" lat="39.256266"><ele>15.5</ele></trkpt>
   <trkpt lon="-9.319400" lat="39.256163"><ele>16.5</ele></trkpt>
   <trkpt lon="-9.319286" lat="39.256071"><ele>16.0</ele></trkpt>
   <trkpt lon="-9.319162" lat="39.255931"><ele>16.25</ele></trkpt>
   <trkpt lon="-9.319073" lat="39.255675"><ele>15.75</ele></trkpt>
   <trkpt lon="-9.318968" lat="39.255235"><ele>14.5</ele></trkpt>
   <trkpt lon="-9.318883" lat="39.255079"><ele>15.25</ele></trkpt>
   <trkpt lon="-9.318790" lat="39.254951"><ele>16.25</ele></trkpt>
   <trkpt lon="-9.317908" lat="39.254244"><ele>15.5</ele></trkpt>
   <trkpt lon="-9.317555" lat="39.253973"><ele>15.5</ele></trkpt>
   <trkpt lon="-9.317343" lat="39.253811"><ele>15.5</ele></trkpt>
   <trkpt lon="-9.315416" lat="39.252334"><ele>12.0</ele></trkpt>
   <trkpt lon="-9.315331" lat="39.252269"><ele>12.5</ele></trkpt>
   <trkpt lon="-9.315220" lat="39.252167"><ele>12.5</ele></trkpt>
   <trkpt lon="-9.314906" lat="39.251740"><ele>11.5</ele></trkpt>
   <trkpt lon="-9.314735" lat="39.251493"><ele>11.75</ele></trkpt>
   <trkpt lon="-9.314662" lat="39.251406"><ele>11.75</ele></trkpt>
   <trkpt lon="-9.314618" lat="39.251370"><ele>11.75</ele></trkpt>
   <trkpt lon="-9.314451" lat="39.251250"><ele>12.25</ele></trkpt>
   <trkpt lon="-9.314101" lat="39.251036"><ele>11.25</ele></trkpt>
   <trkpt lon="-9.314020" lat="39.250956"><ele>10.75</ele></trkpt>
   <trkpt lon="-9.313981" lat="39.250901"><ele>10.25</ele></trkpt>
   <trkpt lon="-9.313934" lat="39.250835"><ele>9.75</ele><sym>roundabout_e1</sym></trkpt>
   <trkpt lon="-9.313930" lat="39.250798"><ele>9.5</ele></trkpt>
   <trkpt lon="-9.313914" lat="39.250763"><ele>9.25</ele></trkpt>
   <trkpt lon="-9.313887" lat="39.250732"><ele>9.25</ele></trkpt>
   <trkpt lon="-9.313851" lat="39.250707"><ele>9.25</ele></trkpt>
   <trkpt lon="-9.313808" lat="39.250690"><ele>9.25</ele></trkpt>
   <trkpt lon="-9.313761" lat="39.250682"><ele>9.5</ele></trkpt>
   <trkpt lon="-9.313717" lat="39.250683"><ele>9.75</ele></trkpt>
   <trkpt lon="-9.313631" lat="39.250668"><ele>10.25</ele></trkpt>
   <trkpt lon="-9.313537" lat="39.250642"><ele>10.5</ele></trkpt>
   <trkpt lon="-9.313415" lat="39.250595"><ele>10.75</ele></trkpt>
   <trkpt lon="-9.313352" lat="39.250562"><ele>10.75</ele></trkpt>
   <trkpt lon="-9.313175" lat="39.250449"><ele>11.25</ele></trkpt>
   <trkpt lon="-9.313013" lat="39.250340"><ele>10.5</ele></trkpt>
   <trkpt lon="-9.312891" lat="39.250240"><ele>9.75</ele></trkpt>
   <trkpt lon="-9.312830" lat="39.250181"><ele>9.5</ele></trkpt>
   <trkpt lon="-9.312766" lat="39.250103"><ele>9.25</ele></trkpt>
   <trkpt lon="-9.312640" lat="39.249909"><ele>9.25</ele></trkpt>
   <trkpt lon="-9.312597" lat="39.249857"><ele>9.25</ele></trkpt>
   <trkpt lon="-9.312552" lat="39.249749"><ele>9.5</ele></trkpt>
   <trkpt lon="-9.312499" lat="39.249613"><ele>10.0</ele></trkpt>
   <trkpt lon="-9.312465" lat="39.249490"><ele>10.25</ele></trkpt>
   <trkpt lon="-9.312440" lat="39.249353"><ele>11.0</ele></trkpt>
   <trkpt lon="-9.312423" lat="39.249185"><ele>12.25</ele></trkpt>
   <trkpt lon="-9.312431" lat="39.248986"><ele>12.0</ele></trkpt>
   <trkpt lon="-9.312523" lat="39.248383"><ele>9.0</ele><sym>roundabout_e1</sym></trkpt>
   <trkpt lon="-9.312555" lat="39.248380"><ele>8.75</ele></trkpt>
   <trkpt lon="-9.312584" lat="39.248370"><ele>8.5</ele></trkpt>
   <trkpt lon="-9.312608" lat="39.248352"><ele>8.25</ele></trkpt>
   <trkpt lon="-9.312623" lat="39.248330"><ele>8.0</ele></trkpt>
   <trkpt lon="-9.312628" lat="39.248305"><ele>8.0</ele></trkpt>
   <trkpt lon="-9.312623" lat="39.248280"><ele>8.0</ele></trkpt>
   <trkpt lon="-9.312607" lat="39.248258"><ele>8.25</ele></trkpt>
   <trkpt lon="-9.312583" lat="39.248241"><ele>8.5</ele></trkpt>
   <trkpt lon="-9.312554" lat="39.248231"><ele>8.5</ele></trkpt>
   <trkpt lon="-9.312737" lat="39.247528"><ele>9.0</ele></trkpt>
   <trkpt lon="-9.312846" lat="39.246981"><ele>10.25</ele></trkpt>
   <trkpt lon="-9.312847" lat="39.246978"><ele>10.25</ele><sym>pass_place</sym><type>Shaping</type></trkpt>
   <trkpt lon="-9.312872" lat="39.246868"><ele>10.5</ele></trkpt>
   <trkpt lon="-9.312894" lat="39.246777"><ele>10.75</ele></trkpt>
   <trkpt lon="-9.312899" lat="39.246480"><ele>10.75</ele><sym>roundabout_e2</sym></trkpt>
   <trkpt lon="-9.312928" lat="39.246468"><ele>11.0</ele></trkpt>
   <trkpt lon="-9.312949" lat="39.246449"><ele>11.25</ele></trkpt>
   <trkpt lon="-9.312961" lat="39.246425"><ele>11.25</ele></trkpt>
   <trkpt lon="-9.312962" lat="39.246400"><ele>11.5</ele></trkpt>
   <trkpt lon="-9.312952" lat="39.246376"><ele>11.5</ele></trkpt>
   <trkpt lon="-9.312933" lat="39.246356"><ele>11.5</ele></trkpt>
   <trkpt lon="-9.312907" lat="39.246343"><ele>11.25</ele></trkpt>
   <trkpt lon="-9.312874" lat="39.246337"><ele>11.0</ele></trkpt>
   <trkpt lon="-9.312847" lat="39.246338"><ele>11.0</ele></trkpt>
   <trkpt lon="-9.312819" lat="39.246347"><ele>11.0</ele></trkpt>
   <trkpt lon="-9.312417" lat="39.246045"><ele>7.5</ele></trkpt>
   <trkpt lon="-9.312278" lat="39.245904"><ele>7.0</ele></trkpt>
   <trkpt lon="-9.311817" lat="39.245499"><ele>7.5</ele></trkpt>
   <trkpt lon="-9.311541" lat="39.245337"><ele>8.5</ele></trkpt>
   <trkpt lon="-9.311356" lat="39.245227"><ele>9.0</ele></trkpt>
   <trkpt lon="-9.311216" lat="39.245124"><ele>9.5</ele></trkpt>
   <trkpt lon="-9.311135" lat="39.245063"><ele>9.75</ele></trkpt>
   <trkpt lon="-9.310919" lat="39.244909"><ele>10.25</ele></trkpt>
   <trkpt lon="-9.310841" lat="39.244822"><ele>10.25</ele></trkpt>
   <trkpt lon="-9.310669" lat="39.244631"><ele>10.0</ele></trkpt>
   <trkpt lon="-9.310568" lat="39.244453"><ele>10.0</ele></trkpt>
   <trkpt lon="-9.310517" lat="39.244335"><ele>10.0</ele></trkpt>
   <trkpt lon="-9.310077" lat="39.243445"><ele>10.5</ele></trkpt>
   <trkpt lon="-9.310052" lat="39.243393"><ele>10.25</ele></trkpt>
   <trkpt lon="-9.309462" lat="39.242381"><ele>10.75</ele></trkpt>
   <trkpt lon="-9.309264" lat="39.242132"><ele>12.0</ele><sym>roundabout_e3</sym></trkpt>
   <trkpt lon="-9.309302" lat="39.242095"><ele>12.0</ele></trkpt>
   <trkpt lon="-9.309323" lat="39.242050"><ele>12.0</ele></trkpt>
   <trkpt lon="-9.309322" lat="39.242002"><ele>11.75</ele></trkpt>
   <trkpt lon="-9.309301" lat="39.241957"><ele>12.0</ele></trkpt>
   <trkpt lon="-9.309265" lat="39.241922"><ele>11.75</ele></trkpt>
   <trkpt lon="-9.309216" lat="39.241897"><ele>11.75</ele></trkpt>
   <trkpt lon="-9.309160" lat="39.241886"><ele>11.75</ele></trkpt>
   <trkpt lon="-9.309102" lat="39.241889"><ele>11.5</ele></trkpt>
   <trkpt lon="-9.309048" lat="39.241906"><ele>11.25</ele></trkpt>
   <trkpt lon="-9.309003" lat="39.241936"><ele>11.25</ele></trkpt>
   <trkpt lon="-9.308972" lat="39.241976"><ele>11.25</ele></trkpt>
   <trkpt lon="-9.308961" lat="39.242022"><ele>11.25</ele></trkpt>
   <trkpt lon="-9.308969" lat="39.242068"><ele>11.25</ele></trkpt>
   <trkpt lon="-9.308996" lat="39.242110"><ele>11.25</ele></trkpt>
   <trkpt lon="-9.308788" lat="39.242224"><ele>10.5</ele></trkpt>
   <trkpt lon="-9.308750" lat="39.242244"><ele>10.5</ele></trkpt>
   <trkpt lon="-9.308171" lat="39.242552"><ele>13.5</ele></trkpt>
   <trkpt lon="-9.308055" lat="39.242595"><ele>14.0</ele><sym>left_slight</sym></trkpt>
   <trkpt lon="-9.307984" lat="39.242674"><ele>14.0</ele></trkpt>
   <trkpt lon="-9.307916" lat="39.242843"><ele>13.75</ele><sym>right_slight</sym></trkpt>
   <trkpt lon="-9.307773" lat="39.242983"><ele>14.0</ele></trkpt>
   <trkpt lon="-9.307573" lat="39.243111"><ele>14.75</ele></trkpt>
   <trkpt lon="-9.306927" lat="39.243385"><ele>17.5</ele></trkpt>
   <trkpt lon="-9.306772" lat="39.243493"><ele>19.25</ele></trkpt>
   <trkpt lon="-9.306479" lat="39.243749"><ele>21.5</ele></trkpt>
   <trkpt lon="-9.306404" lat="39.243784"><ele>21.75</ele></trkpt>
   <trkpt lon="-9.306327" lat="39.243820"><ele>22.25</ele></trkpt>
   <trkpt lon="-9.306026" lat="39.243924"><ele>24.0</ele></trkpt>
   <trkpt lon="-9.305452" lat="39.244057"><ele>28.5</ele></trkpt>
   <trkpt lon="-9.305130" lat="39.244074"><ele>32.5</ele></trkpt>
   <trkpt lon="-9.304809" lat="39.244132"><ele>35.75</ele></trkpt>
   <trkpt lon="-9.304471" lat="39.244306"><ele>37.0</ele><sym>left_slight</sym></trkpt>
   <trkpt lon="-9.304406" lat="39.244473"><ele>38.25</ele></trkpt>
   <trkpt lon="-9.304251" lat="39.244660"><ele>39.5</ele></trkpt>
   <trkpt lon="-9.304041" lat="39.244776"><ele>41.25</ele></trkpt>
   <trkpt lon="-9.303655" lat="39.244834"><ele>44.75</ele></trkpt>
   <trkpt lon="-9.303350" lat="39.244861"><ele>48.25</ele></trkpt>
   <trkpt lon="-9.303039" lat="39.244848"><ele>52.0</ele></trkpt>
   <trkpt lon="-9.302577" lat="39.245021"><ele>56.75</ele></trkpt>
   <trkpt lon="-9.302134" lat="39.245173"><ele>57.0</ele><sym>left_slight</sym></trkpt>
   <trkpt lon="-9.301780" lat="39.245448"><ele>58.5</ele><sym>pass_place</sym><type>Shaping</type></trkpt>
   <trkpt lon="-9.301778" lat="39.245449"><ele>58.5</ele></trkpt>
   <trkpt lon="-9.301130" lat="39.245786"><ele>62.25</ele></trkpt>
   <trkpt lon="-9.300625" lat="39.246037"><ele>61.0</ele></trkpt>
   <trkpt lon="-9.300307" lat="39.246226"><ele>59.5</ele></trkpt>
   <trkpt lon="-9.300238" lat="39.246267"><ele>59.5</ele></trkpt>
   <trkpt lon="-9.299664" lat="39.246712"><ele>58.5</ele></trkpt>
   <trkpt lon="-9.299412" lat="39.246799"><ele>58.25</ele></trkpt>
   <trkpt lon="-9.298630" lat="39.246917"><ele>53.5</ele></trkpt>
   <trkpt lon="-9.297792" lat="39.247119"><ele>53.25</ele></trkpt>
   <trkpt lon="-9.297121" lat="39.247339"><ele>54.0</ele></trkpt>
   <trkpt lon="-9.296677" lat="39.247538"><ele>55.5</ele></trkpt>
   <trkpt lon="-9.296484" lat="39.247518"><ele>55.75</ele><sym>left_slight</sym></trkpt>
   <trkpt lon="-9.295899" lat="39.247815"><ele>54.75</ele></trkpt>
   <trkpt lon="-9.295072" lat="39.248160"><ele>57.25</ele></trkpt>
   <trkpt lon="-9.291172" lat="39.249704"><ele>77.25</ele></trkpt>
   <trkpt lon="-9.291096" lat="39.249757"><ele>77.75</ele></trkpt>
   <trkpt lon="-9.290857" lat="39.249924"><ele>78.0</ele></trkpt>
   <trkpt lon="-9.290683" lat="39.250194"><ele>76.75</ele><sym>right</sym></trkpt>
   <trkpt lon="-9.290463" lat="39.250143"><ele>77.25</ele></trkpt>
   <trkpt lon="-9.290344" lat="39.250216"><ele>77.0</ele></trkpt>
   <trkpt lon="-9.290133" lat="39.250563"><ele>76.25</ele></trkpt>
   <trkpt lon="-9.289264" lat="39.251992"><ele>72.75</ele></trkpt>
   <trkpt lon="-9.288814" lat="39.252730"><ele>72.75</ele><sym>right_slight</sym></trkpt>
   <trkpt lon="-9.288661" lat="39.252754"><ele>72.0</ele></trkpt>
   <trkpt lon="-9.287651" lat="39.253154"><ele>64.75</ele></trkpt>
   <trkpt lon="-9.287445" lat="39.253295"><ele>63.25</ele></trkpt>
   <trkpt lon="-9.286900" lat="39.253867"><ele>58.25</ele></trkpt>
   <trkpt lon="-9.286737" lat="39.254207"><ele>54.0</ele></trkpt>
   <trkpt lon="-9.286731" lat="39.254697"><ele>52.25</ele></trkpt>
   <trkpt lon="-9.286674" lat="39.254789"><ele>52.0</ele></trkpt>
   <trkpt lon="-9.286479" lat="39.254873"><ele>51.25</ele><sym>left</sym></trkpt>
   <trkpt lon="-9.286611" lat="39.255079"><ele>51.5</ele><sym>pass_place</sym><type>Shaping</type></trkpt>
   <trkpt lon="-9.286612" lat="39.255081"><ele>51.5</ele><sym>right_slight</sym></trkpt>
   <trkpt lon="-9.286529" lat="39.255122"><ele>51.25</ele></trkpt>
   <trkpt lon="-9.286601" lat="39.255703"><ele>51.0</ele></trkpt>
   <trkpt lon="-9.286780" lat="39.256118"><ele>49.5</ele><sym>right_slight</sym></trkpt>
   <trkpt lon="-9.286773" lat="39.256216"><ele>49.0</ele></trkpt>
   <trkpt lon="-9.286812" lat="39.256577"><ele>47.25</ele></trkpt>
   <trkpt lon="-9.286769" lat="39.256816"><ele>46.25</ele></trkpt>
   <trkpt lon="-9.286681" lat="39.257002"><ele>45.5</ele></trkpt>
   <trkpt lon="-9.286673" lat="39.257018"><ele>45.5</ele></trkpt>
   <trkpt lon="-9.286552" lat="39.257724"><ele>44.25</ele></trkpt>
   <trkpt lon="-9.286603" lat="39.257842"><ele>43.75</ele><sym>right_slight</sym></trkpt>
   <trkpt lon="-9.285370" lat="39.259317"><ele>37.0</ele></trkpt>
   <trkpt lon="-9.285144" lat="39.259586"><ele>36.0</ele></trkpt>
   <trkpt lon="-9.285041" lat="39.259876"><ele>36.0</ele></trkpt>
   <trkpt lon="-9.285016" lat="39.261298"><ele>35.5</ele></trkpt>
   <trkpt lon="-9.285009" lat="39.261683"><ele>37.0</ele></trkpt>
   <trkpt lon="-9.285008" lat="39.262893"><ele>43.75</ele></trkpt>
   <trkpt lon="-9.285040" lat="39.263221"><ele>47.0</ele></trkpt>
   <trkpt lon="-9.285105" lat="39.263379"><ele>48.5</ele></trkpt>
   <trkpt lon="-9.285250" lat="39.263620"><ele>48.25</ele></trkpt>
   <trkpt lon="-9.286046" lat="39.264860"><ele>56.25</ele></trkpt>
   <trkpt lon="-9.286137" lat="39.265038"><ele>56.75</ele></trkpt>
   <trkpt lon="-9.286169" lat="39.265221"><ele>57.75</ele></trkpt>
   <trkpt lon="-9.286223" lat="39.266403"><ele>65.0</ele></trkpt>
   <trkpt lon="-9.286193" lat="39.266714"><ele>66.5</ele></trkpt>
   <trkpt lon="-9.286057" lat="39.267468"><ele>71.75</ele></trkpt>
   <trkpt lon="-9.285984" lat="39.267732"><ele>74.75</ele></trkpt>
   <trkpt lon="-9.285874" lat="39.267858"><ele>76.5</ele></trkpt>
   <trkpt lon="-9.285500" lat="39.268014"><ele>78.5</ele></trkpt>
   <trkpt lon="-9.285029" lat="39.268211"><ele>78.5</ele></trkpt>
   <trkpt lon="-9.284890" lat="39.268317"><ele>78.75</ele></trkpt>
   <trkpt lon="-9.284791" lat="39.268452"><ele>79.0</ele></trkpt>
   <trkpt lon="-9.284743" lat="39.268656"><ele>79.0</ele></trkpt>
   <trkpt lon="-9.284697" lat="39.269158"><ele>80.5</ele></trkpt>
   <trkpt lon="-9.284478" lat="39.269998"><ele>85.0</ele><sym>pass_place</sym><type>Shaping</type></trkpt>
   <trkpt lon="-9.284477" lat="39.270001"><ele>85.0</ele></trkpt>
   <trkpt lon="-9.284372" lat="39.270462"><ele>85.75</ele></trkpt>
   <trkpt lon="-9.284284" lat="39.270624"><ele>86.75</ele></trkpt>
   <trkpt lon="-9.284045" lat="39.270791"><ele>87.75</ele></trkpt>
   <trkpt lon="-9.283104" lat="39.271293"><ele>93.75</ele></trkpt>
   <trkpt lon="-9.282985" lat="39.271380"><ele>94.5</ele></trkpt>
   <trkpt lon="-9.282900" lat="39.271490"><ele>94.75</ele></trkpt>
   <trkpt lon="-9.282841" lat="39.271642"><ele>95.0</ele></trkpt>
   <trkpt lon="-9.282693" lat="39.272730"><ele>99.5</ele></trkpt>
   <trkpt lon="-9.282527" lat="39.273102"><ele>101.5</ele></trkpt>
   <trkpt lon="-9.282547" lat="39.273176"><ele>102.5</ele><sym>right</sym></trkpt>
   <trkpt lon="-9.282097" lat="39.273382"><ele>105.25</ele></trkpt>
   <trkpt lon="-9.281034" lat="39.273853"><ele>109.5</ele></trkpt>
   <trkpt lon="-9.280926" lat="39.273910"><ele>109.25</ele></trkpt>
   <trkpt lon="-9.280860" lat="39.273953"><ele>109.25</ele></trkpt>
   <trkpt lon="-9.280803" lat="39.274003"><ele>109.25</ele></trkpt>
   <trkpt lon="-9.280731" lat="39.274132"><ele>109.75</ele></trkpt>
   <trkpt lon="-9.280708" lat="39.274213"><ele>110.0</ele></trkpt>
   <trkpt lon="-9.280625" lat="39.274635"><ele>110.25</ele></trkpt>
   <trkpt lon="-9.280597" lat="39.274711"><ele>110.25</ele></trkpt>
   <trkpt lon="-9.280534" lat="39.274782"><ele>110.25</ele></trkpt>
   <trkpt lon="-9.280488" lat="39.274817"><ele>110.5</ele></trkpt>
   <trkpt lon="-9.280431" lat="39.274848"><ele>110.75</ele></trkpt>
   <trkpt lon="-9.280376" lat="39.274876"><ele>111.0</ele></trkpt>
   <trkpt lon="-9.280062" lat="39.274981"><ele>113.25</ele></trkpt>
   <trkpt lon="-9.279841" lat="39.275055"><ele>115.75</ele></trkpt>
   <trkpt lon="-9.279719" lat="39.275086"><ele>117.25</ele></trkpt>
   <trkpt lon="-9.279594" lat="39.275106"><ele>118.0</ele></trkpt>
   <trkpt lon="-9.279495" lat="39.275108"><ele>118.5</ele></trkpt>
   <trkpt lon="-9.279395" lat="39.275099"><ele>119.0</ele></trkpt>
   <trkpt lon="-9.279099" lat="39.275037"><ele>120.0</ele></trkpt>
   <trkpt lon="-9.278802" lat="39.274976"><ele>121.5</ele></trkpt>
   <trkpt lon="-9.278682" lat="39.274971"><ele>122.25</ele></trkpt>
   <trkpt lon="-9.278603" lat="39.274983"><ele>123.0</ele></trkpt>
   <trkpt lon="-9.278536" lat="39.275009"><ele>123.5</ele></trkpt>
   <trkpt lon="-9.278440" lat="39.275064"><ele>124.0</ele></trkpt>
   <trkpt lon="-9.278346" lat="39.275132"><ele>124.75</ele></trkpt>
   <trkpt lon="-9.278073" lat="39.275357"><ele>128.0</ele></trkpt>
   <trkpt lon="-9.277974" lat="39.275440"><ele>128.5</ele></trkpt>
   <trkpt lon="-9.277902" lat="39.275480"><ele>128.25</ele></trkpt>
   <trkpt lon="-9.277812" lat="39.275498"><ele>128.25</ele></trkpt>
   <trkpt lon="-9.277729" lat="39.275496"><ele>128.0</ele></trkpt>
   <trkpt lon="-9.277651" lat="39.275478"><ele>128.25</ele></trkpt>
   <trkpt lon="-9.277573" lat="39.275443"><ele>128.25</ele></trkpt>
   <trkpt lon="-9.277479" lat="39.275375"><ele>128.5</ele></trkpt>
   <trkpt lon="-9.277381" lat="39.275283"><ele>128.75</ele></trkpt>
   <trkpt lon="-9.277315" lat="39.275199"><ele>129.25</ele></trkpt>
   <trkpt lon="-9.277111" lat="39.274887"><ele>129.75</ele></trkpt>
   <trkpt lon="-9.277064" lat="39.274815"><ele>129.5</ele></trkpt>
   <trkpt lon="-9.276888" lat="39.274552"><ele>127.5</ele></trkpt>
   <trkpt lon="-9.276849" lat="39.274494"><ele>127.0</ele></trkpt>
   <trkpt lon="-9.275971" lat="39.273204"><ele>127.5</ele></trkpt>
   <trkpt lon="-9.275868" lat="39.273046"><ele>127.0</ele></trkpt>
   <trkpt lon="-9.275806" lat="39.272981"><ele>127.25</ele></trkpt>
   <trkpt lon="-9.275737" lat="39.272923"><ele>127.25</ele></trkpt>
   <trkpt lon="-9.275665" lat="39.272876"><ele>127.5</ele></trkpt>
   <trkpt lon="-9.275577" lat="39.272846"><ele>127.75</ele></trkpt>
   <trkpt lon="-9.275475" lat="39.272822"><ele>128.0</ele></trkpt>
   <trkpt lon="-9.275345" lat="39.272815"><ele>128.5</ele></trkpt>
   <trkpt lon="-9.275205" lat="39.272828"><ele>129.25</ele></trkpt>
   <trkpt lon="-9.274029" lat="39.273007"><ele>133.0</ele></trkpt>
   <trkpt lon="-9.273081" lat="39.273160"><ele>131.25</ele></trkpt>
   <trkpt lon="-9.269352" lat="39.273740"><ele>135.0</ele><sym>pass_place</sym><type>Shaping</type></trkpt>
   <trkpt lon="-9.269348" lat="39.273741"><ele>135.0</ele></trkpt>
   <trkpt lon="-9.269217" lat="39.273767"><ele>135.5</ele></trkpt>
   <trkpt lon="-9.269086" lat="39.273796"><ele>135.75</ele></trkpt>
   <trkpt lon="-9.268960" lat="39.273839"><ele>136.0</ele></trkpt>
   <trkpt lon="-9.268824" lat="39.273896"><ele>136.5</ele></trkpt>
   <trkpt lon="-9.268301" lat="39.274197"><ele>139.75</ele></trkpt>
   <trkpt lon="-9.268160" lat="39.274272"><ele>139.0</ele></trkpt>
   <trkpt lon="-9.266607" lat="39.275208"><ele>141.25</ele></trkpt>
   <trkpt lon="-9.266132" lat="39.275491"><ele>141.5</ele></trkpt>
   <trkpt lon="-9.266005" lat="39.275559"><ele>140.5</ele></trkpt>
   <trkpt lon="-9.265923" lat="39.275592"><ele>140.25</ele></trkpt>
   <trkpt lon="-9.265666" lat="39.275671"><ele>140.75</ele></trkpt>
   <trkpt lon="-9.264458" lat="39.275978"><ele>138.5</ele></trkpt>
   <trkpt lon="-9.263194" lat="39.276298"><ele>137.0</ele></trkpt>
   <trkpt lon="-9.260913" lat="39.276887"><ele>134.5</ele></trkpt>
   <trkpt lon="-9.258991" lat="39.277381"><ele>144.5</ele></trkpt>
   <trkpt lon="-9.258658" lat="39.277481"><ele>144.75</ele></trkpt>
   <trkpt lon="-9.258478" lat="39.277550"><ele>145.25</ele></trkpt>
   <trkpt lon="-9.258334" lat="39.277613"><ele>145.75</ele></trkpt>
   <trkpt lon="-9.258209" lat="39.277669"><ele>146.0</ele></trkpt>
   <trkpt lon="-9.257961" lat="39.277776"><ele>146.0</ele></trkpt>
   <trkpt lon="-9.257848" lat="39.277807"><ele>145.75</ele></trkpt>
   <trkpt lon="-9.257724" lat="39.277824"><ele>145.75</ele></trkpt>
   <trkpt lon="-9.257602" lat="39.277827"><ele>145.5</ele></trkpt>
   <trkpt lon="-9.257180" lat="39.277823"><ele>145.5</ele></trkpt>
   <trkpt lon="-9.255324" lat="39.277818"><ele>143.5</ele></trkpt>
   <trkpt lon="-9.255091" lat="39.277818"><ele>144.25</ele></trkpt>
   <trkpt lon="-9.254916" lat="39.277816"><ele>144.5</ele></trkpt>
   <trkpt lon="-9.254698" lat="39.277814"><ele>144.0</ele></trkpt>
   <trkpt lon="-9.253943" lat="39.277814"><ele>145.0</ele></trkpt>
   <trkpt lon="-9.253786" lat="39.277823"><ele>144.5</ele></trkpt>
   <trkpt lon="-9.253117" lat="39.277912"><ele>141.0</ele></trkpt>
   <trkpt lon="-9.250778" lat="39.278246"><ele>139.0</ele></trkpt>
   <trkpt lon="-9.249333" lat="39.278455"><ele>140.25</ele></trkpt>
   <trkpt lon="-9.249330" lat="39.278455"><ele>139.0</ele><sym>pass_place</sym><type>Shaping</type></trkpt>
   <trkpt lon="-9.246615" lat="39.278848"><ele>139.0</ele></trkpt>
   <trkpt lon="-9.246480" lat="39.278867"><ele>139.5</ele></trkpt>
   <trkpt lon="-9.246319" lat="39.278891"><ele>140.5</ele></trkpt>
   <trkpt lon="-9.244479" lat="39.279142"><ele>148.75</ele></trkpt>
   <trkpt lon="-9.244322" lat="39.279162"><ele>148.5</ele></trkpt>
   <trkpt lon="-9.239818" lat="39.279800"><ele>148.5</ele></trkpt>
   <trkpt lon="-9.239392" lat="39.279861"><ele>148.5</ele></trkpt>
   <trkpt lon="-9.238065" lat="39.280049"><ele>151.5</ele></trkpt>
   <trkpt lon="-9.238007" lat="39.280058"><ele>151.5</ele></trkpt>
   <trkpt lon="-9.236372" lat="39.280293"><ele>147.75</ele></trkpt>
   <trkpt lon="-9.235342" lat="39.280438"><ele>154.25</ele></trkpt>
   <trkpt lon="-9.234668" lat="39.280535"><ele>158.5</ele></trkpt>
   <trkpt lon="-9.234334" lat="39.280603"><ele>157.25</ele></trkpt>
   <trkpt lon="-9.233518" lat="39.280794"><ele>156.5</ele></trkpt>
   <trkpt lon="-9.232844" lat="39.280962"><ele>158.0</ele></trkpt>
   <trkpt lon="-9.231710" lat="39.281231"><ele>161.25</ele></trkpt>
   <trkpt lon="-9.231569" lat="39.281253"><ele>161.0</ele></trkpt>
   <trkpt lon="-9.231438" lat="39.281254"><ele>160.5</ele></trkpt>
   <trkpt lon="-9.231317" lat="39.281240"><ele>160.0</ele></trkpt>
   <trkpt lon="-9.231200" lat="39.281209"><ele>159.5</ele></trkpt>
   <trkpt lon="-9.230595" lat="39.280960"><ele>157.0</ele></trkpt>
   <trkpt lon="-9.230459" lat="39.280892"><ele>156.5</ele></trkpt>
   <trkpt lon="-9.230342" lat="39.280824"><ele>155.5</ele></trkpt>
   <trkpt lon="-9.230239" lat="39.280748"><ele>154.75</ele></trkpt>
   <trkpt lon="-9.229537" lat="39.280142"><ele>150.5</ele></trkpt>
   <trkpt lon="-9.229437" lat="39.280069"><ele>150.5</ele></trkpt>
   <trkpt lon="-9.229332" lat="39.280008"><ele>150.75</ele><sym>pass_place</sym><type>Shaping</type></trkpt>
   <trkpt lon="-9.229330" lat="39.280008"><ele>150.75</ele></trkpt>
   <trkpt lon="-9.229226" lat="39.279965"><ele>151.0</ele></trkpt>
   <trkpt lon="-9.229128" lat="39.279945"><ele>151.0</ele></trkpt>
   <trkpt lon="-9.229037" lat="39.279942"><ele>151.0</ele></trkpt>
   <trkpt lon="-9.228941" lat="39.279951"><ele>151.0</ele></trkpt>
   <trkpt lon="-9.228847" lat="39.279970"><ele>151.0</ele></trkpt>
   <trkpt lon="-9.228754" lat="39.280008"><ele>150.75</ele></trkpt>
   <trkpt lon="-9.228571" lat="39.280123"><ele>150.5</ele></trkpt>
   <trkpt lon="-9.227255" lat="39.281204"><ele>153.5</ele></trkpt>
   <trkpt lon="-9.227167" lat="39.281269"><ele>153.25</ele></trkpt>
   <trkpt lon="-9.227059" lat="39.281333"><ele>153.0</ele></trkpt>
   <trkpt lon="-9.226963" lat="39.281388"><ele>153.0</ele></trkpt>
   <trkpt lon="-9.224954" lat="39.282313"><ele>154.75</ele></trkpt>
   <trkpt lon="-9.224759" lat="39.282408"><ele>155.0</ele></trkpt>
   <trkpt lon="-9.224647" lat="39.282431"><ele>155.5</ele></trkpt>
   <trkpt lon="-9.224594" lat="39.282442"><ele>155.75</ele><sym>roundabout_e2</sym></trkpt>
   <trkpt lon="-9.224568" lat="39.282431"><ele>155.75</ele></trkpt>
   <trkpt lon="-9.224516" lat="39.282429"><ele>156.0</ele></trkpt>
   <trkpt lon="-9.224470" lat="39.282449"><ele>156.25</ele></trkpt>
   <trkpt lon="-9.224454" lat="39.282465"><ele>156.0</ele></trkpt>
   <trkpt lon="-9.224442" lat="39.282505"><ele>155.75</ele></trkpt>
   <trkpt lon="-9.224329" lat="39.282614"><ele>155.25</ele></trkpt>
   <trkpt lon="-9.224255" lat="39.282666"><ele>154.75</ele></trkpt>
   <trkpt lon="-9.224202" lat="39.282718"><ele>154.5</ele></trkpt>
   <trkpt lon="-9.224174" lat="39.282760"><ele>154.0</ele></trkpt>
   <trkpt lon="-9.224151" lat="39.282813"><ele>153.75</ele></trkpt>
   <trkpt lon="-9.224132" lat="39.282884"><ele>153.75</ele></trkpt>
   <trkpt lon="-9.224089" lat="39.283188"><ele>152.0</ele></trkpt>
   <trkpt lon="-9.224065" lat="39.283265"><ele>151.0</ele></trkpt>
   <trkpt lon="-9.224034" lat="39.283328"><ele>150.0</ele></trkpt>
   <trkpt lon="-9.223983" lat="39.283391"><ele>149.0</ele></trkpt>
   <trkpt lon="-9.223892" lat="39.283464"><ele>147.5</ele></trkpt>
   <trkpt lon="-9.223805" lat="39.283521"><ele>145.75</ele></trkpt>
   <trkpt lon="-9.223659" lat="39.283600"><ele>143.5</ele></trkpt>
   <trkpt lon="-9.223591" lat="39.283622"><ele>142.5</ele></trkpt>
   <trkpt lon="-9.223516" lat="39.283638"><ele>142.0</ele></trkpt>
   <trkpt lon="-9.223446" lat="39.283639"><ele>141.5</ele></trkpt>
   <trkpt lon="-9.223364" lat="39.283628"><ele>141.0</ele></trkpt>
   <trkpt lon="-9.223274" lat="39.283600"><ele>140.75</ele></trkpt>
   <trkpt lon="-9.222808" lat="39.283430"><ele>140.0</ele></trkpt>
   <trkpt lon="-9.222723" lat="39.283413"><ele>140.0</ele></trkpt>
   <trkpt lon="-9.222632" lat="39.283407"><ele>140.0</ele></trkpt>
   <trkpt lon="-9.222543" lat="39.283417"><ele>140.0</ele></trkpt>
   <trkpt lon="-9.222445" lat="39.283445"><ele>139.75</ele></trkpt>
   <trkpt lon="-9.222325" lat="39.283498"><ele>139.75</ele></trkpt>
   <trkpt lon="-9.221799" lat="39.283826"><ele>136.0</ele></trkpt>
   <trkpt lon="-9.221605" lat="39.283905"><ele>134.5</ele></trkpt>
   <trkpt lon="-9.221506" lat="39.283924"><ele>134.0</ele></trkpt>
   <trkpt lon="-9.221395" lat="39.283936"><ele>133.5</ele></trkpt>
   <trkpt lon="-9.221240" lat="39.283931"><ele>133.5</ele></trkpt>
   <trkpt lon="-9.221083" lat="39.283933"><ele>133.5</ele></trkpt>
   <trkpt lon="-9.220930" lat="39.283948"><ele>133.5</ele></trkpt>
   <trkpt lon="-9.220711" lat="39.284014"><ele>133.25</ele></trkpt>
   <trkpt lon="-9.220600" lat="39.284072"><ele>132.5</ele></trkpt>
   <trkpt lon="-9.220503" lat="39.284136"><ele>131.5</ele></trkpt>
   <trkpt lon="-9.220139" lat="39.284408"><ele>128.25</ele></trkpt>
   <trkpt lon="-9.219813" lat="39.284650"><ele>127.75</ele></trkpt>
   <trkpt lon="-9.219700" lat="39.284741"><ele>126.75</ele><sym>left</sym></trkpt>
   <trkpt lon="-9.219860" lat="39.284883"><ele>126.0</ele><sym>right_slight</sym></trkpt>
   <trkpt lon="-9.219787" lat="39.285144"><ele>124.0</ele></trkpt>
   <trkpt lon="-9.219676" lat="39.285428"><ele>123.5</ele></trkpt>
   <trkpt lon="-9.219548" lat="39.285679"><ele>123.5</ele></trkpt>
   <trkpt lon="-9.219417" lat="39.285887"><ele>123.25</ele><sym>right_slight</sym></trkpt>
   <trkpt lon="-9.219125" lat="39.286040"><ele>123.0</ele></trkpt>
   <trkpt lon="-9.218971" lat="39.286128"><ele>123.25</ele><sym>u-turn_right</sym></trkpt>
   <trkpt lon="-9.218970" lat="39.286128"><ele>123.75</ele><sym>pass_place</sym><type>Shaping</type></trkpt>
   <trkpt lon="-9.218971" lat="39.286128"><ele>123.25</ele></trkpt>
   <trkpt lon="-9.219125" lat="39.286040"><ele>123.0</ele></trkpt>
   <trkpt lon="-9.219417" lat="39.285887"><ele>123.25</ele></trkpt>
   <trkpt lon="-9.219548" lat="39.285679"><ele>123.5</ele></trkpt>
   <trkpt lon="-9.219676" lat="39.285428"><ele>123.5</ele></trkpt>
   <trkpt lon="-9.219787" lat="39.285144"><ele>124.0</ele></trkpt>
   <trkpt lon="-9.219860" lat="39.284883"><ele>126.0</ele></trkpt>
   <trkpt lon="-9.219879" lat="39.284790"><ele>126.75</ele></trkpt>
   <trkpt lon="-9.219878" lat="39.284736"><ele>127.25</ele></trkpt>
   <trkpt lon="-9.219853" lat="39.284697"><ele>127.5</ele></trkpt>
   <trkpt lon="-9.219813" lat="39.284650"><ele>127.75</ele><sym>right</sym></trkpt>
   <trkpt lon="-9.220139" lat="39.284408"><ele>128.25</ele></trkpt>
   <trkpt lon="-9.220503" lat="39.284136"><ele>131.5</ele></trkpt>
   <trkpt lon="-9.220600" lat="39.284072"><ele>132.5</ele></trkpt>
   <trkpt lon="-9.220711" lat="39.284014"><ele>133.25</ele></trkpt>
   <trkpt lon="-9.220930" lat="39.283948"><ele>133.5</ele></trkpt>
   <trkpt lon="-9.221083" lat="39.283933"><ele>133.5</ele></trkpt>
   <trkpt lon="-9.221240" lat="39.283931"><ele>133.5</ele></trkpt>
   <trkpt lon="-9.221395" lat="39.283936"><ele>133.5</ele></trkpt>
   <trkpt lon="-9.221506" lat="39.283924"><ele>134.0</ele></trkpt>
   <trkpt lon="-9.221605" lat="39.283905"><ele>134.5</ele></trkpt>
   <trkpt lon="-9.221799" lat="39.283826"><ele>136.0</ele></trkpt>
   <trkpt lon="-9.222325" lat="39.283498"><ele>139.75</ele></trkpt>
   <trkpt lon="-9.222445" lat="39.283445"><ele>139.75</ele></trkpt>
   <trkpt lon="-9.222543" lat="39.283417"><ele>140.0</ele></trkpt>
   <trkpt lon="-9.222632" lat="39.283407"><ele>140.0</ele></trkpt>
   <trkpt lon="-9.222723" lat="39.283413"><ele>140.0</ele></trkpt>
   <trkpt lon="-9.222808" lat="39.283430"><ele>140.0</ele></trkpt>
   <trkpt lon="-9.223274" lat="39.283600"><ele>140.75</ele></trkpt>
   <trkpt lon="-9.223364" lat="39.283628"><ele>141.0</ele></trkpt>
   <trkpt lon="-9.223446" lat="39.283639"><ele>141.5</ele></trkpt>
   <trkpt lon="-9.223516" lat="39.283638"><ele>142.0</ele></trkpt>
   <trkpt lon="-9.223591" lat="39.283622"><ele>142.5</ele></trkpt>
   <trkpt lon="-9.223659" lat="39.283600"><ele>143.5</ele></trkpt>
   <trkpt lon="-9.223805" lat="39.283521"><ele>145.75</ele></trkpt>
   <trkpt lon="-9.223892" lat="39.283464"><ele>147.5</ele></trkpt>
   <trkpt lon="-9.223983" lat="39.283391"><ele>149.0</ele></trkpt>
   <trkpt lon="-9.224034" lat="39.283328"><ele>150.0</ele></trkpt>
   <trkpt lon="-9.224065" lat="39.283265"><ele>151.0</ele></trkpt>
   <trkpt lon="-9.224089" lat="39.283188"><ele>152.0</ele></trkpt>
   <trkpt lon="-9.224132" lat="39.282884"><ele>153.75</ele></trkpt>
   <trkpt lon="-9.224151" lat="39.282813"><ele>153.75</ele></trkpt>
   <trkpt lon="-9.224174" lat="39.282760"><ele>154.0</ele></trkpt>
   <trkpt lon="-9.224202" lat="39.282718"><ele>154.5</ele></trkpt>
   <trkpt lon="-9.224255" lat="39.282666"><ele>154.75</ele></trkpt>
   <trkpt lon="-9.224329" lat="39.282614"><ele>155.25</ele></trkpt>
   <trkpt lon="-9.224430" lat="39.282582"><ele>155.5</ele></trkpt>
   <trkpt lon="-9.224487" lat="39.282563"><ele>155.5</ele><sym>roundabout_e2</sym></trkpt>
   <trkpt lon="-9.224515" lat="39.282572"><ele>155.5</ele></trkpt>
   <trkpt lon="-9.224570" lat="39.282570"><ele>155.25</ele></trkpt>
   <trkpt lon="-9.224594" lat="39.282559"><ele>155.25</ele></trkpt>
   <trkpt lon="-9.224613" lat="39.282545"><ele>155.25</ele></trkpt>
   <trkpt lon="-9.224631" lat="39.282508"><ele>155.25</ele></trkpt>
   <trkpt lon="-9.224759" lat="39.282408"><ele>155.0</ele></trkpt>
   <trkpt lon="-9.224954" lat="39.282313"><ele>154.75</ele></trkpt>
   <trkpt lon="-9.226963" lat="39.281388"><ele>153.0</ele></trkpt>
   <trkpt lon="-9.227059" lat="39.281333"><ele>153.0</ele></trkpt>
   <trkpt lon="-9.227167" lat="39.281269"><ele>153.25</ele></trkpt>
   <trkpt lon="-9.227255" lat="39.281204"><ele>153.5</ele></trkpt>
   <trkpt lon="-9.228571" lat="39.280123"><ele>150.5</ele></trkpt>
   <trkpt lon="-9.228754" lat="39.280008"><ele>150.75</ele></trkpt>
   <trkpt lon="-9.228847" lat="39.279970"><ele>151.0</ele></trkpt>
   <trkpt lon="-9.228941" lat="39.279951"><ele>151.0</ele></trkpt>
   <trkpt lon="-9.229037" lat="39.279942"><ele>151.0</ele></trkpt>
   <trkpt lon="-9.229128" lat="39.279945"><ele>151.0</ele></trkpt>
   <trkpt lon="-9.229226" lat="39.279965"><ele>151.0</ele></trkpt>
   <trkpt lon="-9.229330" lat="39.280008"><ele>150.75</ele></trkpt>
   <trkpt lon="-9.229437" lat="39.280069"><ele>150.5</ele></trkpt>
   <trkpt lon="-9.229537" lat="39.280142"><ele>150.5</ele></trkpt>
   <trkpt lon="-9.230239" lat="39.280748"><ele>154.75</ele></trkpt>
   <trkpt lon="-9.230342" lat="39.280824"><ele>155.5</ele></trkpt>
   <trkpt lon="-9.230459" lat="39.280892"><ele>156.5</ele></trkpt>
   <trkpt lon="-9.230595" lat="39.280960"><ele>157.0</ele></trkpt>
   <trkpt lon="-9.231200" lat="39.281209"><ele>159.5</ele></trkpt>
   <trkpt lon="-9.231317" lat="39.281240"><ele>160.0</ele></trkpt>
   <trkpt lon="-9.231438" lat="39.281254"><ele>160.5</ele></trkpt>
   <trkpt lon="-9.231569" lat="39.281253"><ele>161.0</ele></trkpt>
   <trkpt lon="-9.231710" lat="39.281231"><ele>161.25</ele></trkpt>
   <trkpt lon="-9.232844" lat="39.280962"><ele>158.0</ele></trkpt>
   <trkpt lon="-9.233518" lat="39.280794"><ele>156.5</ele></trkpt>
   <trkpt lon="-9.234334" lat="39.280603"><ele>157.25</ele></trkpt>
   <trkpt lon="-9.234668" lat="39.280535"><ele>158.5</ele></trkpt>
   <trkpt lon="-9.235341" lat="39.280438"><ele>154.25</ele><sym>pass_place</sym><type>Shaping</type></trkpt>
   <trkpt lon="-9.235342" lat="39.280438"><ele>154.25</ele><sym>right</sym></trkpt>
   <trkpt lon="-9.235353" lat="39.280484"><ele>154.75</ele></trkpt>
   <trkpt lon="-9.235547" lat="39.281222"><ele>155.5</ele></trkpt>
   <trkpt lon="-9.235595" lat="39.281600"><ele>155.25</ele></trkpt>
   <trkpt lon="-9.235605" lat="39.281826"><ele>155.25</ele></trkpt>
   <trkpt lon="-9.235517" lat="39.284067"><ele>157.0</ele></trkpt>
   <trkpt lon="-9.235519" lat="39.284209"><ele>158.0</ele></trkpt>
   <trkpt lon="-9.235532" lat="39.284338"><ele>158.25</ele></trkpt>
   <trkpt lon="-9.235601" lat="39.284671"><ele>157.5</ele></trkpt>
   <trkpt lon="-9.235644" lat="39.284825"><ele>157.5</ele></trkpt>
   <trkpt lon="-9.236255" lat="39.286778"><ele>162.75</ele></trkpt>
   <trkpt lon="-9.236290" lat="39.286894"><ele>162.75</ele></trkpt>
   <trkpt lon="-9.236551" lat="39.287799"><ele>163.5</ele></trkpt>
   <trkpt lon="-9.236585" lat="39.287899"><ele>163.5</ele></trkpt>
   <trkpt lon="-9.236659" lat="39.288065"><ele>163.75</ele></trkpt>
   <trkpt lon="-9.236662" lat="39.288069"><ele>162.75</ele><sym>pass_place</sym><type>Shaping</type></trkpt>
   <trkpt lon="-9.236778" lat="39.288252"><ele>162.75</ele></trkpt>
   <trkpt lon="-9.236856" lat="39.288345"><ele>162.25</ele></trkpt>
   <trkpt lon="-9.236955" lat="39.288449"><ele>162.0</ele></trkpt>
   <trkpt lon="-9.237291" lat="39.288732"><ele>162.25</ele></trkpt>
   <trkpt lon="-9.238342" lat="39.289585"><ele>155.75</ele></trkpt>
   <trkpt lon="-9.238428" lat="39.289677"><ele>155.25</ele></trkpt>
   <trkpt lon="-9.238490" lat="39.289756"><ele>154.5</ele></trkpt>
   <trkpt lon="-9.238544" lat="39.289846"><ele>154.0</ele></trkpt>
   <trkpt lon="-9.238582" lat="39.289928"><ele>153.25</ele></trkpt>
   <trkpt lon="-9.238613" lat="39.290024"><ele>153.0</ele></trkpt>
   <trkpt lon="-9.238636" lat="39.290125"><ele>153.0</ele></trkpt>
   <trkpt lon="-9.238896" lat="39.291726"><ele>149.0</ele></trkpt>
   <trkpt lon="-9.238970" lat="39.292264"><ele>149.75</ele></trkpt>
   <trkpt lon="-9.239005" lat="39.292522"><ele>149.25</ele></trkpt>
   <trkpt lon="-9.239071" lat="39.292957"><ele>149.25</ele></trkpt>
   <trkpt lon="-9.239118" lat="39.293132"><ele>149.0</ele></trkpt>
   <trkpt lon="-9.239172" lat="39.293242"><ele>148.75</ele></trkpt>
   <trkpt lon="-9.239788" lat="39.294179"><ele>147.75</ele></trkpt>
   <trkpt lon="-9.239911" lat="39.294395"><ele>148.75</ele></trkpt>
   <trkpt lon="-9.239974" lat="39.294530"><ele>150.25</ele></trkpt>
   <trkpt lon="-9.240048" lat="39.294742"><ele>152.0</ele></trkpt>
   <trkpt lon="-9.240066" lat="39.294835"><ele>152.0</ele></trkpt>
   <trkpt lon="-9.240075" lat="39.294949"><ele>152.25</ele></trkpt>
   <trkpt lon="-9.240073" lat="39.295058"><ele>152.25</ele></trkpt>
   <trkpt lon="-9.239894" lat="39.296479"><ele>150.25</ele></trkpt>
   <trkpt lon="-9.239783" lat="39.297362"><ele>152.75</ele></trkpt>
   <trkpt lon="-9.239741" lat="39.297854"><ele>152.5</ele></trkpt>
   <trkpt lon="-9.239732" lat="39.298095"><ele>151.75</ele></trkpt>
   <trkpt lon="-9.239723" lat="39.298312"><ele>151.0</ele></trkpt>
   <trkpt lon="-9.239714" lat="39.298564"><ele>151.0</ele></trkpt>
   <trkpt lon="-9.239714" lat="39.298733"><ele>151.25</ele></trkpt>
   <trkpt lon="-9.239713" lat="39.299058"><ele>152.5</ele></trkpt>
   <trkpt lon="-9.239687" lat="39.301051"><ele>151.0</ele></trkpt>
   <trkpt lon="-9.239683" lat="39.301343"><ele>151.75</ele></trkpt>
   <trkpt lon="-9.239675" lat="39.301377"><ele>151.75</ele></trkpt>
   <trkpt lon="-9.239640" lat="39.301441"><ele>152.0</ele></trkpt>
   <trkpt lon="-9.239608" lat="39.301473"><ele>152.0</ele></trkpt>
   <trkpt lon="-9.239467" lat="39.301581"><ele>152.5</ele></trkpt>
   <trkpt lon="-9.239438" lat="39.301612"><ele>152.75</ele></trkpt>
   <trkpt lon="-9.239416" lat="39.301644"><ele>152.75</ele></trkpt>
   <trkpt lon="-9.239389" lat="39.301717"><ele>153.0</ele></trkpt>
   <trkpt lon="-9.239380" lat="39.301836"><ele>153.25</ele></trkpt>
   <trkpt lon="-9.239440" lat="39.302321"><ele>152.5</ele></trkpt>
   <trkpt lon="-9.239503" lat="39.303002"><ele>151.0</ele></trkpt>
   <trkpt lon="-9.239535" lat="39.303313"><ele>151.0</ele></trkpt>
   <trkpt lon="-9.239532" lat="39.303446"><ele>151.25</ele><sym>pass_place</sym><type>Shaping</type></trkpt>
   <trkpt lon="-9.239518" lat="39.303500"><ele>151.25</ele></trkpt>
   <trkpt lon="-9.239458" lat="39.303632"><ele>151.75</ele></trkpt>
   <trkpt lon="-9.239393" lat="39.303725"><ele>152.0</ele></trkpt>
   <trkpt lon="-9.239277" lat="39.303893"><ele>152.0</ele></trkpt>
   <trkpt lon="-9.239039" lat="39.304194"><ele>152.0</ele></trkpt>
   <trkpt lon="-9.238673" lat="39.304592"><ele>151.25</ele></trkpt>
   <trkpt lon="-9.238637" lat="39.304639"><ele>151.25</ele></trkpt>
   <trkpt lon="-9.238613" lat="39.304686"><ele>151.0</ele></trkpt>
   <trkpt lon="-9.238591" lat="39.304745"><ele>151.0</ele></trkpt>
   <trkpt lon="-9.238585" lat="39.304811"><ele>151.0</ele></trkpt>
   <trkpt lon="-9.238588" lat="39.304908"><ele>151.0</ele></trkpt>
   <trkpt lon="-9.238634" lat="39.305425"><ele>150.25</ele></trkpt>
   <trkpt lon="-9.238655" lat="39.305606"><ele>150.0</ele></trkpt>
   <trkpt lon="-9.238654" lat="39.305775"><ele>150.0</ele></trkpt>
   <trkpt lon="-9.238643" lat="39.305851"><ele>149.75</ele></trkpt>
   <trkpt lon="-9.238499" lat="39.306321"><ele>150.25</ele></trkpt>
   <trkpt lon="-9.238485" lat="39.306400"><ele>150.5</ele></trkpt>
   <trkpt lon="-9.238472" lat="39.306558"><ele>151.25</ele></trkpt>
   <trkpt lon="-9.238476" lat="39.306656"><ele>151.75</ele></trkpt>
   <trkpt lon="-9.238492" lat="39.306736"><ele>152.0</ele></trkpt>
   <trkpt lon="-9.238517" lat="39.306812"><ele>152.0</ele></trkpt>
   <trkpt lon="-9.238630" lat="39.307025"><ele>150.5</ele></trkpt>
   <trkpt lon="-9.238667" lat="39.307132"><ele>150.25</ele></trkpt>
   <trkpt lon="-9.238973" lat="39.308277"><ele>146.0</ele></trkpt>
   <trkpt lon="-9.239000" lat="39.308432"><ele>146.75</ele></trkpt>
   <trkpt lon="-9.238997" lat="39.308488"><ele>147.25</ele></trkpt>
   <trkpt lon="-9.238970" lat="39.308591"><ele>147.75</ele></trkpt>
   <trkpt lon="-9.238937" lat="39.308638"><ele>147.75</ele></trkpt>
   <trkpt lon="-9.238892" lat="39.308681"><ele>147.5</ele></trkpt>
   <trkpt lon="-9.238801" lat="39.308750"><ele>147.0</ele></trkpt>
   <trkpt lon="-9.238678" lat="39.308828"><ele>146.75</ele></trkpt>
   <trkpt lon="-9.238628" lat="39.308870"><ele>146.75</ele></trkpt>
   <trkpt lon="-9.238545" lat="39.308986"><ele>146.75</ele></trkpt>
   <trkpt lon="-9.238454" lat="39.309204"><ele>147.5</ele></trkpt>
   <trkpt lon="-9.238420" lat="39.309265"><ele>147.5</ele></trkpt>
   <trkpt lon="-9.238386" lat="39.309321"><ele>147.75</ele></trkpt>
   <trkpt lon="-9.238250" lat="39.309489"><ele>147.25</ele></trkpt>
   <trkpt lon="-9.238180" lat="39.309619"><ele>146.75</ele></trkpt>
   <trkpt lon="-9.237982" lat="39.310158"><ele>145.25</ele></trkpt>
   <trkpt lon="-9.237966" lat="39.310213"><ele>145.0</ele></trkpt>
   <trkpt lon="-9.237961" lat="39.310264"><ele>145.0</ele></trkpt>
   <trkpt lon="-9.237969" lat="39.310320"><ele>144.75</ele></trkpt>
   <trkpt lon="-9.237988" lat="39.310393"><ele>144.5</ele></trkpt>
   <trkpt lon="-9.238112" lat="39.310723"><ele>144.5</ele></trkpt>
   <trkpt lon="-9.238126" lat="39.310785"><ele>144.75</ele></trkpt>
   <trkpt lon="-9.238131" lat="39.310837"><ele>145.0</ele></trkpt>
   <trkpt lon="-9.238125" lat="39.310886"><ele>145.0</ele></trkpt>
   <trkpt lon="-9.238089" lat="39.310984"><ele>145.0</ele></trkpt>
   <trkpt lon="-9.238010" lat="39.311078"><ele>144.75</ele></trkpt>
   <trkpt lon="-9.237960" lat="39.311124"><ele>144.5</ele></trkpt>
   <trkpt lon="-9.237908" lat="39.311157"><ele>144.0</ele></trkpt>
   <trkpt lon="-9.237849" lat="39.311187"><ele>143.5</ele></trkpt>
   <trkpt lon="-9.237578" lat="39.311281"><ele>142.75</ele></trkpt>
   <trkpt lon="-9.237493" lat="39.311317"><ele>142.75</ele></trkpt>
   <trkpt lon="-9.237416" lat="39.311360"><ele>142.75</ele></trkpt>
   <trkpt lon="-9.237334" lat="39.311418"><ele>143.0</ele></trkpt>
   <trkpt lon="-9.235951" lat="39.312494"><ele>141.5</ele></trkpt>
   <trkpt lon="-9.235848" lat="39.312580"><ele>141.5</ele></trkpt>
   <trkpt lon="-9.235760" lat="39.312672"><ele>141.5</ele></trkpt>
   <trkpt lon="-9.235430" lat="39.313060"><ele>140.25</ele></trkpt>
   <trkpt lon="-9.235380" lat="39.313128"><ele>140.5</ele></trkpt>
   <trkpt lon="-9.235295" lat="39.313269"><ele>140.75</ele></trkpt>
   <trkpt lon="-9.235173" lat="39.313544"><ele>140.5</ele></trkpt>
   <trkpt lon="-9.235135" lat="39.313606"><ele>140.5</ele></trkpt>
   <trkpt lon="-9.234940" lat="39.313830"><ele>140.0</ele></trkpt>
   <trkpt lon="-9.234894" lat="39.313895"><ele>139.75</ele></trkpt>
   <trkpt lon="-9.234862" lat="39.313957"><ele>139.25</ele></trkpt>
   <trkpt lon="-9.234843" lat="39.314020"><ele>138.75</ele></trkpt>
   <trkpt lon="-9.234833" lat="39.314162"><ele>137.25</ele></trkpt>
   <trkpt lon="-9.234877" lat="39.314445"><ele>136.0</ele></trkpt>
   <trkpt lon="-9.234911" lat="39.314623"><ele>136.25</ele></trkpt>
   <trkpt lon="-9.234924" lat="39.314825"><ele>136.25</ele></trkpt>
   <trkpt lon="-9.234942" lat="39.314917"><ele>136.5</ele></trkpt>
   <trkpt lon="-9.234969" lat="39.314997"><ele>136.75</ele></trkpt>
   <trkpt lon="-9.235030" lat="39.315125"><ele>136.0</ele></trkpt>
   <trkpt lon="-9.235077" lat="39.315236"><ele>135.25</ele></trkpt>
   <trkpt lon="-9.235094" lat="39.315305"><ele>134.75</ele></trkpt>
   <trkpt lon="-9.235102" lat="39.315366"><ele>134.75</ele></trkpt>
   <trkpt lon="-9.235098" lat="39.315432"><ele>134.5</ele></trkpt>
   <trkpt lon="-9.235068" lat="39.315562"><ele>134.25</ele></trkpt>
   <trkpt lon="-9.235043" lat="39.315625"><ele>134.25</ele></trkpt>
   <trkpt lon="-9.234969" lat="39.315762"><ele>134.5</ele></trkpt>
   <trkpt lon="-9.234898" lat="39.315885"><ele>134.0</ele></trkpt>
   <trkpt lon="-9.234857" lat="39.315995"><ele>133.25</ele></trkpt>
   <trkpt lon="-9.234834" lat="39.316148"><ele>132.75</ele></trkpt>
   <trkpt lon="-9.234837" lat="39.317171"><ele>131.0</ele></trkpt>
   <trkpt lon="-9.234811" lat="39.317301"><ele>131.25</ele></trkpt>
   <trkpt lon="-9.234732" lat="39.317473"><ele>131.75</ele></trkpt>
   <trkpt lon="-9.234697" lat="39.317581"><ele>132.0</ele></trkpt>
   <trkpt lon="-9.234689" lat="39.317723"><ele>132.0</ele></trkpt>
   <trkpt lon="-9.234708" lat="39.317855"><ele>132.25</ele></trkpt>
   <trkpt lon="-9.234730" lat="39.317931"><ele>132.5</ele></trkpt>
   <trkpt lon="-9.234875" lat="39.318229"><ele>132.0</ele><sym>pass_place</sym><type>Shaping</type></trkpt>
   <trkpt lon="-9.234898" lat="39.318310"><ele>132.0</ele></trkpt>
   <trkpt lon="-9.234908" lat="39.318386"><ele>131.5</ele></trkpt>
   <trkpt lon="-9.234906" lat="39.318461"><ele>130.75</ele></trkpt>
   <trkpt lon="-9.234890" lat="39.318547"><ele>130.25</ele></trkpt>
   <trkpt lon="-9.234826" lat="39.318695"><ele>129.25</ele></trkpt>
   <trkpt lon="-9.234770" lat="39.318782"><ele>128.75</ele></trkpt>
   <trkpt lon="-9.234695" lat="39.318865"><ele>128.0</ele></trkpt>
   <trkpt lon="-9.234462" lat="39.319059"><ele>125.5</ele></trkpt>
   <trkpt lon="-9.234346" lat="39.319166"><ele>124.25</ele></trkpt>
   <trkpt lon="-9.234279" lat="39.319260"><ele>124.0</ele></trkpt>
   <trkpt lon="-9.234136" lat="39.319488"><ele>123.0</ele></trkpt>
   <trkpt lon="-9.234092" lat="39.319578"><ele>123.0</ele></trkpt>
   <trkpt lon="-9.234060" lat="39.319676"><ele>123.0</ele></trkpt>
   <trkpt lon="-9.234053" lat="39.319757"><ele>122.75</ele></trkpt>
   <trkpt lon="-9.234058" lat="39.319863"><ele>122.75</ele></trkpt>
   <trkpt lon="-9.234121" lat="39.320599"><ele>120.75</ele></trkpt>
   <trkpt lon="-9.234113" lat="39.320748"><ele>120.25</ele></trkpt>
   <trkpt lon="-9.234092" lat="39.320811"><ele>120.0</ele></trkpt>
   <trkpt lon="-9.234059" lat="39.320856"><ele>119.75</ele></trkpt>
   <trkpt lon="-9.233970" lat="39.320942"><ele>119.25</ele></trkpt>
   <trkpt lon="-9.233600" lat="39.321222"><ele>117.75</ele></trkpt>
   <trkpt lon="-9.233566" lat="39.321258"><ele>117.75</ele></trkpt>
   <trkpt lon="-9.233531" lat="39.321312"><ele>117.5</ele></trkpt>
   <trkpt lon="-9.233501" lat="39.321376"><ele>117.0</ele></trkpt>
   <trkpt lon="-9.233443" lat="39.321542"><ele>115.0</ele></trkpt>
   <trkpt lon="-9.233417" lat="39.321648"><ele>113.75</ele></trkpt>
   <trkpt lon="-9.233406" lat="39.321795"><ele>112.0</ele></trkpt>
   <trkpt lon="-9.233408" lat="39.322035"><ele>109.75</ele></trkpt>
   <trkpt lon="-9.233401" lat="39.322116"><ele>109.0</ele></trkpt>
   <trkpt lon="-9.233309" lat="39.322573"><ele>103.5</ele></trkpt>
   <trkpt lon="-9.233265" lat="39.322858"><ele>99.75</ele></trkpt>
   <trkpt lon="-9.233273" lat="39.323070"><ele>99.25</ele></trkpt>
   <trkpt lon="-9.233242" lat="39.323474"><ele>96.5</ele></trkpt>
   <trkpt lon="-9.233132" lat="39.324041"><ele>87.25</ele></trkpt>
   <trkpt lon="-9.233099" lat="39.324366"><ele>82.0</ele></trkpt>
   <trkpt lon="-9.233100" lat="39.324459"><ele>81.0</ele></trkpt>
   <trkpt lon="-9.233152" lat="39.324634"><ele>79.25</ele></trkpt>
   <trkpt lon="-9.233184" lat="39.324778"><ele>78.0</ele></trkpt>
   <trkpt lon="-9.233188" lat="39.324837"><ele>77.75</ele></trkpt>
   <trkpt lon="-9.233175" lat="39.325012"><ele>76.5</ele></trkpt>
   <trkpt lon="-9.233168" lat="39.325110"><ele>75.5</ele></trkpt>
   <trkpt lon="-9.233166" lat="39.325369"><ele>73.25</ele></trkpt>
   <trkpt lon="-9.233149" lat="39.325464"><ele>72.75</ele></trkpt>
   <trkpt lon="-9.233141" lat="39.325503"><ele>72.5</ele></trkpt>
   <trkpt lon="-9.233099" lat="39.325666"><ele>71.25</ele></trkpt>
   <trkpt lon="-9.233101" lat="39.325737"><ele>70.75</ele></trkpt>
   <trkpt lon="-9.233142" lat="39.325909"><ele>69.75</ele></trkpt>
   <trkpt lon="-9.233139" lat="39.325984"><ele>69.25</ele></trkpt>
   <trkpt lon="-9.233121" lat="39.326033"><ele>68.75</ele></trkpt>
   <trkpt lon="-9.233074" lat="39.326107"><ele>68.0</ele></trkpt>
   <trkpt lon="-9.233058" lat="39.326157"><ele>67.75</ele></trkpt>
   <trkpt lon="-9.233045" lat="39.326238"><ele>67.25</ele></trkpt>
   <trkpt lon="-9.233026" lat="39.326424"><ele>66.25</ele></trkpt>
   <trkpt lon="-9.232991" lat="39.326627"><ele>64.0</ele></trkpt>
   <trkpt lon="-9.233013" lat="39.326844"><ele>62.5</ele></trkpt>
   <trkpt lon="-9.233013" lat="39.326936"><ele>61.75</ele></trkpt>
   <trkpt lon="-9.232988" lat="39.327065"><ele>61.25</ele></trkpt>
   <trkpt lon="-9.232981" lat="39.327113"><ele>61.0</ele></trkpt>
   <trkpt lon="-9.232943" lat="39.327293"><ele>60.0</ele></trkpt>
   <trkpt lon="-9.232938" lat="39.327493"><ele>59.0</ele></trkpt>
   <trkpt lon="-9.232909" lat="39.327556"><ele>58.5</ele><sym>left_slight</sym></trkpt>
   <trkpt lon="-9.232961" lat="39.327605"><ele>58.75</ele></trkpt>
   <trkpt lon="-9.232978" lat="39.327654"><ele>58.5</ele></trkpt>
   <trkpt lon="-9.233054" lat="39.327781"><ele>58.75</ele></trkpt>
   <trkpt lon="-9.233064" lat="39.327816"><ele>58.5</ele></trkpt>
   <trkpt lon="-9.233078" lat="39.327862"><ele>58.25</ele></trkpt>
   <trkpt lon="-9.233095" lat="39.327880"><ele>58.25</ele></trkpt>
   <trkpt lon="-9.233129" lat="39.327916"><ele>58.0</ele></trkpt>
   <trkpt lon="-9.233198" lat="39.327950"><ele>57.75</ele></trkpt>
   <trkpt lon="-9.233263" lat="39.327974"><ele>57.5</ele></trkpt>
   <trkpt lon="-9.233296" lat="39.328011"><ele>57.25</ele></trkpt>
   <trkpt lon="-9.233400" lat="39.328223"><ele>54.75</ele></trkpt>
   <trkpt lon="-9.233409" lat="39.328270"><ele>54.25</ele></trkpt>
   <trkpt lon="-9.233413" lat="39.328331"><ele>53.5</ele></trkpt>
   <trkpt lon="-9.233406" lat="39.328461"><ele>51.0</ele></trkpt>
   <trkpt lon="-9.233421" lat="39.328528"><ele>49.5</ele></trkpt>
   <trkpt lon="-9.233417" lat="39.328581"><ele>48.5</ele></trkpt>
   <trkpt lon="-9.233397" lat="39.328673"><ele>47.5</ele></trkpt>
   <trkpt lon="-9.233360" lat="39.328787"><ele>46.5</ele></trkpt>
   <trkpt lon="-9.233327" lat="39.328864"><ele>46.0</ele></trkpt>
   <trkpt lon="-9.233188" lat="39.329074"><ele>44.75</ele></trkpt>
   <trkpt lon="-9.233136" lat="39.329215"><ele>44.0</ele></trkpt>
   <trkpt lon="-9.233121" lat="39.329320"><ele>43.5</ele></trkpt>
   <trkpt lon="-9.233102" lat="39.329390"><ele>43.0</ele></trkpt>
   <trkpt lon="-9.233089" lat="39.329412"><ele>43.0</ele><sym>left</sym></trkpt>
   <trkpt lon="-9.233383" lat="39.329701"><ele>41.75</ele><sym>left_slight</sym></trkpt>
   <trkpt lon="-9.233414" lat="39.329696"><ele>41.75</ele></trkpt>
   <trkpt lon="-9.233455" lat="39.329699"><ele>41.5</ele></trkpt>
   <trkpt lon="-9.233828" lat="39.329852"><ele>40.0</ele></trkpt>
   <trkpt lon="-9.234052" lat="39.329902"><ele>39.75</ele></trkpt>
   <trkpt lon="-9.235078" lat="39.329921"><ele>40.75</ele></trkpt>
   <trkpt lon="-9.235719" lat="39.329912"><ele>42.5</ele></trkpt>
   <trkpt lon="-9.235937" lat="39.329925"><ele>43.0</ele></trkpt>
   <trkpt lon="-9.236107" lat="39.329936"><ele>43.0</ele></trkpt>
   <trkpt lon="-9.236359" lat="39.330002"><ele>42.75</ele></trkpt>
   <trkpt lon="-9.236782" lat="39.330216"><ele>43.0</ele><sym>right_slight</sym></trkpt>
   <trkpt lon="-9.237191" lat="39.330494"><ele>43.75</ele><sym>left_slight</sym></trkpt>
   <trkpt lon="-9.237948" lat="39.330756"><ele>45.75</ele></trkpt>
   <trkpt lon="-9.238426" lat="39.330887"><ele>46.0</ele><sym>pass_place</sym><type>Shaping</type></trkpt>
   <trkpt lon="-9.238938" lat="39.331547"><ele>51.5</ele></trkpt>
   <trkpt lon="-9.239537" lat="39.332134"><ele>60.25</ele></trkpt>
   <trkpt lon="-9.239670" lat="39.332175"><ele>61.75</ele><sym>left_slight</sym></trkpt>
   <trkpt lon="-9.239840" lat="39.332178"><ele>63.5</ele></trkpt>
   <trkpt lon="-9.240699" lat="39.332116"><ele>71.5</ele></trkpt>
   <trkpt lon="-9.241364" lat="39.332134"><ele>75.25</ele></trkpt>
   <trkpt lon="-9.241520" lat="39.332164"><ele>76.25</ele></trkpt>
   <trkpt lon="-9.241636" lat="39.332186"><ele>77.25</ele></trkpt>
   <trkpt lon="-9.241908" lat="39.332161"><ele>79.75</ele></trkpt>
   <trkpt lon="-9.242298" lat="39.332115"><ele>84.75</ele></trkpt>
   <trkpt lon="-9.242665" lat="39.332209"><ele>90.25</ele></trkpt>
   <trkpt lon="-9.242847" lat="39.332299"><ele>93.25</ele><sym>right_slight</sym></trkpt>
   <trkpt lon="-9.243168" lat="39.332579"><ele>98.5</ele></trkpt>
   <trkpt lon="-9.243256" lat="39.332668"><ele>100.0</ele></trkpt>
   <trkpt lon="-9.243361" lat="39.332751"><ele>101.5</ele></trkpt>
   <trkpt lon="-9.243467" lat="39.332822"><ele>103.0</ele></trkpt>
   <trkpt lon="-9.243583" lat="39.332884"><ele>104.5</ele></trkpt>
   <trkpt lon="-9.243689" lat="39.332931"><ele>106.0</ele></trkpt>
   <trkpt lon="-9.243807" lat="39.332969"><ele>107.5</ele></trkpt>
   <trkpt lon="-9.244440" lat="39.333138"><ele>107.5</ele></trkpt>
   <trkpt lon="-9.244628" lat="39.333219"><ele>109.0</ele></trkpt>
   <trkpt lon="-9.244933" lat="39.333396"><ele>111.5</ele><sym>left_slight</sym></trkpt>
   <trkpt lon="-9.244971" lat="39.333421"><ele>111.75</ele></trkpt>
   <trkpt lon="-9.245177" lat="39.333447"><ele>112.75</ele></trkpt>
   <trkpt lon="-9.245486" lat="39.333420"><ele>113.75</ele></trkpt>
   <trkpt lon="-9.245582" lat="39.333405"><ele>114.25</ele></trkpt>
   <trkpt lon="-9.245901" lat="39.333389"><ele>116.75</ele></trkpt>
   <trkpt lon="-9.246029" lat="39.333376"><ele>118.25</ele></trkpt>
   <trkpt lon="-9.246331" lat="39.333347"><ele>121.25</ele></trkpt>
   <trkpt lon="-9.246599" lat="39.333335"><ele>122.75</ele></trkpt>
   <trkpt lon="-9.246908" lat="39.333358"><ele>123.75</ele></trkpt>
   <trkpt lon="-9.247098" lat="39.333385"><ele>124.5</ele></trkpt>
   <trkpt lon="-9.247206" lat="39.333366"><ele>124.75</ele></trkpt>
   <trkpt lon="-9.247559" lat="39.333393"><ele>124.0</ele></trkpt>
   <trkpt lon="-9.247656" lat="39.333504"><ele>124.0</ele></trkpt>
   <trkpt lon="-9.247736" lat="39.333835"><ele>122.5</ele><sym>left</sym></trkpt>
   <trkpt lon="-9.247865" lat="39.333793"><ele>122.25</ele></trkpt>
   <trkpt lon="-9.248290" lat="39.333713"><ele>123.25</ele></trkpt>
   <trkpt lon="-9.248471" lat="39.333688"><ele>123.75</ele></trkpt>
   <trkpt lon="-9.248771" lat="39.333754"><ele>123.5</ele></trkpt>
   <trkpt lon="-9.249378" lat="39.333866"><ele>123.75</ele></trkpt>
   <trkpt lon="-9.249615" lat="39.333916"><ele>124.25</ele></trkpt>
   <trkpt lon="-9.250021" lat="39.334003"><ele>124.0</ele></trkpt>
   <trkpt lon="-9.250821" lat="39.334148"><ele>127.0</ele></trkpt>
   <trkpt lon="-9.251389" lat="39.334219"><ele>128.0</ele></trkpt>
   <trkpt lon="-9.252167" lat="39.334327"><ele>133.25</ele></trkpt>
   <trkpt lon="-9.252945" lat="39.334443"><ele>136.0</ele></trkpt>
   <trkpt lon="-9.253274" lat="39.334502"><ele>136.5</ele></trkpt>
   <trkpt lon="-9.255579" lat="39.334902"><ele>136.75</ele></trkpt>
   <trkpt lon="-9.256078" lat="39.335003"><ele>136.75</ele></trkpt>
   <trkpt lon="-9.256603" lat="39.335040"><ele>136.0</ele></trkpt>
   <trkpt lon="-9.256957" lat="39.335028"><ele>136.75</ele></trkpt>
   <trkpt lon="-9.257633" lat="39.334945"><ele>138.0</ele><sym>pass_place</sym><type>Shaping</type></trkpt>
   <trkpt lon="-9.258358" lat="39.334916"><ele>135.5</ele></trkpt>
   <trkpt lon="-9.259157" lat="39.334750"><ele>136.5</ele></trkpt>
   <trkpt lon="-9.259506" lat="39.334688"><ele>136.0</ele></trkpt>
   <trkpt lon="-9.260219" lat="39.334617"><ele>136.0</ele></trkpt>
   <trkpt lon="-9.260668" lat="39.334554"><ele>136.5</ele></trkpt>
   <trkpt lon="-9.260732" lat="39.334545"><ele>136.5</ele></trkpt>
   <trkpt lon="-9.261233" lat="39.334476"><ele>135.75</ele></trkpt>
   <trkpt lon="-9.262169" lat="39.334289"><ele>137.75</ele></trkpt>
   <trkpt lon="-9.262470" lat="39.334195"><ele>138.5</ele></trkpt>
   <trkpt lon="-9.263870" lat="39.333772"><ele>135.75</ele></trkpt>
   <trkpt lon="-9.264493" lat="39.333571"><ele>134.75</ele><sym>right_slight</sym></trkpt>
   <trkpt lon="-9.264628" lat="39.333625"><ele>134.0</ele></trkpt>
   <trkpt lon="-9.264779" lat="39.333648"><ele>133.5</ele></trkpt>
   <trkpt lon="-9.265337" lat="39.333576"><ele>133.25</ele></trkpt>
   <trkpt lon="-9.265540" lat="39.333559"><ele>133.25</ele></trkpt>
   <trkpt lon="-9.265900" lat="39.333582"><ele>133.0</ele><sym>left_slight</sym></trkpt>
   <trkpt lon="-9.266525" lat="39.333435"><ele>132.75</ele></trkpt>
   <trkpt lon="-9.266881" lat="39.333250"><ele>131.25</ele><sym>right</sym></trkpt>
   <trkpt lon="-9.267076" lat="39.333499"><ele>130.0</ele><sym>right_slight</sym></trkpt>
   <trkpt lon="-9.266968" lat="39.333819"><ele>129.75</ele></trkpt>
   <trkpt lon="-9.266902" lat="39.333941"><ele>129.0</ele></trkpt>
   <trkpt lon="-9.266663" lat="39.334425"><ele>124.0</ele></trkpt>
   <trkpt lon="-9.266533" lat="39.334677"><ele>122.25</ele></trkpt>
   <trkpt lon="-9.266419" lat="39.334992"><ele>121.75</ele><sym>left</sym></trkpt>
   <trkpt lon="-9.267067" lat="39.335299"><ele>116.25</ele></trkpt>
   <trkpt lon="-9.267221" lat="39.335424"><ele>115.25</ele></trkpt>
   <trkpt lon="-9.267258" lat="39.335454"><ele>115.0</ele></trkpt>
   <trkpt lon="-9.267285" lat="39.335492"><ele>115.0</ele></trkpt>
   <trkpt lon="-9.267595" lat="39.335940"><ele>112.25</ele></trkpt>
   <trkpt lon="-9.267764" lat="39.336096"><ele>111.0</ele></trkpt>
   <trkpt lon="-9.267863" lat="39.336169"><ele>110.75</ele></trkpt>
   <trkpt lon="-9.267993" lat="39.336234"><ele>110.5</ele></trkpt>
   <trkpt lon="-9.268418" lat="39.336450"><ele>110.75</ele><sym>right_slight</sym></trkpt>
   <trkpt lon="-9.268698" lat="39.336657"><ele>110.0</ele></trkpt>
   <trkpt lon="-9.268775" lat="39.336714"><ele>109.75</ele><sym>right_slight</sym></trkpt>
   <trkpt lon="-9.268837" lat="39.336878"><ele>109.0</ele><sym>left_slight</sym></trkpt>
   <trkpt lon="-9.269189" lat="39.337218"><ele>107.0</ele><sym>left_slight</sym></trkpt>
   <trkpt lon="-9.269556" lat="39.337325"><ele>107.0</ele></trkpt>
   <trkpt lon="-9.269623" lat="39.337347"><ele>107.0</ele></trkpt>
   <trkpt lon="-9.270235" lat="39.337592"><ele>106.5</ele></trkpt>
   <trkpt lon="-9.271726" lat="39.338440"><ele>104.75</ele></trkpt>
   <trkpt lon="-9.272267" lat="39.338678"><ele>105.0</ele></trkpt>
   <trkpt lon="-9.272271" lat="39.338679"><ele>105.0</ele><sym>pass_place</sym><type>Shaping</type></trkpt>
   <trkpt lon="-9.272446" lat="39.338757"><ele>105.0</ele></trkpt>
   <trkpt lon="-9.272881" lat="39.338907"><ele>106.25</ele><sym>left_slight</sym></trkpt>
   <trkpt lon="-9.273417" lat="39.338979"><ele>105.25</ele></trkpt>
   <trkpt lon="-9.273624" lat="39.338986"><ele>104.25</ele></trkpt>
   <trkpt lon="-9.273827" lat="39.338981"><ele>104.0</ele></trkpt>
   <trkpt lon="-9.274081" lat="39.338959"><ele>103.25</ele></trkpt>
   <trkpt lon="-9.274177" lat="39.338957"><ele>102.75</ele></trkpt>
   <trkpt lon="-9.274257" lat="39.338946"><ele>102.5</ele><sym>roundabout_e1</sym></trkpt>
   <trkpt lon="-9.274267" lat="39.338981"><ele>102.5</ele></trkpt>
   <trkpt lon="-9.274291" lat="39.339010"><ele>102.5</ele></trkpt>
   <trkpt lon="-9.274326" lat="39.339032"><ele>102.25</ele></trkpt>
   <trkpt lon="-9.274369" lat="39.339045"><ele>102.25</ele></trkpt>
   <trkpt lon="-9.274434" lat="39.339041"><ele>102.0</ele></trkpt>
   <trkpt lon="-9.274453" lat="39.339090"><ele>102.0</ele></trkpt>
   <trkpt lon="-9.275162" lat="39.340768"><ele>105.5</ele></trkpt>
   <trkpt lon="-9.275662" lat="39.341938"><ele>101.5</ele></trkpt>
   <trkpt lon="-9.275777" lat="39.342165"><ele>101.0</ele></trkpt>
   <trkpt lon="-9.275833" lat="39.342259"><ele>101.0</ele></trkpt>
   <trkpt lon="-9.275890" lat="39.342346"><ele>101.5</ele></trkpt>
   <trkpt lon="-9.275954" lat="39.342427"><ele>102.0</ele></trkpt>
   <trkpt lon="-9.276047" lat="39.342519"><ele>102.75</ele></trkpt>
   <trkpt lon="-9.276124" lat="39.342577"><ele>103.5</ele></trkpt>
   <trkpt lon="-9.276284" lat="39.342672"><ele>105.0</ele></trkpt>
   <trkpt lon="-9.277527" lat="39.343259"><ele>108.5</ele></trkpt>
   <trkpt lon="-9.277883" lat="39.343419"><ele>109.5</ele><sym>straight</sym></trkpt>
   <trkpt lon="-9.278192" lat="39.343569"><ele>108.75</ele></trkpt>
   <trkpt lon="-9.278391" lat="39.343662"><ele>107.0</ele></trkpt>
   <trkpt lon="-9.279882" lat="39.344349"><ele>107.0</ele></trkpt>
   <trkpt lon="-9.281284" lat="39.345000"><ele>108.0</ele></trkpt>
   <trkpt lon="-9.281568" lat="39.345125"><ele>109.75</ele></trkpt>
   <trkpt lon="-9.282756" lat="39.345684"><ele>122.25</ele></trkpt>
   <trkpt lon="-9.284592" lat="39.346537"><ele>109.75</ele></trkpt>
   <trkpt lon="-9.284673" lat="39.346573"><ele>108.5</ele></trkpt>
   <trkpt lon="-9.285243" lat="39.346831"><ele>106.0</ele></trkpt>
   <trkpt lon="-9.285370" lat="39.346898"><ele>105.5</ele></trkpt>
   <trkpt lon="-9.285517" lat="39.346979"><ele>104.5</ele></trkpt>
   <trkpt lon="-9.285637" lat="39.347060"><ele>103.75</ele></trkpt>
   <trkpt lon="-9.285728" lat="39.347136"><ele>103.25</ele></trkpt>
   <trkpt lon="-9.285815" lat="39.347226"><ele>103.0</ele></trkpt>
   <trkpt lon="-9.285896" lat="39.347340"><ele>103.75</ele></trkpt>
   <trkpt lon="-9.285967" lat="39.347467"><ele>104.75</ele></trkpt>
   <trkpt lon="-9.286155" lat="39.347893"><ele>103.25</ele></trkpt>
   <trkpt lon="-9.286439" lat="39.348501"><ele>99.5</ele></trkpt>
   <trkpt lon="-9.286821" lat="39.349329"><ele>95.25</ele><sym>pass_place</sym><type>Shaping</type></trkpt>
   <trkpt lon="-9.286822" lat="39.349333"><ele>95.25</ele></trkpt>
   <trkpt lon="-9.286882" lat="39.349404"><ele>95.0</ele></trkpt>
   <trkpt lon="-9.286939" lat="39.349452"><ele>94.75</ele></trkpt>
   <trkpt lon="-9.286997" lat="39.349496"><ele>94.75</ele></trkpt>
   <trkpt lon="-9.287059" lat="39.349523"><ele>94.5</ele></trkpt>
   <trkpt lon="-9.287209" lat="39.349565"><ele>94.5</ele></trkpt>
   <trkpt lon="-9.287602" lat="39.349634"><ele>92.25</ele></trkpt>
   <trkpt lon="-9.287723" lat="39.349656"><ele>91.5</ele></trkpt>
   <trkpt lon="-9.287900" lat="39.349687"><ele>90.75</ele></trkpt>
   <trkpt lon="-9.288220" lat="39.349743"><ele>88.5</ele></trkpt>
   <trkpt lon="-9.288366" lat="39.349762"><ele>87.25</ele></trkpt>
   <trkpt lon="-9.289007" lat="39.349775"><ele>83.0</ele></trkpt>
   <trkpt lon="-9.289331" lat="39.349770"><ele>81.25</ele></trkpt>
   <trkpt lon="-9.289424" lat="39.349770"><ele>80.75</ele></trkpt>
   <trkpt lon="-9.289525" lat="39.349768"><ele>80.75</ele></trkpt>
   <trkpt lon="-9.289768" lat="39.349784"><ele>80.5</ele></trkpt>
   <trkpt lon="-9.290212" lat="39.349853"><ele>78.25</ele></trkpt>
   <trkpt lon="-9.290334" lat="39.349874"><ele>77.75</ele></trkpt>
   <trkpt lon="-9.290697" lat="39.349957"><ele>77.0</ele></trkpt>
   <trkpt lon="-9.290819" lat="39.349989"><ele>77.0</ele></trkpt>
   <trkpt lon="-9.291258" lat="39.350111"><ele>76.25</ele></trkpt>
   <trkpt lon="-9.291860" lat="39.350278"><ele>75.0</ele></trkpt>
   <trkpt lon="-9.292386" lat="39.350412"><ele>73.25</ele><sym>right</sym></trkpt>
   <trkpt lon="-9.292375" lat="39.350462"><ele>73.25</ele></trkpt>
   <trkpt lon="-9.292311" lat="39.350671"><ele>72.5</ele></trkpt>
   <trkpt lon="-9.292294" lat="39.350746"><ele>72.0</ele></trkpt>
   <trkpt lon="-9.292277" lat="39.351035"><ele>67.75</ele></trkpt>
   <trkpt lon="-9.292281" lat="39.351090"><ele>66.75</ele></trkpt>
   <trkpt lon="-9.292292" lat="39.351214"><ele>65.0</ele></trkpt>
   <trkpt lon="-9.292345" lat="39.351409"><ele>62.75</ele></trkpt>
   <trkpt lon="-9.292390" lat="39.351526"><ele>62.5</ele></trkpt>
   <trkpt lon="-9.293292" lat="39.353544"><ele>56.75</ele></trkpt>
   <trkpt lon="-9.293851" lat="39.354795"><ele>58.75</ele></trkpt>
   <trkpt lon="-9.293980" lat="39.355040"><ele>58.0</ele></trkpt>
   <trkpt lon="-9.294156" lat="39.355314"><ele>56.5</ele></trkpt>
   <trkpt lon="-9.294243" lat="39.355432"><ele>55.25</ele></trkpt>
   <trkpt lon="-9.294461" lat="39.355689"><ele>54.25</ele></trkpt>
   <trkpt lon="-9.294580" lat="39.355812"><ele>54.0</ele></trkpt>
   <trkpt lon="-9.294879" lat="39.356084"><ele>52.25</ele></trkpt>
   <trkpt lon="-9.295026" lat="39.356209"><ele>50.25</ele></trkpt>
   <trkpt lon="-9.295330" lat="39.356424"><ele>48.5</ele></trkpt>
   <trkpt lon="-9.295503" lat="39.356530"><ele>48.0</ele></trkpt>
   <trkpt lon="-9.295831" lat="39.356692"><ele>47.0</ele></trkpt>
   <trkpt lon="-9.296023" lat="39.356768"><ele>48.75</ele></trkpt>
   <trkpt lon="-9.296723" lat="39.357010"><ele>53.75</ele></trkpt>
   <trkpt lon="-9.298450" lat="39.357575"><ele>52.5</ele></trkpt>
   <trkpt lon="-9.298926" lat="39.357736"><ele>51.75</ele></trkpt>
   <trkpt lon="-9.299985" lat="39.358092"><ele>52.5</ele></trkpt>
   <trkpt lon="-9.301152" lat="39.358481"><ele>50.0</ele></trkpt>
   <trkpt lon="-9.307830" lat="39.360690"><ele>43.25</ele><sym>pass_place</sym><type>Shaping</type></trkpt>
   <trkpt lon="-9.307833" lat="39.360692"><ele>43.25</ele></trkpt>
   <trkpt lon="-9.308003" lat="39.360743"><ele>43.5</ele></trkpt>
   <trkpt lon="-9.308145" lat="39.360777"><ele>43.25</ele></trkpt>
   <trkpt lon="-9.308307" lat="39.360804"><ele>42.75</ele></trkpt>
   <trkpt lon="-9.308494" lat="39.360827"><ele>41.0</ele></trkpt>
   <trkpt lon="-9.308951" lat="39.360873"><ele>37.0</ele></trkpt>
   <trkpt lon="-9.309834" lat="39.360963"><ele>35.75</ele></trkpt>
   <trkpt lon="-9.310458" lat="39.361022"><ele>31.75</ele></trkpt>
   <trkpt lon="-9.310642" lat="39.361054"><ele>30.5</ele></trkpt>
   <trkpt lon="-9.310753" lat="39.361081"><ele>29.5</ele></trkpt>
   <trkpt lon="-9.310851" lat="39.361121"><ele>29.0</ele></trkpt>
   <trkpt lon="-9.311275" lat="39.361384"><ele>29.25</ele></trkpt>
   <trkpt lon="-9.311754" lat="39.361705"><ele>27.5</ele></trkpt>
   <trkpt lon="-9.311935" lat="39.361834"><ele>27.25</ele></trkpt>
   <trkpt lon="-9.312235" lat="39.362073"><ele>27.25</ele></trkpt>
   <trkpt lon="-9.312491" lat="39.362259"><ele>28.0</ele></trkpt>
   <trkpt lon="-9.312576" lat="39.362311"><ele>28.0</ele></trkpt>
   <trkpt lon="-9.312963" lat="39.362530"><ele>29.0</ele></trkpt>
   <trkpt lon="-9.313275" lat="39.362684"><ele>28.0</ele></trkpt>
   <trkpt lon="-9.313590" lat="39.362829"><ele>27.25</ele></trkpt>
   <trkpt lon="-9.313724" lat="39.362881"><ele>27.5</ele></trkpt>
   <trkpt lon="-9.314201" lat="39.363036"><ele>27.5</ele></trkpt>
   <trkpt lon="-9.314839" lat="39.363222"><ele>25.5</ele></trkpt>
   <trkpt lon="-9.314981" lat="39.363255"><ele>24.75</ele></trkpt>
   <trkpt lon="-9.315109" lat="39.363273"><ele>24.25</ele></trkpt>
   <trkpt lon="-9.315249" lat="39.363288"><ele>23.75</ele></trkpt>
   <trkpt lon="-9.315367" lat="39.363300"><ele>23.5</ele></trkpt>
   <trkpt lon="-9.315602" lat="39.363352"><ele>22.75</ele></trkpt>
   <trkpt lon="-9.315787" lat="39.363428"><ele>22.75</ele></trkpt>
   <trkpt lon="-9.316011" lat="39.363543"><ele>23.25</ele></trkpt>
   <trkpt lon="-9.316129" lat="39.363603"><ele>23.75</ele></trkpt>
   <trkpt lon="-9.316215" lat="39.363645"><ele>24.25</ele></trkpt>
   <trkpt lon="-9.316271" lat="39.363673"><ele>24.75</ele><sym>roundabout_e1</sym></trkpt>
   <trkpt lon="-9.316307" lat="39.363709"><ele>25.0</ele></trkpt>
   <trkpt lon="-9.316344" lat="39.363719"><ele>25.0</ele></trkpt>
   <trkpt lon="-9.316384" lat="39.363716"><ele>25.25</ele></trkpt>
   <trkpt lon="-9.316433" lat="39.363737"><ele>25.5</ele><sym>right</sym></trkpt>
   <trkpt lon="-9.316179" lat="39.364118"><ele>25.75</ele><sym>stay_right</sym></trkpt>
   <trkpt lon="-9.316121" lat="39.364143"><ele>25.75</ele></trkpt>
   <trkpt lon="-9.315982" lat="39.364250"><ele>26.75</ele><sym>pass_place</sym><type>Via</type></trkpt>
  </trkseg>
 </trk>
</gpx>
