<?xml version="1.0" encoding="UTF-8"?>
<!-- track-length = 46946 filtered ascend = 581 plain-ascend = 1 cost=72448 energy=.3kwh time=2h 53m 47s -->
<gpx 
 xmlns="http://www.topografix.com/GPX/1/1" 
 xmlns:xsi="http://www.w3.org/2001/XMLSchema-instance" 
 xsi:schemaLocation="http://www.topografix.com/GPX/1/1 http://www.topografix.com/GPX/1/1/gpx.xsd" 
 creator="BRouter-1.7.9" version="1.1"><wpt lat="39.36411" lon="-9.31784"><name>Pasteleria Ferreleja</name><sym>Restaurant</sym></wpt><wpt lat="39.35729" lon="-9.1586"><name>Drinking water</name><sym>Drinking Water</sym></wpt><wpt lat="39.33206" lon="-9.26988"><name>A Serrana</name><sym>Restaurant</sym></wpt><wpt lat="39.34957" lon="-9.28944"><name>cafe Mercearia</name><sym>Restaurant</sym></wpt><wpt lat="39.36375" lon="-9.31618"><name>Café Central</name><sym>Restaurant</sym></wpt><wpt lat="39.33734" lon="-9.32586"><name>SbikeShop</name><sym>Bike Trail</sym></wpt><wpt lat="39.33592" lon="-9.32524"><name>Arcadas do Jardim</name><sym>Restaurant</sym></wpt><wpt lat="39.33615" lon="-9.3263"><name>Entre Amigos</name><sym>Restaurant</sym></wpt><wpt lat="39.33984" lon="-9.32715"><name>Forne da Vila</name><sym>Restaurant</sym></wpt>
 <trk>
  <src>brouter_fastbike-lowtraffic_0</src>
  <type>bike</type>
  <trkseg>
   <trkpt lon="-9.315982" lat="39.364250"><ele>26.0</ele><sym>pass_place</sym><type>Via</type></trkpt>
   <trkpt lon="-9.315923" lat="39.364295"><ele>25.7</ele></trkpt>
   <trkpt lon="-9.315793" lat="39.364266"><ele>25.4</ele><sym>right</sym></trkpt>
   <trkpt lon="-9.315828" lat="39.364198"><ele>25.2</ele></trkpt>
   <trkpt lon="-9.315915" lat="39.364030"><ele>25.1</ele></trkpt>
   <trkpt lon="-9.315870" lat="39.363883"><ele>25.1</ele><sym>right_slight</sym></trkpt>
   <trkpt lon="-9.315922" lat="39.363731"><ele>25.0</ele></trkpt>
   <trkpt lon="-9.316011" lat="39.363543"><ele>24.8</ele><sym>right</sym></trkpt>
   <trkpt lon="-9.316129" lat="39.363603"><ele>24.7</ele></trkpt>
   <trkpt lon="-9.316215" lat="39.363645"><ele>24.6</ele></trkpt>
   <trkpt lon="-9.316271" lat="39.363673"><ele>24.6</ele><sym>roundabout_e2</sym></trkpt>
   <trkpt lon="-9.316307" lat="39.363709"><ele>24.6</ele></trkpt>
   <trkpt lon="-9.316344" lat="39.363719"><ele>24.7</ele></trkpt>
   <trkpt lon="-9.316384" lat="39.363716"><ele>24.6</ele></trkpt>
   <trkpt lon="-9.316425" lat="39.363693"><ele>24.4</ele></trkpt>
   <trkpt lon="-9.316444" lat="39.363657"><ele>24.2</ele></trkpt>
   <trkpt lon="-9.316435" lat="39.363621"><ele>23.7</ele></trkpt>
   <trkpt lon="-9.316421" lat="39.363605"><ele>23.2</ele></trkpt>
   <trkpt lon="-9.316447" lat="39.363408"><ele>22.4</ele><sym>right_slight</sym></trkpt>
   <trkpt lon="-9.316593" lat="39.363210"><ele>21.0</ele></trkpt>
   <trkpt lon="-9.317096" lat="39.362510"><ele>19.4</ele></trkpt>
   <trkpt lon="-9.318017" lat="39.361207"><ele>17.9</ele></trkpt>
   <trkpt lon="-9.318830" lat="39.360121"><ele>16.4</ele></trkpt>
   <trkpt lon="-9.318993" lat="39.359834"><ele>14.9</ele></trkpt>
   <trkpt lon="-9.319551" lat="39.358390"><ele>13.8</ele></trkpt>
   <trkpt lon="-9.319627" lat="39.358152"><ele>12.8</ele></trkpt>
   <trkpt lon="-9.319665" lat="39.357949"><ele>11.8</ele></trkpt>
   <trkpt lon="-9.319686" lat="39.357623"><ele>11.0</ele></trkpt>
   <trkpt lon="-9.319684" lat="39.357477"><ele>10.3</ele></trkpt>
   <trkpt lon="-9.319664" lat="39.357178"><ele>9.9</ele></trkpt>
   <trkpt lon="-9.319655" lat="39.357073"><ele>10.1</ele></trkpt>
   <trkpt lon="-9.319643" lat="39.356930"><ele>10.4</ele></trkpt>
   <trkpt lon="-9.319622" lat="39.356790"><ele>10.8</ele></trkpt>
   <trkpt lon="-9.319482" lat="39.356185"><ele>11.3</ele></trkpt>
   <trkpt lon="-9.319455" lat="39.356042"><ele>11.9</ele></trkpt>
   <trkpt lon="-9.319443" lat="39.355926"><ele>12.6</ele></trkpt>
   <trkpt lon="-9.319441" lat="39.355790"><ele>13.2</ele></trkpt>
   <trkpt lon="-9.319452" lat="39.355658"><ele>13.9</ele></trkpt>
   <trkpt lon="-9.319584" lat="39.354926"><ele>14.7</ele></trkpt>
   <trkpt lon="-9.319656" lat="39.354683"><ele>15.4</ele></trkpt>
   <trkpt lon="-9.319740" lat="39.354453"><ele>16.2</ele></trkpt>
   <trkpt lon="-9.319798" lat="39.354335"><ele>17.3</ele></trkpt>
   <trkpt lon="-9.319868" lat="39.354217"><ele>18.4</ele></trkpt>
   <trkpt lon="-9.320003" lat="39.354049"><ele>19.4</ele></trkpt>
   <trkpt lon="-9.320081" lat="39.353968"><ele>20.5</ele></trkpt>
   <trkpt lon="-9.320269" lat="39.353815"><ele>21.5</ele></trkpt>
   <trkpt lon="-9.321256" lat="39.353177"><ele>22.3</ele></trkpt>
   <trkpt lon="-9.321558" lat="39.352954"><ele>23.1</ele></trkpt>
   <trkpt lon="-9.321703" lat="39.352831"><ele>23.7</ele></trkpt>
   <trkpt lon="-9.321928" lat="39.352622"><ele>24.1</ele></trkpt>
   <trkpt lon="-9.322250" lat="39.352251"><ele>23.3</ele></trkpt>
   <trkpt lon="-9.322442" lat="39.351953"><ele>22.4</ele></trkpt>
   <trkpt lon="-9.322679" lat="39.351441"><ele>21.1</ele></trkpt>
   <trkpt lon="-9.323175" lat="39.350403"><ele>19.6</ele></trkpt>
   <trkpt lon="-9.323543" lat="39.349610"><ele>18.0</ele><sym>pass_place</sym><type>Shaping</type></trkpt>
   <trkpt lon="-9.324287" lat="39.347495"><ele>16.3</ele></trkpt>
   <trkpt lon="-9.324417" lat="39.347247"><ele>14.5</ele></trkpt>
   <trkpt lon="-9.324549" lat="39.347048"><ele>12.6</ele></trkpt>
   <trkpt lon="-9.324749" lat="39.346842"><ele>10.7</ele></trkpt>
   <trkpt lon="-9.324864" lat="39.346739"><ele>9.0</ele></trkpt>
   <trkpt lon="-9.325199" lat="39.346472"><ele>7.4</ele></trkpt>
   <trkpt lon="-9.325384" lat="39.346336"><ele>7.1</ele></trkpt>
   <trkpt lon="-9.325660" lat="39.346150"><ele>6.8</ele></trkpt>
   <trkpt lon="-9.325834" lat="39.346037"><ele>6.8</ele></trkpt>
   <trkpt lon="-9.326455" lat="39.345608"><ele>7.0</ele></trkpt>
   <trkpt lon="-9.326880" lat="39.345283"><ele>7.2</ele></trkpt>
   <trkpt lon="-9.327028" lat="39.345163"><ele>7.7</ele></trkpt>
   <trkpt lon="-9.327155" lat="39.345049"><ele>8.3</ele></trkpt>
   <trkpt lon="-9.327274" lat="39.344929"><ele>8.9</ele></trkpt>
   <trkpt lon="-9.327349" lat="39.344839"><ele>9.7</ele></trkpt>
   <trkpt lon="-9.327409" lat="39.344752"><ele>10.5</ele></trkpt>
   <trkpt lon="-9.327861" lat="39.343963"><ele>11.3</ele></trkpt>
   <trkpt lon="-9.328065" lat="39.343601"><ele>12.1</ele></trkpt>
   <trkpt lon="-9.328121" lat="39.343453"><ele>12.9</ele></trkpt>
   <trkpt lon="-9.328139" lat="39.343376"><ele>13.7</ele></trkpt>
   <trkpt lon="-9.328146" lat="39.343279"><ele>14.7</ele></trkpt>
   <trkpt lon="-9.328140" lat="39.343182"><ele>15.6</ele></trkpt>
   <trkpt lon="-9.328123" lat="39.343074"><ele>16.4</ele></trkpt>
   <trkpt lon="-9.328044" lat="39.342773"><ele>17.7</ele></trkpt>
   <trkpt lon="-9.327948" lat="39.342455"><ele>19.0</ele></trkpt>
   <trkpt lon="-9.327848" lat="39.342110"><ele>20.4</ele></trkpt>
   <trkpt lon="-9.327721" lat="39.341666"><ele>21.8</ele></trkpt>
   <trkpt lon="-9.327530" lat="39.341059"><ele>23.3</ele></trkpt>
   <trkpt lon="-9.327395" lat="39.340638"><ele>24.7</ele></trkpt>
   <trkpt lon="-9.327342" lat="39.340531"><ele>26.0</ele></trkpt>
   <trkpt lon="-9.327252" lat="39.340372"><ele>27.3</ele></trkpt>
   <trkpt lon="-9.327109" lat="39.340105"><ele>28.3</ele></trkpt>
   <trkpt lon="-9.327074" lat="39.340009"><ele>29.3</ele></trkpt>
   <trkpt lon="-9.327030" lat="39.339800"><ele>29.8</ele></trkpt>
   <trkpt lon="-9.327022" lat="39.339757"><ele>29.8</ele><sym>left</sym></trkpt>
   <trkpt lon="-9.326876" lat="39.339763"><ele>29.7</ele></trkpt>
   <trkpt lon="-9.326741" lat="39.339752"><ele>29.5</ele></trkpt>
   <trkpt lon="-9.326547" lat="39.339722"><ele>29.3</ele></trkpt>
   <trkpt lon="-9.326031" lat="39.339614"><ele>29.3</ele><sym>right</sym></trkpt>
   <trkpt lon="-9.326036" lat="39.339585"><ele>29.3</ele></trkpt>
   <trkpt lon="-9.326117" lat="39.339117"><ele>29.3</ele></trkpt>
   <trkpt lon="-9.326122" lat="39.339076"><ele>29.6</ele></trkpt>
   <trkpt lon="-9.326162" lat="39.338718"><ele>29.9</ele></trkpt>
   <trkpt lon="-9.326195" lat="39.338494"><ele>30.3</ele></trkpt>
   <trkpt lon="-9.326254" lat="39.338136"><ele>31.1</ele></trkpt>
   <trkpt lon="-9.326311" lat="39.337770"><ele>31.8</ele></trkpt>
   <trkpt lon="-9.326388" lat="39.337277"><ele>32.6</ele><sym>left</sym></trkpt>
   <trkpt lon="-9.326078" lat="39.337246"><ele>33.3</ele></trkpt>
   <trkpt lon="-9.325961" lat="39.337210"><ele>34.0</ele><sym>right_slight</sym></trkpt>
   <trkpt lon="-9.325927" lat="39.337166"><ele>34.5</ele></trkpt>
   <trkpt lon="-9.325908" lat="39.337123"><ele>35.0</ele></trkpt>
   <trkpt lon="-9.325902" lat="39.336724"><ele>35.5</ele></trkpt>
   <trkpt lon="-9.325901" lat="39.336644"><ele>35.8</ele></trkpt>
   <trkpt lon="-9.325898" lat="39.336426"><ele>36.0</ele></trkpt>
   <trkpt lon="-9.325884" lat="39.336341"><ele>36.1</ele></trkpt>
   <trkpt lon="-9.325841" lat="39.336283"><ele>36.3</ele><sym>straight</sym></trkpt>
   <trkpt lon="-9.325672" lat="39.336113"><ele>36.5</ele></trkpt>
   <trkpt lon="-9.325611" lat="39.336072"><ele>36.7</ele></trkpt>
   <trkpt lon="-9.325568" lat="39.336056"><ele>36.9</ele><sym>right</sym></trkpt>
   <trkpt lon="-9.325587" lat="39.335989"><ele>37.0</ele></trkpt>
   <trkpt lon="-9.325579" lat="39.335890"><ele>37.1</ele></trkpt>
   <trkpt lon="-9.325464" lat="39.335133"><ele>37.1</ele><sym>u-turn_right</sym></trkpt>
   <trkpt lon="-9.325464" lat="39.335129"><ele>37.2</ele><sym>pass_place</sym><type>Shaping</type></trkpt>
   <trkpt lon="-9.325464" lat="39.335133"><ele>37.1</ele></trkpt>
   <trkpt lon="-9.325579" lat="39.335890"><ele>36.8</ele></trkpt>
   <trkpt lon="-9.325587" lat="39.335989"><ele>36.4</ele></trkpt>
   <trkpt lon="-9.325568" lat="39.336056"><ele>36.1</ele><sym>right</sym></trkpt>
   <trkpt lon="-9.325469" lat="39.336034"><ele>35.6</ele></trkpt>
   <trkpt lon="-9.324800" lat="39.336005"><ele>35.2</ele><sym>left</sym></trkpt>
   <trkpt lon="-9.324709" lat="39.336666"><ele>34.8</ele><sym>right</sym></trkpt>
   <trkpt lon="-9.324354" lat="39.336694"><ele>34.5</ele></trkpt>
   <trkpt lon="-9.324166" lat="39.336699"><ele>34.2</ele></trkpt>
   <trkpt lon="-9.323938" lat="39.336688"><ele>34.1</ele></trkpt>
   <trkpt lon="-9.323571" lat="39.336582"><ele>34.5</ele></trkpt>
   <trkpt lon="-9.323302" lat="39.336466"><ele>34.9</ele></trkpt>
   <trkpt lon="-9.322629" lat="39.336173"><ele>35.3</ele></trkpt>
   <trkpt lon="-9.322387" lat="39.336032"><ele>36.0</ele><sym>right_slight</sym></trkpt>
   <trkpt lon="-9.322319" lat="39.335894"><ele>36.7</ele></trkpt>
   <trkpt lon="-9.322264" lat="39.335327"><ele>37.6</ele><sym>left</sym></trkpt>
   <trkpt lon="-9.321674" lat="39.335281"><ele>38.4</ele></trkpt>
   <trkpt lon="-9.321341" lat="39.335227"><ele>39.2</ele></trkpt>
   <trkpt lon="-9.321162" lat="39.335167"><ele>39.8</ele></trkpt>
   <trkpt lon="-9.320994" lat="39.335087"><ele>40.3</ele></trkpt>
   <trkpt lon="-9.320035" lat="39.334394"><ele>40.6</ele></trkpt>
   <trkpt lon="-9.319526" lat="39.334016"><ele>40.4</ele></trkpt>
   <trkpt lon="-9.319370" lat="39.333938"><ele>40.4</ele></trkpt>
   <trkpt lon="-9.319235" lat="39.333900"><ele>40.4</ele><sym>straight</sym></trkpt>
   <trkpt lon="-9.318965" lat="39.333859"><ele>40.3</ele></trkpt>
   <trkpt lon="-9.318779" lat="39.333822"><ele>39.8</ele></trkpt>
   <trkpt lon="-9.318710" lat="39.333816"><ele>40.0</ele></trkpt>
   <trkpt lon="-9.318634" lat="39.333818"><ele>40.3</ele></trkpt>
   <trkpt lon="-9.318559" lat="39.333830"><ele>40.6</ele></trkpt>
   <trkpt lon="-9.318486" lat="39.333852"><ele>41.2</ele></trkpt>
   <trkpt lon="-9.317453" lat="39.334512"><ele>41.9</ele></trkpt>
   <trkpt lon="-9.316518" lat="39.335109"><ele>42.6</ele></trkpt>
   <trkpt lon="-9.316310" lat="39.335194"><ele>43.4</ele></trkpt>
   <trkpt lon="-9.316117" lat="39.335252"><ele>44.0</ele></trkpt>
   <trkpt lon="-9.315864" lat="39.335281"><ele>44.9</ele></trkpt>
   <trkpt lon="-9.315555" lat="39.335255"><ele>45.9</ele></trkpt>
   <trkpt lon="-9.315366" lat="39.335239"><ele>47.4</ele></trkpt>
   <trkpt lon="-9.315252" lat="39.335230"><ele>48.3</ele></trkpt>
   <trkpt lon="-9.313436" lat="39.335093"><ele>49.2</ele></trkpt>
   <trkpt lon="-9.313161" lat="39.335119"><ele>50.0</ele></trkpt>
   <trkpt lon="-9.312893" lat="39.335186"><ele>50.7</ele></trkpt>
   <trkpt lon="-9.312516" lat="39.335424"><ele>51.5</ele></trkpt>
   <trkpt lon="-9.311501" lat="39.336149"><ele>52.2</ele><sym>pass_place</sym><type>Shaping</type></trkpt>
   <trkpt lon="-9.311499" lat="39.336151"><ele>52.3</ele></trkpt>
   <trkpt lon="-9.311347" lat="39.336254"><ele>53.2</ele></trkpt>
   <trkpt lon="-9.311283" lat="39.336306"><ele>53.9</ele></trkpt>
   <trkpt lon="-9.311138" lat="39.336372"><ele>54.9</ele></trkpt>
   <trkpt lon="-9.311092" lat="39.336411"><ele>55.6</ele></trkpt>
   <trkpt lon="-9.311062" lat="39.336450"><ele>56.0</ele><sym>right</sym></trkpt>
   <trkpt lon="-9.310669" lat="39.336362"><ele>56.5</ele></trkpt>
   <trkpt lon="-9.310415" lat="39.336306"><ele>57.1</ele></trkpt>
   <trkpt lon="-9.309428" lat="39.336083"><ele>57.7</ele></trkpt>
   <trkpt lon="-9.309311" lat="39.336058"><ele>58.5</ele></trkpt>
   <trkpt lon="-9.308847" lat="39.335964"><ele>59.3</ele></trkpt>
   <trkpt lon="-9.308574" lat="39.335923"><ele>60.7</ele></trkpt>
   <trkpt lon="-9.308240" lat="39.335886"><ele>62.0</ele></trkpt>
   <trkpt lon="-9.307487" lat="39.335837"><ele>63.8</ele></trkpt>
   <trkpt lon="-9.304894" lat="39.335700"><ele>65.4</ele></trkpt>
   <trkpt lon="-9.304751" lat="39.335692"><ele>67.2</ele></trkpt>
   <trkpt lon="-9.301622" lat="39.335527"><ele>68.9</ele></trkpt>
   <trkpt lon="-9.301356" lat="39.335514"><ele>70.7</ele></trkpt>
   <trkpt lon="-9.300565" lat="39.335465"><ele>72.7</ele></trkpt>
   <trkpt lon="-9.300201" lat="39.335424"><ele>74.6</ele></trkpt>
   <trkpt lon="-9.299741" lat="39.335364"><ele>76.7</ele></trkpt>
   <trkpt lon="-9.299397" lat="39.335316"><ele>78.8</ele></trkpt>
   <trkpt lon="-9.298522" lat="39.335188"><ele>80.4</ele></trkpt>
   <trkpt lon="-9.297416" lat="39.335034"><ele>82.0</ele></trkpt>
   <trkpt lon="-9.292465" lat="39.334318"><ele>83.0</ele></trkpt>
   <trkpt lon="-9.290034" lat="39.333971"><ele>84.0</ele><sym>pass_place</sym><type>Shaping</type></trkpt>
   <trkpt lon="-9.289789" lat="39.333925"><ele>84.9</ele></trkpt>
   <trkpt lon="-9.289645" lat="39.333884"><ele>85.7</ele></trkpt>
   <trkpt lon="-9.289478" lat="39.333826"><ele>86.7</ele></trkpt>
   <trkpt lon="-9.289314" lat="39.333750"><ele>87.5</ele></trkpt>
   <trkpt lon="-9.289158" lat="39.333667"><ele>88.3</ele></trkpt>
   <trkpt lon="-9.288947" lat="39.333545"><ele>88.9</ele></trkpt>
   <trkpt lon="-9.288589" lat="39.333331"><ele>89.4</ele></trkpt>
   <trkpt lon="-9.287674" lat="39.332803"><ele>89.9</ele></trkpt>
   <trkpt lon="-9.287453" lat="39.332667"><ele>90.6</ele></trkpt>
   <trkpt lon="-9.287361" lat="39.332603"><ele>91.4</ele></trkpt>
   <trkpt lon="-9.287188" lat="39.332468"><ele>92.3</ele></trkpt>
   <trkpt lon="-9.287116" lat="39.332401"><ele>93.1</ele></trkpt>
   <trkpt lon="-9.286540" lat="39.331818"><ele>94.0</ele></trkpt>
   <trkpt lon="-9.286181" lat="39.331455"><ele>94.5</ele></trkpt>
   <trkpt lon="-9.286082" lat="39.331364"><ele>94.9</ele></trkpt>
   <trkpt lon="-9.285986" lat="39.331286"><ele>95.4</ele></trkpt>
   <trkpt lon="-9.285906" lat="39.331232"><ele>95.9</ele></trkpt>
   <trkpt lon="-9.285803" lat="39.331168"><ele>96.5</ele></trkpt>
   <trkpt lon="-9.285688" lat="39.331112"><ele>97.1</ele></trkpt>
   <trkpt lon="-9.285607" lat="39.331074"><ele>97.8</ele></trkpt>
   <trkpt lon="-9.285321" lat="39.330978"><ele>98.5</ele></trkpt>
   <trkpt lon="-9.285157" lat="39.330932"><ele>99.3</ele></trkpt>
   <trkpt lon="-9.284619" lat="39.330798"><ele>100.1</ele></trkpt>
   <trkpt lon="-9.284405" lat="39.330744"><ele>100.9</ele></trkpt>
   <trkpt lon="-9.283786" lat="39.330580"><ele>101.8</ele></trkpt>
   <trkpt lon="-9.283612" lat="39.330534"><ele>102.7</ele></trkpt>
   <trkpt lon="-9.283332" lat="39.330460"><ele>103.6</ele></trkpt>
   <trkpt lon="-9.283221" lat="39.330430"><ele>104.7</ele></trkpt>
   <trkpt lon="-9.283038" lat="39.330381"><ele>105.6</ele></trkpt>
   <trkpt lon="-9.282244" lat="39.330169"><ele>106.4</ele></trkpt>
   <trkpt lon="-9.281940" lat="39.330088"><ele>107.0</ele></trkpt>
   <trkpt lon="-9.281521" lat="39.329982"><ele>107.5</ele></trkpt>
   <trkpt lon="-9.281272" lat="39.329941"><ele>107.8</ele></trkpt>
   <trkpt lon="-9.281167" lat="39.329930"><ele>108.4</ele></trkpt>
   <trkpt lon="-9.281063" lat="39.329922"><ele>109.2</ele></trkpt>
   <trkpt lon="-9.280806" lat="39.329922"><ele>110.2</ele></trkpt>
   <trkpt lon="-9.279776" lat="39.329978"><ele>111.2</ele></trkpt>
   <trkpt lon="-9.279205" lat="39.330008"><ele>112.3</ele></trkpt>
   <trkpt lon="-9.278196" lat="39.330067"><ele>113.3</ele></trkpt>
   <trkpt lon="-9.277704" lat="39.330096"><ele>114.4</ele></trkpt>
   <trkpt lon="-9.276577" lat="39.330162"><ele>115.6</ele></trkpt>
   <trkpt lon="-9.275891" lat="39.330203"><ele>116.9</ele></trkpt>
   <trkpt lon="-9.275434" lat="39.330229"><ele>118.2</ele></trkpt>
   <trkpt lon="-9.275305" lat="39.330243"><ele>119.7</ele></trkpt>
   <trkpt lon="-9.275064" lat="39.330277"><ele>121.1</ele></trkpt>
   <trkpt lon="-9.274902" lat="39.330315"><ele>122.2</ele></trkpt>
   <trkpt lon="-9.274607" lat="39.330401"><ele>123.3</ele></trkpt>
   <trkpt lon="-9.273998" lat="39.330617"><ele>124.4</ele></trkpt>
   <trkpt lon="-9.273698" lat="39.330724"><ele>125.3</ele></trkpt>
   <trkpt lon="-9.273354" lat="39.330846"><ele>126.4</ele></trkpt>
   <trkpt lon="-9.273244" lat="39.330879"><ele>127.4</ele></trkpt>
   <trkpt lon="-9.273060" lat="39.330919"><ele>128.3</ele></trkpt>
   <trkpt lon="-9.272925" lat="39.330917"><ele>129.1</ele></trkpt>
   <trkpt lon="-9.272841" lat="39.330903"><ele>130.0</ele></trkpt>
   <trkpt lon="-9.272544" lat="39.330817"><ele>130.8</ele></trkpt>
   <trkpt lon="-9.272441" lat="39.330799"><ele>131.3</ele></trkpt>
   <trkpt lon="-9.272283" lat="39.330796"><ele>131.8</ele></trkpt>
   <trkpt lon="-9.272207" lat="39.330809"><ele>132.2</ele></trkpt>
   <trkpt lon="-9.271983" lat="39.330870"><ele>132.5</ele></trkpt>
   <trkpt lon="-9.271271" lat="39.331098"><ele>132.8</ele></trkpt>
   <trkpt lon="-9.271177" lat="39.331130"><ele>132.9</ele></trkpt>
   <trkpt lon="-9.271112" lat="39.331150"><ele>133.0</ele><sym>pass_place</sym><type>Shaping</type></trkpt>
   <trkpt lon="-9.271108" lat="39.331151"><ele>133.0</ele></trkpt>
   <trkpt lon="-9.270751" lat="39.331286"><ele>133.0</ele></trkpt>
   <trkpt lon="-9.270694" lat="39.331313"><ele>132.8</ele></trkpt>
   <trkpt lon="-9.270359" lat="39.331458"><ele>132.6</ele></trkpt>
   <trkpt lon="-9.270130" lat="39.331573"><ele>132.5</ele></trkpt>
   <trkpt lon="-9.270003" lat="39.331645"><ele>132.4</ele></trkpt>
   <trkpt lon="-9.269960" lat="39.331672"><ele>132.4</ele></trkpt>
   <trkpt lon="-9.269910" lat="39.331705"><ele>132.4</ele></trkpt>
   <trkpt lon="-9.269754" lat="39.331804"><ele>132.5</ele></trkpt>
   <trkpt lon="-9.269610" lat="39.331896"><ele>132.6</ele></trkpt>
   <trkpt lon="-9.269472" lat="39.331972"><ele>132.7</ele></trkpt>
   <trkpt lon="-9.269370" lat="39.332018"><ele>132.8</ele></trkpt>
   <trkpt lon="-9.269269" lat="39.332062"><ele>132.9</ele></trkpt>
   <trkpt lon="-9.269143" lat="39.332104"><ele>133.1</ele></trkpt>
   <trkpt lon="-9.268969" lat="39.332158"><ele>133.3</ele></trkpt>
   <trkpt lon="-9.268898" lat="39.332179"><ele>133.3</ele></trkpt>
   <trkpt lon="-9.268593" lat="39.332273"><ele>133.2</ele></trkpt>
   <trkpt lon="-9.267860" lat="39.332500"><ele>133.1</ele></trkpt>
   <trkpt lon="-9.267804" lat="39.332517"><ele>133.0</ele></trkpt>
   <trkpt lon="-9.267505" lat="39.332610"><ele>132.9</ele></trkpt>
   <trkpt lon="-9.267262" lat="39.332685"><ele>132.8</ele></trkpt>
   <trkpt lon="-9.267056" lat="39.332749"><ele>132.7</ele></trkpt>
   <trkpt lon="-9.266728" lat="39.332841"><ele>132.7</ele></trkpt>
   <trkpt lon="-9.266544" lat="39.332886"><ele>132.7</ele></trkpt>
   <trkpt lon="-9.266362" lat="39.332920"><ele>132.7</ele><sym>left</sym></trkpt>
   <trkpt lon="-9.266371" lat="39.332968"><ele>132.8</ele></trkpt>
   <trkpt lon="-9.266377" lat="39.332999"><ele>133.3</ele><sym>right</sym></trkpt>
   <trkpt lon="-9.266238" lat="39.333032"><ele>133.8</ele></trkpt>
   <trkpt lon="-9.265664" lat="39.333208"><ele>134.2</ele></trkpt>
   <trkpt lon="-9.264493" lat="39.333571"><ele>134.6</ele></trkpt>
   <trkpt lon="-9.263870" lat="39.333772"><ele>134.9</ele></trkpt>
   <trkpt lon="-9.262470" lat="39.334195"><ele>135.2</ele></trkpt>
   <trkpt lon="-9.262169" lat="39.334289"><ele>135.4</ele></trkpt>
   <trkpt lon="-9.261233" lat="39.334476"><ele>135.7</ele></trkpt>
   <trkpt lon="-9.260732" lat="39.334545"><ele>135.8</ele></trkpt>
   <trkpt lon="-9.260668" lat="39.334554"><ele>136.1</ele></trkpt>
   <trkpt lon="-9.260219" lat="39.334617"><ele>136.2</ele></trkpt>
   <trkpt lon="-9.259506" lat="39.334688"><ele>136.0</ele></trkpt>
   <trkpt lon="-9.259157" lat="39.334750"><ele>135.9</ele></trkpt>
   <trkpt lon="-9.258358" lat="39.334916"><ele>136.0</ele></trkpt>
   <trkpt lon="-9.257633" lat="39.334945"><ele>136.0</ele></trkpt>
   <trkpt lon="-9.256957" lat="39.335028"><ele>135.9</ele></trkpt>
   <trkpt lon="-9.256603" lat="39.335040"><ele>135.7</ele></trkpt>
   <trkpt lon="-9.256078" lat="39.335003"><ele>135.4</ele></trkpt>
   <trkpt lon="-9.255579" lat="39.334902"><ele>134.7</ele></trkpt>
   <trkpt lon="-9.253274" lat="39.334502"><ele>133.9</ele></trkpt>
   <trkpt lon="-9.252945" lat="39.334443"><ele>132.6</ele></trkpt>
   <trkpt lon="-9.252171" lat="39.334327"><ele>131.5</ele><sym>pass_place</sym><type>Shaping</type></trkpt>
   <trkpt lon="-9.252167" lat="39.334327"><ele>131.4</ele></trkpt>
   <trkpt lon="-9.251389" lat="39.334219"><ele>130.2</ele></trkpt>
   <trkpt lon="-9.250821" lat="39.334148"><ele>129.0</ele></trkpt>
   <trkpt lon="-9.250021" lat="39.334003"><ele>127.8</ele></trkpt>
   <trkpt lon="-9.249615" lat="39.333916"><ele>126.6</ele></trkpt>
   <trkpt lon="-9.249378" lat="39.333866"><ele>125.6</ele></trkpt>
   <trkpt lon="-9.248771" lat="39.333754"><ele>124.8</ele></trkpt>
   <trkpt lon="-9.248471" lat="39.333688"><ele>124.4</ele></trkpt>
   <trkpt lon="-9.248290" lat="39.333713"><ele>124.2</ele></trkpt>
   <trkpt lon="-9.247865" lat="39.333793"><ele>124.2</ele></trkpt>
   <trkpt lon="-9.247736" lat="39.333835"><ele>124.2</ele><sym>right</sym></trkpt>
   <trkpt lon="-9.247656" lat="39.333504"><ele>124.1</ele></trkpt>
   <trkpt lon="-9.247559" lat="39.333393"><ele>123.9</ele></trkpt>
   <trkpt lon="-9.247206" lat="39.333366"><ele>123.4</ele></trkpt>
   <trkpt lon="-9.247098" lat="39.333385"><ele>122.8</ele></trkpt>
   <trkpt lon="-9.246908" lat="39.333358"><ele>122.1</ele></trkpt>
   <trkpt lon="-9.246599" lat="39.333335"><ele>121.3</ele></trkpt>
   <trkpt lon="-9.246331" lat="39.333347"><ele>120.3</ele></trkpt>
   <trkpt lon="-9.246029" lat="39.333376"><ele>119.1</ele></trkpt>
   <trkpt lon="-9.245901" lat="39.333389"><ele>117.9</ele></trkpt>
   <trkpt lon="-9.245582" lat="39.333405"><ele>116.5</ele></trkpt>
   <trkpt lon="-9.245486" lat="39.333420"><ele>115.1</ele></trkpt>
   <trkpt lon="-9.245177" lat="39.333447"><ele>113.1</ele></trkpt>
   <trkpt lon="-9.244971" lat="39.333421"><ele>111.1</ele></trkpt>
   <trkpt lon="-9.244933" lat="39.333396"><ele>110.2</ele><sym>straight</sym></trkpt>
   <trkpt lon="-9.244628" lat="39.333219"><ele>108.4</ele></trkpt>
   <trkpt lon="-9.244440" lat="39.333138"><ele>106.7</ele></trkpt>
   <trkpt lon="-9.243807" lat="39.332969"><ele>105.0</ele></trkpt>
   <trkpt lon="-9.243689" lat="39.332931"><ele>103.2</ele></trkpt>
   <trkpt lon="-9.243583" lat="39.332884"><ele>101.5</ele></trkpt>
   <trkpt lon="-9.243467" lat="39.332822"><ele>99.6</ele></trkpt>
   <trkpt lon="-9.243361" lat="39.332751"><ele>97.4</ele></trkpt>
   <trkpt lon="-9.243256" lat="39.332668"><ele>94.9</ele></trkpt>
   <trkpt lon="-9.243168" lat="39.332579"><ele>92.7</ele></trkpt>
   <trkpt lon="-9.242847" lat="39.332299"><ele>90.6</ele></trkpt>
   <trkpt lon="-9.242665" lat="39.332209"><ele>88.5</ele></trkpt>
   <trkpt lon="-9.242298" lat="39.332115"><ele>86.1</ele><sym>left_slight</sym></trkpt>
   <trkpt lon="-9.241908" lat="39.332161"><ele>83.2</ele></trkpt>
   <trkpt lon="-9.241636" lat="39.332186"><ele>80.2</ele></trkpt>
   <trkpt lon="-9.241520" lat="39.332164"><ele>77.9</ele></trkpt>
   <trkpt lon="-9.241364" lat="39.332134"><ele>74.9</ele></trkpt>
   <trkpt lon="-9.240699" lat="39.332116"><ele>70.9</ele></trkpt>
   <trkpt lon="-9.239840" lat="39.332178"><ele>67.3</ele></trkpt>
   <trkpt lon="-9.239670" lat="39.332175"><ele>64.1</ele></trkpt>
   <trkpt lon="-9.239537" lat="39.332134"><ele>61.4</ele></trkpt>
   <trkpt lon="-9.238938" lat="39.331547"><ele>58.4</ele></trkpt>
   <trkpt lon="-9.238426" lat="39.330887"><ele>55.4</ele></trkpt>
   <trkpt lon="-9.237948" lat="39.330756"><ele>52.8</ele></trkpt>
   <trkpt lon="-9.237191" lat="39.330494"><ele>50.9</ele></trkpt>
   <trkpt lon="-9.236782" lat="39.330216"><ele>49.0</ele></trkpt>
   <trkpt lon="-9.236359" lat="39.330002"><ele>47.2</ele></trkpt>
   <trkpt lon="-9.236107" lat="39.329936"><ele>46.1</ele></trkpt>
   <trkpt lon="-9.235937" lat="39.329925"><ele>45.7</ele></trkpt>
   <trkpt lon="-9.235719" lat="39.329912"><ele>45.3</ele></trkpt>
   <trkpt lon="-9.235078" lat="39.329921"><ele>45.2</ele></trkpt>
   <trkpt lon="-9.234052" lat="39.329902"><ele>45.0</ele><sym>right_slight</sym></trkpt>
   <trkpt lon="-9.233828" lat="39.329852"><ele>44.9</ele></trkpt>
   <trkpt lon="-9.233455" lat="39.329699"><ele>44.6</ele><sym>pass_place</sym><type>Shaping</type></trkpt>
   <trkpt lon="-9.233414" lat="39.329696"><ele>44.1</ele></trkpt>
   <trkpt lon="-9.233383" lat="39.329701"><ele>43.5</ele><sym>left</sym></trkpt>
   <trkpt lon="-9.233416" lat="39.329800"><ele>43.2</ele></trkpt>
   <trkpt lon="-9.233452" lat="39.330100"><ele>43.1</ele></trkpt>
   <trkpt lon="-9.233457" lat="39.330616"><ele>42.9</ele></trkpt>
   <trkpt lon="-9.233515" lat="39.331832"><ele>42.8</ele></trkpt>
   <trkpt lon="-9.233520" lat="39.331939"><ele>42.9</ele></trkpt>
   <trkpt lon="-9.233551" lat="39.332542"><ele>42.8</ele></trkpt>
   <trkpt lon="-9.233539" lat="39.332652"><ele>42.6</ele></trkpt>
   <trkpt lon="-9.233521" lat="39.332708"><ele>42.4</ele></trkpt>
   <trkpt lon="-9.233323" lat="39.333092"><ele>42.4</ele></trkpt>
   <trkpt lon="-9.232826" lat="39.334157"><ele>42.5</ele></trkpt>
   <trkpt lon="-9.232598" lat="39.334619"><ele>42.7</ele></trkpt>
   <trkpt lon="-9.232322" lat="39.335302"><ele>42.9</ele></trkpt>
   <trkpt lon="-9.231566" lat="39.336554"><ele>42.9</ele></trkpt>
   <trkpt lon="-9.231451" lat="39.336793"><ele>42.9</ele></trkpt>
   <trkpt lon="-9.231180" lat="39.337484"><ele>42.5</ele></trkpt>
   <trkpt lon="-9.231124" lat="39.337616"><ele>41.9</ele></trkpt>
   <trkpt lon="-9.231087" lat="39.337685"><ele>41.6</ele></trkpt>
   <trkpt lon="-9.231044" lat="39.337752"><ele>41.3</ele></trkpt>
   <trkpt lon="-9.230983" lat="39.337825"><ele>41.1</ele></trkpt>
   <trkpt lon="-9.230545" lat="39.338237"><ele>40.9</ele></trkpt>
   <trkpt lon="-9.230104" lat="39.338684"><ele>40.8</ele></trkpt>
   <trkpt lon="-9.230014" lat="39.338790"><ele>40.7</ele><sym>pass_place</sym><type>Shaping</type></trkpt>
   <trkpt lon="-9.230012" lat="39.338793"><ele>40.6</ele></trkpt>
   <trkpt lon="-9.229669" lat="39.339327"><ele>40.6</ele></trkpt>
   <trkpt lon="-9.229245" lat="39.339903"><ele>40.8</ele></trkpt>
   <trkpt lon="-9.229075" lat="39.340076"><ele>41.2</ele></trkpt>
   <trkpt lon="-9.229029" lat="39.340116"><ele>41.7</ele><sym>right_slight</sym></trkpt>
   <trkpt lon="-9.228919" lat="39.340100"><ele>42.0</ele></trkpt>
   <trkpt lon="-9.228792" lat="39.340090"><ele>41.8</ele></trkpt>
   <trkpt lon="-9.228592" lat="39.340084"><ele>41.4</ele></trkpt>
   <trkpt lon="-9.228443" lat="39.340089"><ele>41.0</ele></trkpt>
   <trkpt lon="-9.228315" lat="39.340102"><ele>40.4</ele></trkpt>
   <trkpt lon="-9.227937" lat="39.340162"><ele>39.5</ele></trkpt>
   <trkpt lon="-9.225615" lat="39.340647"><ele>38.4</ele></trkpt>
   <trkpt lon="-9.225458" lat="39.340677"><ele>37.6</ele></trkpt>
   <trkpt lon="-9.223638" lat="39.341048"><ele>36.8</ele></trkpt>
   <trkpt lon="-9.223522" lat="39.341070"><ele>36.2</ele></trkpt>
   <trkpt lon="-9.222929" lat="39.341196"><ele>35.6</ele></trkpt>
   <trkpt lon="-9.222486" lat="39.341290"><ele>35.4</ele></trkpt>
   <trkpt lon="-9.221842" lat="39.341427"><ele>35.8</ele></trkpt>
   <trkpt lon="-9.221702" lat="39.341456"><ele>36.4</ele><sym>right_slight</sym></trkpt>
   <trkpt lon="-9.221594" lat="39.341440"><ele>37.2</ele></trkpt>
   <trkpt lon="-9.221511" lat="39.341422"><ele>38.2</ele></trkpt>
   <trkpt lon="-9.221384" lat="39.341374"><ele>39.4</ele></trkpt>
   <trkpt lon="-9.221307" lat="39.341336"><ele>40.6</ele><sym>roundabout_e3</sym></trkpt>
   <trkpt lon="-9.221282" lat="39.341299"><ele>41.5</ele></trkpt>
   <trkpt lon="-9.221211" lat="39.341242"><ele>42.1</ele></trkpt>
   <trkpt lon="-9.221147" lat="39.341218"><ele>42.4</ele></trkpt>
   <trkpt lon="-9.220879" lat="39.341148"><ele>42.6</ele></trkpt>
   <trkpt lon="-9.220816" lat="39.341143"><ele>42.6</ele></trkpt>
   <trkpt lon="-9.220756" lat="39.341151"><ele>42.3</ele></trkpt>
   <trkpt lon="-9.220638" lat="39.341202"><ele>41.9</ele></trkpt>
   <trkpt lon="-9.220586" lat="39.341258"><ele>41.3</ele></trkpt>
   <trkpt lon="-9.220567" lat="39.341302"><ele>40.4</ele></trkpt>
   <trkpt lon="-9.220558" lat="39.341351"><ele>39.6</ele></trkpt>
   <trkpt lon="-9.220565" lat="39.341420"><ele>38.8</ele></trkpt>
   <trkpt lon="-9.220587" lat="39.341464"><ele>37.9</ele></trkpt>
   <trkpt lon="-9.220586" lat="39.341534"><ele>37.1</ele></trkpt>
   <trkpt lon="-9.220571" lat="39.341587"><ele>36.5</ele></trkpt>
   <trkpt lon="-9.220552" lat="39.341626"><ele>36.8</ele></trkpt>
   <trkpt lon="-9.220524" lat="39.341658"><ele>37.3</ele></trkpt>
   <trkpt lon="-9.220468" lat="39.341705"><ele>37.3</ele><sym>right_slight</sym></trkpt>
   <trkpt lon="-9.220371" lat="39.341726"><ele>37.3</ele></trkpt>
   <trkpt lon="-9.219207" lat="39.341963"><ele>37.2</ele></trkpt>
   <trkpt lon="-9.217765" lat="39.342255"><ele>37.1</ele></trkpt>
   <trkpt lon="-9.215646" lat="39.342693"><ele>37.1</ele></trkpt>
   <trkpt lon="-9.214340" lat="39.342970"><ele>37.2</ele></trkpt>
   <trkpt lon="-9.213523" lat="39.343136"><ele>37.3</ele></trkpt>
   <trkpt lon="-9.212991" lat="39.343249"><ele>37.5</ele></trkpt>
   <trkpt lon="-9.212430" lat="39.343367"><ele>37.5</ele></trkpt>
   <trkpt lon="-9.212142" lat="39.343432"><ele>36.7</ele></trkpt>
   <trkpt lon="-9.211888" lat="39.343488"><ele>35.7</ele></trkpt>
   <trkpt lon="-9.211762" lat="39.343520"><ele>35.3</ele></trkpt>
   <trkpt lon="-9.211510" lat="39.343587"><ele>34.8</ele></trkpt>
   <trkpt lon="-9.211391" lat="39.343619"><ele>34.4</ele></trkpt>
   <trkpt lon="-9.210944" lat="39.343743"><ele>34.0</ele><sym>u-turn_right</sym></trkpt>
   <trkpt lon="-9.210942" lat="39.343739"><ele>33.9</ele><sym>pass_place</sym><type>Shaping</type></trkpt>
   <trkpt lon="-9.210944" lat="39.343743"><ele>33.8</ele></trkpt>
   <trkpt lon="-9.210606" lat="39.343844"><ele>33.6</ele></trkpt>
   <trkpt lon="-9.210269" lat="39.343960"><ele>33.4</ele></trkpt>
   <trkpt lon="-9.210033" lat="39.344056"><ele>33.3</ele></trkpt>
   <trkpt lon="-9.209795" lat="39.344160"><ele>33.2</ele></trkpt>
   <trkpt lon="-9.209553" lat="39.344267"><ele>33.2</ele></trkpt>
   <trkpt lon="-9.208541" lat="39.344717"><ele>33.2</ele></trkpt>
   <trkpt lon="-9.208435" lat="39.344751"><ele>33.3</ele></trkpt>
   <trkpt lon="-9.208236" lat="39.344800"><ele>33.6</ele></trkpt>
   <trkpt lon="-9.208116" lat="39.344820"><ele>33.8</ele></trkpt>
   <trkpt lon="-9.207812" lat="39.344842"><ele>34.0</ele></trkpt>
   <trkpt lon="-9.207643" lat="39.344843"><ele>34.2</ele></trkpt>
   <trkpt lon="-9.206601" lat="39.344778"><ele>34.4</ele></trkpt>
   <trkpt lon="-9.206302" lat="39.344760"><ele>34.7</ele></trkpt>
   <trkpt lon="-9.205493" lat="39.344711"><ele>34.9</ele></trkpt>
   <trkpt lon="-9.205101" lat="39.344688"><ele>35.2</ele></trkpt>
   <trkpt lon="-9.204563" lat="39.344659"><ele>35.3</ele></trkpt>
   <trkpt lon="-9.204348" lat="39.344647"><ele>35.3</ele></trkpt>
   <trkpt lon="-9.203686" lat="39.344608"><ele>35.4</ele></trkpt>
   <trkpt lon="-9.203500" lat="39.344597"><ele>35.5</ele></trkpt>
   <trkpt lon="-9.203011" lat="39.344564"><ele>35.6</ele></trkpt>
   <trkpt lon="-9.202589" lat="39.344537"><ele>35.7</ele></trkpt>
   <trkpt lon="-9.202184" lat="39.344511"><ele>35.7</ele></trkpt>
   <trkpt lon="-9.202029" lat="39.344501"><ele>35.7</ele></trkpt>
   <trkpt lon="-9.201966" lat="39.344497"><ele>35.5</ele></trkpt>
   <trkpt lon="-9.201745" lat="39.344483"><ele>35.3</ele></trkpt>
   <trkpt lon="-9.201708" lat="39.344481"><ele>35.2</ele></trkpt>
   <trkpt lon="-9.201492" lat="39.344467"><ele>34.5</ele></trkpt>
   <trkpt lon="-9.201310" lat="39.344455"><ele>33.5</ele></trkpt>
   <trkpt lon="-9.200974" lat="39.344433"><ele>32.4</ele></trkpt>
   <trkpt lon="-9.199879" lat="39.344359"><ele>31.6</ele></trkpt>
   <trkpt lon="-9.198328" lat="39.344256"><ele>30.8</ele></trkpt>
   <trkpt lon="-9.196335" lat="39.344142"><ele>30.1</ele></trkpt>
   <trkpt lon="-9.195979" lat="39.344152"><ele>29.5</ele></trkpt>
   <trkpt lon="-9.195838" lat="39.344167"><ele>29.1</ele></trkpt>
   <trkpt lon="-9.195038" lat="39.344305"><ele>28.7</ele></trkpt>
   <trkpt lon="-9.194618" lat="39.344382"><ele>28.2</ele></trkpt>
   <trkpt lon="-9.194053" lat="39.344504"><ele>27.3</ele></trkpt>
   <trkpt lon="-9.193734" lat="39.344595"><ele>27.1</ele></trkpt>
   <trkpt lon="-9.193069" lat="39.344825"><ele>27.4</ele></trkpt>
   <trkpt lon="-9.192321" lat="39.345087"><ele>27.7</ele></trkpt>
   <trkpt lon="-9.192107" lat="39.345168"><ele>27.7</ele></trkpt>
   <trkpt lon="-9.191386" lat="39.345410"><ele>27.4</ele></trkpt>
   <trkpt lon="-9.191091" lat="39.345522"><ele>27.0</ele></trkpt>
   <trkpt lon="-9.190859" lat="39.345622"><ele>26.5</ele></trkpt>
   <trkpt lon="-9.190653" lat="39.345733"><ele>25.8</ele><sym>pass_place</sym><type>Shaping</type></trkpt>
   <trkpt lon="-9.190555" lat="39.345789"><ele>25.0</ele></trkpt>
   <trkpt lon="-9.190306" lat="39.345955"><ele>24.2</ele></trkpt>
   <trkpt lon="-9.190077" lat="39.346123"><ele>23.4</ele></trkpt>
   <trkpt lon="-9.189969" lat="39.346215"><ele>22.7</ele></trkpt>
   <trkpt lon="-9.189718" lat="39.346451"><ele>21.9</ele></trkpt>
   <trkpt lon="-9.189617" lat="39.346537"><ele>21.3</ele></trkpt>
   <trkpt lon="-9.189456" lat="39.346660"><ele>20.9</ele></trkpt>
   <trkpt lon="-9.189248" lat="39.346806"><ele>20.7</ele></trkpt>
   <trkpt lon="-9.188764" lat="39.347094"><ele>20.3</ele></trkpt>
   <trkpt lon="-9.188611" lat="39.347151"><ele>19.9</ele></trkpt>
   <trkpt lon="-9.188551" lat="39.347162"><ele>19.9</ele></trkpt>
   <trkpt lon="-9.188449" lat="39.347171"><ele>20.3</ele></trkpt>
   <trkpt lon="-9.188282" lat="39.347171"><ele>20.8</ele></trkpt>
   <trkpt lon="-9.187101" lat="39.347081"><ele>21.4</ele></trkpt>
   <trkpt lon="-9.186747" lat="39.347055"><ele>21.9</ele></trkpt>
   <trkpt lon="-9.186194" lat="39.347015"><ele>22.3</ele></trkpt>
   <trkpt lon="-9.185748" lat="39.347001"><ele>22.6</ele></trkpt>
   <trkpt lon="-9.185523" lat="39.347017"><ele>23.0</ele></trkpt>
   <trkpt lon="-9.185415" lat="39.347032"><ele>23.5</ele></trkpt>
   <trkpt lon="-9.185122" lat="39.347101"><ele>24.5</ele></trkpt>
   <trkpt lon="-9.184942" lat="39.347165"><ele>25.5</ele></trkpt>
   <trkpt lon="-9.184840" lat="39.347213"><ele>26.2</ele></trkpt>
   <trkpt lon="-9.184652" lat="39.347317"><ele>26.7</ele></trkpt>
   <trkpt lon="-9.183345" lat="39.348118"><ele>27.2</ele></trkpt>
   <trkpt lon="-9.182878" lat="39.348395"><ele>27.8</ele></trkpt>
   <trkpt lon="-9.182784" lat="39.348440"><ele>28.5</ele></trkpt>
   <trkpt lon="-9.182605" lat="39.348504"><ele>29.2</ele></trkpt>
   <trkpt lon="-9.182511" lat="39.348526"><ele>29.8</ele></trkpt>
   <trkpt lon="-9.182423" lat="39.348542"><ele>30.4</ele></trkpt>
   <trkpt lon="-9.182240" lat="39.348558"><ele>31.0</ele></trkpt>
   <trkpt lon="-9.182083" lat="39.348556"><ele>31.8</ele></trkpt>
   <trkpt lon="-9.181847" lat="39.348528"><ele>32.8</ele></trkpt>
   <trkpt lon="-9.181752" lat="39.348507"><ele>34.2</ele></trkpt>
   <trkpt lon="-9.181565" lat="39.348449"><ele>35.7</ele></trkpt>
   <trkpt lon="-9.181206" lat="39.348275"><ele>37.4</ele></trkpt>
   <trkpt lon="-9.180982" lat="39.348157"><ele>39.0</ele></trkpt>
   <trkpt lon="-9.180762" lat="39.348032"><ele>40.6</ele></trkpt>
   <trkpt lon="-9.180232" lat="39.347731"><ele>42.2</ele></trkpt>
   <trkpt lon="-9.179445" lat="39.347290"><ele>43.7</ele></trkpt>
   <trkpt lon="-9.177419" lat="39.346170"><ele>45.1</ele></trkpt>
   <trkpt lon="-9.177249" lat="39.346080"><ele>46.3</ele></trkpt>
   <trkpt lon="-9.177083" lat="39.346001"><ele>47.3</ele></trkpt>
   <trkpt lon="-9.176939" lat="39.345948"><ele>48.0</ele></trkpt>
   <trkpt lon="-9.176779" lat="39.345910"><ele>48.2</ele></trkpt>
   <trkpt lon="-9.176650" lat="39.345887"><ele>47.9</ele></trkpt>
   <trkpt lon="-9.176490" lat="39.345873"><ele>47.4</ele></trkpt>
   <trkpt lon="-9.174929" lat="39.345920"><ele>46.9</ele></trkpt>
   <trkpt lon="-9.174691" lat="39.345890"><ele>46.4</ele></trkpt>
   <trkpt lon="-9.174603" lat="39.345872"><ele>45.9</ele></trkpt>
   <trkpt lon="-9.173547" lat="39.345608"><ele>45.4</ele></trkpt>
   <trkpt lon="-9.172809" lat="39.345406"><ele>45.0</ele></trkpt>
   <trkpt lon="-9.172786" lat="39.345400"><ele>44.5</ele></trkpt>
   <trkpt lon="-9.172543" lat="39.345334"><ele>43.9</ele></trkpt>
   <trkpt lon="-9.172215" lat="39.345244"><ele>43.7</ele></trkpt>
   <trkpt lon="-9.172210" lat="39.345242"><ele>43.6</ele><sym>pass_place</sym><type>Shaping</type></trkpt>
   <trkpt lon="-9.172194" lat="39.345240"><ele>43.7</ele></trkpt>
   <trkpt lon="-9.171908" lat="39.345164"><ele>44.1</ele></trkpt>
   <trkpt lon="-9.171878" lat="39.345157"><ele>44.4</ele></trkpt>
   <trkpt lon="-9.170997" lat="39.344925"><ele>45.2</ele></trkpt>
   <trkpt lon="-9.170932" lat="39.344908"><ele>46.1</ele></trkpt>
   <trkpt lon="-9.170665" lat="39.344832"><ele>47.0</ele></trkpt>
   <trkpt lon="-9.170514" lat="39.344792"><ele>48.0</ele></trkpt>
   <trkpt lon="-9.170377" lat="39.344756"><ele>48.9</ele></trkpt>
   <trkpt lon="-9.169426" lat="39.344508"><ele>49.9</ele></trkpt>
   <trkpt lon="-9.169044" lat="39.344407"><ele>50.5</ele></trkpt>
   <trkpt lon="-9.169026" lat="39.344403"><ele>50.9</ele></trkpt>
   <trkpt lon="-9.168386" lat="39.344234"><ele>51.7</ele></trkpt>
   <trkpt lon="-9.168211" lat="39.344188"><ele>52.3</ele></trkpt>
   <trkpt lon="-9.168121" lat="39.344164"><ele>52.9</ele></trkpt>
   <trkpt lon="-9.167280" lat="39.343932"><ele>53.2</ele><sym>straight</sym></trkpt>
   <trkpt lon="-9.167070" lat="39.343858"><ele>53.2</ele></trkpt>
   <trkpt lon="-9.167028" lat="39.343842"><ele>53.1</ele><sym>left</sym></trkpt>
   <trkpt lon="-9.166827" lat="39.343983"><ele>53.1</ele></trkpt>
   <trkpt lon="-9.166128" lat="39.344480"><ele>53.1</ele></trkpt>
   <trkpt lon="-9.165972" lat="39.344589"><ele>53.2</ele></trkpt>
   <trkpt lon="-9.163295" lat="39.346485"><ele>53.7</ele><sym>right_slight</sym></trkpt>
   <trkpt lon="-9.163192" lat="39.346507"><ele>54.2</ele></trkpt>
   <trkpt lon="-9.163088" lat="39.346523"><ele>54.9</ele></trkpt>
   <trkpt lon="-9.163002" lat="39.346528"><ele>55.9</ele></trkpt>
   <trkpt lon="-9.162804" lat="39.346522"><ele>57.0</ele></trkpt>
   <trkpt lon="-9.162378" lat="39.346458"><ele>58.3</ele></trkpt>
   <trkpt lon="-9.162221" lat="39.346446"><ele>59.9</ele></trkpt>
   <trkpt lon="-9.162103" lat="39.346447"><ele>61.8</ele></trkpt>
   <trkpt lon="-9.161979" lat="39.346461"><ele>63.8</ele></trkpt>
   <trkpt lon="-9.161881" lat="39.346479"><ele>65.8</ele></trkpt>
   <trkpt lon="-9.161667" lat="39.346560"><ele>68.2</ele></trkpt>
   <trkpt lon="-9.161565" lat="39.346612"><ele>70.3</ele></trkpt>
   <trkpt lon="-9.161153" lat="39.346871"><ele>72.1</ele></trkpt>
   <trkpt lon="-9.161023" lat="39.346945"><ele>73.9</ele></trkpt>
   <trkpt lon="-9.160920" lat="39.346982"><ele>75.5</ele></trkpt>
   <trkpt lon="-9.160435" lat="39.347104"><ele>77.0</ele></trkpt>
   <trkpt lon="-9.160303" lat="39.347147"><ele>78.2</ele></trkpt>
   <trkpt lon="-9.160194" lat="39.347200"><ele>79.4</ele></trkpt>
   <trkpt lon="-9.159874" lat="39.347418"><ele>80.3</ele></trkpt>
   <trkpt lon="-9.159556" lat="39.347595"><ele>81.0</ele></trkpt>
   <trkpt lon="-9.159446" lat="39.347638"><ele>81.6</ele></trkpt>
   <trkpt lon="-9.159343" lat="39.347657"><ele>82.1</ele></trkpt>
   <trkpt lon="-9.159239" lat="39.347655"><ele>82.5</ele></trkpt>
   <trkpt lon="-9.159135" lat="39.347635"><ele>83.0</ele></trkpt>
   <trkpt lon="-9.159051" lat="39.347598"><ele>83.6</ele></trkpt>
   <trkpt lon="-9.158986" lat="39.347540"><ele>84.1</ele></trkpt>
   <trkpt lon="-9.158943" lat="39.347478"><ele>84.7</ele></trkpt>
   <trkpt lon="-9.158915" lat="39.347402"><ele>86.3</ele></trkpt>
   <trkpt lon="-9.158904" lat="39.347321"><ele>87.9</ele></trkpt>
   <trkpt lon="-9.158906" lat="39.347231"><ele>89.5</ele></trkpt>
   <trkpt lon="-9.158936" lat="39.347129"><ele>92.0</ele></trkpt>
   <trkpt lon="-9.159021" lat="39.346951"><ele>95.6</ele></trkpt>
   <trkpt lon="-9.159451" lat="39.346071"><ele>99.1</ele></trkpt>
   <trkpt lon="-9.159547" lat="39.345934"><ele>102.6</ele></trkpt>
   <trkpt lon="-9.159701" lat="39.345755"><ele>106.0</ele></trkpt>
   <trkpt lon="-9.161252" lat="39.344063"><ele>109.5</ele></trkpt>
   <trkpt lon="-9.161425" lat="39.343862"><ele>113.0</ele></trkpt>
   <trkpt lon="-9.161477" lat="39.343774"><ele>115.3</ele></trkpt>
   <trkpt lon="-9.161480" lat="39.343768"><ele>115.5</ele><sym>pass_place</sym><type>Shaping</type></trkpt>
   <trkpt lon="-9.161530" lat="39.343667"><ele>118.1</ele></trkpt>
   <trkpt lon="-9.161575" lat="39.343549"><ele>121.0</ele></trkpt>
   <trkpt lon="-9.161606" lat="39.343417"><ele>122.8</ele></trkpt>
   <trkpt lon="-9.161627" lat="39.343285"><ele>124.4</ele></trkpt>
   <trkpt lon="-9.161630" lat="39.343175"><ele>126.0</ele></trkpt>
   <trkpt lon="-9.161603" lat="39.342937"><ele>127.5</ele></trkpt>
   <trkpt lon="-9.161530" lat="39.342663"><ele>129.1</ele></trkpt>
   <trkpt lon="-9.161032" lat="39.340846"><ele>130.8</ele></trkpt>
   <trkpt lon="-9.160923" lat="39.340429"><ele>132.5</ele></trkpt>
   <trkpt lon="-9.160903" lat="39.340315"><ele>134.2</ele></trkpt>
   <trkpt lon="-9.160891" lat="39.340181"><ele>136.4</ele></trkpt>
   <trkpt lon="-9.160898" lat="39.340050"><ele>138.8</ele></trkpt>
   <trkpt lon="-9.160926" lat="39.339908"><ele>142.1</ele></trkpt>
   <trkpt lon="-9.160954" lat="39.339777"><ele>144.7</ele></trkpt>
   <trkpt lon="-9.160954" lat="39.339685"><ele>146.9</ele></trkpt>
   <trkpt lon="-9.160912" lat="39.339189"><ele>149.2</ele></trkpt>
   <trkpt lon="-9.160896" lat="39.338804"><ele>151.4</ele></trkpt>
   <trkpt lon="-9.160871" lat="39.337234"><ele>153.1</ele></trkpt>
   <trkpt lon="-9.160834" lat="39.336989"><ele>154.7</ele><sym>pass_place</sym><type>Shaping</type></trkpt>
   <trkpt lon="-9.160833" lat="39.336989"><ele>154.7</ele></trkpt>
   <trkpt lon="-9.160717" lat="39.336561"><ele>156.0</ele></trkpt>
   <trkpt lon="-9.160689" lat="39.336477"><ele>156.6</ele></trkpt>
   <trkpt lon="-9.160534" lat="39.336038"><ele>156.9</ele></trkpt>
   <trkpt lon="-9.160328" lat="39.335501"><ele>156.4</ele></trkpt>
   <trkpt lon="-9.160113" lat="39.334892"><ele>155.9</ele></trkpt>
   <trkpt lon="-9.160058" lat="39.334764"><ele>155.3</ele></trkpt>
   <trkpt lon="-9.159952" lat="39.334564"><ele>155.0</ele></trkpt>
   <trkpt lon="-9.159781" lat="39.334345"><ele>154.9</ele></trkpt>
   <trkpt lon="-9.159273" lat="39.333741"><ele>155.2</ele></trkpt>
   <trkpt lon="-9.159187" lat="39.333592"><ele>155.5</ele></trkpt>
   <trkpt lon="-9.159042" lat="39.333295"><ele>155.7</ele></trkpt>
   <trkpt lon="-9.158924" lat="39.333131"><ele>156.1</ele></trkpt>
   <trkpt lon="-9.158699" lat="39.332878"><ele>156.6</ele></trkpt>
   <trkpt lon="-9.158640" lat="39.332791"><ele>157.1</ele></trkpt>
   <trkpt lon="-9.158547" lat="39.332573"><ele>157.3</ele></trkpt>
   <trkpt lon="-9.158473" lat="39.332443"><ele>157.4</ele></trkpt>
   <trkpt lon="-9.158322" lat="39.332199"><ele>157.5</ele><sym>u-turn</sym><type>Via</type></trkpt>
   <trkpt lon="-9.158473" lat="39.332443"><ele>157.4</ele></trkpt>
   <trkpt lon="-9.158547" lat="39.332573"><ele>157.3</ele></trkpt>
   <trkpt lon="-9.158640" lat="39.332791"><ele>157.1</ele></trkpt>
   <trkpt lon="-9.158699" lat="39.332878"><ele>156.6</ele></trkpt>
   <trkpt lon="-9.158924" lat="39.333131"><ele>156.1</ele></trkpt>
   <trkpt lon="-9.159042" lat="39.333295"><ele>155.7</ele></trkpt>
   <trkpt lon="-9.159187" lat="39.333592"><ele>155.5</ele></trkpt>
   <trkpt lon="-9.159273" lat="39.333741"><ele>155.2</ele></trkpt>
   <trkpt lon="-9.159781" lat="39.334345"><ele>154.9</ele></trkpt>
   <trkpt lon="-9.159952" lat="39.334564"><ele>155.0</ele></trkpt>
   <trkpt lon="-9.160058" lat="39.334764"><ele>155.3</ele></trkpt>
   <trkpt lon="-9.160113" lat="39.334892"><ele>155.9</ele></trkpt>
   <trkpt lon="-9.160328" lat="39.335501"><ele>156.3</ele></trkpt>
   <trkpt lon="-9.160534" lat="39.336038"><ele>155.7</ele></trkpt>
   <trkpt lon="-9.160689" lat="39.336477"><ele>155.0</ele></trkpt>
   <trkpt lon="-9.160717" lat="39.336561"><ele>154.0</ele></trkpt>
   <trkpt lon="-9.160833" lat="39.336989"><ele>152.6</ele></trkpt>
   <trkpt lon="-9.160871" lat="39.337234"><ele>151.1</ele></trkpt>
   <trkpt lon="-9.160896" lat="39.338804"><ele>149.3</ele></trkpt>
   <trkpt lon="-9.160912" lat="39.339189"><ele>147.5</ele></trkpt>
   <trkpt lon="-9.160954" lat="39.339685"><ele>145.3</ele></trkpt>
   <trkpt lon="-9.160954" lat="39.339777"><ele>143.1</ele></trkpt>
   <trkpt lon="-9.160926" lat="39.339908"><ele>140.5</ele></trkpt>
   <trkpt lon="-9.160898" lat="39.340050"><ele>137.2</ele></trkpt>
   <trkpt lon="-9.160891" lat="39.340181"><ele>134.8</ele></trkpt>
   <trkpt lon="-9.160903" lat="39.340315"><ele>132.7</ele></trkpt>
   <trkpt lon="-9.160923" lat="39.340429"><ele>130.9</ele></trkpt>
   <trkpt lon="-9.161032" lat="39.340846"><ele>129.2</ele></trkpt>
   <trkpt lon="-9.161530" lat="39.342663"><ele>127.5</ele></trkpt>
   <trkpt lon="-9.161603" lat="39.342937"><ele>125.9</ele></trkpt>
   <trkpt lon="-9.161630" lat="39.343175"><ele>124.2</ele></trkpt>
   <trkpt lon="-9.161627" lat="39.343285"><ele>122.4</ele></trkpt>
   <trkpt lon="-9.161606" lat="39.343417"><ele>120.4</ele></trkpt>
   <trkpt lon="-9.161575" lat="39.343549"><ele>117.1</ele></trkpt>
   <trkpt lon="-9.161530" lat="39.343667"><ele>114.1</ele></trkpt>
   <trkpt lon="-9.161477" lat="39.343774"><ele>111.3</ele></trkpt>
   <trkpt lon="-9.161425" lat="39.343862"><ele>108.9</ele></trkpt>
   <trkpt lon="-9.161252" lat="39.344063"><ele>105.3</ele></trkpt>
   <trkpt lon="-9.159701" lat="39.345755"><ele>101.6</ele></trkpt>
   <trkpt lon="-9.159547" lat="39.345934"><ele>97.9</ele></trkpt>
   <trkpt lon="-9.159451" lat="39.346071"><ele>94.3</ele></trkpt>
   <trkpt lon="-9.159021" lat="39.346951"><ele>90.8</ele></trkpt>
   <trkpt lon="-9.158936" lat="39.347129"><ele>87.4</ele></trkpt>
   <trkpt lon="-9.158906" lat="39.347231"><ele>84.9</ele></trkpt>
   <trkpt lon="-9.158905" lat="39.347319"><ele>83.3</ele><sym>pass_place</sym><type>Shaping</type></trkpt>
   <trkpt lon="-9.158904" lat="39.347321"><ele>83.2</ele></trkpt>
   <trkpt lon="-9.158915" lat="39.347402"><ele>81.7</ele></trkpt>
   <trkpt lon="-9.158943" lat="39.347478"><ele>81.0</ele></trkpt>
   <trkpt lon="-9.158986" lat="39.347540"><ele>80.4</ele></trkpt>
   <trkpt lon="-9.159051" lat="39.347598"><ele>80.0</ele></trkpt>
   <trkpt lon="-9.159135" lat="39.347635"><ele>79.5</ele></trkpt>
   <trkpt lon="-9.159239" lat="39.347655"><ele>79.0</ele></trkpt>
   <trkpt lon="-9.159343" lat="39.347657"><ele>78.6</ele></trkpt>
   <trkpt lon="-9.159446" lat="39.347638"><ele>78.1</ele></trkpt>
   <trkpt lon="-9.159556" lat="39.347595"><ele>77.5</ele></trkpt>
   <trkpt lon="-9.159874" lat="39.347418"><ele>76.8</ele></trkpt>
   <trkpt lon="-9.160194" lat="39.347200"><ele>75.9</ele></trkpt>
   <trkpt lon="-9.160303" lat="39.347147"><ele>74.7</ele></trkpt>
   <trkpt lon="-9.160435" lat="39.347104"><ele>73.5</ele></trkpt>
   <trkpt lon="-9.160920" lat="39.346982"><ele>72.0</ele></trkpt>
   <trkpt lon="-9.161023" lat="39.346945"><ele>70.4</ele></trkpt>
   <trkpt lon="-9.161153" lat="39.346871"><ele>68.6</ele></trkpt>
   <trkpt lon="-9.161565" lat="39.346612"><ele>66.7</ele></trkpt>
   <trkpt lon="-9.161667" lat="39.346560"><ele>64.7</ele></trkpt>
   <trkpt lon="-9.161881" lat="39.346479"><ele>62.2</ele></trkpt>
   <trkpt lon="-9.161979" lat="39.346461"><ele>60.3</ele></trkpt>
   <trkpt lon="-9.162103" lat="39.346447"><ele>58.2</ele></trkpt>
   <trkpt lon="-9.162221" lat="39.346446"><ele>56.3</ele></trkpt>
   <trkpt lon="-9.162378" lat="39.346458"><ele>54.7</ele></trkpt>
   <trkpt lon="-9.162804" lat="39.346522"><ele>53.1</ele><sym>right_slight</sym></trkpt>
   <trkpt lon="-9.162994" lat="39.346652"><ele>51.6</ele></trkpt>
   <trkpt lon="-9.163044" lat="39.346687"><ele>50.3</ele><sym>right</sym></trkpt>
   <trkpt lon="-9.162921" lat="39.346786"><ele>49.1</ele></trkpt>
   <trkpt lon="-9.162815" lat="39.346885"><ele>48.0</ele></trkpt>
   <trkpt lon="-9.162089" lat="39.347649"><ele>47.2</ele></trkpt>
   <trkpt lon="-9.161953" lat="39.347764"><ele>46.9</ele></trkpt>
   <trkpt lon="-9.161893" lat="39.347803"><ele>46.8</ele></trkpt>
   <trkpt lon="-9.161819" lat="39.347838"><ele>46.8</ele></trkpt>
   <trkpt lon="-9.161742" lat="39.347868"><ele>46.8</ele></trkpt>
   <trkpt lon="-9.161583" lat="39.347904"><ele>46.9</ele></trkpt>
   <trkpt lon="-9.161497" lat="39.347914"><ele>47.1</ele></trkpt>
   <trkpt lon="-9.161415" lat="39.347915"><ele>47.4</ele></trkpt>
   <trkpt lon="-9.161248" lat="39.347900"><ele>47.7</ele></trkpt>
   <trkpt lon="-9.160855" lat="39.347807"><ele>48.0</ele></trkpt>
   <trkpt lon="-9.160709" lat="39.347799"><ele>48.1</ele></trkpt>
   <trkpt lon="-9.160539" lat="39.347829"><ele>48.3</ele></trkpt>
   <trkpt lon="-9.160444" lat="39.347861"><ele>48.3</ele></trkpt>
   <trkpt lon="-9.159587" lat="39.348202"><ele>48.1</ele></trkpt>
   <trkpt lon="-9.159440" lat="39.348255"><ele>47.8</ele></trkpt>
   <trkpt lon="-9.159305" lat="39.348295"><ele>47.4</ele></trkpt>
   <trkpt lon="-9.159190" lat="39.348317"><ele>46.8</ele></trkpt>
   <trkpt lon="-9.159079" lat="39.348327"><ele>46.3</ele></trkpt>
   <trkpt lon="-9.158802" lat="39.348336"><ele>45.7</ele></trkpt>
   <trkpt lon="-9.158712" lat="39.348344"><ele>45.3</ele></trkpt>
   <trkpt lon="-9.158620" lat="39.348360"><ele>44.9</ele></trkpt>
   <trkpt lon="-9.158431" lat="39.348419"><ele>44.6</ele></trkpt>
   <trkpt lon="-9.158363" lat="39.348454"><ele>44.3</ele></trkpt>
   <trkpt lon="-9.158310" lat="39.348507"><ele>44.0</ele></trkpt>
   <trkpt lon="-9.158267" lat="39.348577"><ele>43.7</ele></trkpt>
   <trkpt lon="-9.158239" lat="39.348644"><ele>43.5</ele></trkpt>
   <trkpt lon="-9.158221" lat="39.348698"><ele>43.4</ele></trkpt>
   <trkpt lon="-9.158208" lat="39.348814"><ele>43.3</ele></trkpt>
   <trkpt lon="-9.158223" lat="39.348880"><ele>43.3</ele></trkpt>
   <trkpt lon="-9.158333" lat="39.349084"><ele>43.3</ele></trkpt>
   <trkpt lon="-9.158361" lat="39.349153"><ele>43.3</ele></trkpt>
   <trkpt lon="-9.158377" lat="39.349271"><ele>43.3</ele></trkpt>
   <trkpt lon="-9.158362" lat="39.349384"><ele>43.3</ele></trkpt>
   <trkpt lon="-9.158272" lat="39.349637"><ele>43.2</ele></trkpt>
   <trkpt lon="-9.158261" lat="39.349684"><ele>43.2</ele></trkpt>
   <trkpt lon="-9.158262" lat="39.349763"><ele>43.3</ele></trkpt>
   <trkpt lon="-9.158291" lat="39.349874"><ele>43.5</ele></trkpt>
   <trkpt lon="-9.158345" lat="39.349945"><ele>43.7</ele></trkpt>
   <trkpt lon="-9.158394" lat="39.349989"><ele>43.9</ele></trkpt>
   <trkpt lon="-9.158503" lat="39.350052"><ele>44.0</ele></trkpt>
   <trkpt lon="-9.158576" lat="39.350073"><ele>44.2</ele></trkpt>
   <trkpt lon="-9.158656" lat="39.350087"><ele>44.5</ele></trkpt>
   <trkpt lon="-9.158937" lat="39.350113"><ele>44.8</ele></trkpt>
   <trkpt lon="-9.159010" lat="39.350126"><ele>45.1</ele></trkpt>
   <trkpt lon="-9.159078" lat="39.350145"><ele>45.5</ele></trkpt>
   <trkpt lon="-9.159188" lat="39.350192"><ele>45.9</ele></trkpt>
   <trkpt lon="-9.159270" lat="39.350247"><ele>46.3</ele></trkpt>
   <trkpt lon="-9.159306" lat="39.350287"><ele>46.8</ele></trkpt>
   <trkpt lon="-9.159367" lat="39.350408"><ele>47.2</ele></trkpt>
   <trkpt lon="-9.159385" lat="39.350466"><ele>47.6</ele></trkpt>
   <trkpt lon="-9.159395" lat="39.350531"><ele>48.1</ele></trkpt>
   <trkpt lon="-9.159444" lat="39.351654"><ele>48.5</ele></trkpt>
   <trkpt lon="-9.159446" lat="39.351703"><ele>48.8</ele></trkpt>
   <trkpt lon="-9.159381" lat="39.351952"><ele>49.1</ele></trkpt>
   <trkpt lon="-9.159369" lat="39.352001"><ele>49.4</ele><sym>roundabout_e2</sym></trkpt>
   <trkpt lon="-9.159339" lat="39.352023"><ele>49.7</ele></trkpt>
   <trkpt lon="-9.159317" lat="39.352050"><ele>49.9</ele></trkpt>
   <trkpt lon="-9.159298" lat="39.352111"><ele>50.0</ele></trkpt>
   <trkpt lon="-9.159304" lat="39.352147"><ele>50.1</ele></trkpt>
   <trkpt lon="-9.159321" lat="39.352181"><ele>50.3</ele></trkpt>
   <trkpt lon="-9.159348" lat="39.352210"><ele>50.4</ele></trkpt>
   <trkpt lon="-9.159384" lat="39.352232"><ele>50.4</ele></trkpt>
   <trkpt lon="-9.159481" lat="39.352467"><ele>50.4</ele></trkpt>
   <trkpt lon="-9.159504" lat="39.352552"><ele>50.4</ele></trkpt>
   <trkpt lon="-9.159510" lat="39.352678"><ele>50.4</ele></trkpt>
   <trkpt lon="-9.159512" lat="39.352730"><ele>50.4</ele></trkpt>
   <trkpt lon="-9.159520" lat="39.352949"><ele>50.2</ele></trkpt>
   <trkpt lon="-9.159516" lat="39.353047"><ele>50.1</ele></trkpt>
   <trkpt lon="-9.159505" lat="39.353156"><ele>49.9</ele></trkpt>
   <trkpt lon="-9.159472" lat="39.353311"><ele>49.9</ele></trkpt>
   <trkpt lon="-9.159148" lat="39.354162"><ele>49.7</ele></trkpt>
   <trkpt lon="-9.159073" lat="39.354352"><ele>49.5</ele></trkpt>
   <trkpt lon="-9.159032" lat="39.354455"><ele>49.3</ele></trkpt>
   <trkpt lon="-9.158953" lat="39.354653"><ele>49.3</ele></trkpt>
   <trkpt lon="-9.158754" lat="39.355160"><ele>49.1</ele></trkpt>
   <trkpt lon="-9.158528" lat="39.355736"><ele>48.9</ele></trkpt>
   <trkpt lon="-9.158527" lat="39.355738"><ele>48.8</ele><sym>u-turn</sym><type>Via</type></trkpt>
   <trkpt lon="-9.158528" lat="39.355736"><ele>48.9</ele></trkpt>
   <trkpt lon="-9.158754" lat="39.355160"><ele>49.1</ele></trkpt>
   <trkpt lon="-9.158953" lat="39.354653"><ele>49.3</ele></trkpt>
   <trkpt lon="-9.159032" lat="39.354455"><ele>49.3</ele></trkpt>
   <trkpt lon="-9.159073" lat="39.354352"><ele>49.5</ele></trkpt>
   <trkpt lon="-9.159148" lat="39.354162"><ele>49.7</ele></trkpt>
   <trkpt lon="-9.159472" lat="39.353311"><ele>49.9</ele><sym>pass_place</sym><type>Shaping</type></trkpt>
   <trkpt lon="-9.159505" lat="39.353156"><ele>49.9</ele></trkpt>
   <trkpt lon="-9.159516" lat="39.353047"><ele>50.0</ele></trkpt>
   <trkpt lon="-9.159520" lat="39.352949"><ele>50.1</ele></trkpt>
   <trkpt lon="-9.159512" lat="39.352730"><ele>50.0</ele></trkpt>
   <trkpt lon="-9.159510" lat="39.352678"><ele>49.9</ele></trkpt>
   <trkpt lon="-9.159504" lat="39.352552"><ele>49.7</ele></trkpt>
   <trkpt lon="-9.159530" lat="39.352437"><ele>49.4</ele></trkpt>
   <trkpt lon="-9.159572" lat="39.352291"><ele>49.2</ele></trkpt>
   <trkpt lon="-9.159599" lat="39.352219"><ele>49.0</ele><sym>roundabout_e2</sym></trkpt>
   <trkpt lon="-9.159628" lat="39.352195"><ele>48.7</ele></trkpt>
   <trkpt lon="-9.159648" lat="39.352167"><ele>48.5</ele></trkpt>
   <trkpt lon="-9.159660" lat="39.352135"><ele>48.4</ele></trkpt>
   <trkpt lon="-9.159662" lat="39.352103"><ele>48.3</ele></trkpt>
   <trkpt lon="-9.159654" lat="39.352071"><ele>48.2</ele></trkpt>
   <trkpt lon="-9.159641" lat="39.352046"><ele>48.1</ele></trkpt>
   <trkpt lon="-9.159597" lat="39.352005"><ele>48.0</ele></trkpt>
   <trkpt lon="-9.159446" lat="39.351703"><ele>47.9</ele></trkpt>
   <trkpt lon="-9.159444" lat="39.351654"><ele>47.8</ele></trkpt>
   <trkpt lon="-9.159395" lat="39.350531"><ele>47.6</ele></trkpt>
   <trkpt lon="-9.159385" lat="39.350466"><ele>47.4</ele></trkpt>
   <trkpt lon="-9.159367" lat="39.350408"><ele>47.1</ele></trkpt>
   <trkpt lon="-9.159306" lat="39.350287"><ele>46.8</ele></trkpt>
   <trkpt lon="-9.159270" lat="39.350247"><ele>46.3</ele></trkpt>
   <trkpt lon="-9.159188" lat="39.350192"><ele>45.9</ele></trkpt>
   <trkpt lon="-9.159078" lat="39.350145"><ele>45.5</ele></trkpt>
   <trkpt lon="-9.159010" lat="39.350126"><ele>45.1</ele></trkpt>
   <trkpt lon="-9.158937" lat="39.350113"><ele>44.8</ele></trkpt>
   <trkpt lon="-9.158656" lat="39.350087"><ele>44.5</ele></trkpt>
   <trkpt lon="-9.158576" lat="39.350073"><ele>44.2</ele></trkpt>
   <trkpt lon="-9.158503" lat="39.350052"><ele>44.0</ele></trkpt>
   <trkpt lon="-9.158394" lat="39.349989"><ele>43.9</ele></trkpt>
   <trkpt lon="-9.158345" lat="39.349945"><ele>43.7</ele></trkpt>
   <trkpt lon="-9.158291" lat="39.349874"><ele>43.5</ele></trkpt>
   <trkpt lon="-9.158262" lat="39.349763"><ele>43.3</ele></trkpt>
   <trkpt lon="-9.158261" lat="39.349684"><ele>43.2</ele></trkpt>
   <trkpt lon="-9.158272" lat="39.349637"><ele>43.2</ele></trkpt>
   <trkpt lon="-9.158362" lat="39.349384"><ele>43.3</ele></trkpt>
   <trkpt lon="-9.158377" lat="39.349271"><ele>43.3</ele></trkpt>
   <trkpt lon="-9.158361" lat="39.349153"><ele>43.3</ele></trkpt>
   <trkpt lon="-9.158333" lat="39.349084"><ele>43.3</ele></trkpt>
   <trkpt lon="-9.158223" lat="39.348880"><ele>43.3</ele></trkpt>
   <trkpt lon="-9.158208" lat="39.348814"><ele>43.3</ele></trkpt>
   <trkpt lon="-9.158221" lat="39.348698"><ele>43.4</ele></trkpt>
   <trkpt lon="-9.158239" lat="39.348644"><ele>43.5</ele></trkpt>
   <trkpt lon="-9.158267" lat="39.348577"><ele>43.7</ele></trkpt>
   <trkpt lon="-9.158310" lat="39.348507"><ele>44.0</ele></trkpt>
   <trkpt lon="-9.158363" lat="39.348454"><ele>44.3</ele></trkpt>
   <trkpt lon="-9.158431" lat="39.348419"><ele>44.6</ele></trkpt>
   <trkpt lon="-9.158620" lat="39.348360"><ele>44.9</ele></trkpt>
   <trkpt lon="-9.158712" lat="39.348344"><ele>45.3</ele></trkpt>
   <trkpt lon="-9.158802" lat="39.348336"><ele>45.7</ele></trkpt>
   <trkpt lon="-9.159079" lat="39.348327"><ele>46.3</ele></trkpt>
   <trkpt lon="-9.159190" lat="39.348317"><ele>46.8</ele></trkpt>
   <trkpt lon="-9.159305" lat="39.348295"><ele>47.4</ele></trkpt>
   <trkpt lon="-9.159440" lat="39.348255"><ele>47.8</ele></trkpt>
   <trkpt lon="-9.159587" lat="39.348202"><ele>48.1</ele></trkpt>
   <trkpt lon="-9.160444" lat="39.347861"><ele>48.3</ele></trkpt>
   <trkpt lon="-9.160539" lat="39.347829"><ele>48.3</ele></trkpt>
   <trkpt lon="-9.160709" lat="39.347799"><ele>48.1</ele></trkpt>
   <trkpt lon="-9.160855" lat="39.347807"><ele>48.0</ele></trkpt>
   <trkpt lon="-9.161248" lat="39.347900"><ele>47.7</ele></trkpt>
   <trkpt lon="-9.161415" lat="39.347915"><ele>47.4</ele></trkpt>
   <trkpt lon="-9.161497" lat="39.347914"><ele>47.1</ele></trkpt>
   <trkpt lon="-9.161583" lat="39.347904"><ele>46.9</ele></trkpt>
   <trkpt lon="-9.161742" lat="39.347868"><ele>46.8</ele></trkpt>
   <trkpt lon="-9.161819" lat="39.347838"><ele>46.8</ele></trkpt>
   <trkpt lon="-9.161893" lat="39.347803"><ele>46.8</ele></trkpt>
   <trkpt lon="-9.161953" lat="39.347764"><ele>46.9</ele></trkpt>
   <trkpt lon="-9.162089" lat="39.347649"><ele>47.1</ele></trkpt>
   <trkpt lon="-9.162815" lat="39.346885"><ele>47.5</ele></trkpt>
   <trkpt lon="-9.162921" lat="39.346786"><ele>48.0</ele></trkpt>
   <trkpt lon="-9.163044" lat="39.346687"><ele>48.4</ele></trkpt>
   <trkpt lon="-9.163149" lat="39.346601"><ele>48.8</ele></trkpt>
   <trkpt lon="-9.163295" lat="39.346485"><ele>49.1</ele><sym>stay_right</sym></trkpt>
   <trkpt lon="-9.165972" lat="39.344589"><ele>49.3</ele></trkpt>
   <trkpt lon="-9.166128" lat="39.344480"><ele>49.3</ele></trkpt>
   <trkpt lon="-9.166827" lat="39.343983"><ele>49.3</ele><sym>right_slight</sym></trkpt>
   <trkpt lon="-9.166979" lat="39.343960"><ele>49.4</ele></trkpt>
   <trkpt lon="-9.167096" lat="39.343947"><ele>49.5</ele></trkpt>
   <trkpt lon="-9.167280" lat="39.343932"><ele>49.6</ele><sym>right_slight</sym></trkpt>
   <trkpt lon="-9.168121" lat="39.344164"><ele>49.3</ele></trkpt>
   <trkpt lon="-9.168211" lat="39.344188"><ele>48.7</ele></trkpt>
   <trkpt lon="-9.168386" lat="39.344234"><ele>48.0</ele></trkpt>
   <trkpt lon="-9.169026" lat="39.344403"><ele>47.5</ele></trkpt>
   <trkpt lon="-9.169044" lat="39.344407"><ele>47.1</ele></trkpt>
   <trkpt lon="-9.169426" lat="39.344508"><ele>46.5</ele></trkpt>
   <trkpt lon="-9.170377" lat="39.344756"><ele>45.9</ele></trkpt>
   <trkpt lon="-9.170382" lat="39.344757"><ele>45.8</ele><sym>pass_place</sym><type>Shaping</type></trkpt>
   <trkpt lon="-9.170514" lat="39.344792"><ele>44.9</ele></trkpt>
   <trkpt lon="-9.170665" lat="39.344832"><ele>43.9</ele></trkpt>
   <trkpt lon="-9.170932" lat="39.344908"><ele>43.0</ele></trkpt>
   <trkpt lon="-9.170997" lat="39.344925"><ele>42.3</ele></trkpt>
   <trkpt lon="-9.171878" lat="39.345157"><ele>42.0</ele></trkpt>
   <trkpt lon="-9.171908" lat="39.345164"><ele>41.7</ele></trkpt>
   <trkpt lon="-9.172194" lat="39.345240"><ele>41.5</ele></trkpt>
   <trkpt lon="-9.172215" lat="39.345244"><ele>41.5</ele></trkpt>
   <trkpt lon="-9.172543" lat="39.345334"><ele>41.7</ele></trkpt>
   <trkpt lon="-9.172786" lat="39.345400"><ele>42.1</ele></trkpt>
   <trkpt lon="-9.172809" lat="39.345406"><ele>42.5</ele></trkpt>
   <trkpt lon="-9.173547" lat="39.345608"><ele>43.0</ele></trkpt>
   <trkpt lon="-9.174603" lat="39.345872"><ele>43.5</ele></trkpt>
   <trkpt lon="-9.174691" lat="39.345890"><ele>44.0</ele></trkpt>
   <trkpt lon="-9.174929" lat="39.345920"><ele>44.5</ele></trkpt>
   <trkpt lon="-9.176490" lat="39.345873"><ele>45.0</ele></trkpt>
   <trkpt lon="-9.176650" lat="39.345887"><ele>45.5</ele></trkpt>
   <trkpt lon="-9.176779" lat="39.345910"><ele>45.8</ele></trkpt>
   <trkpt lon="-9.176939" lat="39.345948"><ele>45.5</ele></trkpt>
   <trkpt lon="-9.177083" lat="39.346001"><ele>44.9</ele></trkpt>
   <trkpt lon="-9.177249" lat="39.346080"><ele>43.9</ele></trkpt>
   <trkpt lon="-9.177419" lat="39.346170"><ele>42.7</ele></trkpt>
   <trkpt lon="-9.179445" lat="39.347290"><ele>41.3</ele></trkpt>
   <trkpt lon="-9.180232" lat="39.347731"><ele>39.8</ele></trkpt>
   <trkpt lon="-9.180762" lat="39.348032"><ele>38.2</ele></trkpt>
   <trkpt lon="-9.180982" lat="39.348157"><ele>36.6</ele></trkpt>
   <trkpt lon="-9.181206" lat="39.348275"><ele>35.0</ele></trkpt>
   <trkpt lon="-9.181565" lat="39.348449"><ele>33.3</ele></trkpt>
   <trkpt lon="-9.181752" lat="39.348507"><ele>31.8</ele></trkpt>
   <trkpt lon="-9.181847" lat="39.348528"><ele>30.4</ele></trkpt>
   <trkpt lon="-9.182083" lat="39.348556"><ele>29.4</ele></trkpt>
   <trkpt lon="-9.182240" lat="39.348558"><ele>28.6</ele></trkpt>
   <trkpt lon="-9.182423" lat="39.348542"><ele>28.0</ele></trkpt>
   <trkpt lon="-9.182511" lat="39.348526"><ele>27.4</ele></trkpt>
   <trkpt lon="-9.182605" lat="39.348504"><ele>26.8</ele></trkpt>
   <trkpt lon="-9.182784" lat="39.348440"><ele>26.1</ele></trkpt>
   <trkpt lon="-9.182878" lat="39.348395"><ele>25.4</ele></trkpt>
   <trkpt lon="-9.183345" lat="39.348118"><ele>24.8</ele></trkpt>
   <trkpt lon="-9.184652" lat="39.347317"><ele>24.3</ele></trkpt>
   <trkpt lon="-9.184840" lat="39.347213"><ele>23.8</ele></trkpt>
   <trkpt lon="-9.184942" lat="39.347165"><ele>23.1</ele></trkpt>
   <trkpt lon="-9.185122" lat="39.347101"><ele>22.1</ele></trkpt>
   <trkpt lon="-9.185415" lat="39.347032"><ele>21.1</ele></trkpt>
   <trkpt lon="-9.185523" lat="39.347017"><ele>20.5</ele></trkpt>
   <trkpt lon="-9.185748" lat="39.347001"><ele>20.2</ele></trkpt>
   <trkpt lon="-9.186194" lat="39.347015"><ele>19.9</ele></trkpt>
   <trkpt lon="-9.186747" lat="39.347055"><ele>19.5</ele></trkpt>
   <trkpt lon="-9.187101" lat="39.347081"><ele>19.0</ele></trkpt>
   <trkpt lon="-9.188282" lat="39.347171"><ele>18.4</ele></trkpt>
   <trkpt lon="-9.188449" lat="39.347171"><ele>17.9</ele></trkpt>
   <trkpt lon="-9.188551" lat="39.347162"><ele>17.5</ele></trkpt>
   <trkpt lon="-9.188611" lat="39.347151"><ele>17.5</ele></trkpt>
   <trkpt lon="-9.188764" lat="39.347094"><ele>17.9</ele></trkpt>
   <trkpt lon="-9.189248" lat="39.346806"><ele>18.3</ele><sym>pass_place</sym><type>Shaping</type></trkpt>
   <trkpt lon="-9.189456" lat="39.346660"><ele>18.5</ele></trkpt>
   <trkpt lon="-9.189617" lat="39.346537"><ele>18.9</ele></trkpt>
   <trkpt lon="-9.189718" lat="39.346451"><ele>19.5</ele></trkpt>
   <trkpt lon="-9.189969" lat="39.346215"><ele>20.3</ele></trkpt>
   <trkpt lon="-9.190077" lat="39.346123"><ele>21.0</ele></trkpt>
   <trkpt lon="-9.190306" lat="39.345955"><ele>21.8</ele></trkpt>
   <trkpt lon="-9.190555" lat="39.345789"><ele>22.6</ele></trkpt>
   <trkpt lon="-9.190653" lat="39.345733"><ele>23.4</ele></trkpt>
   <trkpt lon="-9.190859" lat="39.345622"><ele>24.1</ele></trkpt>
   <trkpt lon="-9.191091" lat="39.345522"><ele>24.5</ele></trkpt>
   <trkpt lon="-9.191386" lat="39.345410"><ele>25.0</ele></trkpt>
   <trkpt lon="-9.192107" lat="39.345168"><ele>25.3</ele></trkpt>
   <trkpt lon="-9.192321" lat="39.345087"><ele>25.3</ele></trkpt>
   <trkpt lon="-9.193069" lat="39.344825"><ele>25.0</ele></trkpt>
   <trkpt lon="-9.193734" lat="39.344595"><ele>24.7</ele></trkpt>
   <trkpt lon="-9.194053" lat="39.344504"><ele>24.9</ele></trkpt>
   <trkpt lon="-9.194618" lat="39.344382"><ele>25.8</ele></trkpt>
   <trkpt lon="-9.195038" lat="39.344305"><ele>26.3</ele></trkpt>
   <trkpt lon="-9.195838" lat="39.344167"><ele>26.7</ele></trkpt>
   <trkpt lon="-9.195979" lat="39.344152"><ele>27.1</ele></trkpt>
   <trkpt lon="-9.196335" lat="39.344142"><ele>27.7</ele></trkpt>
   <trkpt lon="-9.198328" lat="39.344256"><ele>28.4</ele></trkpt>
   <trkpt lon="-9.199879" lat="39.344359"><ele>29.2</ele></trkpt>
   <trkpt lon="-9.200974" lat="39.344433"><ele>30.0</ele></trkpt>
   <trkpt lon="-9.201310" lat="39.344455"><ele>31.1</ele></trkpt>
   <trkpt lon="-9.201492" lat="39.344467"><ele>32.1</ele></trkpt>
   <trkpt lon="-9.201708" lat="39.344481"><ele>32.8</ele></trkpt>
   <trkpt lon="-9.201745" lat="39.344483"><ele>32.9</ele></trkpt>
   <trkpt lon="-9.201966" lat="39.344497"><ele>33.1</ele></trkpt>
   <trkpt lon="-9.202029" lat="39.344501"><ele>33.4</ele></trkpt>
   <trkpt lon="-9.202184" lat="39.344511"><ele>33.6</ele></trkpt>
   <trkpt lon="-9.202589" lat="39.344537"><ele>34.3</ele></trkpt>
   <trkpt lon="-9.203011" lat="39.344564"><ele>35.3</ele></trkpt>
   <trkpt lon="-9.203500" lat="39.344597"><ele>36.4</ele><sym>right_slight</sym></trkpt>
   <trkpt lon="-9.203507" lat="39.344671"><ele>38.2</ele></trkpt>
   <trkpt lon="-9.203520" lat="39.344769"><ele>40.6</ele></trkpt>
   <trkpt lon="-9.203638" lat="39.345655"><ele>43.5</ele></trkpt>
   <trkpt lon="-9.203694" lat="39.345941"><ele>46.4</ele></trkpt>
   <trkpt lon="-9.203777" lat="39.346105"><ele>49.4</ele><sym>left_slight</sym></trkpt>
   <trkpt lon="-9.204679" lat="39.346623"><ele>52.5</ele></trkpt>
   <trkpt lon="-9.205298" lat="39.346897"><ele>55.7</ele></trkpt>
   <trkpt lon="-9.205606" lat="39.347017"><ele>59.5</ele></trkpt>
   <trkpt lon="-9.205888" lat="39.347107"><ele>62.8</ele></trkpt>
   <trkpt lon="-9.206446" lat="39.347210"><ele>65.9</ele></trkpt>
   <trkpt lon="-9.206546" lat="39.347260"><ele>68.1</ele></trkpt>
   <trkpt lon="-9.206626" lat="39.347325"><ele>70.3</ele></trkpt>
   <trkpt lon="-9.206910" lat="39.347606"><ele>71.9</ele></trkpt>
   <trkpt lon="-9.206947" lat="39.347655"><ele>73.3</ele><sym>pass_place</sym><type>Shaping</type></trkpt>
   <trkpt lon="-9.206955" lat="39.347688"><ele>74.2</ele></trkpt>
   <trkpt lon="-9.206945" lat="39.347726"><ele>75.1</ele><sym>left_slight</sym></trkpt>
   <trkpt lon="-9.207023" lat="39.347825"><ele>76.4</ele></trkpt>
   <trkpt lon="-9.207057" lat="39.347897"><ele>77.4</ele></trkpt>
   <trkpt lon="-9.207084" lat="39.347986"><ele>77.7</ele></trkpt>
   <trkpt lon="-9.207123" lat="39.348227"><ele>77.9</ele></trkpt>
   <trkpt lon="-9.207148" lat="39.348512"><ele>78.0</ele></trkpt>
   <trkpt lon="-9.207128" lat="39.348685"><ele>78.0</ele></trkpt>
   <trkpt lon="-9.206884" lat="39.349446"><ele>77.8</ele></trkpt>
   <trkpt lon="-9.206790" lat="39.349913"><ele>77.4</ele></trkpt>
   <trkpt lon="-9.206777" lat="39.350030"><ele>77.0</ele></trkpt>
   <trkpt lon="-9.206773" lat="39.350120"><ele>76.7</ele></trkpt>
   <trkpt lon="-9.206784" lat="39.350233"><ele>76.2</ele></trkpt>
   <trkpt lon="-9.206804" lat="39.350330"><ele>75.8</ele></trkpt>
   <trkpt lon="-9.206855" lat="39.350490"><ele>75.6</ele></trkpt>
   <trkpt lon="-9.206890" lat="39.350546"><ele>75.7</ele></trkpt>
   <trkpt lon="-9.207178" lat="39.350903"><ele>75.6</ele></trkpt>
   <trkpt lon="-9.207259" lat="39.350992"><ele>75.5</ele></trkpt>
   <trkpt lon="-9.207628" lat="39.351471"><ele>75.4</ele></trkpt>
   <trkpt lon="-9.207757" lat="39.351644"><ele>75.5</ele></trkpt>
   <trkpt lon="-9.207993" lat="39.351995"><ele>75.7</ele></trkpt>
   <trkpt lon="-9.208305" lat="39.352401"><ele>75.8</ele></trkpt>
   <trkpt lon="-9.208373" lat="39.352500"><ele>75.5</ele></trkpt>
   <trkpt lon="-9.208467" lat="39.352684"><ele>75.0</ele></trkpt>
   <trkpt lon="-9.208492" lat="39.352773"><ele>74.3</ele></trkpt>
   <trkpt lon="-9.208522" lat="39.352894"><ele>73.5</ele></trkpt>
   <trkpt lon="-9.208563" lat="39.353121"><ele>72.1</ele></trkpt>
   <trkpt lon="-9.208700" lat="39.353914"><ele>70.8</ele></trkpt>
   <trkpt lon="-9.208776" lat="39.354198"><ele>69.5</ele></trkpt>
   <trkpt lon="-9.208893" lat="39.354498"><ele>68.1</ele></trkpt>
   <trkpt lon="-9.209160" lat="39.355080"><ele>66.6</ele></trkpt>
   <trkpt lon="-9.209610" lat="39.356083"><ele>65.0</ele></trkpt>
   <trkpt lon="-9.209674" lat="39.356212"><ele>62.2</ele></trkpt>
   <trkpt lon="-9.209743" lat="39.356317"><ele>59.8</ele></trkpt>
   <trkpt lon="-9.209855" lat="39.356453"><ele>57.3</ele></trkpt>
   <trkpt lon="-9.209956" lat="39.356557"><ele>54.8</ele></trkpt>
   <trkpt lon="-9.210211" lat="39.356795"><ele>52.1</ele></trkpt>
   <trkpt lon="-9.211579" lat="39.358053"><ele>49.9</ele></trkpt>
   <trkpt lon="-9.211680" lat="39.358161"><ele>47.6</ele></trkpt>
   <trkpt lon="-9.211823" lat="39.358367"><ele>45.4</ele></trkpt>
   <trkpt lon="-9.211879" lat="39.358479"><ele>43.2</ele></trkpt>
   <trkpt lon="-9.211949" lat="39.358648"><ele>40.5</ele></trkpt>
   <trkpt lon="-9.211971" lat="39.358737"><ele>38.3</ele></trkpt>
   <trkpt lon="-9.211980" lat="39.358814"><ele>36.8</ele></trkpt>
   <trkpt lon="-9.211984" lat="39.358904"><ele>35.3</ele></trkpt>
   <trkpt lon="-9.211966" lat="39.358990"><ele>33.8</ele></trkpt>
   <trkpt lon="-9.211677" lat="39.359794"><ele>32.5</ele></trkpt>
   <trkpt lon="-9.211654" lat="39.359897"><ele>31.4</ele></trkpt>
   <trkpt lon="-9.211647" lat="39.359998"><ele>30.4</ele></trkpt>
   <trkpt lon="-9.211664" lat="39.360123"><ele>29.6</ele></trkpt>
   <trkpt lon="-9.211787" lat="39.360561"><ele>28.9</ele></trkpt>
   <trkpt lon="-9.211800" lat="39.360594"><ele>28.0</ele><sym>right_slight</sym></trkpt>
   <trkpt lon="-9.211802" lat="39.360743"><ele>27.6</ele></trkpt>
   <trkpt lon="-9.211796" lat="39.360956"><ele>27.3</ele></trkpt>
   <trkpt lon="-9.211779" lat="39.361104"><ele>27.3</ele></trkpt>
   <trkpt lon="-9.211436" lat="39.362260"><ele>27.4</ele></trkpt>
   <trkpt lon="-9.211275" lat="39.362810"><ele>27.8</ele><sym>pass_place</sym><type>Shaping</type></trkpt>
   <trkpt lon="-9.211273" lat="39.362814"><ele>27.9</ele></trkpt>
   <trkpt lon="-9.211221" lat="39.362991"><ele>28.3</ele></trkpt>
   <trkpt lon="-9.211156" lat="39.363298"><ele>28.8</ele></trkpt>
   <trkpt lon="-9.211153" lat="39.363344"><ele>29.3</ele></trkpt>
   <trkpt lon="-9.211143" lat="39.363489"><ele>29.6</ele></trkpt>
   <trkpt lon="-9.211148" lat="39.363572"><ele>30.2</ele></trkpt>
   <trkpt lon="-9.211161" lat="39.363782"><ele>30.8</ele></trkpt>
   <trkpt lon="-9.211176" lat="39.363963"><ele>31.9</ele><sym>left</sym></trkpt>
   <trkpt lon="-9.211345" lat="39.363941"><ele>32.8</ele></trkpt>
   <trkpt lon="-9.211604" lat="39.363892"><ele>33.9</ele><sym>stay_left</sym></trkpt>
   <trkpt lon="-9.211824" lat="39.363850"><ele>35.2</ele></trkpt>
   <trkpt lon="-9.212173" lat="39.363761"><ele>36.9</ele></trkpt>
   <trkpt lon="-9.212923" lat="39.363473"><ele>38.4</ele></trkpt>
   <trkpt lon="-9.213193" lat="39.363423"><ele>39.9</ele></trkpt>
   <trkpt lon="-9.213726" lat="39.363392"><ele>41.4</ele></trkpt>
   <trkpt lon="-9.214061" lat="39.363373"><ele>42.9</ele><sym>straight</sym></trkpt>
   <trkpt lon="-9.214997" lat="39.363282"><ele>44.8</ele><sym>left_slight</sym></trkpt>
   <trkpt lon="-9.215066" lat="39.363224"><ele>46.7</ele></trkpt>
   <trkpt lon="-9.215105" lat="39.363172"><ele>48.2</ele><sym>straight</sym></trkpt>
   <trkpt lon="-9.215134" lat="39.363127"><ele>49.4</ele></trkpt>
   <trkpt lon="-9.215206" lat="39.363000"><ele>50.6</ele><sym>left_slight</sym></trkpt>
   <trkpt lon="-9.215121" lat="39.362707"><ele>51.6</ele></trkpt>
   <trkpt lon="-9.215070" lat="39.362485"><ele>52.1</ele></trkpt>
   <trkpt lon="-9.215064" lat="39.362326"><ele>52.7</ele></trkpt>
   <trkpt lon="-9.215070" lat="39.362191"><ele>53.3</ele></trkpt>
   <trkpt lon="-9.215104" lat="39.362071"><ele>54.0</ele></trkpt>
   <trkpt lon="-9.215153" lat="39.361986"><ele>55.0</ele></trkpt>
   <trkpt lon="-9.215708" lat="39.361309"><ele>55.7</ele></trkpt>
   <trkpt lon="-9.215777" lat="39.361206"><ele>56.4</ele></trkpt>
   <trkpt lon="-9.215842" lat="39.361048"><ele>56.9</ele></trkpt>
   <trkpt lon="-9.215915" lat="39.360740"><ele>57.3</ele></trkpt>
   <trkpt lon="-9.215990" lat="39.360422"><ele>57.6</ele></trkpt>
   <trkpt lon="-9.216016" lat="39.360358"><ele>58.0</ele></trkpt>
   <trkpt lon="-9.216153" lat="39.360130"><ele>58.4</ele></trkpt>
   <trkpt lon="-9.216362" lat="39.359684"><ele>58.8</ele></trkpt>
   <trkpt lon="-9.216403" lat="39.359573"><ele>59.1</ele></trkpt>
   <trkpt lon="-9.216438" lat="39.359478"><ele>59.2</ele></trkpt>
   <trkpt lon="-9.216585" lat="39.359265"><ele>59.1</ele></trkpt>
   <trkpt lon="-9.216700" lat="39.359151"><ele>59.1</ele></trkpt>
   <trkpt lon="-9.216958" lat="39.358999"><ele>58.9</ele></trkpt>
   <trkpt lon="-9.217137" lat="39.358907"><ele>58.9</ele></trkpt>
   <trkpt lon="-9.217325" lat="39.358784"><ele>59.1</ele></trkpt>
   <trkpt lon="-9.217407" lat="39.358710"><ele>59.3</ele></trkpt>
   <trkpt lon="-9.217535" lat="39.358576"><ele>59.7</ele></trkpt>
   <trkpt lon="-9.217628" lat="39.358430"><ele>60.2</ele></trkpt>
   <trkpt lon="-9.217701" lat="39.358278"><ele>60.5</ele></trkpt>
   <trkpt lon="-9.217760" lat="39.358133"><ele>61.0</ele></trkpt>
   <trkpt lon="-9.217832" lat="39.358038"><ele>61.8</ele></trkpt>
   <trkpt lon="-9.218036" lat="39.357843"><ele>62.6</ele></trkpt>
   <trkpt lon="-9.218167" lat="39.357708"><ele>63.6</ele></trkpt>
   <trkpt lon="-9.218613" lat="39.357212"><ele>64.9</ele></trkpt>
   <trkpt lon="-9.218774" lat="39.357004"><ele>66.2</ele></trkpt>
   <trkpt lon="-9.218903" lat="39.356795"><ele>67.6</ele></trkpt>
   <trkpt lon="-9.218996" lat="39.356667"><ele>69.2</ele></trkpt>
   <trkpt lon="-9.219114" lat="39.356451"><ele>70.7</ele></trkpt>
   <trkpt lon="-9.219216" lat="39.356233"><ele>72.2</ele></trkpt>
   <trkpt lon="-9.219318" lat="39.356046"><ele>74.0</ele></trkpt>
   <trkpt lon="-9.219399" lat="39.355785"><ele>75.6</ele></trkpt>
   <trkpt lon="-9.219485" lat="39.355546"><ele>77.1</ele></trkpt>
   <trkpt lon="-9.219565" lat="39.355396"><ele>78.5</ele></trkpt>
   <trkpt lon="-9.219632" lat="39.355289"><ele>79.7</ele></trkpt>
   <trkpt lon="-9.219659" lat="39.355208"><ele>80.7</ele></trkpt>
   <trkpt lon="-9.219691" lat="39.354783"><ele>81.5</ele><sym>pass_place</sym><type>Shaping</type></trkpt>
   <trkpt lon="-9.219787" lat="39.354427"><ele>82.3</ele></trkpt>
   <trkpt lon="-9.219884" lat="39.354204"><ele>82.7</ele></trkpt>
   <trkpt lon="-9.219930" lat="39.353966"><ele>83.0</ele></trkpt>
   <trkpt lon="-9.219943" lat="39.353748"><ele>83.2</ele></trkpt>
   <trkpt lon="-9.219943" lat="39.353592"><ele>83.3</ele></trkpt>
   <trkpt lon="-9.220010" lat="39.353362"><ele>83.6</ele></trkpt>
   <trkpt lon="-9.220126" lat="39.353188"><ele>83.8</ele></trkpt>
   <trkpt lon="-9.220222" lat="39.353103"><ele>84.0</ele></trkpt>
   <trkpt lon="-9.220378" lat="39.353001"><ele>83.9</ele></trkpt>
   <trkpt lon="-9.220654" lat="39.352846"><ele>83.3</ele></trkpt>
   <trkpt lon="-9.221121" lat="39.352566"><ele>82.4</ele></trkpt>
   <trkpt lon="-9.221242" lat="39.352457"><ele>80.2</ele></trkpt>
   <trkpt lon="-9.221260" lat="39.352441"><ele>79.7</ele></trkpt>
   <trkpt lon="-9.221362" lat="39.352282"><ele>77.2</ele></trkpt>
   <trkpt lon="-9.221550" lat="39.351879"><ele>74.7</ele></trkpt>
   <trkpt lon="-9.221684" lat="39.351525"><ele>72.4</ele></trkpt>
   <trkpt lon="-9.222153" lat="39.349598"><ele>69.6</ele></trkpt>
   <trkpt lon="-9.222221" lat="39.349288"><ele>66.5</ele></trkpt>
   <trkpt lon="-9.222231" lat="39.349227"><ele>65.0</ele></trkpt>
   <trkpt lon="-9.222234" lat="39.348955"><ele>60.8</ele></trkpt>
   <trkpt lon="-9.222221" lat="39.348378"><ele>57.0</ele></trkpt>
   <trkpt lon="-9.222215" lat="39.347437"><ele>53.3</ele></trkpt>
   <trkpt lon="-9.222193" lat="39.346475"><ele>50.9</ele></trkpt>
   <trkpt lon="-9.222172" lat="39.345294"><ele>48.6</ele></trkpt>
   <trkpt lon="-9.222175" lat="39.345091"><ele>46.4</ele></trkpt>
   <trkpt lon="-9.222151" lat="39.344563"><ele>44.3</ele></trkpt>
   <trkpt lon="-9.222162" lat="39.344365"><ele>42.0</ele></trkpt>
   <trkpt lon="-9.222153" lat="39.344063"><ele>40.0</ele></trkpt>
   <trkpt lon="-9.222124" lat="39.343842"><ele>38.4</ele></trkpt>
   <trkpt lon="-9.222077" lat="39.343658"><ele>38.1</ele></trkpt>
   <trkpt lon="-9.221973" lat="39.343426"><ele>37.8</ele></trkpt>
   <trkpt lon="-9.221180" lat="39.341766"><ele>37.3</ele><sym>right_slight</sym></trkpt>
   <trkpt lon="-9.221208" lat="39.341644"><ele>36.8</ele></trkpt>
   <trkpt lon="-9.221229" lat="39.341588"><ele>36.1</ele><sym>roundabout_e1</sym></trkpt>
   <trkpt lon="-9.221282" lat="39.341544"><ele>35.5</ele></trkpt>
   <trkpt lon="-9.221444" lat="39.341513"><ele>35.3</ele></trkpt>
   <trkpt lon="-9.221702" lat="39.341456"><ele>35.2</ele></trkpt>
   <trkpt lon="-9.221842" lat="39.341427"><ele>35.3</ele></trkpt>
   <trkpt lon="-9.222486" lat="39.341290"><ele>35.2</ele></trkpt>
   <trkpt lon="-9.222929" lat="39.341196"><ele>35.1</ele></trkpt>
   <trkpt lon="-9.223522" lat="39.341070"><ele>35.5</ele></trkpt>
   <trkpt lon="-9.223638" lat="39.341048"><ele>36.0</ele></trkpt>
   <trkpt lon="-9.225458" lat="39.340677"><ele>36.8</ele></trkpt>
   <trkpt lon="-9.225460" lat="39.340676"><ele>36.9</ele><sym>pass_place</sym><type>Shaping</type></trkpt>
   <trkpt lon="-9.225615" lat="39.340647"><ele>38.0</ele></trkpt>
   <trkpt lon="-9.227937" lat="39.340162"><ele>38.9</ele></trkpt>
   <trkpt lon="-9.228315" lat="39.340102"><ele>39.5</ele></trkpt>
   <trkpt lon="-9.228443" lat="39.340089"><ele>39.9</ele></trkpt>
   <trkpt lon="-9.228592" lat="39.340084"><ele>40.4</ele></trkpt>
   <trkpt lon="-9.228792" lat="39.340090"><ele>41.2</ele></trkpt>
   <trkpt lon="-9.228919" lat="39.340100"><ele>42.0</ele></trkpt>
   <trkpt lon="-9.229029" lat="39.340116"><ele>42.4</ele><sym>right_slight</sym></trkpt>
   <trkpt lon="-9.229372" lat="39.340215"><ele>42.8</ele></trkpt>
   <trkpt lon="-9.229766" lat="39.340372"><ele>43.3</ele></trkpt>
   <trkpt lon="-9.230014" lat="39.340471"><ele>44.1</ele></trkpt>
   <trkpt lon="-9.230223" lat="39.340536"><ele>45.1</ele></trkpt>
   <trkpt lon="-9.230359" lat="39.340567"><ele>46.3</ele></trkpt>
   <trkpt lon="-9.230513" lat="39.340596"><ele>47.7</ele></trkpt>
   <trkpt lon="-9.230821" lat="39.340634"><ele>49.4</ele></trkpt>
   <trkpt lon="-9.231238" lat="39.340643"><ele>51.1</ele></trkpt>
   <trkpt lon="-9.231519" lat="39.340620"><ele>53.1</ele></trkpt>
   <trkpt lon="-9.231809" lat="39.340570"><ele>55.1</ele></trkpt>
   <trkpt lon="-9.231936" lat="39.340538"><ele>57.2</ele></trkpt>
   <trkpt lon="-9.232191" lat="39.340461"><ele>59.1</ele></trkpt>
   <trkpt lon="-9.232619" lat="39.340283"><ele>61.0</ele></trkpt>
   <trkpt lon="-9.233949" lat="39.339632"><ele>62.9</ele></trkpt>
   <trkpt lon="-9.234246" lat="39.339478"><ele>65.2</ele></trkpt>
   <trkpt lon="-9.234486" lat="39.339360"><ele>67.5</ele></trkpt>
   <trkpt lon="-9.234629" lat="39.339290"><ele>69.7</ele></trkpt>
   <trkpt lon="-9.234891" lat="39.339163"><ele>71.8</ele></trkpt>
   <trkpt lon="-9.235102" lat="39.339060"><ele>73.7</ele></trkpt>
   <trkpt lon="-9.236049" lat="39.338602"><ele>75.1</ele></trkpt>
   <trkpt lon="-9.236358" lat="39.338450"><ele>76.6</ele></trkpt>
   <trkpt lon="-9.236619" lat="39.338312"><ele>78.0</ele></trkpt>
   <trkpt lon="-9.236819" lat="39.338212"><ele>79.5</ele></trkpt>
   <trkpt lon="-9.236901" lat="39.338169"><ele>81.1</ele><sym>right</sym></trkpt>
   <trkpt lon="-9.236949" lat="39.338213"><ele>82.5</ele></trkpt>
   <trkpt lon="-9.237085" lat="39.338301"><ele>83.6</ele></trkpt>
   <trkpt lon="-9.237152" lat="39.338327"><ele>85.1</ele></trkpt>
   <trkpt lon="-9.237232" lat="39.338335"><ele>86.6</ele></trkpt>
   <trkpt lon="-9.237609" lat="39.338271"><ele>88.7</ele></trkpt>
   <trkpt lon="-9.237769" lat="39.338239"><ele>91.0</ele></trkpt>
   <trkpt lon="-9.237936" lat="39.338235"><ele>93.2</ele></trkpt>
   <trkpt lon="-9.238712" lat="39.338253"><ele>95.5</ele></trkpt>
   <trkpt lon="-9.239228" lat="39.338231"><ele>97.8</ele></trkpt>
   <trkpt lon="-9.239947" lat="39.338048"><ele>100.1</ele></trkpt>
   <trkpt lon="-9.240339" lat="39.337890"><ele>102.2</ele></trkpt>
   <trkpt lon="-9.240564" lat="39.337824"><ele>104.4</ele></trkpt>
   <trkpt lon="-9.240816" lat="39.337741"><ele>106.5</ele></trkpt>
   <trkpt lon="-9.241154" lat="39.337654"><ele>107.9</ele></trkpt>
   <trkpt lon="-9.241390" lat="39.337575"><ele>108.9</ele></trkpt>
   <trkpt lon="-9.241596" lat="39.337485"><ele>109.8</ele></trkpt>
   <trkpt lon="-9.241800" lat="39.337386"><ele>110.7</ele></trkpt>
   <trkpt lon="-9.241953" lat="39.337297"><ele>111.4</ele></trkpt>
   <trkpt lon="-9.242066" lat="39.337247"><ele>111.9</ele></trkpt>
   <trkpt lon="-9.242222" lat="39.337243"><ele>112.4</ele></trkpt>
   <trkpt lon="-9.242377" lat="39.337227"><ele>112.8</ele></trkpt>
   <trkpt lon="-9.242506" lat="39.337185"><ele>113.3</ele></trkpt>
   <trkpt lon="-9.242645" lat="39.337106"><ele>113.7</ele></trkpt>
   <trkpt lon="-9.242978" lat="39.336869"><ele>114.1</ele></trkpt>
   <trkpt lon="-9.243268" lat="39.336654"><ele>114.4</ele></trkpt>
   <trkpt lon="-9.243515" lat="39.336480"><ele>114.7</ele></trkpt>
   <trkpt lon="-9.243836" lat="39.336268"><ele>115.0</ele></trkpt>
   <trkpt lon="-9.244080" lat="39.336124"><ele>115.2</ele></trkpt>
   <trkpt lon="-9.244190" lat="39.336044"><ele>115.4</ele></trkpt>
   <trkpt lon="-9.244292" lat="39.335994"><ele>115.7</ele></trkpt>
   <trkpt lon="-9.244393" lat="39.335974"><ele>116.0</ele><sym>pass_place</sym><type>Shaping</type></trkpt>
   <trkpt lon="-9.244394" lat="39.335974"><ele>116.0</ele></trkpt>
   <trkpt lon="-9.244485" lat="39.335970"><ele>116.2</ele></trkpt>
   <trkpt lon="-9.244668" lat="39.335986"><ele>116.4</ele></trkpt>
   <trkpt lon="-9.244915" lat="39.335957"><ele>116.4</ele></trkpt>
   <trkpt lon="-9.245220" lat="39.335899"><ele>116.6</ele></trkpt>
   <trkpt lon="-9.245612" lat="39.335833"><ele>116.7</ele></trkpt>
   <trkpt lon="-9.245885" lat="39.335758"><ele>116.8</ele></trkpt>
   <trkpt lon="-9.246068" lat="39.335696"><ele>116.9</ele></trkpt>
   <trkpt lon="-9.246229" lat="39.335580"><ele>117.1</ele></trkpt>
   <trkpt lon="-9.246357" lat="39.335430"><ele>117.4</ele></trkpt>
   <trkpt lon="-9.246477" lat="39.335309"><ele>117.9</ele></trkpt>
   <trkpt lon="-9.246658" lat="39.335173"><ele>118.5</ele></trkpt>
   <trkpt lon="-9.246792" lat="39.335019"><ele>119.1</ele></trkpt>
   <trkpt lon="-9.246872" lat="39.334895"><ele>119.6</ele></trkpt>
   <trkpt lon="-9.246931" lat="39.334791"><ele>120.2</ele></trkpt>
   <trkpt lon="-9.247087" lat="39.334430"><ele>120.8</ele></trkpt>
   <trkpt lon="-9.247183" lat="39.334176"><ele>121.4</ele><sym>right_slight</sym></trkpt>
   <trkpt lon="-9.247543" lat="39.333968"><ele>122.1</ele></trkpt>
   <trkpt lon="-9.247736" lat="39.333835"><ele>122.7</ele><sym>right_slight</sym></trkpt>
   <trkpt lon="-9.247865" lat="39.333793"><ele>123.3</ele></trkpt>
   <trkpt lon="-9.248290" lat="39.333713"><ele>123.9</ele></trkpt>
   <trkpt lon="-9.248471" lat="39.333688"><ele>124.4</ele></trkpt>
   <trkpt lon="-9.248771" lat="39.333754"><ele>124.8</ele></trkpt>
   <trkpt lon="-9.249378" lat="39.333866"><ele>125.8</ele></trkpt>
   <trkpt lon="-9.249615" lat="39.333916"><ele>127.0</ele></trkpt>
   <trkpt lon="-9.250021" lat="39.334003"><ele>128.3</ele></trkpt>
   <trkpt lon="-9.250821" lat="39.334148"><ele>129.6</ele></trkpt>
   <trkpt lon="-9.251389" lat="39.334219"><ele>130.7</ele></trkpt>
   <trkpt lon="-9.252167" lat="39.334327"><ele>131.9</ele></trkpt>
   <trkpt lon="-9.252945" lat="39.334443"><ele>133.1</ele></trkpt>
   <trkpt lon="-9.253274" lat="39.334502"><ele>134.3</ele></trkpt>
   <trkpt lon="-9.255579" lat="39.334902"><ele>135.4</ele></trkpt>
   <trkpt lon="-9.256078" lat="39.335003"><ele>136.2</ele></trkpt>
   <trkpt lon="-9.256603" lat="39.335040"><ele>136.9</ele></trkpt>
   <trkpt lon="-9.256957" lat="39.335028"><ele>137.2</ele></trkpt>
   <trkpt lon="-9.257633" lat="39.334945"><ele>137.2</ele></trkpt>
   <trkpt lon="-9.258358" lat="39.334916"><ele>137.2</ele></trkpt>
   <trkpt lon="-9.259157" lat="39.334750"><ele>137.1</ele></trkpt>
   <trkpt lon="-9.259506" lat="39.334688"><ele>137.2</ele></trkpt>
   <trkpt lon="-9.260219" lat="39.334617"><ele>137.5</ele></trkpt>
   <trkpt lon="-9.260668" lat="39.334554"><ele>137.4</ele></trkpt>
   <trkpt lon="-9.260732" lat="39.334545"><ele>137.2</ele></trkpt>
   <trkpt lon="-9.261233" lat="39.334476"><ele>137.2</ele></trkpt>
   <trkpt lon="-9.262169" lat="39.334289"><ele>137.0</ele></trkpt>
   <trkpt lon="-9.262470" lat="39.334195"><ele>136.9</ele></trkpt>
   <trkpt lon="-9.263870" lat="39.333772"><ele>136.7</ele></trkpt>
   <trkpt lon="-9.263872" lat="39.333771"><ele>136.7</ele><sym>pass_place</sym><type>Shaping</type></trkpt>
   <trkpt lon="-9.264493" lat="39.333571"><ele>136.5</ele><sym>right_slight</sym></trkpt>
   <trkpt lon="-9.264628" lat="39.333625"><ele>136.3</ele></trkpt>
   <trkpt lon="-9.264779" lat="39.333648"><ele>135.8</ele></trkpt>
   <trkpt lon="-9.265337" lat="39.333576"><ele>135.1</ele></trkpt>
   <trkpt lon="-9.265540" lat="39.333559"><ele>134.6</ele></trkpt>
   <trkpt lon="-9.265900" lat="39.333582"><ele>134.1</ele><sym>left_slight</sym></trkpt>
   <trkpt lon="-9.266525" lat="39.333435"><ele>133.1</ele></trkpt>
   <trkpt lon="-9.266881" lat="39.333250"><ele>132.1</ele><sym>right</sym></trkpt>
   <trkpt lon="-9.267076" lat="39.333499"><ele>131.0</ele><sym>right_slight</sym></trkpt>
   <trkpt lon="-9.266968" lat="39.333819"><ele>129.4</ele></trkpt>
   <trkpt lon="-9.266902" lat="39.333941"><ele>127.8</ele></trkpt>
   <trkpt lon="-9.266663" lat="39.334425"><ele>126.2</ele></trkpt>
   <trkpt lon="-9.266533" lat="39.334677"><ele>124.6</ele></trkpt>
   <trkpt lon="-9.266419" lat="39.334992"><ele>122.8</ele><sym>left</sym></trkpt>
   <trkpt lon="-9.267067" lat="39.335299"><ele>121.1</ele></trkpt>
   <trkpt lon="-9.267221" lat="39.335424"><ele>119.4</ele></trkpt>
   <trkpt lon="-9.267258" lat="39.335454"><ele>118.4</ele></trkpt>
   <trkpt lon="-9.267285" lat="39.335492"><ele>117.3</ele></trkpt>
   <trkpt lon="-9.267595" lat="39.335940"><ele>116.2</ele></trkpt>
   <trkpt lon="-9.267764" lat="39.336096"><ele>115.1</ele></trkpt>
   <trkpt lon="-9.267863" lat="39.336169"><ele>114.4</ele></trkpt>
   <trkpt lon="-9.267993" lat="39.336234"><ele>113.7</ele></trkpt>
   <trkpt lon="-9.268418" lat="39.336450"><ele>113.0</ele><sym>right_slight</sym></trkpt>
   <trkpt lon="-9.268698" lat="39.336657"><ele>112.2</ele></trkpt>
   <trkpt lon="-9.268775" lat="39.336714"><ele>111.7</ele><sym>right_slight</sym></trkpt>
   <trkpt lon="-9.268837" lat="39.336878"><ele>111.1</ele><sym>left_slight</sym></trkpt>
   <trkpt lon="-9.269189" lat="39.337218"><ele>110.6</ele><sym>left_slight</sym></trkpt>
   <trkpt lon="-9.269556" lat="39.337325"><ele>110.1</ele></trkpt>
   <trkpt lon="-9.269623" lat="39.337347"><ele>109.7</ele></trkpt>
   <trkpt lon="-9.270235" lat="39.337592"><ele>109.3</ele></trkpt>
   <trkpt lon="-9.271726" lat="39.338440"><ele>108.8</ele></trkpt>
   <trkpt lon="-9.272267" lat="39.338678"><ele>108.3</ele></trkpt>
   <trkpt lon="-9.272446" lat="39.338757"><ele>108.0</ele></trkpt>
   <trkpt lon="-9.272881" lat="39.338907"><ele>107.6</ele><sym>left_slight</sym></trkpt>
   <trkpt lon="-9.273417" lat="39.338979"><ele>107.2</ele></trkpt>
   <trkpt lon="-9.273624" lat="39.338986"><ele>106.8</ele></trkpt>
   <trkpt lon="-9.273827" lat="39.338981"><ele>106.6</ele></trkpt>
   <trkpt lon="-9.274081" lat="39.338959"><ele>106.4</ele></trkpt>
   <trkpt lon="-9.274177" lat="39.338957"><ele>106.1</ele></trkpt>
   <trkpt lon="-9.274257" lat="39.338946"><ele>105.7</ele><sym>roundabout_e1</sym></trkpt>
   <trkpt lon="-9.274267" lat="39.338981"><ele>105.4</ele></trkpt>
   <trkpt lon="-9.274291" lat="39.339010"><ele>105.6</ele></trkpt>
   <trkpt lon="-9.274326" lat="39.339032"><ele>105.3</ele></trkpt>
   <trkpt lon="-9.274369" lat="39.339045"><ele>105.1</ele></trkpt>
   <trkpt lon="-9.274434" lat="39.339041"><ele>105.0</ele></trkpt>
   <trkpt lon="-9.274453" lat="39.339090"><ele>104.9</ele></trkpt>
   <trkpt lon="-9.275162" lat="39.340768"><ele>104.8</ele></trkpt>
   <trkpt lon="-9.275662" lat="39.341938"><ele>104.9</ele></trkpt>
   <trkpt lon="-9.275777" lat="39.342165"><ele>105.0</ele></trkpt>
   <trkpt lon="-9.275833" lat="39.342259"><ele>105.2</ele></trkpt>
   <trkpt lon="-9.275890" lat="39.342346"><ele>105.8</ele></trkpt>
   <trkpt lon="-9.275954" lat="39.342427"><ele>106.4</ele></trkpt>
   <trkpt lon="-9.276047" lat="39.342519"><ele>106.7</ele></trkpt>
   <trkpt lon="-9.276124" lat="39.342577"><ele>107.3</ele></trkpt>
   <trkpt lon="-9.276284" lat="39.342672"><ele>107.7</ele></trkpt>
   <trkpt lon="-9.277527" lat="39.343259"><ele>108.2</ele></trkpt>
   <trkpt lon="-9.277530" lat="39.343260"><ele>108.2</ele><sym>pass_place</sym><type>Shaping</type></trkpt>
   <trkpt lon="-9.277883" lat="39.343419"><ele>108.9</ele><sym>straight</sym></trkpt>
   <trkpt lon="-9.278192" lat="39.343569"><ele>110.5</ele></trkpt>
   <trkpt lon="-9.278391" lat="39.343662"><ele>111.0</ele></trkpt>
   <trkpt lon="-9.279882" lat="39.344349"><ele>111.3</ele></trkpt>
   <trkpt lon="-9.281284" lat="39.345000"><ele>110.9</ele></trkpt>
   <trkpt lon="-9.281568" lat="39.345125"><ele>110.6</ele></trkpt>
   <trkpt lon="-9.282756" lat="39.345684"><ele>110.1</ele></trkpt>
   <trkpt lon="-9.284592" lat="39.346537"><ele>109.7</ele></trkpt>
   <trkpt lon="-9.284673" lat="39.346573"><ele>109.3</ele></trkpt>
   <trkpt lon="-9.285243" lat="39.346831"><ele>109.0</ele></trkpt>
   <trkpt lon="-9.285370" lat="39.346898"><ele>108.6</ele></trkpt>
   <trkpt lon="-9.285517" lat="39.346979"><ele>108.1</ele></trkpt>
   <trkpt lon="-9.285637" lat="39.347060"><ele>106.4</ele></trkpt>
   <trkpt lon="-9.285728" lat="39.347136"><ele>105.5</ele></trkpt>
   <trkpt lon="-9.285815" lat="39.347226"><ele>104.3</ele></trkpt>
   <trkpt lon="-9.285896" lat="39.347340"><ele>103.3</ele></trkpt>
   <trkpt lon="-9.285967" lat="39.347467"><ele>102.3</ele></trkpt>
   <trkpt lon="-9.286155" lat="39.347893"><ele>101.4</ele></trkpt>
   <trkpt lon="-9.286439" lat="39.348501"><ele>100.6</ele></trkpt>
   <trkpt lon="-9.286822" lat="39.349333"><ele>99.8</ele></trkpt>
   <trkpt lon="-9.286882" lat="39.349404"><ele>98.8</ele></trkpt>
   <trkpt lon="-9.286939" lat="39.349452"><ele>97.7</ele></trkpt>
   <trkpt lon="-9.286997" lat="39.349496"><ele>96.4</ele></trkpt>
   <trkpt lon="-9.287059" lat="39.349523"><ele>95.1</ele></trkpt>
   <trkpt lon="-9.287209" lat="39.349565"><ele>93.9</ele></trkpt>
   <trkpt lon="-9.287602" lat="39.349634"><ele>92.8</ele></trkpt>
   <trkpt lon="-9.287723" lat="39.349656"><ele>91.6</ele></trkpt>
   <trkpt lon="-9.287900" lat="39.349687"><ele>90.3</ele></trkpt>
   <trkpt lon="-9.288220" lat="39.349743"><ele>89.0</ele></trkpt>
   <trkpt lon="-9.288366" lat="39.349762"><ele>87.8</ele></trkpt>
   <trkpt lon="-9.289007" lat="39.349775"><ele>86.3</ele></trkpt>
   <trkpt lon="-9.289331" lat="39.349770"><ele>85.0</ele></trkpt>
   <trkpt lon="-9.289424" lat="39.349770"><ele>83.7</ele></trkpt>
   <trkpt lon="-9.289525" lat="39.349768"><ele>82.4</ele></trkpt>
   <trkpt lon="-9.289768" lat="39.349784"><ele>81.3</ele></trkpt>
   <trkpt lon="-9.290212" lat="39.349853"><ele>80.2</ele></trkpt>
   <trkpt lon="-9.290334" lat="39.349874"><ele>79.3</ele></trkpt>
   <trkpt lon="-9.290697" lat="39.349957"><ele>78.6</ele></trkpt>
   <trkpt lon="-9.290819" lat="39.349989"><ele>77.8</ele></trkpt>
   <trkpt lon="-9.291258" lat="39.350111"><ele>77.0</ele></trkpt>
   <trkpt lon="-9.291860" lat="39.350278"><ele>75.9</ele></trkpt>
   <trkpt lon="-9.292386" lat="39.350412"><ele>74.8</ele><sym>right</sym></trkpt>
   <trkpt lon="-9.292375" lat="39.350462"><ele>73.7</ele></trkpt>
   <trkpt lon="-9.292311" lat="39.350671"><ele>72.4</ele></trkpt>
   <trkpt lon="-9.292294" lat="39.350746"><ele>71.0</ele></trkpt>
   <trkpt lon="-9.292277" lat="39.351035"><ele>69.3</ele></trkpt>
   <trkpt lon="-9.292281" lat="39.351090"><ele>67.9</ele></trkpt>
   <trkpt lon="-9.292292" lat="39.351214"><ele>66.6</ele></trkpt>
   <trkpt lon="-9.292345" lat="39.351409"><ele>65.2</ele></trkpt>
   <trkpt lon="-9.292390" lat="39.351526"><ele>63.8</ele></trkpt>
   <trkpt lon="-9.293290" lat="39.353539"><ele>62.2</ele><sym>pass_place</sym><type>Shaping</type></trkpt>
   <trkpt lon="-9.293292" lat="39.353544"><ele>62.1</ele></trkpt>
   <trkpt lon="-9.293851" lat="39.354795"><ele>60.9</ele></trkpt>
   <trkpt lon="-9.293980" lat="39.355040"><ele>59.8</ele></trkpt>
   <trkpt lon="-9.294156" lat="39.355314"><ele>58.7</ele></trkpt>
   <trkpt lon="-9.294243" lat="39.355432"><ele>57.4</ele></trkpt>
   <trkpt lon="-9.294461" lat="39.355689"><ele>56.6</ele></trkpt>
   <trkpt lon="-9.294580" lat="39.355812"><ele>55.7</ele></trkpt>
   <trkpt lon="-9.294879" lat="39.356084"><ele>54.8</ele></trkpt>
   <trkpt lon="-9.295026" lat="39.356209"><ele>54.4</ele></trkpt>
   <trkpt lon="-9.295330" lat="39.356424"><ele>54.0</ele></trkpt>
   <trkpt lon="-9.295503" lat="39.356530"><ele>53.7</ele></trkpt>
   <trkpt lon="-9.295831" lat="39.356692"><ele>53.6</ele></trkpt>
   <trkpt lon="-9.296023" lat="39.356768"><ele>53.2</ele></trkpt>
   <trkpt lon="-9.296723" lat="39.357010"><ele>52.4</ele></trkpt>
   <trkpt lon="-9.298450" lat="39.357575"><ele>51.8</ele></trkpt>
   <trkpt lon="-9.298926" lat="39.357736"><ele>51.3</ele></trkpt>
   <trkpt lon="-9.299985" lat="39.358092"><ele>50.8</ele></trkpt>
   <trkpt lon="-9.301152" lat="39.358481"><ele>50.3</ele></trkpt>
   <trkpt lon="-9.307833" lat="39.360692"><ele>49.2</ele></trkpt>
   <trkpt lon="-9.308003" lat="39.360743"><ele>47.6</ele></trkpt>
   <trkpt lon="-9.308145" lat="39.360777"><ele>45.7</ele></trkpt>
   <trkpt lon="-9.308307" lat="39.360804"><ele>43.7</ele></trkpt>
   <trkpt lon="-9.308494" lat="39.360827"><ele>41.7</ele></trkpt>
   <trkpt lon="-9.308951" lat="39.360873"><ele>39.8</ele></trkpt>
   <trkpt lon="-9.309834" lat="39.360963"><ele>38.5</ele></trkpt>
   <trkpt lon="-9.310458" lat="39.361022"><ele>37.2</ele></trkpt>
   <trkpt lon="-9.310642" lat="39.361054"><ele>35.8</ele></trkpt>
   <trkpt lon="-9.310750" lat="39.361080"><ele>34.4</ele><sym>pass_place</sym><type>Shaping</type></trkpt>
   <trkpt lon="-9.310753" lat="39.361081"><ele>34.3</ele></trkpt>
   <trkpt lon="-9.310851" lat="39.361121"><ele>33.5</ele></trkpt>
   <trkpt lon="-9.311275" lat="39.361384"><ele>32.8</ele></trkpt>
   <trkpt lon="-9.311754" lat="39.361705"><ele>32.5</ele></trkpt>
   <trkpt lon="-9.311935" lat="39.361834"><ele>32.3</ele></trkpt>
   <trkpt lon="-9.312235" lat="39.362073"><ele>32.1</ele></trkpt>
   <trkpt lon="-9.312491" lat="39.362259"><ele>31.9</ele></trkpt>
   <trkpt lon="-9.312576" lat="39.362311"><ele>31.8</ele></trkpt>
   <trkpt lon="-9.312963" lat="39.362530"><ele>31.4</ele></trkpt>
   <trkpt lon="-9.313275" lat="39.362684"><ele>31.2</ele></trkpt>
   <trkpt lon="-9.313590" lat="39.362829"><ele>30.9</ele></trkpt>
   <trkpt lon="-9.313724" lat="39.362881"><ele>30.6</ele></trkpt>
   <trkpt lon="-9.314201" lat="39.363036"><ele>30.2</ele></trkpt>
   <trkpt lon="-9.314839" lat="39.363222"><ele>29.7</ele></trkpt>
   <trkpt lon="-9.314981" lat="39.363255"><ele>29.1</ele></trkpt>
   <trkpt lon="-9.315109" lat="39.363273"><ele>28.7</ele></trkpt>
   <trkpt lon="-9.315249" lat="39.363288"><ele>28.4</ele></trkpt>
   <trkpt lon="-9.315367" lat="39.363300"><ele>28.1</ele></trkpt>
   <trkpt lon="-9.315602" lat="39.363352"><ele>27.8</ele></trkpt>
   <trkpt lon="-9.315787" lat="39.363428"><ele>27.8</ele></trkpt>
   <trkpt lon="-9.316011" lat="39.363543"><ele>27.8</ele></trkpt>
   <trkpt lon="-9.316129" lat="39.363603"><ele>27.9</ele></trkpt>
   <trkpt lon="-9.316215" lat="39.363645"><ele>28.1</ele></trkpt>
   <trkpt lon="-9.316271" lat="39.363673"><ele>28.3</ele><sym>roundabout_e1</sym></trkpt>
   <trkpt lon="-9.316307" lat="39.363709"><ele>28.5</ele></trkpt>
   <trkpt lon="-9.316344" lat="39.363719"><ele>28.9</ele></trkpt>
   <trkpt lon="-9.316384" lat="39.363716"><ele>29.1</ele></trkpt>
   <trkpt lon="-9.316433" lat="39.363737"><ele>29.2</ele><sym>right</sym></trkpt>
   <trkpt lon="-9.316179" lat="39.364118"><ele>29.4</ele><sym>stay_right</sym></trkpt>
   <trkpt lon="-9.316121" lat="39.364143"><ele>29.5</ele></trkpt>
   <trkpt lon="-9.315982" lat="39.364250"><ele>29.6</ele><sym>pass_place</sym><type>Via</type></trkpt>
  </trkseg>
 </trk>
</gpx>
