<?xml version="1.0" encoding="UTF-8"?>
<!-- track-length = 28974 filtered ascend = 1004 plain-ascend = 0 cost=77544 energy=.3kwh time=2h 59m 16s -->
<gpx 
 xmlns="http://www.topografix.com/GPX/1/1" 
 xmlns:xsi="http://www.w3.org/2001/XMLSchema-instance" 
 xsi:schemaLocation="http://www.topografix.com/GPX/1/1 http://www.topografix.com/GPX/1/1/gpx.xsd" 
 creator="BRouter-1.7.9" version="1.1">
 <trk>
  <src>brouter_fastbike-lowtraffic_0</src>
  <type>bike</type>
  <trkseg>
   <trkpt lon="-9.117249" lat="39.157732"><ele>193.2</ele><sym>pass_place</sym><type>Via</type></trkpt>
   <trkpt lon="-9.117129" lat="39.157701"><ele>193.5</ele></trkpt>
   <trkpt lon="-9.116953" lat="39.157674"><ele>193.7</ele></trkpt>
   <trkpt lon="-9.116866" lat="39.157653"><ele>193.9</ele></trkpt>
   <trkpt lon="-9.116772" lat="39.157619"><ele>193.9</ele></trkpt>
   <trkpt lon="-9.116721" lat="39.157584"><ele>193.9</ele></trkpt>
   <trkpt lon="-9.116615" lat="39.157494"><ele>194.2</ele></trkpt>
   <trkpt lon="-9.116459" lat="39.157264"><ele>194.5</ele></trkpt>
   <trkpt lon="-9.116394" lat="39.157181"><ele>195.1</ele></trkpt>
   <trkpt lon="-9.116341" lat="39.157132"><ele>195.8</ele></trkpt>
   <trkpt lon="-9.116234" lat="39.157049"><ele>196.5</ele><sym>left</sym></trkpt>
   <trkpt lon="-9.116135" lat="39.157108"><ele>197.4</ele></trkpt>
   <trkpt lon="-9.116076" lat="39.157151"><ele>198.4</ele></trkpt>
   <trkpt lon="-9.115640" lat="39.157492"><ele>199.6</ele></trkpt>
   <trkpt lon="-9.115442" lat="39.157671"><ele>201.1</ele></trkpt>
   <trkpt lon="-9.115267" lat="39.157868"><ele>203.0</ele></trkpt>
   <trkpt lon="-9.115216" lat="39.157950"><ele>205.0</ele></trkpt>
   <trkpt lon="-9.115172" lat="39.158049"><ele>207.0</ele></trkpt>
   <trkpt lon="-9.115163" lat="39.158170"><ele>209.2</ele></trkpt>
   <trkpt lon="-9.115187" lat="39.158449"><ele>211.0</ele></trkpt>
   <trkpt lon="-9.115192" lat="39.158682"><ele>212.8</ele></trkpt>
   <trkpt lon="-9.115163" lat="39.158768"><ele>214.4</ele></trkpt>
   <trkpt lon="-9.115079" lat="39.158865"><ele>216.0</ele></trkpt>
   <trkpt lon="-9.114652" lat="39.159231"><ele>217.5</ele></trkpt>
   <trkpt lon="-9.114503" lat="39.159339"><ele>218.9</ele></trkpt>
   <trkpt lon="-9.114382" lat="39.159400"><ele>220.1</ele></trkpt>
   <trkpt lon="-9.114236" lat="39.159442"><ele>221.1</ele></trkpt>
   <trkpt lon="-9.114082" lat="39.159465"><ele>222.2</ele></trkpt>
   <trkpt lon="-9.113900" lat="39.159470"><ele>223.7</ele></trkpt>
   <trkpt lon="-9.113744" lat="39.159486"><ele>225.0</ele></trkpt>
   <trkpt lon="-9.113611" lat="39.159508"><ele>226.4</ele></trkpt>
   <trkpt lon="-9.113504" lat="39.159543"><ele>227.8</ele></trkpt>
   <trkpt lon="-9.113422" lat="39.159601"><ele>229.9</ele></trkpt>
   <trkpt lon="-9.112944" lat="39.160065"><ele>232.2</ele></trkpt>
   <trkpt lon="-9.112857" lat="39.160122"><ele>234.4</ele></trkpt>
   <trkpt lon="-9.112745" lat="39.160189"><ele>237.0</ele></trkpt>
   <trkpt lon="-9.112570" lat="39.160251"><ele>239.6</ele></trkpt>
   <trkpt lon="-9.110936" lat="39.160767"><ele>242.2</ele></trkpt>
   <trkpt lon="-9.110773" lat="39.160835"><ele>244.8</ele></trkpt>
   <trkpt lon="-9.110628" lat="39.160921"><ele>247.3</ele></trkpt>
   <trkpt lon="-9.110056" lat="39.161368"><ele>251.4</ele></trkpt>
   <trkpt lon="-9.109870" lat="39.161505"><ele>255.9</ele></trkpt>
   <trkpt lon="-9.109750" lat="39.161581"><ele>258.8</ele></trkpt>
   <trkpt lon="-9.109565" lat="39.161675"><ele>262.3</ele></trkpt>
   <trkpt lon="-9.109013" lat="39.161918"><ele>266.1</ele></trkpt>
   <trkpt lon="-9.106702" lat="39.162938"><ele>269.9</ele></trkpt>
   <trkpt lon="-9.106496" lat="39.163017"><ele>273.4</ele></trkpt>
   <trkpt lon="-9.106175" lat="39.163104"><ele>276.8</ele></trkpt>
   <trkpt lon="-9.105314" lat="39.163317"><ele>280.2</ele></trkpt>
   <trkpt lon="-9.104597" lat="39.163502"><ele>283.2</ele></trkpt>
   <trkpt lon="-9.104461" lat="39.163539"><ele>285.7</ele></trkpt>
   <trkpt lon="-9.104384" lat="39.163572"><ele>286.6</ele></trkpt>
   <trkpt lon="-9.104323" lat="39.163603"><ele>288.0</ele></trkpt>
   <trkpt lon="-9.104236" lat="39.163653"><ele>289.8</ele></trkpt>
   <trkpt lon="-9.102999" lat="39.164574"><ele>291.9</ele></trkpt>
   <trkpt lon="-9.102705" lat="39.164770"><ele>294.4</ele></trkpt>
   <trkpt lon="-9.102538" lat="39.164867"><ele>297.9</ele></trkpt>
   <trkpt lon="-9.096371" lat="39.167796"><ele>301.2</ele></trkpt>
   <trkpt lon="-9.096369" lat="39.167796"><ele>301.2</ele><sym>pass_place</sym><type>Shaping</type></trkpt>
   <trkpt lon="-9.095855" lat="39.168008"><ele>305.8</ele></trkpt>
   <trkpt lon="-9.093788" lat="39.168803"><ele>311.0</ele></trkpt>
   <trkpt lon="-9.091177" lat="39.169809"><ele>316.6</ele></trkpt>
   <trkpt lon="-9.090743" lat="39.170020"><ele>322.2</ele></trkpt>
   <trkpt lon="-9.089519" lat="39.170683"><ele>326.3</ele></trkpt>
   <trkpt lon="-9.089264" lat="39.170829"><ele>330.4</ele></trkpt>
   <trkpt lon="-9.088772" lat="39.171149"><ele>334.6</ele></trkpt>
   <trkpt lon="-9.088227" lat="39.171530"><ele>338.3</ele></trkpt>
   <trkpt lon="-9.088056" lat="39.171690"><ele>341.2</ele></trkpt>
   <trkpt lon="-9.087933" lat="39.171846"><ele>344.1</ele></trkpt>
   <trkpt lon="-9.087844" lat="39.172002"><ele>346.1</ele></trkpt>
   <trkpt lon="-9.087781" lat="39.172162"><ele>348.1</ele></trkpt>
   <trkpt lon="-9.087715" lat="39.172448"><ele>349.8</ele></trkpt>
   <trkpt lon="-9.087649" lat="39.172618"><ele>351.4</ele></trkpt>
   <trkpt lon="-9.087532" lat="39.172793"><ele>352.8</ele></trkpt>
   <trkpt lon="-9.087349" lat="39.173040"><ele>354.2</ele></trkpt>
   <trkpt lon="-9.087256" lat="39.173146"><ele>356.0</ele></trkpt>
   <trkpt lon="-9.087147" lat="39.173232"><ele>357.7</ele></trkpt>
   <trkpt lon="-9.087006" lat="39.173317"><ele>359.2</ele></trkpt>
   <trkpt lon="-9.086691" lat="39.173447"><ele>360.7</ele></trkpt>
   <trkpt lon="-9.086224" lat="39.173623"><ele>362.1</ele></trkpt>
   <trkpt lon="-9.085461" lat="39.173922"><ele>363.5</ele></trkpt>
   <trkpt lon="-9.085414" lat="39.173940"><ele>364.5</ele></trkpt>
   <trkpt lon="-9.085267" lat="39.173999"><ele>366.7</ele></trkpt>
   <trkpt lon="-9.085168" lat="39.174056"><ele>368.9</ele></trkpt>
   <trkpt lon="-9.085091" lat="39.174129"><ele>371.2</ele></trkpt>
   <trkpt lon="-9.085029" lat="39.174208"><ele>373.4</ele></trkpt>
   <trkpt lon="-9.084988" lat="39.174293"><ele>375.2</ele></trkpt>
   <trkpt lon="-9.084753" lat="39.174892"><ele>376.9</ele></trkpt>
   <trkpt lon="-9.084738" lat="39.174966"><ele>378.3</ele></trkpt>
   <trkpt lon="-9.084743" lat="39.175009"><ele>379.4</ele></trkpt>
   <trkpt lon="-9.084767" lat="39.175085"><ele>380.4</ele></trkpt>
   <trkpt lon="-9.084796" lat="39.175138"><ele>381.3</ele></trkpt>
   <trkpt lon="-9.084823" lat="39.175167"><ele>381.9</ele></trkpt>
   <trkpt lon="-9.085058" lat="39.175332"><ele>381.6</ele></trkpt>
   <trkpt lon="-9.085147" lat="39.175419"><ele>381.1</ele></trkpt>
   <trkpt lon="-9.085229" lat="39.175550"><ele>380.7</ele></trkpt>
   <trkpt lon="-9.085294" lat="39.175674"><ele>380.2</ele></trkpt>
   <trkpt lon="-9.085351" lat="39.175818"><ele>379.8</ele></trkpt>
   <trkpt lon="-9.085389" lat="39.175978"><ele>379.4</ele></trkpt>
   <trkpt lon="-9.085389" lat="39.176073"><ele>379.4</ele></trkpt>
   <trkpt lon="-9.085356" lat="39.176164"><ele>380.2</ele></trkpt>
   <trkpt lon="-9.085299" lat="39.176236"><ele>381.1</ele></trkpt>
   <trkpt lon="-9.085238" lat="39.176283"><ele>382.2</ele></trkpt>
   <trkpt lon="-9.085170" lat="39.176308"><ele>383.6</ele></trkpt>
   <trkpt lon="-9.085099" lat="39.176319"><ele>384.9</ele></trkpt>
   <trkpt lon="-9.084685" lat="39.176305"><ele>386.4</ele></trkpt>
   <trkpt lon="-9.084600" lat="39.176314"><ele>388.0</ele></trkpt>
   <trkpt lon="-9.084505" lat="39.176337"><ele>389.5</ele></trkpt>
   <trkpt lon="-9.084429" lat="39.176373"><ele>390.9</ele></trkpt>
   <trkpt lon="-9.084353" lat="39.176420"><ele>392.3</ele></trkpt>
   <trkpt lon="-9.084258" lat="39.176522"><ele>393.6</ele></trkpt>
   <trkpt lon="-9.084047" lat="39.176799"><ele>394.3</ele></trkpt>
   <trkpt lon="-9.083968" lat="39.176868"><ele>394.9</ele></trkpt>
   <trkpt lon="-9.083898" lat="39.176938"><ele>395.3</ele></trkpt>
   <trkpt lon="-9.083786" lat="39.177028"><ele>395.6</ele></trkpt>
   <trkpt lon="-9.083680" lat="39.177082"><ele>395.7</ele></trkpt>
   <trkpt lon="-9.083540" lat="39.177116"><ele>395.7</ele></trkpt>
   <trkpt lon="-9.083422" lat="39.177128"><ele>395.9</ele></trkpt>
   <trkpt lon="-9.083314" lat="39.177122"><ele>396.3</ele></trkpt>
   <trkpt lon="-9.083198" lat="39.177097"><ele>396.8</ele></trkpt>
   <trkpt lon="-9.083035" lat="39.177032"><ele>397.4</ele></trkpt>
   <trkpt lon="-9.082812" lat="39.176915"><ele>397.9</ele></trkpt>
   <trkpt lon="-9.082626" lat="39.176785"><ele>398.5</ele></trkpt>
   <trkpt lon="-9.082577" lat="39.176714"><ele>399.2</ele></trkpt>
   <trkpt lon="-9.082550" lat="39.176640"><ele>400.2</ele><sym>pass_place</sym><type>Shaping</type></trkpt>
   <trkpt lon="-9.082548" lat="39.176636"><ele>400.3</ele></trkpt>
   <trkpt lon="-9.082544" lat="39.176571"><ele>401.5</ele></trkpt>
   <trkpt lon="-9.082572" lat="39.176492"><ele>402.7</ele></trkpt>
   <trkpt lon="-9.082620" lat="39.176431"><ele>403.8</ele></trkpt>
   <trkpt lon="-9.082885" lat="39.176229"><ele>404.7</ele></trkpt>
   <trkpt lon="-9.082943" lat="39.176174"><ele>405.5</ele></trkpt>
   <trkpt lon="-9.082985" lat="39.176100"><ele>406.4</ele></trkpt>
   <trkpt lon="-9.082995" lat="39.176034"><ele>407.3</ele></trkpt>
   <trkpt lon="-9.082989" lat="39.175981"><ele>408.2</ele></trkpt>
   <trkpt lon="-9.082967" lat="39.175924"><ele>409.3</ele></trkpt>
   <trkpt lon="-9.082923" lat="39.175859"><ele>410.2</ele></trkpt>
   <trkpt lon="-9.082849" lat="39.175793"><ele>411.2</ele></trkpt>
   <trkpt lon="-9.082760" lat="39.175742"><ele>412.3</ele></trkpt>
   <trkpt lon="-9.082598" lat="39.175684"><ele>413.4</ele></trkpt>
   <trkpt lon="-9.082392" lat="39.175626"><ele>414.5</ele></trkpt>
   <trkpt lon="-9.082228" lat="39.175593"><ele>415.9</ele></trkpt>
   <trkpt lon="-9.082077" lat="39.175577"><ele>418.0</ele></trkpt>
   <trkpt lon="-9.081543" lat="39.175573"><ele>420.1</ele></trkpt>
   <trkpt lon="-9.081231" lat="39.175577"><ele>422.4</ele></trkpt>
   <trkpt lon="-9.080975" lat="39.175600"><ele>424.6</ele></trkpt>
   <trkpt lon="-9.080645" lat="39.175657"><ele>427.5</ele></trkpt>
   <trkpt lon="-9.079787" lat="39.175834"><ele>430.4</ele></trkpt>
   <trkpt lon="-9.079554" lat="39.175896"><ele>433.5</ele></trkpt>
   <trkpt lon="-9.079321" lat="39.175970"><ele>436.7</ele></trkpt>
   <trkpt lon="-9.079042" lat="39.176087"><ele>440.6</ele></trkpt>
   <trkpt lon="-9.077710" lat="39.176714"><ele>444.4</ele></trkpt>
   <trkpt lon="-9.077526" lat="39.176777"><ele>448.2</ele></trkpt>
   <trkpt lon="-9.077349" lat="39.176817"><ele>451.7</ele></trkpt>
   <trkpt lon="-9.077101" lat="39.176847"><ele>456.5</ele></trkpt>
   <trkpt lon="-9.076350" lat="39.176889"><ele>461.7</ele></trkpt>
   <trkpt lon="-9.076036" lat="39.176919"><ele>467.3</ele></trkpt>
   <trkpt lon="-9.074784" lat="39.177119"><ele>472.2</ele></trkpt>
   <trkpt lon="-9.074471" lat="39.177198"><ele>476.9</ele></trkpt>
   <trkpt lon="-9.072740" lat="39.177710"><ele>481.4</ele></trkpt>
   <trkpt lon="-9.072059" lat="39.177910"><ele>485.7</ele></trkpt>
   <trkpt lon="-9.071771" lat="39.178001"><ele>489.4</ele></trkpt>
   <trkpt lon="-9.071578" lat="39.178073"><ele>493.0</ele></trkpt>
   <trkpt lon="-9.071254" lat="39.178220"><ele>495.7</ele></trkpt>
   <trkpt lon="-9.070770" lat="39.178452"><ele>498.5</ele></trkpt>
   <trkpt lon="-9.070587" lat="39.178530"><ele>499.9</ele></trkpt>
   <trkpt lon="-9.070429" lat="39.178581"><ele>501.6</ele></trkpt>
   <trkpt lon="-9.070300" lat="39.178605"><ele>503.4</ele></trkpt>
   <trkpt lon="-9.070141" lat="39.178624"><ele>504.7</ele></trkpt>
   <trkpt lon="-9.069996" lat="39.178617"><ele>506.3</ele></trkpt>
   <trkpt lon="-9.069789" lat="39.178591"><ele>508.0</ele></trkpt>
   <trkpt lon="-9.069246" lat="39.178518"><ele>509.8</ele></trkpt>
   <trkpt lon="-9.068212" lat="39.178365"><ele>511.8</ele></trkpt>
   <trkpt lon="-9.067742" lat="39.178304"><ele>514.6</ele></trkpt>
   <trkpt lon="-9.067587" lat="39.178295"><ele>517.3</ele></trkpt>
   <trkpt lon="-9.067434" lat="39.178301"><ele>519.9</ele></trkpt>
   <trkpt lon="-9.067277" lat="39.178324"><ele>522.5</ele></trkpt>
   <trkpt lon="-9.067111" lat="39.178376"><ele>524.7</ele></trkpt>
   <trkpt lon="-9.065719" lat="39.178907"><ele>526.2</ele></trkpt>
   <trkpt lon="-9.065513" lat="39.178976"><ele>527.9</ele></trkpt>
   <trkpt lon="-9.065286" lat="39.179035"><ele>529.3</ele></trkpt>
   <trkpt lon="-9.064955" lat="39.179106"><ele>530.4</ele></trkpt>
   <trkpt lon="-9.064183" lat="39.179254"><ele>530.7</ele><sym>pass_place</sym><type>Shaping</type></trkpt>
   <trkpt lon="-9.064178" lat="39.179255"><ele>530.6</ele></trkpt>
   <trkpt lon="-9.064008" lat="39.179296"><ele>529.0</ele></trkpt>
   <trkpt lon="-9.063840" lat="39.179353"><ele>527.3</ele></trkpt>
   <trkpt lon="-9.063638" lat="39.179449"><ele>525.3</ele></trkpt>
   <trkpt lon="-9.063329" lat="39.179627"><ele>523.0</ele></trkpt>
   <trkpt lon="-9.062741" lat="39.179967"><ele>520.5</ele></trkpt>
   <trkpt lon="-9.062496" lat="39.180094"><ele>517.8</ele></trkpt>
   <trkpt lon="-9.062299" lat="39.180175"><ele>515.2</ele></trkpt>
   <trkpt lon="-9.062057" lat="39.180254"><ele>512.8</ele></trkpt>
   <trkpt lon="-9.061853" lat="39.180297"><ele>510.4</ele></trkpt>
   <trkpt lon="-9.061646" lat="39.180314"><ele>508.6</ele></trkpt>
   <trkpt lon="-9.061466" lat="39.180315"><ele>507.4</ele></trkpt>
   <trkpt lon="-9.061290" lat="39.180296"><ele>506.4</ele></trkpt>
   <trkpt lon="-9.061128" lat="39.180258"><ele>505.4</ele></trkpt>
   <trkpt lon="-9.060995" lat="39.180216"><ele>504.4</ele></trkpt>
   <trkpt lon="-9.060841" lat="39.180143"><ele>503.5</ele></trkpt>
   <trkpt lon="-9.060708" lat="39.180050"><ele>503.0</ele></trkpt>
   <trkpt lon="-9.060609" lat="39.179959"><ele>502.6</ele></trkpt>
   <trkpt lon="-9.060479" lat="39.179810"><ele>502.2</ele></trkpt>
   <trkpt lon="-9.060034" lat="39.179215"><ele>501.7</ele></trkpt>
   <trkpt lon="-9.059978" lat="39.179152"><ele>501.2</ele></trkpt>
   <trkpt lon="-9.059920" lat="39.179103"><ele>500.7</ele></trkpt>
   <trkpt lon="-9.059845" lat="39.179063"><ele>500.0</ele></trkpt>
   <trkpt lon="-9.059772" lat="39.179041"><ele>499.5</ele></trkpt>
   <trkpt lon="-9.059707" lat="39.179035"><ele>499.0</ele></trkpt>
   <trkpt lon="-9.059590" lat="39.179054"><ele>498.9</ele></trkpt>
   <trkpt lon="-9.059518" lat="39.179091"><ele>498.8</ele></trkpt>
   <trkpt lon="-9.059403" lat="39.179173"><ele>499.0</ele></trkpt>
   <trkpt lon="-9.058967" lat="39.179596"><ele>499.6</ele></trkpt>
   <trkpt lon="-9.058866" lat="39.179683"><ele>500.4</ele></trkpt>
   <trkpt lon="-9.058781" lat="39.179744"><ele>501.3</ele></trkpt>
   <trkpt lon="-9.058688" lat="39.179798"><ele>502.5</ele></trkpt>
   <trkpt lon="-9.058275" lat="39.179996"><ele>503.8</ele></trkpt>
   <trkpt lon="-9.057757" lat="39.180230"><ele>505.3</ele><sym>right_slight</sym></trkpt>
   <trkpt lon="-9.057565" lat="39.180235"><ele>506.8</ele></trkpt>
   <trkpt lon="-9.057381" lat="39.180204"><ele>508.3</ele></trkpt>
   <trkpt lon="-9.057263" lat="39.180168"><ele>509.8</ele><sym>right_slight</sym></trkpt>
   <trkpt lon="-9.057215" lat="39.180120"><ele>511.1</ele></trkpt>
   <trkpt lon="-9.057142" lat="39.180063"><ele>512.2</ele></trkpt>
   <trkpt lon="-9.056919" lat="39.179916"><ele>512.9</ele></trkpt>
   <trkpt lon="-9.056515" lat="39.179676"><ele>513.6</ele></trkpt>
   <trkpt lon="-9.056438" lat="39.179637"><ele>514.2</ele></trkpt>
   <trkpt lon="-9.056381" lat="39.179621"><ele>514.7</ele></trkpt>
   <trkpt lon="-9.056328" lat="39.179616"><ele>515.1</ele><sym>right</sym></trkpt>
   <trkpt lon="-9.056278" lat="39.179497"><ele>515.4</ele></trkpt>
   <trkpt lon="-9.056210" lat="39.179405"><ele>515.8</ele></trkpt>
   <trkpt lon="-9.055876" lat="39.179094"><ele>516.2</ele></trkpt>
   <trkpt lon="-9.055765" lat="39.178985"><ele>516.9</ele></trkpt>
   <trkpt lon="-9.055720" lat="39.178925"><ele>517.7</ele></trkpt>
   <trkpt lon="-9.055691" lat="39.178868"><ele>518.6</ele></trkpt>
   <trkpt lon="-9.055686" lat="39.178817"><ele>519.5</ele></trkpt>
   <trkpt lon="-9.055691" lat="39.178743"><ele>520.6</ele></trkpt>
   <trkpt lon="-9.055708" lat="39.178672"><ele>521.8</ele></trkpt>
   <trkpt lon="-9.055745" lat="39.178606"><ele>523.4</ele></trkpt>
   <trkpt lon="-9.055787" lat="39.178576"><ele>524.5</ele></trkpt>
   <trkpt lon="-9.055847" lat="39.178548"><ele>525.8</ele></trkpt>
   <trkpt lon="-9.055947" lat="39.178524"><ele>527.6</ele></trkpt>
   <trkpt lon="-9.056079" lat="39.178526"><ele>529.2</ele></trkpt>
   <trkpt lon="-9.056482" lat="39.178563"><ele>530.6</ele></trkpt>
   <trkpt lon="-9.056858" lat="39.178610"><ele>531.9</ele></trkpt>
   <trkpt lon="-9.056992" lat="39.178618"><ele>533.2</ele></trkpt>
   <trkpt lon="-9.057195" lat="39.178606"><ele>534.5</ele></trkpt>
   <trkpt lon="-9.057607" lat="39.178552"><ele>535.8</ele></trkpt>
   <trkpt lon="-9.057702" lat="39.178518"><ele>537.1</ele></trkpt>
   <trkpt lon="-9.057771" lat="39.178466"><ele>538.2</ele></trkpt>
   <trkpt lon="-9.057820" lat="39.178390"><ele>539.1</ele></trkpt>
   <trkpt lon="-9.057846" lat="39.178296"><ele>540.1</ele></trkpt>
   <trkpt lon="-9.057818" lat="39.178203"><ele>541.2</ele></trkpt>
   <trkpt lon="-9.057748" lat="39.178109"><ele>542.5</ele></trkpt>
   <trkpt lon="-9.057656" lat="39.178013"><ele>544.0</ele></trkpt>
   <trkpt lon="-9.057532" lat="39.177948"><ele>545.5</ele></trkpt>
   <trkpt lon="-9.057419" lat="39.177900"><ele>547.1</ele></trkpt>
   <trkpt lon="-9.056815" lat="39.177690"><ele>549.0</ele></trkpt>
   <trkpt lon="-9.056695" lat="39.177622"><ele>550.8</ele></trkpt>
   <trkpt lon="-9.056664" lat="39.177588"><ele>551.8</ele></trkpt>
   <trkpt lon="-9.056629" lat="39.177526"><ele>553.5</ele></trkpt>
   <trkpt lon="-9.056609" lat="39.177466"><ele>555.0</ele></trkpt>
   <trkpt lon="-9.056580" lat="39.177060"><ele>556.9</ele></trkpt>
   <trkpt lon="-9.056580" lat="39.176922"><ele>559.0</ele></trkpt>
   <trkpt lon="-9.056592" lat="39.176847"><ele>560.8</ele></trkpt>
   <trkpt lon="-9.056615" lat="39.176772"><ele>562.7</ele></trkpt>
   <trkpt lon="-9.056707" lat="39.176595"><ele>564.5</ele></trkpt>
   <trkpt lon="-9.056784" lat="39.176472"><ele>566.4</ele></trkpt>
   <trkpt lon="-9.056830" lat="39.176414"><ele>567.9</ele></trkpt>
   <trkpt lon="-9.056891" lat="39.176363"><ele>569.4</ele></trkpt>
   <trkpt lon="-9.056957" lat="39.176329"><ele>570.8</ele></trkpt>
   <trkpt lon="-9.057036" lat="39.176304"><ele>572.1</ele></trkpt>
   <trkpt lon="-9.057288" lat="39.176259"><ele>573.2</ele></trkpt>
   <trkpt lon="-9.057392" lat="39.176250"><ele>574.3</ele></trkpt>
   <trkpt lon="-9.057476" lat="39.176255"><ele>575.3</ele></trkpt>
   <trkpt lon="-9.057563" lat="39.176273"><ele>576.2</ele></trkpt>
   <trkpt lon="-9.057644" lat="39.176298"><ele>577.3</ele></trkpt>
   <trkpt lon="-9.057770" lat="39.176349"><ele>578.5</ele></trkpt>
   <trkpt lon="-9.058383" lat="39.176606"><ele>579.7</ele></trkpt>
   <trkpt lon="-9.058463" lat="39.176637"><ele>581.0</ele></trkpt>
   <trkpt lon="-9.058648" lat="39.176691"><ele>582.3</ele></trkpt>
   <trkpt lon="-9.058798" lat="39.176721"><ele>583.7</ele></trkpt>
   <trkpt lon="-9.058976" lat="39.176735"><ele>585.2</ele></trkpt>
   <trkpt lon="-9.059164" lat="39.176741"><ele>587.0</ele></trkpt>
   <trkpt lon="-9.059297" lat="39.176739"><ele>588.7</ele></trkpt>
   <trkpt lon="-9.059437" lat="39.176718"><ele>590.6</ele></trkpt>
   <trkpt lon="-9.059573" lat="39.176679"><ele>592.7</ele></trkpt>
   <trkpt lon="-9.059729" lat="39.176620"><ele>594.8</ele></trkpt>
   <trkpt lon="-9.060279" lat="39.176370"><ele>596.7</ele></trkpt>
   <trkpt lon="-9.060485" lat="39.176270"><ele>598.5</ele></trkpt>
   <trkpt lon="-9.060629" lat="39.176211"><ele>600.2</ele><sym>pass_place</sym><type>Shaping</type></trkpt>
   <trkpt lon="-9.060835" lat="39.176161"><ele>601.9</ele></trkpt>
   <trkpt lon="-9.061292" lat="39.176067"><ele>603.6</ele></trkpt>
   <trkpt lon="-9.061375" lat="39.176038"><ele>605.3</ele></trkpt>
   <trkpt lon="-9.061445" lat="39.176002"><ele>606.9</ele></trkpt>
   <trkpt lon="-9.061495" lat="39.175956"><ele>608.3</ele></trkpt>
   <trkpt lon="-9.061526" lat="39.175895"><ele>609.6</ele></trkpt>
   <trkpt lon="-9.061543" lat="39.175839"><ele>610.8</ele></trkpt>
   <trkpt lon="-9.061539" lat="39.175779"><ele>611.8</ele></trkpt>
   <trkpt lon="-9.061513" lat="39.175721"><ele>613.2</ele></trkpt>
   <trkpt lon="-9.061480" lat="39.175670"><ele>614.6</ele></trkpt>
   <trkpt lon="-9.061417" lat="39.175620"><ele>616.2</ele></trkpt>
   <trkpt lon="-9.061336" lat="39.175575"><ele>617.9</ele></trkpt>
   <trkpt lon="-9.061256" lat="39.175543"><ele>619.6</ele></trkpt>
   <trkpt lon="-9.060733" lat="39.175358"><ele>621.4</ele></trkpt>
   <trkpt lon="-9.060410" lat="39.175238"><ele>623.0</ele></trkpt>
   <trkpt lon="-9.060287" lat="39.175180"><ele>624.3</ele></trkpt>
   <trkpt lon="-9.060158" lat="39.175096"><ele>625.5</ele></trkpt>
   <trkpt lon="-9.059436" lat="39.174585"><ele>626.7</ele></trkpt>
   <trkpt lon="-9.059418" lat="39.174572"><ele>627.2</ele></trkpt>
   <trkpt lon="-9.059385" lat="39.174553"><ele>627.9</ele></trkpt>
   <trkpt lon="-9.059161" lat="39.174388"><ele>628.3</ele></trkpt>
   <trkpt lon="-9.058943" lat="39.174235"><ele>628.5</ele></trkpt>
   <trkpt lon="-9.058628" lat="39.174013"><ele>628.5</ele></trkpt>
   <trkpt lon="-9.058539" lat="39.173958"><ele>628.2</ele></trkpt>
   <trkpt lon="-9.058459" lat="39.173919"><ele>628.6</ele></trkpt>
   <trkpt lon="-9.058384" lat="39.173890"><ele>629.7</ele></trkpt>
   <trkpt lon="-9.058311" lat="39.173873"><ele>630.8</ele></trkpt>
   <trkpt lon="-9.058235" lat="39.173862"><ele>631.4</ele></trkpt>
   <trkpt lon="-9.058132" lat="39.173859"><ele>632.2</ele></trkpt>
   <trkpt lon="-9.054044" lat="39.174133"><ele>632.5</ele></trkpt>
   <trkpt lon="-9.053135" lat="39.174183"><ele>632.8</ele><sym>pass_place</sym><type>Shaping</type></trkpt>
   <trkpt lon="-9.053021" lat="39.174178"><ele>633.6</ele><sym>left_slight</sym></trkpt>
   <trkpt lon="-9.052659" lat="39.174355"><ele>634.3</ele></trkpt>
   <trkpt lon="-9.052096" lat="39.174174"><ele>635.6</ele></trkpt>
   <trkpt lon="-9.051645" lat="39.174366"><ele>636.9</ele><sym>pass_place</sym><type>Shaping</type></trkpt>
   <trkpt lon="-9.051645" lat="39.174366"><ele>636.9</ele></trkpt>
   <trkpt lon="-9.052096" lat="39.174174"><ele>635.6</ele></trkpt>
   <trkpt lon="-9.052659" lat="39.174355"><ele>634.3</ele></trkpt>
   <trkpt lon="-9.053021" lat="39.174178"><ele>633.6</ele><sym>right_slight</sym></trkpt>
   <trkpt lon="-9.053135" lat="39.174183"><ele>632.8</ele></trkpt>
   <trkpt lon="-9.054044" lat="39.174133"><ele>632.5</ele></trkpt>
   <trkpt lon="-9.058132" lat="39.173859"><ele>632.2</ele></trkpt>
   <trkpt lon="-9.058235" lat="39.173862"><ele>631.4</ele></trkpt>
   <trkpt lon="-9.058311" lat="39.173873"><ele>630.8</ele></trkpt>
   <trkpt lon="-9.058384" lat="39.173890"><ele>629.7</ele></trkpt>
   <trkpt lon="-9.058459" lat="39.173919"><ele>628.6</ele></trkpt>
   <trkpt lon="-9.058539" lat="39.173958"><ele>628.2</ele></trkpt>
   <trkpt lon="-9.058628" lat="39.174013"><ele>628.5</ele></trkpt>
   <trkpt lon="-9.058943" lat="39.174235"><ele>628.5</ele></trkpt>
   <trkpt lon="-9.059161" lat="39.174388"><ele>628.3</ele></trkpt>
   <trkpt lon="-9.059385" lat="39.174553"><ele>627.9</ele></trkpt>
   <trkpt lon="-9.059418" lat="39.174572"><ele>627.2</ele></trkpt>
   <trkpt lon="-9.059436" lat="39.174585"><ele>626.7</ele></trkpt>
   <trkpt lon="-9.060158" lat="39.175096"><ele>625.5</ele></trkpt>
   <trkpt lon="-9.060287" lat="39.175180"><ele>624.3</ele></trkpt>
   <trkpt lon="-9.060410" lat="39.175238"><ele>623.0</ele></trkpt>
   <trkpt lon="-9.060733" lat="39.175358"><ele>621.4</ele></trkpt>
   <trkpt lon="-9.061256" lat="39.175543"><ele>619.6</ele></trkpt>
   <trkpt lon="-9.061336" lat="39.175575"><ele>617.9</ele></trkpt>
   <trkpt lon="-9.061417" lat="39.175620"><ele>616.2</ele></trkpt>
   <trkpt lon="-9.061480" lat="39.175670"><ele>614.6</ele></trkpt>
   <trkpt lon="-9.061513" lat="39.175721"><ele>613.2</ele></trkpt>
   <trkpt lon="-9.061539" lat="39.175779"><ele>611.8</ele></trkpt>
   <trkpt lon="-9.061543" lat="39.175839"><ele>610.8</ele></trkpt>
   <trkpt lon="-9.061526" lat="39.175895"><ele>609.6</ele></trkpt>
   <trkpt lon="-9.061495" lat="39.175956"><ele>608.3</ele></trkpt>
   <trkpt lon="-9.061445" lat="39.176002"><ele>606.9</ele></trkpt>
   <trkpt lon="-9.061375" lat="39.176038"><ele>605.3</ele></trkpt>
   <trkpt lon="-9.061292" lat="39.176067"><ele>603.6</ele></trkpt>
   <trkpt lon="-9.060835" lat="39.176161"><ele>601.9</ele></trkpt>
   <trkpt lon="-9.060629" lat="39.176211"><ele>600.2</ele></trkpt>
   <trkpt lon="-9.060485" lat="39.176270"><ele>598.5</ele></trkpt>
   <trkpt lon="-9.060279" lat="39.176370"><ele>596.7</ele></trkpt>
   <trkpt lon="-9.059729" lat="39.176620"><ele>594.8</ele></trkpt>
   <trkpt lon="-9.059573" lat="39.176679"><ele>592.7</ele></trkpt>
   <trkpt lon="-9.059437" lat="39.176718"><ele>590.6</ele></trkpt>
   <trkpt lon="-9.059297" lat="39.176739"><ele>588.7</ele></trkpt>
   <trkpt lon="-9.059164" lat="39.176741"><ele>587.0</ele></trkpt>
   <trkpt lon="-9.058976" lat="39.176735"><ele>585.2</ele></trkpt>
   <trkpt lon="-9.058798" lat="39.176721"><ele>583.7</ele></trkpt>
   <trkpt lon="-9.058648" lat="39.176691"><ele>582.3</ele></trkpt>
   <trkpt lon="-9.058463" lat="39.176637"><ele>581.0</ele></trkpt>
   <trkpt lon="-9.058383" lat="39.176606"><ele>579.7</ele></trkpt>
   <trkpt lon="-9.057770" lat="39.176349"><ele>578.5</ele></trkpt>
   <trkpt lon="-9.057644" lat="39.176298"><ele>577.3</ele></trkpt>
   <trkpt lon="-9.057563" lat="39.176273"><ele>576.2</ele></trkpt>
   <trkpt lon="-9.057476" lat="39.176255"><ele>575.3</ele></trkpt>
   <trkpt lon="-9.057392" lat="39.176250"><ele>574.3</ele></trkpt>
   <trkpt lon="-9.057288" lat="39.176259"><ele>573.2</ele></trkpt>
   <trkpt lon="-9.057036" lat="39.176304"><ele>572.1</ele></trkpt>
   <trkpt lon="-9.056957" lat="39.176329"><ele>570.8</ele></trkpt>
   <trkpt lon="-9.056891" lat="39.176363"><ele>569.4</ele></trkpt>
   <trkpt lon="-9.056830" lat="39.176414"><ele>567.9</ele></trkpt>
   <trkpt lon="-9.056784" lat="39.176472"><ele>566.4</ele></trkpt>
   <trkpt lon="-9.056707" lat="39.176595"><ele>564.5</ele></trkpt>
   <trkpt lon="-9.056615" lat="39.176772"><ele>562.7</ele></trkpt>
   <trkpt lon="-9.056592" lat="39.176847"><ele>560.8</ele></trkpt>
   <trkpt lon="-9.056580" lat="39.176922"><ele>559.0</ele></trkpt>
   <trkpt lon="-9.056580" lat="39.177060"><ele>556.9</ele></trkpt>
   <trkpt lon="-9.056609" lat="39.177466"><ele>555.0</ele></trkpt>
   <trkpt lon="-9.056629" lat="39.177526"><ele>553.5</ele></trkpt>
   <trkpt lon="-9.056664" lat="39.177588"><ele>551.8</ele></trkpt>
   <trkpt lon="-9.056695" lat="39.177622"><ele>550.8</ele></trkpt>
   <trkpt lon="-9.056815" lat="39.177690"><ele>549.0</ele></trkpt>
   <trkpt lon="-9.057419" lat="39.177900"><ele>547.1</ele></trkpt>
   <trkpt lon="-9.057532" lat="39.177948"><ele>545.5</ele></trkpt>
   <trkpt lon="-9.057656" lat="39.178013"><ele>544.0</ele></trkpt>
   <trkpt lon="-9.057748" lat="39.178109"><ele>542.5</ele></trkpt>
   <trkpt lon="-9.057818" lat="39.178203"><ele>541.2</ele></trkpt>
   <trkpt lon="-9.057846" lat="39.178296"><ele>540.1</ele></trkpt>
   <trkpt lon="-9.057820" lat="39.178390"><ele>539.1</ele></trkpt>
   <trkpt lon="-9.057771" lat="39.178466"><ele>538.2</ele></trkpt>
   <trkpt lon="-9.057702" lat="39.178518"><ele>537.1</ele></trkpt>
   <trkpt lon="-9.057607" lat="39.178552"><ele>536.2</ele></trkpt>
   <trkpt lon="-9.057195" lat="39.178606"><ele>535.5</ele></trkpt>
   <trkpt lon="-9.056992" lat="39.178618"><ele>534.6</ele></trkpt>
   <trkpt lon="-9.056858" lat="39.178610"><ele>533.6</ele></trkpt>
   <trkpt lon="-9.056482" lat="39.178563"><ele>532.5</ele><sym>u-turn_right</sym></trkpt>
   <trkpt lon="-9.056480" lat="39.178560"><ele>532.4</ele><sym>pass_place</sym><type>Shaping</type></trkpt>
   <trkpt lon="-9.056482" lat="39.178563"><ele>532.3</ele></trkpt>
   <trkpt lon="-9.056079" lat="39.178526"><ele>530.8</ele></trkpt>
   <trkpt lon="-9.055947" lat="39.178524"><ele>529.1</ele></trkpt>
   <trkpt lon="-9.055847" lat="39.178548"><ele>527.3</ele></trkpt>
   <trkpt lon="-9.055787" lat="39.178576"><ele>526.0</ele></trkpt>
   <trkpt lon="-9.055745" lat="39.178606"><ele>524.9</ele></trkpt>
   <trkpt lon="-9.055708" lat="39.178672"><ele>523.3</ele></trkpt>
   <trkpt lon="-9.055691" lat="39.178743"><ele>522.1</ele></trkpt>
   <trkpt lon="-9.055686" lat="39.178817"><ele>521.0</ele></trkpt>
   <trkpt lon="-9.055691" lat="39.178868"><ele>520.1</ele></trkpt>
   <trkpt lon="-9.055720" lat="39.178925"><ele>519.2</ele></trkpt>
   <trkpt lon="-9.055765" lat="39.178985"><ele>518.4</ele></trkpt>
   <trkpt lon="-9.055876" lat="39.179094"><ele>517.7</ele></trkpt>
   <trkpt lon="-9.056210" lat="39.179405"><ele>517.3</ele></trkpt>
   <trkpt lon="-9.056278" lat="39.179497"><ele>516.9</ele></trkpt>
   <trkpt lon="-9.056328" lat="39.179616"><ele>516.6</ele><sym>left_slight</sym></trkpt>
   <trkpt lon="-9.056381" lat="39.179621"><ele>516.1</ele></trkpt>
   <trkpt lon="-9.056438" lat="39.179637"><ele>515.7</ele></trkpt>
   <trkpt lon="-9.056515" lat="39.179676"><ele>515.1</ele></trkpt>
   <trkpt lon="-9.056919" lat="39.179916"><ele>514.5</ele></trkpt>
   <trkpt lon="-9.057142" lat="39.180063"><ele>513.9</ele></trkpt>
   <trkpt lon="-9.057215" lat="39.180120"><ele>513.3</ele></trkpt>
   <trkpt lon="-9.057263" lat="39.180168"><ele>512.6</ele><sym>right_slight</sym></trkpt>
   <trkpt lon="-9.057293" lat="39.180220"><ele>511.8</ele></trkpt>
   <trkpt lon="-9.057304" lat="39.180275"><ele>510.9</ele></trkpt>
   <trkpt lon="-9.057304" lat="39.180332"><ele>509.9</ele></trkpt>
   <trkpt lon="-9.057259" lat="39.180496"><ele>508.6</ele></trkpt>
   <trkpt lon="-9.057222" lat="39.180617"><ele>507.5</ele></trkpt>
   <trkpt lon="-9.057226" lat="39.180676"><ele>506.4</ele></trkpt>
   <trkpt lon="-9.057243" lat="39.180723"><ele>505.2</ele></trkpt>
   <trkpt lon="-9.057291" lat="39.180787"><ele>503.8</ele></trkpt>
   <trkpt lon="-9.057548" lat="39.181079"><ele>502.3</ele></trkpt>
   <trkpt lon="-9.057959" lat="39.181519"><ele>500.7</ele></trkpt>
   <trkpt lon="-9.058069" lat="39.181614"><ele>499.0</ele></trkpt>
   <trkpt lon="-9.058280" lat="39.181733"><ele>497.3</ele></trkpt>
   <trkpt lon="-9.058561" lat="39.181842"><ele>495.7</ele></trkpt>
   <trkpt lon="-9.058772" lat="39.181936"><ele>494.0</ele></trkpt>
   <trkpt lon="-9.059009" lat="39.182063"><ele>492.7</ele></trkpt>
   <trkpt lon="-9.059131" lat="39.182141"><ele>491.5</ele></trkpt>
   <trkpt lon="-9.059218" lat="39.182217"><ele>490.4</ele></trkpt>
   <trkpt lon="-9.059285" lat="39.182295"><ele>489.5</ele></trkpt>
   <trkpt lon="-9.059337" lat="39.182372"><ele>488.8</ele></trkpt>
   <trkpt lon="-9.059384" lat="39.182467"><ele>487.6</ele></trkpt>
   <trkpt lon="-9.059453" lat="39.182725"><ele>486.6</ele></trkpt>
   <trkpt lon="-9.059482" lat="39.182780"><ele>485.7</ele></trkpt>
   <trkpt lon="-9.059524" lat="39.182838"><ele>484.6</ele></trkpt>
   <trkpt lon="-9.059573" lat="39.182879"><ele>483.2</ele></trkpt>
   <trkpt lon="-9.061087" lat="39.183805"><ele>482.0</ele></trkpt>
   <trkpt lon="-9.061586" lat="39.184149"><ele>480.7</ele></trkpt>
   <trkpt lon="-9.061771" lat="39.184291"><ele>479.4</ele></trkpt>
   <trkpt lon="-9.062192" lat="39.184614"><ele>477.9</ele></trkpt>
   <trkpt lon="-9.062568" lat="39.184888"><ele>476.4</ele></trkpt>
   <trkpt lon="-9.062606" lat="39.184937"><ele>475.0</ele></trkpt>
   <trkpt lon="-9.062629" lat="39.184985"><ele>474.2</ele></trkpt>
   <trkpt lon="-9.062638" lat="39.185031"><ele>473.6</ele></trkpt>
   <trkpt lon="-9.062621" lat="39.185085"><ele>473.2</ele></trkpt>
   <trkpt lon="-9.062576" lat="39.185136"><ele>473.7</ele></trkpt>
   <trkpt lon="-9.062503" lat="39.185171"><ele>474.9</ele></trkpt>
   <trkpt lon="-9.062414" lat="39.185194"><ele>474.7</ele></trkpt>
   <trkpt lon="-9.062315" lat="39.185204"><ele>474.5</ele></trkpt>
   <trkpt lon="-9.062184" lat="39.185200"><ele>473.6</ele></trkpt>
   <trkpt lon="-9.061838" lat="39.185207"><ele>472.9</ele></trkpt>
   <trkpt lon="-9.061462" lat="39.185242"><ele>472.4</ele></trkpt>
   <trkpt lon="-9.060360" lat="39.185378"><ele>471.8</ele></trkpt>
   <trkpt lon="-9.060273" lat="39.185393"><ele>471.0</ele></trkpt>
   <trkpt lon="-9.058420" lat="39.185803"><ele>469.9</ele></trkpt>
   <trkpt lon="-9.058115" lat="39.185886"><ele>468.3</ele></trkpt>
   <trkpt lon="-9.057951" lat="39.185952"><ele>465.7</ele></trkpt>
   <trkpt lon="-9.057840" lat="39.186034"><ele>462.8</ele></trkpt>
   <trkpt lon="-9.057770" lat="39.186123"><ele>460.8</ele></trkpt>
   <trkpt lon="-9.057656" lat="39.186283"><ele>458.6</ele></trkpt>
   <trkpt lon="-9.057546" lat="39.186486"><ele>456.0</ele></trkpt>
   <trkpt lon="-9.057436" lat="39.186906"><ele>452.9</ele></trkpt>
   <trkpt lon="-9.057385" lat="39.187131"><ele>449.6</ele></trkpt>
   <trkpt lon="-9.057375" lat="39.187266"><ele>446.3</ele></trkpt>
   <trkpt lon="-9.057399" lat="39.187400"><ele>443.0</ele></trkpt>
   <trkpt lon="-9.057691" lat="39.188090"><ele>438.9</ele></trkpt>
   <trkpt lon="-9.057751" lat="39.188251"><ele>435.1</ele></trkpt>
   <trkpt lon="-9.057789" lat="39.188383"><ele>431.8</ele></trkpt>
   <trkpt lon="-9.057838" lat="39.188712"><ele>428.5</ele></trkpt>
   <trkpt lon="-9.057860" lat="39.188920"><ele>424.7</ele><sym>pass_place</sym><type>Shaping</type></trkpt>
   <trkpt lon="-9.057867" lat="39.189102"><ele>420.7</ele></trkpt>
   <trkpt lon="-9.057831" lat="39.189634"><ele>417.1</ele></trkpt>
   <trkpt lon="-9.057833" lat="39.189737"><ele>414.6</ele></trkpt>
   <trkpt lon="-9.057849" lat="39.189830"><ele>412.3</ele></trkpt>
   <trkpt lon="-9.057959" lat="39.190244"><ele>409.2</ele></trkpt>
   <trkpt lon="-9.057998" lat="39.190441"><ele>406.0</ele></trkpt>
   <trkpt lon="-9.058042" lat="39.190839"><ele>402.6</ele></trkpt>
   <trkpt lon="-9.058033" lat="39.190994"><ele>399.4</ele></trkpt>
   <trkpt lon="-9.058001" lat="39.191236"><ele>396.1</ele></trkpt>
   <trkpt lon="-9.057969" lat="39.191398"><ele>392.5</ele></trkpt>
   <trkpt lon="-9.057833" lat="39.191792"><ele>389.2</ele></trkpt>
   <trkpt lon="-9.057689" lat="39.192151"><ele>386.2</ele></trkpt>
   <trkpt lon="-9.057562" lat="39.192470"><ele>383.8</ele></trkpt>
   <trkpt lon="-9.057482" lat="39.192716"><ele>381.4</ele></trkpt>
   <trkpt lon="-9.057415" lat="39.193043"><ele>378.5</ele></trkpt>
   <trkpt lon="-9.057403" lat="39.193166"><ele>375.5</ele></trkpt>
   <trkpt lon="-9.057385" lat="39.193337"><ele>372.0</ele></trkpt>
   <trkpt lon="-9.057400" lat="39.193411"><ele>370.2</ele></trkpt>
   <trkpt lon="-9.057420" lat="39.193464"><ele>368.8</ele></trkpt>
   <trkpt lon="-9.057587" lat="39.193745"><ele>363.1</ele></trkpt>
   <trkpt lon="-9.057707" lat="39.193995"><ele>357.8</ele></trkpt>
   <trkpt lon="-9.057916" lat="39.194508"><ele>352.6</ele></trkpt>
   <trkpt lon="-9.058122" lat="39.194985"><ele>347.5</ele></trkpt>
   <trkpt lon="-9.058330" lat="39.195522"><ele>342.7</ele></trkpt>
   <trkpt lon="-9.058494" lat="39.195980"><ele>338.0</ele></trkpt>
   <trkpt lon="-9.058503" lat="39.196056"><ele>336.1</ele></trkpt>
   <trkpt lon="-9.058497" lat="39.196126"><ele>334.4</ele></trkpt>
   <trkpt lon="-9.058476" lat="39.196174"><ele>333.2</ele></trkpt>
   <trkpt lon="-9.058437" lat="39.196228"><ele>331.6</ele></trkpt>
   <trkpt lon="-9.058382" lat="39.196268"><ele>331.6</ele></trkpt>
   <trkpt lon="-9.058303" lat="39.196290"><ele>332.4</ele></trkpt>
   <trkpt lon="-9.058216" lat="39.196288"><ele>333.2</ele></trkpt>
   <trkpt lon="-9.058123" lat="39.196271"><ele>334.0</ele></trkpt>
   <trkpt lon="-9.057980" lat="39.196232"><ele>334.5</ele></trkpt>
   <trkpt lon="-9.057139" lat="39.195877"><ele>334.9</ele></trkpt>
   <trkpt lon="-9.056927" lat="39.195847"><ele>335.0</ele></trkpt>
   <trkpt lon="-9.056811" lat="39.195852"><ele>335.1</ele></trkpt>
   <trkpt lon="-9.056768" lat="39.195865"><ele>335.0</ele></trkpt>
   <trkpt lon="-9.056668" lat="39.195939"><ele>334.7</ele></trkpt>
   <trkpt lon="-9.056619" lat="39.196008"><ele>334.2</ele></trkpt>
   <trkpt lon="-9.056573" lat="39.196121"><ele>333.1</ele></trkpt>
   <trkpt lon="-9.056567" lat="39.196213"><ele>331.5</ele></trkpt>
   <trkpt lon="-9.056593" lat="39.196269"><ele>330.0</ele></trkpt>
   <trkpt lon="-9.056629" lat="39.196319"><ele>328.6</ele></trkpt>
   <trkpt lon="-9.056694" lat="39.196386"><ele>326.6</ele></trkpt>
   <trkpt lon="-9.056780" lat="39.196432"><ele>324.6</ele></trkpt>
   <trkpt lon="-9.057387" lat="39.196649"><ele>322.6</ele></trkpt>
   <trkpt lon="-9.057766" lat="39.196793"><ele>320.3</ele></trkpt>
   <trkpt lon="-9.058441" lat="39.196955"><ele>317.9</ele></trkpt>
   <trkpt lon="-9.058568" lat="39.196979"><ele>315.4</ele></trkpt>
   <trkpt lon="-9.058678" lat="39.196987"><ele>313.3</ele></trkpt>
   <trkpt lon="-9.058854" lat="39.196985"><ele>310.6</ele></trkpt>
   <trkpt lon="-9.059079" lat="39.196973"><ele>308.1</ele></trkpt>
   <trkpt lon="-9.059170" lat="39.196955"><ele>306.4</ele></trkpt>
   <trkpt lon="-9.059247" lat="39.196930"><ele>304.8</ele></trkpt>
   <trkpt lon="-9.059353" lat="39.196868"><ele>303.7</ele></trkpt>
   <trkpt lon="-9.059433" lat="39.196797"><ele>302.6</ele></trkpt>
   <trkpt lon="-9.059501" lat="39.196691"><ele>301.4</ele></trkpt>
   <trkpt lon="-9.059520" lat="39.196594"><ele>300.0</ele></trkpt>
   <trkpt lon="-9.059502" lat="39.196489"><ele>298.6</ele></trkpt>
   <trkpt lon="-9.059419" lat="39.196246"><ele>297.2</ele></trkpt>
   <trkpt lon="-9.059420" lat="39.196127"><ele>296.1</ele></trkpt>
   <trkpt lon="-9.059505" lat="39.195706"><ele>295.1</ele></trkpt>
   <trkpt lon="-9.059633" lat="39.195294"><ele>294.2</ele></trkpt>
   <trkpt lon="-9.059703" lat="39.195200"><ele>293.2</ele></trkpt>
   <trkpt lon="-9.059800" lat="39.195087"><ele>291.7</ele></trkpt>
   <trkpt lon="-9.060145" lat="39.194777"><ele>289.7</ele></trkpt>
   <trkpt lon="-9.060333" lat="39.194619"><ele>287.6</ele></trkpt>
   <trkpt lon="-9.060540" lat="39.194467"><ele>285.4</ele></trkpt>
   <trkpt lon="-9.060763" lat="39.194360"><ele>283.6</ele></trkpt>
   <trkpt lon="-9.061205" lat="39.194210"><ele>281.7</ele></trkpt>
   <trkpt lon="-9.061401" lat="39.194131"><ele>279.9</ele></trkpt>
   <trkpt lon="-9.061538" lat="39.194046"><ele>277.7</ele></trkpt>
   <trkpt lon="-9.062070" lat="39.193657"><ele>275.6</ele><sym>right_sharp</sym></trkpt>
   <trkpt lon="-9.062102" lat="39.193889"><ele>273.5</ele></trkpt>
   <trkpt lon="-9.062079" lat="39.194088"><ele>271.4</ele><sym>pass_place</sym><type>Shaping</type></trkpt>
   <trkpt lon="-9.062078" lat="39.194093"><ele>271.3</ele></trkpt>
   <trkpt lon="-9.062064" lat="39.194498"><ele>269.7</ele></trkpt>
   <trkpt lon="-9.062056" lat="39.194535"><ele>268.7</ele></trkpt>
   <trkpt lon="-9.062035" lat="39.194640"><ele>267.3</ele></trkpt>
   <trkpt lon="-9.061981" lat="39.194779"><ele>266.1</ele></trkpt>
   <trkpt lon="-9.061962" lat="39.194810"><ele>265.3</ele></trkpt>
   <trkpt lon="-9.061942" lat="39.194843"><ele>264.4</ele></trkpt>
   <trkpt lon="-9.061828" lat="39.195035"><ele>263.6</ele></trkpt>
   <trkpt lon="-9.061721" lat="39.195182"><ele>262.6</ele></trkpt>
   <trkpt lon="-9.061490" lat="39.195361"><ele>261.5</ele></trkpt>
   <trkpt lon="-9.061318" lat="39.195565"><ele>260.4</ele></trkpt>
   <trkpt lon="-9.061225" lat="39.195735"><ele>259.1</ele><sym>left_slight</sym></trkpt>
   <trkpt lon="-9.061198" lat="39.195914"><ele>257.7</ele></trkpt>
   <trkpt lon="-9.061195" lat="39.196115"><ele>256.5</ele></trkpt>
   <trkpt lon="-9.061247" lat="39.196206"><ele>255.3</ele></trkpt>
   <trkpt lon="-9.061310" lat="39.196373"><ele>254.0</ele></trkpt>
   <trkpt lon="-9.061335" lat="39.196484"><ele>252.4</ele></trkpt>
   <trkpt lon="-9.061335" lat="39.196610"><ele>250.5</ele></trkpt>
   <trkpt lon="-9.061359" lat="39.196675"><ele>248.8</ele></trkpt>
   <trkpt lon="-9.061423" lat="39.196706"><ele>247.4</ele></trkpt>
   <trkpt lon="-9.061493" lat="39.196708"><ele>246.0</ele></trkpt>
   <trkpt lon="-9.061619" lat="39.196656"><ele>244.6</ele></trkpt>
   <trkpt lon="-9.061866" lat="39.196434"><ele>243.2</ele></trkpt>
   <trkpt lon="-9.061989" lat="39.196384"><ele>242.0</ele></trkpt>
   <trkpt lon="-9.062096" lat="39.196385"><ele>240.9</ele><sym>right</sym></trkpt>
   <trkpt lon="-9.062090" lat="39.196508"><ele>239.8</ele></trkpt>
   <trkpt lon="-9.062112" lat="39.196621"><ele>238.9</ele></trkpt>
   <trkpt lon="-9.062163" lat="39.196694"><ele>238.2</ele><sym>right_slight</sym></trkpt>
   <trkpt lon="-9.062124" lat="39.196768"><ele>237.9</ele></trkpt>
   <trkpt lon="-9.062092" lat="39.197099"><ele>237.8</ele><sym>u-turn</sym><type>Via</type></trkpt>
   <trkpt lon="-9.062124" lat="39.196768"><ele>237.9</ele></trkpt>
   <trkpt lon="-9.062163" lat="39.196694"><ele>238.2</ele><sym>left_slight</sym></trkpt>
   <trkpt lon="-9.062112" lat="39.196621"><ele>238.9</ele></trkpt>
   <trkpt lon="-9.062090" lat="39.196508"><ele>239.8</ele></trkpt>
   <trkpt lon="-9.062096" lat="39.196385"><ele>240.9</ele><sym>left_sharp</sym></trkpt>
   <trkpt lon="-9.061989" lat="39.196384"><ele>242.0</ele></trkpt>
   <trkpt lon="-9.061866" lat="39.196434"><ele>243.2</ele></trkpt>
   <trkpt lon="-9.061619" lat="39.196656"><ele>244.6</ele></trkpt>
   <trkpt lon="-9.061493" lat="39.196708"><ele>246.0</ele></trkpt>
   <trkpt lon="-9.061423" lat="39.196706"><ele>247.4</ele></trkpt>
   <trkpt lon="-9.061359" lat="39.196675"><ele>248.8</ele></trkpt>
   <trkpt lon="-9.061335" lat="39.196610"><ele>250.5</ele></trkpt>
   <trkpt lon="-9.061335" lat="39.196484"><ele>252.4</ele></trkpt>
   <trkpt lon="-9.061310" lat="39.196373"><ele>254.0</ele></trkpt>
   <trkpt lon="-9.061247" lat="39.196206"><ele>255.5</ele></trkpt>
   <trkpt lon="-9.061195" lat="39.196115"><ele>256.8</ele></trkpt>
   <trkpt lon="-9.061198" lat="39.195914"><ele>258.0</ele></trkpt>
   <trkpt lon="-9.061225" lat="39.195735"><ele>259.3</ele><sym>left_sharp</sym></trkpt>
   <trkpt lon="-9.061090" lat="39.195841"><ele>260.4</ele></trkpt>
   <trkpt lon="-9.060989" lat="39.195889"><ele>261.6</ele></trkpt>
   <trkpt lon="-9.060905" lat="39.195978"><ele>262.6</ele></trkpt>
   <trkpt lon="-9.060803" lat="39.196205"><ele>263.7</ele></trkpt>
   <trkpt lon="-9.060747" lat="39.196292"><ele>264.7</ele></trkpt>
   <trkpt lon="-9.060696" lat="39.196409"><ele>265.9</ele></trkpt>
   <trkpt lon="-9.060605" lat="39.196496"><ele>267.0</ele></trkpt>
   <trkpt lon="-9.060559" lat="39.196554"><ele>268.0</ele></trkpt>
   <trkpt lon="-9.060487" lat="39.196766"><ele>269.4</ele></trkpt>
   <trkpt lon="-9.060433" lat="39.196851"><ele>270.7</ele></trkpt>
   <trkpt lon="-9.060353" lat="39.196935"><ele>272.0</ele></trkpt>
   <trkpt lon="-9.060334" lat="39.196999"><ele>273.6</ele></trkpt>
   <trkpt lon="-9.060339" lat="39.197155"><ele>275.3</ele></trkpt>
   <trkpt lon="-9.060329" lat="39.197454"><ele>277.0</ele></trkpt>
   <trkpt lon="-9.060337" lat="39.197566"><ele>278.6</ele></trkpt>
   <trkpt lon="-9.060307" lat="39.197650"><ele>280.3</ele></trkpt>
   <trkpt lon="-9.060254" lat="39.197729"><ele>282.0</ele></trkpt>
   <trkpt lon="-9.060125" lat="39.197862"><ele>283.9</ele><sym>right</sym></trkpt>
   <trkpt lon="-9.060071" lat="39.197862"><ele>284.9</ele></trkpt>
   <trkpt lon="-9.059977" lat="39.197812"><ele>287.1</ele></trkpt>
   <trkpt lon="-9.059897" lat="39.197756"><ele>289.1</ele></trkpt>
   <trkpt lon="-9.059819" lat="39.197662"><ele>291.5</ele></trkpt>
   <trkpt lon="-9.059680" lat="39.197369"><ele>293.8</ele></trkpt>
   <trkpt lon="-9.059645" lat="39.197315"><ele>295.2</ele></trkpt>
   <trkpt lon="-9.059323" lat="39.197018"><ele>297.8</ele></trkpt>
   <trkpt lon="-9.059247" lat="39.196930"><ele>300.2</ele><sym>left</sym></trkpt>
   <trkpt lon="-9.059170" lat="39.196955"><ele>301.8</ele></trkpt>
   <trkpt lon="-9.059079" lat="39.196973"><ele>303.5</ele></trkpt>
   <trkpt lon="-9.058854" lat="39.196985"><ele>306.0</ele></trkpt>
   <trkpt lon="-9.058678" lat="39.196987"><ele>309.0</ele></trkpt>
   <trkpt lon="-9.058568" lat="39.196979"><ele>311.1</ele></trkpt>
   <trkpt lon="-9.058441" lat="39.196955"><ele>313.6</ele></trkpt>
   <trkpt lon="-9.057766" lat="39.196793"><ele>316.0</ele></trkpt>
   <trkpt lon="-9.057387" lat="39.196649"><ele>318.3</ele></trkpt>
   <trkpt lon="-9.056780" lat="39.196432"><ele>320.3</ele></trkpt>
   <trkpt lon="-9.056694" lat="39.196386"><ele>322.2</ele></trkpt>
   <trkpt lon="-9.056629" lat="39.196319"><ele>324.3</ele></trkpt>
   <trkpt lon="-9.056593" lat="39.196269"><ele>325.7</ele></trkpt>
   <trkpt lon="-9.056567" lat="39.196213"><ele>327.2</ele></trkpt>
   <trkpt lon="-9.056573" lat="39.196121"><ele>328.8</ele></trkpt>
   <trkpt lon="-9.056619" lat="39.196008"><ele>329.9</ele></trkpt>
   <trkpt lon="-9.056668" lat="39.195939"><ele>330.4</ele></trkpt>
   <trkpt lon="-9.056768" lat="39.195865"><ele>330.7</ele></trkpt>
   <trkpt lon="-9.056811" lat="39.195852"><ele>330.7</ele></trkpt>
   <trkpt lon="-9.056927" lat="39.195847"><ele>330.7</ele></trkpt>
   <trkpt lon="-9.057139" lat="39.195877"><ele>330.6</ele></trkpt>
   <trkpt lon="-9.057980" lat="39.196232"><ele>330.2</ele></trkpt>
   <trkpt lon="-9.058123" lat="39.196271"><ele>329.7</ele></trkpt>
   <trkpt lon="-9.058216" lat="39.196288"><ele>328.9</ele></trkpt>
   <trkpt lon="-9.058303" lat="39.196290"><ele>328.1</ele></trkpt>
   <trkpt lon="-9.058382" lat="39.196268"><ele>327.3</ele></trkpt>
   <trkpt lon="-9.058437" lat="39.196228"><ele>327.3</ele></trkpt>
   <trkpt lon="-9.058476" lat="39.196174"><ele>328.9</ele></trkpt>
   <trkpt lon="-9.058497" lat="39.196126"><ele>330.1</ele></trkpt>
   <trkpt lon="-9.058503" lat="39.196056"><ele>331.8</ele></trkpt>
   <trkpt lon="-9.058494" lat="39.195980"><ele>333.7</ele></trkpt>
   <trkpt lon="-9.058330" lat="39.195522"><ele>338.4</ele></trkpt>
   <trkpt lon="-9.058122" lat="39.194985"><ele>343.2</ele></trkpt>
   <trkpt lon="-9.057916" lat="39.194508"><ele>348.3</ele></trkpt>
   <trkpt lon="-9.057707" lat="39.193995"><ele>353.5</ele></trkpt>
   <trkpt lon="-9.057587" lat="39.193745"><ele>358.8</ele></trkpt>
   <trkpt lon="-9.057420" lat="39.193464"><ele>364.5</ele></trkpt>
   <trkpt lon="-9.057400" lat="39.193411"><ele>365.9</ele></trkpt>
   <trkpt lon="-9.057385" lat="39.193337"><ele>367.7</ele></trkpt>
   <trkpt lon="-9.057403" lat="39.193166"><ele>371.2</ele></trkpt>
   <trkpt lon="-9.057415" lat="39.193043"><ele>374.2</ele></trkpt>
   <trkpt lon="-9.057482" lat="39.192716"><ele>377.1</ele></trkpt>
   <trkpt lon="-9.057562" lat="39.192470"><ele>379.5</ele></trkpt>
   <trkpt lon="-9.057689" lat="39.192151"><ele>381.9</ele></trkpt>
   <trkpt lon="-9.057833" lat="39.191792"><ele>384.9</ele></trkpt>
   <trkpt lon="-9.057969" lat="39.191398"><ele>388.1</ele></trkpt>
   <trkpt lon="-9.058001" lat="39.191236"><ele>391.8</ele></trkpt>
   <trkpt lon="-9.058033" lat="39.190994"><ele>395.1</ele></trkpt>
   <trkpt lon="-9.058042" lat="39.190839"><ele>398.3</ele></trkpt>
   <trkpt lon="-9.057998" lat="39.190441"><ele>401.7</ele></trkpt>
   <trkpt lon="-9.057959" lat="39.190244"><ele>404.9</ele><sym>pass_place</sym><type>Shaping</type></trkpt>
   <trkpt lon="-9.057849" lat="39.189830"><ele>408.0</ele></trkpt>
   <trkpt lon="-9.057833" lat="39.189737"><ele>410.3</ele></trkpt>
   <trkpt lon="-9.057831" lat="39.189634"><ele>412.8</ele></trkpt>
   <trkpt lon="-9.057867" lat="39.189102"><ele>416.4</ele></trkpt>
   <trkpt lon="-9.057860" lat="39.188920"><ele>420.4</ele></trkpt>
   <trkpt lon="-9.057838" lat="39.188712"><ele>424.2</ele></trkpt>
   <trkpt lon="-9.057789" lat="39.188383"><ele>427.5</ele></trkpt>
   <trkpt lon="-9.057751" lat="39.188251"><ele>430.8</ele></trkpt>
   <trkpt lon="-9.057691" lat="39.188090"><ele>434.6</ele></trkpt>
   <trkpt lon="-9.057399" lat="39.187400"><ele>438.7</ele></trkpt>
   <trkpt lon="-9.057375" lat="39.187266"><ele>442.0</ele></trkpt>
   <trkpt lon="-9.057385" lat="39.187131"><ele>445.3</ele></trkpt>
   <trkpt lon="-9.057436" lat="39.186906"><ele>448.6</ele></trkpt>
   <trkpt lon="-9.057546" lat="39.186486"><ele>451.7</ele></trkpt>
   <trkpt lon="-9.057656" lat="39.186283"><ele>454.3</ele></trkpt>
   <trkpt lon="-9.057770" lat="39.186123"><ele>456.5</ele></trkpt>
   <trkpt lon="-9.057840" lat="39.186034"><ele>458.5</ele></trkpt>
   <trkpt lon="-9.057951" lat="39.185952"><ele>461.4</ele></trkpt>
   <trkpt lon="-9.058115" lat="39.185886"><ele>464.0</ele></trkpt>
   <trkpt lon="-9.058420" lat="39.185803"><ele>465.6</ele></trkpt>
   <trkpt lon="-9.060273" lat="39.185393"><ele>466.7</ele></trkpt>
   <trkpt lon="-9.060360" lat="39.185378"><ele>467.5</ele></trkpt>
   <trkpt lon="-9.061462" lat="39.185242"><ele>468.1</ele></trkpt>
   <trkpt lon="-9.061838" lat="39.185207"><ele>468.6</ele></trkpt>
   <trkpt lon="-9.062184" lat="39.185200"><ele>469.2</ele></trkpt>
   <trkpt lon="-9.062315" lat="39.185204"><ele>470.2</ele></trkpt>
   <trkpt lon="-9.062414" lat="39.185194"><ele>470.4</ele></trkpt>
   <trkpt lon="-9.062503" lat="39.185171"><ele>470.6</ele></trkpt>
   <trkpt lon="-9.062576" lat="39.185136"><ele>469.4</ele></trkpt>
   <trkpt lon="-9.062621" lat="39.185085"><ele>468.9</ele></trkpt>
   <trkpt lon="-9.062638" lat="39.185031"><ele>469.3</ele></trkpt>
   <trkpt lon="-9.062629" lat="39.184985"><ele>469.9</ele></trkpt>
   <trkpt lon="-9.062606" lat="39.184937"><ele>470.7</ele></trkpt>
   <trkpt lon="-9.062568" lat="39.184888"><ele>472.1</ele></trkpt>
   <trkpt lon="-9.062192" lat="39.184614"><ele>473.6</ele></trkpt>
   <trkpt lon="-9.061771" lat="39.184291"><ele>475.1</ele></trkpt>
   <trkpt lon="-9.061586" lat="39.184149"><ele>476.4</ele></trkpt>
   <trkpt lon="-9.061087" lat="39.183805"><ele>477.6</ele></trkpt>
   <trkpt lon="-9.059573" lat="39.182879"><ele>478.9</ele></trkpt>
   <trkpt lon="-9.059524" lat="39.182838"><ele>480.3</ele></trkpt>
   <trkpt lon="-9.059482" lat="39.182780"><ele>481.4</ele></trkpt>
   <trkpt lon="-9.059453" lat="39.182725"><ele>482.3</ele></trkpt>
   <trkpt lon="-9.059384" lat="39.182467"><ele>483.3</ele></trkpt>
   <trkpt lon="-9.059337" lat="39.182372"><ele>484.5</ele></trkpt>
   <trkpt lon="-9.059285" lat="39.182295"><ele>485.1</ele></trkpt>
   <trkpt lon="-9.059218" lat="39.182217"><ele>486.1</ele></trkpt>
   <trkpt lon="-9.059131" lat="39.182141"><ele>487.2</ele></trkpt>
   <trkpt lon="-9.059009" lat="39.182063"><ele>488.4</ele></trkpt>
   <trkpt lon="-9.058772" lat="39.181936"><ele>489.7</ele></trkpt>
   <trkpt lon="-9.058561" lat="39.181842"><ele>491.4</ele></trkpt>
   <trkpt lon="-9.058280" lat="39.181733"><ele>493.0</ele></trkpt>
   <trkpt lon="-9.058069" lat="39.181614"><ele>494.7</ele></trkpt>
   <trkpt lon="-9.057959" lat="39.181519"><ele>496.4</ele></trkpt>
   <trkpt lon="-9.057548" lat="39.181079"><ele>498.0</ele></trkpt>
   <trkpt lon="-9.057291" lat="39.180787"><ele>499.5</ele></trkpt>
   <trkpt lon="-9.057243" lat="39.180723"><ele>500.9</ele></trkpt>
   <trkpt lon="-9.057226" lat="39.180676"><ele>502.1</ele></trkpt>
   <trkpt lon="-9.057222" lat="39.180617"><ele>503.2</ele></trkpt>
   <trkpt lon="-9.057259" lat="39.180496"><ele>504.3</ele></trkpt>
   <trkpt lon="-9.057304" lat="39.180332"><ele>505.6</ele></trkpt>
   <trkpt lon="-9.057304" lat="39.180275"><ele>506.6</ele></trkpt>
   <trkpt lon="-9.057293" lat="39.180220"><ele>507.5</ele></trkpt>
   <trkpt lon="-9.057263" lat="39.180168"><ele>508.3</ele></trkpt>
   <trkpt lon="-9.057215" lat="39.180120"><ele>509.0</ele></trkpt>
   <trkpt lon="-9.057142" lat="39.180063"><ele>509.6</ele></trkpt>
   <trkpt lon="-9.056919" lat="39.179916"><ele>510.2</ele></trkpt>
   <trkpt lon="-9.056515" lat="39.179676"><ele>510.8</ele></trkpt>
   <trkpt lon="-9.056438" lat="39.179637"><ele>511.4</ele></trkpt>
   <trkpt lon="-9.056381" lat="39.179621"><ele>511.8</ele></trkpt>
   <trkpt lon="-9.056328" lat="39.179616"><ele>512.3</ele><sym>right</sym></trkpt>
   <trkpt lon="-9.056278" lat="39.179497"><ele>512.6</ele></trkpt>
   <trkpt lon="-9.056210" lat="39.179405"><ele>513.0</ele></trkpt>
   <trkpt lon="-9.055876" lat="39.179094"><ele>513.4</ele><sym>pass_place</sym><type>Shaping</type></trkpt>
   <trkpt lon="-9.055765" lat="39.178985"><ele>514.1</ele></trkpt>
   <trkpt lon="-9.055720" lat="39.178925"><ele>514.9</ele></trkpt>
   <trkpt lon="-9.055691" lat="39.178868"><ele>515.8</ele></trkpt>
   <trkpt lon="-9.055686" lat="39.178817"><ele>516.7</ele></trkpt>
   <trkpt lon="-9.055691" lat="39.178743"><ele>517.8</ele></trkpt>
   <trkpt lon="-9.055708" lat="39.178672"><ele>519.0</ele></trkpt>
   <trkpt lon="-9.055745" lat="39.178606"><ele>520.6</ele></trkpt>
   <trkpt lon="-9.055787" lat="39.178576"><ele>521.7</ele></trkpt>
   <trkpt lon="-9.055847" lat="39.178548"><ele>523.0</ele></trkpt>
   <trkpt lon="-9.055947" lat="39.178524"><ele>524.8</ele></trkpt>
   <trkpt lon="-9.056079" lat="39.178526"><ele>526.4</ele></trkpt>
   <trkpt lon="-9.056482" lat="39.178563"><ele>527.8</ele></trkpt>
   <trkpt lon="-9.056858" lat="39.178610"><ele>529.1</ele></trkpt>
   <trkpt lon="-9.056992" lat="39.178618"><ele>530.4</ele></trkpt>
   <trkpt lon="-9.057195" lat="39.178606"><ele>531.7</ele></trkpt>
   <trkpt lon="-9.057607" lat="39.178552"><ele>533.0</ele></trkpt>
   <trkpt lon="-9.057702" lat="39.178518"><ele>534.3</ele></trkpt>
   <trkpt lon="-9.057771" lat="39.178466"><ele>535.4</ele></trkpt>
   <trkpt lon="-9.057820" lat="39.178390"><ele>536.3</ele></trkpt>
   <trkpt lon="-9.057846" lat="39.178296"><ele>537.2</ele></trkpt>
   <trkpt lon="-9.057818" lat="39.178203"><ele>538.4</ele></trkpt>
   <trkpt lon="-9.057748" lat="39.178109"><ele>539.7</ele></trkpt>
   <trkpt lon="-9.057656" lat="39.178013"><ele>541.2</ele></trkpt>
   <trkpt lon="-9.057532" lat="39.177948"><ele>542.7</ele></trkpt>
   <trkpt lon="-9.057419" lat="39.177900"><ele>544.3</ele></trkpt>
   <trkpt lon="-9.056815" lat="39.177690"><ele>546.2</ele></trkpt>
   <trkpt lon="-9.056695" lat="39.177622"><ele>548.0</ele></trkpt>
   <trkpt lon="-9.056664" lat="39.177588"><ele>549.0</ele></trkpt>
   <trkpt lon="-9.056629" lat="39.177526"><ele>550.7</ele></trkpt>
   <trkpt lon="-9.056609" lat="39.177466"><ele>552.2</ele></trkpt>
   <trkpt lon="-9.056580" lat="39.177060"><ele>554.1</ele></trkpt>
   <trkpt lon="-9.056580" lat="39.176922"><ele>556.2</ele></trkpt>
   <trkpt lon="-9.056592" lat="39.176847"><ele>558.0</ele></trkpt>
   <trkpt lon="-9.056615" lat="39.176772"><ele>559.9</ele></trkpt>
   <trkpt lon="-9.056707" lat="39.176595"><ele>561.7</ele></trkpt>
   <trkpt lon="-9.056784" lat="39.176472"><ele>563.5</ele></trkpt>
   <trkpt lon="-9.056830" lat="39.176414"><ele>565.1</ele></trkpt>
   <trkpt lon="-9.056891" lat="39.176363"><ele>566.6</ele></trkpt>
   <trkpt lon="-9.056957" lat="39.176329"><ele>568.0</ele></trkpt>
   <trkpt lon="-9.057036" lat="39.176304"><ele>569.3</ele></trkpt>
   <trkpt lon="-9.057288" lat="39.176259"><ele>570.4</ele></trkpt>
   <trkpt lon="-9.057392" lat="39.176250"><ele>571.5</ele></trkpt>
   <trkpt lon="-9.057476" lat="39.176255"><ele>572.5</ele></trkpt>
   <trkpt lon="-9.057563" lat="39.176273"><ele>573.4</ele></trkpt>
   <trkpt lon="-9.057644" lat="39.176298"><ele>574.5</ele></trkpt>
   <trkpt lon="-9.057770" lat="39.176349"><ele>575.7</ele></trkpt>
   <trkpt lon="-9.058383" lat="39.176606"><ele>576.9</ele></trkpt>
   <trkpt lon="-9.058463" lat="39.176637"><ele>578.2</ele></trkpt>
   <trkpt lon="-9.058648" lat="39.176691"><ele>579.5</ele></trkpt>
   <trkpt lon="-9.058798" lat="39.176721"><ele>580.9</ele></trkpt>
   <trkpt lon="-9.058976" lat="39.176735"><ele>582.4</ele></trkpt>
   <trkpt lon="-9.059164" lat="39.176741"><ele>584.2</ele></trkpt>
   <trkpt lon="-9.059297" lat="39.176739"><ele>585.9</ele></trkpt>
   <trkpt lon="-9.059437" lat="39.176718"><ele>587.8</ele></trkpt>
   <trkpt lon="-9.059573" lat="39.176679"><ele>589.9</ele></trkpt>
   <trkpt lon="-9.059729" lat="39.176620"><ele>592.0</ele></trkpt>
   <trkpt lon="-9.060279" lat="39.176370"><ele>593.9</ele></trkpt>
   <trkpt lon="-9.060485" lat="39.176270"><ele>595.7</ele></trkpt>
   <trkpt lon="-9.060629" lat="39.176211"><ele>597.4</ele></trkpt>
   <trkpt lon="-9.060835" lat="39.176161"><ele>599.1</ele></trkpt>
   <trkpt lon="-9.061292" lat="39.176067"><ele>600.8</ele></trkpt>
   <trkpt lon="-9.061375" lat="39.176038"><ele>602.5</ele></trkpt>
   <trkpt lon="-9.061445" lat="39.176002"><ele>604.1</ele></trkpt>
   <trkpt lon="-9.061495" lat="39.175956"><ele>605.5</ele></trkpt>
   <trkpt lon="-9.061526" lat="39.175895"><ele>606.8</ele></trkpt>
   <trkpt lon="-9.061543" lat="39.175839"><ele>608.0</ele></trkpt>
   <trkpt lon="-9.061539" lat="39.175779"><ele>609.0</ele></trkpt>
   <trkpt lon="-9.061513" lat="39.175721"><ele>610.4</ele></trkpt>
   <trkpt lon="-9.061480" lat="39.175670"><ele>611.8</ele></trkpt>
   <trkpt lon="-9.061417" lat="39.175620"><ele>613.4</ele></trkpt>
   <trkpt lon="-9.061336" lat="39.175575"><ele>615.1</ele></trkpt>
   <trkpt lon="-9.061256" lat="39.175543"><ele>616.8</ele></trkpt>
   <trkpt lon="-9.060733" lat="39.175358"><ele>618.6</ele></trkpt>
   <trkpt lon="-9.060410" lat="39.175238"><ele>620.2</ele></trkpt>
   <trkpt lon="-9.060287" lat="39.175180"><ele>621.5</ele></trkpt>
   <trkpt lon="-9.060158" lat="39.175096"><ele>622.7</ele></trkpt>
   <trkpt lon="-9.059436" lat="39.174585"><ele>623.9</ele></trkpt>
   <trkpt lon="-9.059418" lat="39.174572"><ele>624.4</ele></trkpt>
   <trkpt lon="-9.059385" lat="39.174553"><ele>625.1</ele></trkpt>
   <trkpt lon="-9.059161" lat="39.174388"><ele>625.5</ele></trkpt>
   <trkpt lon="-9.058943" lat="39.174235"><ele>625.7</ele></trkpt>
   <trkpt lon="-9.058628" lat="39.174013"><ele>625.7</ele></trkpt>
   <trkpt lon="-9.058539" lat="39.173958"><ele>625.4</ele></trkpt>
   <trkpt lon="-9.058459" lat="39.173919"><ele>625.8</ele></trkpt>
   <trkpt lon="-9.058384" lat="39.173890"><ele>626.8</ele></trkpt>
   <trkpt lon="-9.058311" lat="39.173873"><ele>628.0</ele></trkpt>
   <trkpt lon="-9.058235" lat="39.173862"><ele>628.6</ele></trkpt>
   <trkpt lon="-9.058132" lat="39.173859"><ele>629.3</ele></trkpt>
   <trkpt lon="-9.054044" lat="39.174133"><ele>629.9</ele></trkpt>
   <trkpt lon="-9.053135" lat="39.174183"><ele>631.1</ele></trkpt>
   <trkpt lon="-9.053021" lat="39.174178"><ele>632.2</ele><sym>left_slight</sym><type>Via</type></trkpt>
   <trkpt lon="-9.052659" lat="39.174355"><ele>632.9</ele></trkpt>
   <trkpt lon="-9.052098" lat="39.174174"><ele>632.8</ele><sym>u-turn</sym><type>Via</type></trkpt>
   <trkpt lon="-9.052659" lat="39.174355"><ele>632.9</ele></trkpt>
   <trkpt lon="-9.053021" lat="39.174178"><ele>632.2</ele><sym>right_slight</sym></trkpt>
   <trkpt lon="-9.053135" lat="39.174183"><ele>631.1</ele></trkpt>
   <trkpt lon="-9.054044" lat="39.174133"><ele>629.9</ele></trkpt>
   <trkpt lon="-9.058132" lat="39.173859"><ele>629.3</ele></trkpt>
   <trkpt lon="-9.058235" lat="39.173862"><ele>628.6</ele></trkpt>
   <trkpt lon="-9.058311" lat="39.173873"><ele>628.0</ele></trkpt>
   <trkpt lon="-9.058384" lat="39.173890"><ele>626.8</ele></trkpt>
   <trkpt lon="-9.058459" lat="39.173919"><ele>625.8</ele></trkpt>
   <trkpt lon="-9.058539" lat="39.173958"><ele>625.4</ele></trkpt>
   <trkpt lon="-9.058628" lat="39.174013"><ele>625.7</ele></trkpt>
   <trkpt lon="-9.058943" lat="39.174235"><ele>625.7</ele></trkpt>
   <trkpt lon="-9.059161" lat="39.174388"><ele>625.5</ele></trkpt>
   <trkpt lon="-9.059385" lat="39.174553"><ele>625.1</ele></trkpt>
   <trkpt lon="-9.059418" lat="39.174572"><ele>624.4</ele></trkpt>
   <trkpt lon="-9.059436" lat="39.174585"><ele>623.9</ele></trkpt>
   <trkpt lon="-9.060158" lat="39.175096"><ele>622.7</ele></trkpt>
   <trkpt lon="-9.060287" lat="39.175180"><ele>621.5</ele></trkpt>
   <trkpt lon="-9.060410" lat="39.175238"><ele>620.2</ele></trkpt>
   <trkpt lon="-9.060733" lat="39.175358"><ele>618.6</ele></trkpt>
   <trkpt lon="-9.061256" lat="39.175543"><ele>616.8</ele></trkpt>
   <trkpt lon="-9.061336" lat="39.175575"><ele>615.1</ele></trkpt>
   <trkpt lon="-9.061417" lat="39.175620"><ele>613.4</ele></trkpt>
   <trkpt lon="-9.061480" lat="39.175670"><ele>611.8</ele></trkpt>
   <trkpt lon="-9.061513" lat="39.175721"><ele>610.4</ele></trkpt>
   <trkpt lon="-9.061539" lat="39.175779"><ele>609.0</ele></trkpt>
   <trkpt lon="-9.061543" lat="39.175839"><ele>608.0</ele></trkpt>
   <trkpt lon="-9.061526" lat="39.175895"><ele>606.8</ele></trkpt>
   <trkpt lon="-9.061495" lat="39.175956"><ele>605.5</ele></trkpt>
   <trkpt lon="-9.061445" lat="39.176002"><ele>604.1</ele></trkpt>
   <trkpt lon="-9.061375" lat="39.176038"><ele>602.5</ele></trkpt>
   <trkpt lon="-9.061292" lat="39.176067"><ele>600.8</ele></trkpt>
   <trkpt lon="-9.060835" lat="39.176161"><ele>599.1</ele></trkpt>
   <trkpt lon="-9.060629" lat="39.176211"><ele>597.4</ele></trkpt>
   <trkpt lon="-9.060485" lat="39.176270"><ele>595.7</ele></trkpt>
   <trkpt lon="-9.060279" lat="39.176370"><ele>593.9</ele></trkpt>
   <trkpt lon="-9.059729" lat="39.176620"><ele>592.0</ele></trkpt>
   <trkpt lon="-9.059573" lat="39.176679"><ele>589.9</ele></trkpt>
   <trkpt lon="-9.059437" lat="39.176718"><ele>587.8</ele></trkpt>
   <trkpt lon="-9.059297" lat="39.176739"><ele>585.9</ele></trkpt>
   <trkpt lon="-9.059164" lat="39.176741"><ele>584.2</ele></trkpt>
   <trkpt lon="-9.058976" lat="39.176735"><ele>582.4</ele></trkpt>
   <trkpt lon="-9.058798" lat="39.176721"><ele>580.9</ele></trkpt>
   <trkpt lon="-9.058648" lat="39.176691"><ele>579.5</ele></trkpt>
   <trkpt lon="-9.058463" lat="39.176637"><ele>578.2</ele></trkpt>
   <trkpt lon="-9.058383" lat="39.176606"><ele>576.9</ele></trkpt>
   <trkpt lon="-9.057770" lat="39.176349"><ele>575.7</ele></trkpt>
   <trkpt lon="-9.057644" lat="39.176298"><ele>574.5</ele></trkpt>
   <trkpt lon="-9.057563" lat="39.176273"><ele>573.4</ele></trkpt>
   <trkpt lon="-9.057476" lat="39.176255"><ele>572.5</ele></trkpt>
   <trkpt lon="-9.057392" lat="39.176250"><ele>571.5</ele></trkpt>
   <trkpt lon="-9.057288" lat="39.176259"><ele>570.4</ele></trkpt>
   <trkpt lon="-9.057036" lat="39.176304"><ele>569.3</ele></trkpt>
   <trkpt lon="-9.056957" lat="39.176329"><ele>568.0</ele></trkpt>
   <trkpt lon="-9.056891" lat="39.176363"><ele>566.6</ele></trkpt>
   <trkpt lon="-9.056830" lat="39.176414"><ele>565.1</ele></trkpt>
   <trkpt lon="-9.056784" lat="39.176472"><ele>563.5</ele></trkpt>
   <trkpt lon="-9.056707" lat="39.176595"><ele>561.7</ele></trkpt>
   <trkpt lon="-9.056615" lat="39.176772"><ele>559.9</ele></trkpt>
   <trkpt lon="-9.056592" lat="39.176847"><ele>558.0</ele></trkpt>
   <trkpt lon="-9.056580" lat="39.176922"><ele>556.2</ele></trkpt>
   <trkpt lon="-9.056580" lat="39.177060"><ele>554.1</ele></trkpt>
   <trkpt lon="-9.056609" lat="39.177466"><ele>552.2</ele></trkpt>
   <trkpt lon="-9.056629" lat="39.177526"><ele>550.7</ele></trkpt>
   <trkpt lon="-9.056664" lat="39.177588"><ele>549.0</ele></trkpt>
   <trkpt lon="-9.056695" lat="39.177622"><ele>548.0</ele></trkpt>
   <trkpt lon="-9.056815" lat="39.177690"><ele>546.2</ele></trkpt>
   <trkpt lon="-9.057419" lat="39.177900"><ele>544.3</ele></trkpt>
   <trkpt lon="-9.057532" lat="39.177948"><ele>542.7</ele></trkpt>
   <trkpt lon="-9.057656" lat="39.178013"><ele>541.2</ele></trkpt>
   <trkpt lon="-9.057748" lat="39.178109"><ele>539.7</ele></trkpt>
   <trkpt lon="-9.057818" lat="39.178203"><ele>538.4</ele></trkpt>
   <trkpt lon="-9.057846" lat="39.178296"><ele>537.2</ele></trkpt>
   <trkpt lon="-9.057820" lat="39.178390"><ele>536.3</ele></trkpt>
   <trkpt lon="-9.057771" lat="39.178466"><ele>535.4</ele></trkpt>
   <trkpt lon="-9.057702" lat="39.178518"><ele>534.3</ele></trkpt>
   <trkpt lon="-9.057607" lat="39.178552"><ele>533.0</ele></trkpt>
   <trkpt lon="-9.057195" lat="39.178606"><ele>531.7</ele></trkpt>
   <trkpt lon="-9.056992" lat="39.178618"><ele>530.4</ele><sym>pass_place</sym><type>Shaping</type></trkpt>
   <trkpt lon="-9.056858" lat="39.178610"><ele>529.1</ele></trkpt>
   <trkpt lon="-9.056482" lat="39.178563"><ele>527.8</ele></trkpt>
   <trkpt lon="-9.056079" lat="39.178526"><ele>526.4</ele></trkpt>
   <trkpt lon="-9.055947" lat="39.178524"><ele>524.8</ele></trkpt>
   <trkpt lon="-9.055847" lat="39.178548"><ele>523.0</ele></trkpt>
   <trkpt lon="-9.055787" lat="39.178576"><ele>521.7</ele></trkpt>
   <trkpt lon="-9.055745" lat="39.178606"><ele>520.6</ele></trkpt>
   <trkpt lon="-9.055708" lat="39.178672"><ele>519.0</ele></trkpt>
   <trkpt lon="-9.055691" lat="39.178743"><ele>517.8</ele></trkpt>
   <trkpt lon="-9.055686" lat="39.178817"><ele>516.7</ele></trkpt>
   <trkpt lon="-9.055691" lat="39.178868"><ele>515.8</ele></trkpt>
   <trkpt lon="-9.055720" lat="39.178925"><ele>514.9</ele></trkpt>
   <trkpt lon="-9.055765" lat="39.178985"><ele>514.1</ele></trkpt>
   <trkpt lon="-9.055876" lat="39.179094"><ele>513.4</ele></trkpt>
   <trkpt lon="-9.056210" lat="39.179405"><ele>513.0</ele></trkpt>
   <trkpt lon="-9.056278" lat="39.179497"><ele>512.6</ele></trkpt>
   <trkpt lon="-9.056328" lat="39.179616"><ele>512.3</ele><sym>left_slight</sym></trkpt>
   <trkpt lon="-9.056381" lat="39.179621"><ele>511.8</ele></trkpt>
   <trkpt lon="-9.056438" lat="39.179637"><ele>511.4</ele></trkpt>
   <trkpt lon="-9.056515" lat="39.179676"><ele>510.8</ele></trkpt>
   <trkpt lon="-9.056919" lat="39.179916"><ele>510.1</ele></trkpt>
   <trkpt lon="-9.057142" lat="39.180063"><ele>509.4</ele></trkpt>
   <trkpt lon="-9.057215" lat="39.180120"><ele>508.3</ele></trkpt>
   <trkpt lon="-9.057263" lat="39.180168"><ele>507.0</ele><sym>left_slight</sym></trkpt>
   <trkpt lon="-9.057381" lat="39.180204"><ele>505.5</ele></trkpt>
   <trkpt lon="-9.057565" lat="39.180235"><ele>504.0</ele></trkpt>
   <trkpt lon="-9.057757" lat="39.180230"><ele>502.5</ele><sym>left_slight</sym></trkpt>
   <trkpt lon="-9.058275" lat="39.179996"><ele>501.0</ele></trkpt>
   <trkpt lon="-9.058688" lat="39.179798"><ele>499.7</ele></trkpt>
   <trkpt lon="-9.058781" lat="39.179744"><ele>498.5</ele></trkpt>
   <trkpt lon="-9.058866" lat="39.179683"><ele>497.5</ele></trkpt>
   <trkpt lon="-9.058967" lat="39.179596"><ele>496.8</ele></trkpt>
   <trkpt lon="-9.059403" lat="39.179173"><ele>496.2</ele></trkpt>
   <trkpt lon="-9.059518" lat="39.179091"><ele>496.0</ele></trkpt>
   <trkpt lon="-9.059590" lat="39.179054"><ele>496.1</ele></trkpt>
   <trkpt lon="-9.059707" lat="39.179035"><ele>496.2</ele></trkpt>
   <trkpt lon="-9.059772" lat="39.179041"><ele>496.7</ele></trkpt>
   <trkpt lon="-9.059845" lat="39.179063"><ele>497.2</ele></trkpt>
   <trkpt lon="-9.059920" lat="39.179103"><ele>497.9</ele></trkpt>
   <trkpt lon="-9.059978" lat="39.179152"><ele>498.4</ele></trkpt>
   <trkpt lon="-9.060034" lat="39.179215"><ele>498.9</ele></trkpt>
   <trkpt lon="-9.060479" lat="39.179810"><ele>499.3</ele></trkpt>
   <trkpt lon="-9.060609" lat="39.179959"><ele>499.8</ele></trkpt>
   <trkpt lon="-9.060708" lat="39.180050"><ele>500.2</ele></trkpt>
   <trkpt lon="-9.060841" lat="39.180143"><ele>500.7</ele></trkpt>
   <trkpt lon="-9.060995" lat="39.180216"><ele>501.6</ele></trkpt>
   <trkpt lon="-9.061128" lat="39.180258"><ele>502.6</ele></trkpt>
   <trkpt lon="-9.061290" lat="39.180296"><ele>503.6</ele></trkpt>
   <trkpt lon="-9.061466" lat="39.180315"><ele>504.6</ele></trkpt>
   <trkpt lon="-9.061646" lat="39.180314"><ele>505.8</ele></trkpt>
   <trkpt lon="-9.061853" lat="39.180297"><ele>507.6</ele></trkpt>
   <trkpt lon="-9.062057" lat="39.180254"><ele>510.0</ele></trkpt>
   <trkpt lon="-9.062299" lat="39.180175"><ele>512.4</ele></trkpt>
   <trkpt lon="-9.062496" lat="39.180094"><ele>515.0</ele></trkpt>
   <trkpt lon="-9.062741" lat="39.179967"><ele>517.7</ele></trkpt>
   <trkpt lon="-9.063329" lat="39.179627"><ele>520.2</ele></trkpt>
   <trkpt lon="-9.063638" lat="39.179449"><ele>522.4</ele></trkpt>
   <trkpt lon="-9.063840" lat="39.179353"><ele>524.3</ele></trkpt>
   <trkpt lon="-9.064008" lat="39.179296"><ele>526.0</ele></trkpt>
   <trkpt lon="-9.064178" lat="39.179255"><ele>526.7</ele></trkpt>
   <trkpt lon="-9.064955" lat="39.179106"><ele>527.0</ele></trkpt>
   <trkpt lon="-9.065286" lat="39.179035"><ele>526.5</ele></trkpt>
   <trkpt lon="-9.065513" lat="39.178976"><ele>525.3</ele></trkpt>
   <trkpt lon="-9.065719" lat="39.178907"><ele>523.8</ele></trkpt>
   <trkpt lon="-9.067111" lat="39.178376"><ele>522.3</ele></trkpt>
   <trkpt lon="-9.067277" lat="39.178324"><ele>520.2</ele></trkpt>
   <trkpt lon="-9.067434" lat="39.178301"><ele>517.6</ele></trkpt>
   <trkpt lon="-9.067587" lat="39.178295"><ele>514.9</ele></trkpt>
   <trkpt lon="-9.067742" lat="39.178304"><ele>512.2</ele></trkpt>
   <trkpt lon="-9.068212" lat="39.178365"><ele>509.4</ele></trkpt>
   <trkpt lon="-9.069246" lat="39.178518"><ele>507.5</ele></trkpt>
   <trkpt lon="-9.069789" lat="39.178591"><ele>505.6</ele></trkpt>
   <trkpt lon="-9.069996" lat="39.178617"><ele>503.9</ele></trkpt>
   <trkpt lon="-9.070141" lat="39.178624"><ele>502.4</ele></trkpt>
   <trkpt lon="-9.070300" lat="39.178605"><ele>501.0</ele></trkpt>
   <trkpt lon="-9.070429" lat="39.178581"><ele>499.2</ele></trkpt>
   <trkpt lon="-9.070587" lat="39.178530"><ele>497.5</ele></trkpt>
   <trkpt lon="-9.070770" lat="39.178452"><ele>496.1</ele></trkpt>
   <trkpt lon="-9.071254" lat="39.178220"><ele>493.3</ele></trkpt>
   <trkpt lon="-9.071578" lat="39.178073"><ele>490.6</ele></trkpt>
   <trkpt lon="-9.071771" lat="39.178001"><ele>487.0</ele></trkpt>
   <trkpt lon="-9.072059" lat="39.177910"><ele>483.3</ele><sym>pass_place</sym><type>Shaping</type></trkpt>
   <trkpt lon="-9.072740" lat="39.177710"><ele>479.1</ele></trkpt>
   <trkpt lon="-9.074471" lat="39.177198"><ele>474.6</ele></trkpt>
   <trkpt lon="-9.074784" lat="39.177119"><ele>469.9</ele></trkpt>
   <trkpt lon="-9.076036" lat="39.176919"><ele>465.0</ele></trkpt>
   <trkpt lon="-9.076350" lat="39.176889"><ele>459.4</ele></trkpt>
   <trkpt lon="-9.077101" lat="39.176847"><ele>454.1</ele></trkpt>
   <trkpt lon="-9.077349" lat="39.176817"><ele>449.3</ele></trkpt>
   <trkpt lon="-9.077526" lat="39.176777"><ele>445.8</ele></trkpt>
   <trkpt lon="-9.077710" lat="39.176714"><ele>442.0</ele></trkpt>
   <trkpt lon="-9.079042" lat="39.176087"><ele>438.2</ele></trkpt>
   <trkpt lon="-9.079321" lat="39.175970"><ele>434.4</ele></trkpt>
   <trkpt lon="-9.079554" lat="39.175896"><ele>431.1</ele></trkpt>
   <trkpt lon="-9.079787" lat="39.175834"><ele>428.1</ele></trkpt>
   <trkpt lon="-9.080645" lat="39.175657"><ele>425.2</ele></trkpt>
   <trkpt lon="-9.080975" lat="39.175600"><ele>422.2</ele></trkpt>
   <trkpt lon="-9.081231" lat="39.175577"><ele>420.0</ele></trkpt>
   <trkpt lon="-9.081543" lat="39.175573"><ele>417.8</ele></trkpt>
   <trkpt lon="-9.082077" lat="39.175577"><ele>415.6</ele></trkpt>
   <trkpt lon="-9.082228" lat="39.175593"><ele>413.5</ele></trkpt>
   <trkpt lon="-9.082392" lat="39.175626"><ele>412.2</ele></trkpt>
   <trkpt lon="-9.082598" lat="39.175684"><ele>411.0</ele></trkpt>
   <trkpt lon="-9.082760" lat="39.175742"><ele>409.9</ele></trkpt>
   <trkpt lon="-9.082849" lat="39.175793"><ele>408.9</ele></trkpt>
   <trkpt lon="-9.082923" lat="39.175859"><ele>407.9</ele></trkpt>
   <trkpt lon="-9.082967" lat="39.175924"><ele>406.9</ele></trkpt>
   <trkpt lon="-9.082989" lat="39.175981"><ele>405.9</ele></trkpt>
   <trkpt lon="-9.082995" lat="39.176034"><ele>404.9</ele></trkpt>
   <trkpt lon="-9.082985" lat="39.176100"><ele>404.0</ele></trkpt>
   <trkpt lon="-9.082943" lat="39.176174"><ele>403.1</ele></trkpt>
   <trkpt lon="-9.082885" lat="39.176229"><ele>402.1</ele></trkpt>
   <trkpt lon="-9.082620" lat="39.176431"><ele>401.0</ele></trkpt>
   <trkpt lon="-9.082572" lat="39.176492"><ele>399.7</ele></trkpt>
   <trkpt lon="-9.082544" lat="39.176571"><ele>398.5</ele></trkpt>
   <trkpt lon="-9.082548" lat="39.176636"><ele>397.3</ele></trkpt>
   <trkpt lon="-9.082577" lat="39.176714"><ele>396.2</ele></trkpt>
   <trkpt lon="-9.082626" lat="39.176785"><ele>395.2</ele></trkpt>
   <trkpt lon="-9.082812" lat="39.176915"><ele>394.5</ele></trkpt>
   <trkpt lon="-9.083035" lat="39.177032"><ele>393.9</ele></trkpt>
   <trkpt lon="-9.083198" lat="39.177097"><ele>393.3</ele></trkpt>
   <trkpt lon="-9.083314" lat="39.177122"><ele>392.7</ele></trkpt>
   <trkpt lon="-9.083422" lat="39.177128"><ele>392.4</ele></trkpt>
   <trkpt lon="-9.083540" lat="39.177116"><ele>392.2</ele></trkpt>
   <trkpt lon="-9.083680" lat="39.177082"><ele>392.2</ele></trkpt>
   <trkpt lon="-9.083786" lat="39.177028"><ele>392.1</ele></trkpt>
   <trkpt lon="-9.083898" lat="39.176938"><ele>391.8</ele></trkpt>
   <trkpt lon="-9.083968" lat="39.176868"><ele>391.4</ele></trkpt>
   <trkpt lon="-9.084047" lat="39.176799"><ele>390.8</ele></trkpt>
   <trkpt lon="-9.084258" lat="39.176522"><ele>390.1</ele></trkpt>
   <trkpt lon="-9.084353" lat="39.176420"><ele>388.7</ele></trkpt>
   <trkpt lon="-9.084429" lat="39.176373"><ele>387.4</ele></trkpt>
   <trkpt lon="-9.084505" lat="39.176337"><ele>386.0</ele></trkpt>
   <trkpt lon="-9.084600" lat="39.176314"><ele>384.5</ele></trkpt>
   <trkpt lon="-9.084685" lat="39.176305"><ele>382.9</ele></trkpt>
   <trkpt lon="-9.085099" lat="39.176319"><ele>381.4</ele></trkpt>
   <trkpt lon="-9.085170" lat="39.176308"><ele>380.1</ele></trkpt>
   <trkpt lon="-9.085238" lat="39.176283"><ele>378.7</ele></trkpt>
   <trkpt lon="-9.085299" lat="39.176236"><ele>377.6</ele></trkpt>
   <trkpt lon="-9.085356" lat="39.176164"><ele>376.6</ele></trkpt>
   <trkpt lon="-9.085389" lat="39.176073"><ele>375.9</ele></trkpt>
   <trkpt lon="-9.085389" lat="39.175978"><ele>375.9</ele></trkpt>
   <trkpt lon="-9.085351" lat="39.175818"><ele>376.3</ele></trkpt>
   <trkpt lon="-9.085294" lat="39.175674"><ele>376.7</ele></trkpt>
   <trkpt lon="-9.085229" lat="39.175550"><ele>377.1</ele></trkpt>
   <trkpt lon="-9.085147" lat="39.175419"><ele>377.6</ele></trkpt>
   <trkpt lon="-9.085058" lat="39.175332"><ele>378.1</ele></trkpt>
   <trkpt lon="-9.084823" lat="39.175167"><ele>378.4</ele></trkpt>
   <trkpt lon="-9.084796" lat="39.175138"><ele>377.7</ele></trkpt>
   <trkpt lon="-9.084767" lat="39.175085"><ele>376.9</ele></trkpt>
   <trkpt lon="-9.084743" lat="39.175009"><ele>375.9</ele></trkpt>
   <trkpt lon="-9.084738" lat="39.174966"><ele>374.8</ele></trkpt>
   <trkpt lon="-9.084753" lat="39.174892"><ele>373.4</ele></trkpt>
   <trkpt lon="-9.084988" lat="39.174293"><ele>371.7</ele></trkpt>
   <trkpt lon="-9.085029" lat="39.174208"><ele>369.9</ele></trkpt>
   <trkpt lon="-9.085091" lat="39.174129"><ele>367.7</ele></trkpt>
   <trkpt lon="-9.085168" lat="39.174056"><ele>365.4</ele></trkpt>
   <trkpt lon="-9.085267" lat="39.173999"><ele>363.1</ele></trkpt>
   <trkpt lon="-9.085414" lat="39.173940"><ele>361.0</ele></trkpt>
   <trkpt lon="-9.085461" lat="39.173922"><ele>360.0</ele></trkpt>
   <trkpt lon="-9.086224" lat="39.173623"><ele>358.8</ele></trkpt>
   <trkpt lon="-9.086690" lat="39.173447"><ele>357.6</ele><sym>pass_place</sym><type>Shaping</type></trkpt>
   <trkpt lon="-9.086691" lat="39.173447"><ele>357.5</ele></trkpt>
   <trkpt lon="-9.087006" lat="39.173317"><ele>356.2</ele></trkpt>
   <trkpt lon="-9.087147" lat="39.173232"><ele>354.8</ele></trkpt>
   <trkpt lon="-9.087256" lat="39.173146"><ele>353.0</ele></trkpt>
   <trkpt lon="-9.087349" lat="39.173040"><ele>351.7</ele></trkpt>
   <trkpt lon="-9.087532" lat="39.172793"><ele>350.5</ele></trkpt>
   <trkpt lon="-9.087649" lat="39.172618"><ele>349.1</ele></trkpt>
   <trkpt lon="-9.087715" lat="39.172448"><ele>347.5</ele></trkpt>
   <trkpt lon="-9.087781" lat="39.172162"><ele>345.8</ele></trkpt>
   <trkpt lon="-9.087844" lat="39.172002"><ele>343.8</ele></trkpt>
   <trkpt lon="-9.087933" lat="39.171846"><ele>341.8</ele></trkpt>
   <trkpt lon="-9.088056" lat="39.171690"><ele>338.9</ele></trkpt>
   <trkpt lon="-9.088227" lat="39.171530"><ele>336.0</ele></trkpt>
   <trkpt lon="-9.088772" lat="39.171149"><ele>332.3</ele></trkpt>
   <trkpt lon="-9.089264" lat="39.170829"><ele>328.1</ele></trkpt>
   <trkpt lon="-9.089519" lat="39.170683"><ele>323.7</ele></trkpt>
   <trkpt lon="-9.090743" lat="39.170020"><ele>317.7</ele></trkpt>
   <trkpt lon="-9.091177" lat="39.169809"><ele>311.7</ele></trkpt>
   <trkpt lon="-9.093788" lat="39.168803"><ele>305.8</ele></trkpt>
   <trkpt lon="-9.095855" lat="39.168008"><ele>300.6</ele></trkpt>
   <trkpt lon="-9.096371" lat="39.167796"><ele>295.7</ele></trkpt>
   <trkpt lon="-9.102538" lat="39.164867"><ele>290.9</ele></trkpt>
   <trkpt lon="-9.102705" lat="39.164770"><ele>287.2</ele></trkpt>
   <trkpt lon="-9.102999" lat="39.164574"><ele>283.4</ele></trkpt>
   <trkpt lon="-9.104236" lat="39.163653"><ele>280.2</ele><sym>pass_place</sym><type>Shaping</type></trkpt>
   <trkpt lon="-9.104323" lat="39.163603"><ele>278.1</ele></trkpt>
   <trkpt lon="-9.104384" lat="39.163572"><ele>276.7</ele></trkpt>
   <trkpt lon="-9.104461" lat="39.163539"><ele>275.8</ele></trkpt>
   <trkpt lon="-9.104597" lat="39.163502"><ele>273.3</ele></trkpt>
   <trkpt lon="-9.105314" lat="39.163317"><ele>270.3</ele></trkpt>
   <trkpt lon="-9.106175" lat="39.163104"><ele>266.9</ele></trkpt>
   <trkpt lon="-9.106496" lat="39.163017"><ele>263.5</ele></trkpt>
   <trkpt lon="-9.106702" lat="39.162938"><ele>260.0</ele></trkpt>
   <trkpt lon="-9.109013" lat="39.161918"><ele>256.2</ele></trkpt>
   <trkpt lon="-9.109565" lat="39.161675"><ele>252.4</ele></trkpt>
   <trkpt lon="-9.109750" lat="39.161581"><ele>248.9</ele></trkpt>
   <trkpt lon="-9.109870" lat="39.161505"><ele>246.0</ele></trkpt>
   <trkpt lon="-9.110056" lat="39.161368"><ele>241.6</ele></trkpt>
   <trkpt lon="-9.110628" lat="39.160921"><ele>237.4</ele></trkpt>
   <trkpt lon="-9.110773" lat="39.160835"><ele>234.9</ele></trkpt>
   <trkpt lon="-9.110936" lat="39.160767"><ele>232.4</ele></trkpt>
   <trkpt lon="-9.112570" lat="39.160251"><ele>229.7</ele></trkpt>
   <trkpt lon="-9.112745" lat="39.160189"><ele>227.1</ele></trkpt>
   <trkpt lon="-9.112857" lat="39.160122"><ele>224.5</ele></trkpt>
   <trkpt lon="-9.112944" lat="39.160065"><ele>222.3</ele></trkpt>
   <trkpt lon="-9.113422" lat="39.159601"><ele>220.0</ele></trkpt>
   <trkpt lon="-9.113504" lat="39.159543"><ele>217.9</ele></trkpt>
   <trkpt lon="-9.113611" lat="39.159508"><ele>216.5</ele></trkpt>
   <trkpt lon="-9.113744" lat="39.159486"><ele>215.1</ele></trkpt>
   <trkpt lon="-9.113900" lat="39.159470"><ele>213.8</ele></trkpt>
   <trkpt lon="-9.114082" lat="39.159465"><ele>212.3</ele></trkpt>
   <trkpt lon="-9.114236" lat="39.159442"><ele>211.2</ele></trkpt>
   <trkpt lon="-9.114382" lat="39.159400"><ele>210.2</ele></trkpt>
   <trkpt lon="-9.114503" lat="39.159339"><ele>209.0</ele></trkpt>
   <trkpt lon="-9.114652" lat="39.159231"><ele>207.6</ele></trkpt>
   <trkpt lon="-9.115079" lat="39.158865"><ele>206.1</ele></trkpt>
   <trkpt lon="-9.115163" lat="39.158768"><ele>204.5</ele></trkpt>
   <trkpt lon="-9.115192" lat="39.158682"><ele>202.9</ele></trkpt>
   <trkpt lon="-9.115187" lat="39.158449"><ele>201.1</ele></trkpt>
   <trkpt lon="-9.115163" lat="39.158170"><ele>199.3</ele></trkpt>
   <trkpt lon="-9.115172" lat="39.158049"><ele>197.1</ele></trkpt>
   <trkpt lon="-9.115216" lat="39.157950"><ele>195.1</ele></trkpt>
   <trkpt lon="-9.115267" lat="39.157868"><ele>193.1</ele></trkpt>
   <trkpt lon="-9.115442" lat="39.157671"><ele>191.2</ele></trkpt>
   <trkpt lon="-9.115640" lat="39.157492"><ele>189.7</ele></trkpt>
   <trkpt lon="-9.116076" lat="39.157151"><ele>188.5</ele></trkpt>
   <trkpt lon="-9.116135" lat="39.157108"><ele>187.5</ele></trkpt>
   <trkpt lon="-9.116234" lat="39.157049"><ele>186.7</ele><sym>right</sym></trkpt>
   <trkpt lon="-9.116341" lat="39.157132"><ele>185.9</ele></trkpt>
   <trkpt lon="-9.116394" lat="39.157181"><ele>185.2</ele></trkpt>
   <trkpt lon="-9.116459" lat="39.157264"><ele>184.6</ele></trkpt>
   <trkpt lon="-9.116615" lat="39.157494"><ele>184.3</ele></trkpt>
   <trkpt lon="-9.116721" lat="39.157584"><ele>184.0</ele></trkpt>
   <trkpt lon="-9.116772" lat="39.157619"><ele>184.0</ele></trkpt>
   <trkpt lon="-9.116866" lat="39.157653"><ele>184.0</ele></trkpt>
   <trkpt lon="-9.116953" lat="39.157674"><ele>183.8</ele></trkpt>
   <trkpt lon="-9.117129" lat="39.157701"><ele>183.6</ele></trkpt>
   <trkpt lon="-9.117249" lat="39.157732"><ele>183.3</ele><sym>pass_place</sym><type>Via</type></trkpt>
  </trkseg>
 </trk>
</gpx>
