<?xml version="1.0" encoding="UTF-8"?>
<!-- track-length = 37937 filtered ascend = 909 plain-ascend = 0 cost=80077 energy=.3kwh time=3h 7m 17s -->
<gpx 
 xmlns="http://www.topografix.com/GPX/1/1" 
 xmlns:xsi="http://www.w3.org/2001/XMLSchema-instance" 
 xsi:schemaLocation="http://www.topografix.com/GPX/1/1 http://www.topografix.com/GPX/1/1/gpx.xsd" 
 creator="BRouter-1.7.9" version="1.1"><wpt lat="39.24149" lon="-9.10256"><name>Brasil</name><sym>Restaurant</sym></wpt><wpt lat="39.23956" lon="-9.10219"><name>Pátio da Serra</name><sym>Restaurant</sym></wpt><wpt lat="39.24271" lon="-9.10208"><name>Rosa</name><sym>Restaurant</sym></wpt><wpt lat="39.24302" lon="-9.10035"><name>Drinking water</name><sym>Drinking Water</sym></wpt><wpt lat="39.23882" lon="-9.1009"><name>O pão doce</name><sym>Restaurant</sym></wpt><wpt lat="39.26091" lon="-9.07535"><name>A.A.C.R Peral</name><sym>Restaurant</sym></wpt>
 <trk>
  <src>brouter_fastbike-lowtraffic_0</src>
  <type>bike</type>
  <trkseg>
   <trkpt lon="-9.102661" lat="39.242756"><ele>110.8</ele><sym>pass_place</sym><type>Via</type></trkpt>
   <trkpt lon="-9.102554" lat="39.242758"><ele>110.5</ele></trkpt>
   <trkpt lon="-9.102457" lat="39.242759"><ele>110.2</ele></trkpt>
   <trkpt lon="-9.102247" lat="39.242776"><ele>109.9</ele><sym>right</sym></trkpt>
   <trkpt lon="-9.102146" lat="39.242589"><ele>109.7</ele></trkpt>
   <trkpt lon="-9.102031" lat="39.242374"><ele>109.4</ele></trkpt>
   <trkpt lon="-9.101732" lat="39.241912"><ele>109.0</ele></trkpt>
   <trkpt lon="-9.101594" lat="39.241712"><ele>108.5</ele></trkpt>
   <trkpt lon="-9.101394" lat="39.241422"><ele>107.9</ele></trkpt>
   <trkpt lon="-9.101188" lat="39.241215"><ele>107.4</ele></trkpt>
   <trkpt lon="-9.100755" lat="39.240816"><ele>106.9</ele></trkpt>
   <trkpt lon="-9.100584" lat="39.240714"><ele>106.2</ele></trkpt>
   <trkpt lon="-9.100402" lat="39.240645"><ele>105.9</ele></trkpt>
   <trkpt lon="-9.099823" lat="39.240452"><ele>105.7</ele></trkpt>
   <trkpt lon="-9.099542" lat="39.240237"><ele>105.5</ele></trkpt>
   <trkpt lon="-9.099387" lat="39.240086"><ele>105.4</ele></trkpt>
   <trkpt lon="-9.099323" lat="39.240023"><ele>105.4</ele></trkpt>
   <trkpt lon="-9.099259" lat="39.239934"><ele>105.4</ele></trkpt>
   <trkpt lon="-9.099168" lat="39.239815"><ele>105.5</ele></trkpt>
   <trkpt lon="-9.099124" lat="39.239704"><ele>105.4</ele></trkpt>
   <trkpt lon="-9.099103" lat="39.239596"><ele>105.1</ele></trkpt>
   <trkpt lon="-9.099059" lat="39.239368"><ele>104.8</ele></trkpt>
   <trkpt lon="-9.098966" lat="39.238678"><ele>104.7</ele></trkpt>
   <trkpt lon="-9.098858" lat="39.238307"><ele>104.8</ele></trkpt>
   <trkpt lon="-9.098658" lat="39.237706"><ele>104.9</ele></trkpt>
   <trkpt lon="-9.098434" lat="39.237419"><ele>105.0</ele></trkpt>
   <trkpt lon="-9.098296" lat="39.237241"><ele>105.1</ele></trkpt>
   <trkpt lon="-9.098099" lat="39.236890"><ele>105.1</ele></trkpt>
   <trkpt lon="-9.097326" lat="39.234998"><ele>105.2</ele></trkpt>
   <trkpt lon="-9.097160" lat="39.234391"><ele>105.3</ele><sym>roundabout_e2</sym></trkpt>
   <trkpt lon="-9.097241" lat="39.234340"><ele>105.7</ele></trkpt>
   <trkpt lon="-9.097279" lat="39.234279"><ele>106.2</ele></trkpt>
   <trkpt lon="-9.097283" lat="39.234222"><ele>106.5</ele></trkpt>
   <trkpt lon="-9.097263" lat="39.234168"><ele>107.0</ele></trkpt>
   <trkpt lon="-9.097204" lat="39.234110"><ele>107.6</ele></trkpt>
   <trkpt lon="-9.097125" lat="39.234080"><ele>108.2</ele></trkpt>
   <trkpt lon="-9.097019" lat="39.234080"><ele>108.9</ele></trkpt>
   <trkpt lon="-9.096938" lat="39.234111"><ele>109.2</ele></trkpt>
   <trkpt lon="-9.096702" lat="39.233818"><ele>109.6</ele></trkpt>
   <trkpt lon="-9.095891" lat="39.233105"><ele>110.2</ele></trkpt>
   <trkpt lon="-9.095788" lat="39.233015"><ele>110.7</ele></trkpt>
   <trkpt lon="-9.095749" lat="39.232980"><ele>111.2</ele></trkpt>
   <trkpt lon="-9.095170" lat="39.232550"><ele>111.8</ele></trkpt>
   <trkpt lon="-9.095128" lat="39.232519"><ele>112.5</ele></trkpt>
   <trkpt lon="-9.094352" lat="39.231941"><ele>113.1</ele></trkpt>
   <trkpt lon="-9.091717" lat="39.229982"><ele>113.1</ele><sym>pass_place</sym><type>Shaping</type></trkpt>
   <trkpt lon="-9.091715" lat="39.229982"><ele>113.1</ele></trkpt>
   <trkpt lon="-9.090741" lat="39.229257"><ele>113.0</ele></trkpt>
   <trkpt lon="-9.090030" lat="39.228733"><ele>113.2</ele><sym>right_slight</sym></trkpt>
   <trkpt lon="-9.089972" lat="39.228657"><ele>113.3</ele></trkpt>
   <trkpt lon="-9.089930" lat="39.228574"><ele>113.3</ele></trkpt>
   <trkpt lon="-9.089905" lat="39.228486"><ele>113.3</ele></trkpt>
   <trkpt lon="-9.089898" lat="39.228397"><ele>113.3</ele></trkpt>
   <trkpt lon="-9.089909" lat="39.228309"><ele>113.3</ele></trkpt>
   <trkpt lon="-9.089937" lat="39.228222"><ele>113.4</ele></trkpt>
   <trkpt lon="-9.089982" lat="39.228140"><ele>113.2</ele></trkpt>
   <trkpt lon="-9.090057" lat="39.228067"><ele>113.0</ele></trkpt>
   <trkpt lon="-9.090124" lat="39.227990"><ele>112.8</ele></trkpt>
   <trkpt lon="-9.092206" lat="39.226152"><ele>112.8</ele></trkpt>
   <trkpt lon="-9.092849" lat="39.225571"><ele>112.6</ele></trkpt>
   <trkpt lon="-9.093415" lat="39.225092"><ele>112.3</ele></trkpt>
   <trkpt lon="-9.093799" lat="39.224744"><ele>111.6</ele></trkpt>
   <trkpt lon="-9.094276" lat="39.224341"><ele>110.7</ele></trkpt>
   <trkpt lon="-9.094520" lat="39.224157"><ele>109.8</ele></trkpt>
   <trkpt lon="-9.094797" lat="39.224026"><ele>108.9</ele></trkpt>
   <trkpt lon="-9.095107" lat="39.223910"><ele>108.0</ele></trkpt>
   <trkpt lon="-9.095813" lat="39.223650"><ele>107.2</ele></trkpt>
   <trkpt lon="-9.096199" lat="39.223492"><ele>106.6</ele></trkpt>
   <trkpt lon="-9.096417" lat="39.223352"><ele>106.8</ele></trkpt>
   <trkpt lon="-9.096612" lat="39.223185"><ele>107.4</ele></trkpt>
   <trkpt lon="-9.096792" lat="39.222949"><ele>108.0</ele></trkpt>
   <trkpt lon="-9.097055" lat="39.222716"><ele>108.8</ele></trkpt>
   <trkpt lon="-9.097425" lat="39.222467"><ele>110.0</ele></trkpt>
   <trkpt lon="-9.098071" lat="39.222046"><ele>111.4</ele></trkpt>
   <trkpt lon="-9.098214" lat="39.221873"><ele>112.5</ele></trkpt>
   <trkpt lon="-9.098374" lat="39.221491"><ele>113.5</ele></trkpt>
   <trkpt lon="-9.098402" lat="39.221432"><ele>114.5</ele></trkpt>
   <trkpt lon="-9.098506" lat="39.221327"><ele>115.3</ele></trkpt>
   <trkpt lon="-9.098763" lat="39.221098"><ele>116.1</ele></trkpt>
   <trkpt lon="-9.099139" lat="39.220833"><ele>115.9</ele></trkpt>
   <trkpt lon="-9.099609" lat="39.220493"><ele>115.4</ele></trkpt>
   <trkpt lon="-9.099874" lat="39.220255"><ele>114.8</ele></trkpt>
   <trkpt lon="-9.100156" lat="39.219932"><ele>114.3</ele></trkpt>
   <trkpt lon="-9.100378" lat="39.219756"><ele>113.6</ele></trkpt>
   <trkpt lon="-9.100701" lat="39.219574"><ele>112.6</ele></trkpt>
   <trkpt lon="-9.101387" lat="39.219187"><ele>111.4</ele></trkpt>
   <trkpt lon="-9.102915" lat="39.218405"><ele>110.5</ele><sym>pass_place</sym><type>Shaping</type></trkpt>
   <trkpt lon="-9.103248" lat="39.218185"><ele>109.7</ele></trkpt>
   <trkpt lon="-9.103522" lat="39.217965"><ele>109.1</ele></trkpt>
   <trkpt lon="-9.103806" lat="39.217628"><ele>107.7</ele></trkpt>
   <trkpt lon="-9.104394" lat="39.216823"><ele>106.3</ele></trkpt>
   <trkpt lon="-9.104559" lat="39.216625"><ele>104.9</ele></trkpt>
   <trkpt lon="-9.104791" lat="39.216362"><ele>103.6</ele></trkpt>
   <trkpt lon="-9.104928" lat="39.216280"><ele>101.8</ele></trkpt>
   <trkpt lon="-9.105826" lat="39.215747"><ele>100.0</ele></trkpt>
   <trkpt lon="-9.106247" lat="39.215484"><ele>98.5</ele></trkpt>
   <trkpt lon="-9.106493" lat="39.215267"><ele>97.2</ele></trkpt>
   <trkpt lon="-9.106719" lat="39.214977"><ele>95.7</ele></trkpt>
   <trkpt lon="-9.107223" lat="39.214195"><ele>94.1</ele></trkpt>
   <trkpt lon="-9.107333" lat="39.214068"><ele>92.1</ele></trkpt>
   <trkpt lon="-9.107371" lat="39.213939"><ele>91.0</ele></trkpt>
   <trkpt lon="-9.107349" lat="39.213789"><ele>90.0</ele></trkpt>
   <trkpt lon="-9.107305" lat="39.213702"><ele>89.0</ele></trkpt>
   <trkpt lon="-9.107237" lat="39.213569"><ele>87.9</ele></trkpt>
   <trkpt lon="-9.106920" lat="39.213033"><ele>87.2</ele></trkpt>
   <trkpt lon="-9.106891" lat="39.212958"><ele>86.6</ele></trkpt>
   <trkpt lon="-9.106885" lat="39.212922"><ele>85.8</ele></trkpt>
   <trkpt lon="-9.106877" lat="39.212692"><ele>85.1</ele></trkpt>
   <trkpt lon="-9.106928" lat="39.212533"><ele>84.2</ele></trkpt>
   <trkpt lon="-9.107001" lat="39.212368"><ele>83.1</ele></trkpt>
   <trkpt lon="-9.107183" lat="39.212222"><ele>81.6</ele></trkpt>
   <trkpt lon="-9.107382" lat="39.212098"><ele>79.7</ele></trkpt>
   <trkpt lon="-9.107668" lat="39.211955"><ele>77.5</ele></trkpt>
   <trkpt lon="-9.108419" lat="39.211622"><ele>75.1</ele></trkpt>
   <trkpt lon="-9.109039" lat="39.211308"><ele>72.7</ele></trkpt>
   <trkpt lon="-9.109449" lat="39.211036"><ele>70.4</ele></trkpt>
   <trkpt lon="-9.110678" lat="39.210060"><ele>68.1</ele></trkpt>
   <trkpt lon="-9.111135" lat="39.209685"><ele>65.7</ele></trkpt>
   <trkpt lon="-9.111735" lat="39.209183"><ele>63.4</ele></trkpt>
   <trkpt lon="-9.111764" lat="39.209159"><ele>62.6</ele></trkpt>
   <trkpt lon="-9.111905" lat="39.209035"><ele>60.7</ele></trkpt>
   <trkpt lon="-9.112088" lat="39.208869"><ele>59.2</ele></trkpt>
   <trkpt lon="-9.112247" lat="39.208648"><ele>58.3</ele></trkpt>
   <trkpt lon="-9.112311" lat="39.208436"><ele>57.7</ele></trkpt>
   <trkpt lon="-9.112322" lat="39.208157"><ele>57.2</ele></trkpt>
   <trkpt lon="-9.112263" lat="39.207933"><ele>56.7</ele></trkpt>
   <trkpt lon="-9.111931" lat="39.207579"><ele>56.2</ele></trkpt>
   <trkpt lon="-9.111399" lat="39.207222"><ele>55.9</ele></trkpt>
   <trkpt lon="-9.111056" lat="39.207010"><ele>56.0</ele></trkpt>
   <trkpt lon="-9.110890" lat="39.206740"><ele>56.2</ele></trkpt>
   <trkpt lon="-9.110858" lat="39.206478"><ele>56.7</ele></trkpt>
   <trkpt lon="-9.110856" lat="39.206245"><ele>57.1</ele></trkpt>
   <trkpt lon="-9.110852" lat="39.205493"><ele>57.6</ele><sym>pass_place</sym><type>Shaping</type></trkpt>
   <trkpt lon="-9.110868" lat="39.205222"><ele>58.0</ele></trkpt>
   <trkpt lon="-9.111003" lat="39.204969"><ele>58.4</ele></trkpt>
   <trkpt lon="-9.111185" lat="39.204682"><ele>58.6</ele></trkpt>
   <trkpt lon="-9.111389" lat="39.204329"><ele>59.0</ele></trkpt>
   <trkpt lon="-9.111563" lat="39.204005"><ele>59.2</ele></trkpt>
   <trkpt lon="-9.111614" lat="39.203776"><ele>59.3</ele></trkpt>
   <trkpt lon="-9.111571" lat="39.203599"><ele>59.8</ele></trkpt>
   <trkpt lon="-9.111335" lat="39.202599"><ele>60.1</ele></trkpt>
   <trkpt lon="-9.111190" lat="39.201889"><ele>60.2</ele></trkpt>
   <trkpt lon="-9.111153" lat="39.201648"><ele>60.5</ele></trkpt>
   <trkpt lon="-9.111244" lat="39.201319"><ele>60.8</ele></trkpt>
   <trkpt lon="-9.111732" lat="39.199856"><ele>61.0</ele></trkpt>
   <trkpt lon="-9.111829" lat="39.199544"><ele>61.2</ele></trkpt>
   <trkpt lon="-9.111847" lat="39.199392"><ele>61.6</ele></trkpt>
   <trkpt lon="-9.111872" lat="39.199182"><ele>62.0</ele></trkpt>
   <trkpt lon="-9.111898" lat="39.198862"><ele>62.6</ele></trkpt>
   <trkpt lon="-9.111973" lat="39.198218"><ele>63.2</ele></trkpt>
   <trkpt lon="-9.112027" lat="39.197632"><ele>63.5</ele></trkpt>
   <trkpt lon="-9.112000" lat="39.197071"><ele>64.3</ele></trkpt>
   <trkpt lon="-9.111947" lat="39.196563"><ele>65.4</ele></trkpt>
   <trkpt lon="-9.111954" lat="39.196184"><ele>66.7</ele></trkpt>
   <trkpt lon="-9.111988" lat="39.196050"><ele>68.1</ele><sym>left</sym></trkpt>
   <trkpt lon="-9.111590" lat="39.196004"><ele>70.0</ele></trkpt>
   <trkpt lon="-9.111153" lat="39.195986"><ele>72.4</ele></trkpt>
   <trkpt lon="-9.110729" lat="39.195961"><ele>75.0</ele></trkpt>
   <trkpt lon="-9.110402" lat="39.195894"><ele>77.6</ele></trkpt>
   <trkpt lon="-9.109954" lat="39.195675"><ele>80.2</ele></trkpt>
   <trkpt lon="-9.109635" lat="39.195499"><ele>82.6</ele></trkpt>
   <trkpt lon="-9.109114" lat="39.195279"><ele>84.6</ele></trkpt>
   <trkpt lon="-9.108766" lat="39.195176"><ele>86.0</ele><sym>right_sharp</sym></trkpt>
   <trkpt lon="-9.108905" lat="39.195150"><ele>87.3</ele></trkpt>
   <trkpt lon="-9.109077" lat="39.195150"><ele>88.7</ele></trkpt>
   <trkpt lon="-9.109506" lat="39.195196"><ele>89.8</ele></trkpt>
   <trkpt lon="-9.109745" lat="39.195231"><ele>90.6</ele></trkpt>
   <trkpt lon="-9.110039" lat="39.195304"><ele>90.8</ele><sym>u-turn</sym><type>Via</type></trkpt>
   <trkpt lon="-9.109745" lat="39.195231"><ele>90.8</ele></trkpt>
   <trkpt lon="-9.109506" lat="39.195196"><ele>91.0</ele></trkpt>
   <trkpt lon="-9.109077" lat="39.195150"><ele>91.4</ele></trkpt>
   <trkpt lon="-9.108905" lat="39.195150"><ele>92.1</ele></trkpt>
   <trkpt lon="-9.108766" lat="39.195176"><ele>93.1</ele><sym>right_slight</sym></trkpt>
   <trkpt lon="-9.108637" lat="39.195137"><ele>94.6</ele></trkpt>
   <trkpt lon="-9.108216" lat="39.195089"><ele>95.6</ele></trkpt>
   <trkpt lon="-9.107296" lat="39.195000"><ele>96.8</ele></trkpt>
   <trkpt lon="-9.106877" lat="39.194930"><ele>98.0</ele></trkpt>
   <trkpt lon="-9.106451" lat="39.194831"><ele>99.2</ele></trkpt>
   <trkpt lon="-9.106092" lat="39.194711"><ele>100.6</ele></trkpt>
   <trkpt lon="-9.105641" lat="39.194478"><ele>102.2</ele></trkpt>
   <trkpt lon="-9.105266" lat="39.194303"><ele>103.7</ele></trkpt>
   <trkpt lon="-9.105010" lat="39.194244"><ele>105.0</ele></trkpt>
   <trkpt lon="-9.104917" lat="39.194251"><ele>106.3</ele></trkpt>
   <trkpt lon="-9.104758" lat="39.194264"><ele>107.5</ele></trkpt>
   <trkpt lon="-9.103265" lat="39.194628"><ele>108.6</ele></trkpt>
   <trkpt lon="-9.103104" lat="39.194690"><ele>109.8</ele></trkpt>
   <trkpt lon="-9.102981" lat="39.194761"><ele>110.8</ele></trkpt>
   <trkpt lon="-9.102905" lat="39.194861"><ele>111.6</ele></trkpt>
   <trkpt lon="-9.102728" lat="39.194985"><ele>112.3</ele></trkpt>
   <trkpt lon="-9.102575" lat="39.195125"><ele>112.8</ele></trkpt>
   <trkpt lon="-9.102423" lat="39.195177"><ele>113.1</ele></trkpt>
   <trkpt lon="-9.102226" lat="39.195196"><ele>113.3</ele></trkpt>
   <trkpt lon="-9.101977" lat="39.195185"><ele>114.2</ele></trkpt>
   <trkpt lon="-9.101650" lat="39.195189"><ele>115.2</ele></trkpt>
   <trkpt lon="-9.101366" lat="39.195226"><ele>116.1</ele></trkpt>
   <trkpt lon="-9.100971" lat="39.195304"><ele>117.1</ele></trkpt>
   <trkpt lon="-9.100826" lat="39.195325"><ele>118.1</ele></trkpt>
   <trkpt lon="-9.098711" lat="39.195355"><ele>119.1</ele></trkpt>
   <trkpt lon="-9.098391" lat="39.195387"><ele>120.2</ele></trkpt>
   <trkpt lon="-9.098348" lat="39.195404"><ele>121.1</ele></trkpt>
   <trkpt lon="-9.098126" lat="39.195493"><ele>122.3</ele></trkpt>
   <trkpt lon="-9.097994" lat="39.195512"><ele>123.6</ele></trkpt>
   <trkpt lon="-9.097806" lat="39.195616"><ele>124.8</ele></trkpt>
   <trkpt lon="-9.097718" lat="39.195725"><ele>125.8</ele></trkpt>
   <trkpt lon="-9.097664" lat="39.195875"><ele>126.8</ele></trkpt>
   <trkpt lon="-9.097670" lat="39.196025"><ele>127.7</ele></trkpt>
   <trkpt lon="-9.097023" lat="39.196414"><ele>128.7</ele></trkpt>
   <trkpt lon="-9.096701" lat="39.196692"><ele>129.8</ele></trkpt>
   <trkpt lon="-9.096152" lat="39.197230"><ele>130.9</ele></trkpt>
   <trkpt lon="-9.095934" lat="39.197416"><ele>131.9</ele></trkpt>
   <trkpt lon="-9.095680" lat="39.197542"><ele>133.1</ele></trkpt>
   <trkpt lon="-9.095178" lat="39.197565"><ele>134.5</ele></trkpt>
   <trkpt lon="-9.094711" lat="39.197565"><ele>136.0</ele></trkpt>
   <trkpt lon="-9.094266" lat="39.197594"><ele>137.5</ele></trkpt>
   <trkpt lon="-9.092933" lat="39.198041"><ele>138.6</ele></trkpt>
   <trkpt lon="-9.092719" lat="39.198127"><ele>139.6</ele></trkpt>
   <trkpt lon="-9.091570" lat="39.198586"><ele>140.4</ele></trkpt>
   <trkpt lon="-9.091013" lat="39.198802"><ele>141.0</ele><sym>pass_place</sym><type>Shaping</type></trkpt>
   <trkpt lon="-9.091009" lat="39.198804"><ele>141.0</ele></trkpt>
   <trkpt lon="-9.090757" lat="39.198825"><ele>141.3</ele></trkpt>
   <trkpt lon="-9.090532" lat="39.198792"><ele>141.8</ele></trkpt>
   <trkpt lon="-9.089393" lat="39.198162"><ele>142.0</ele></trkpt>
   <trkpt lon="-9.088885" lat="39.197869"><ele>142.0</ele></trkpt>
   <trkpt lon="-9.088518" lat="39.197742"><ele>141.7</ele></trkpt>
   <trkpt lon="-9.088118" lat="39.197669"><ele>141.5</ele></trkpt>
   <trkpt lon="-9.087952" lat="39.197649"><ele>141.5</ele></trkpt>
   <trkpt lon="-9.087179" lat="39.197937"><ele>141.6</ele></trkpt>
   <trkpt lon="-9.087083" lat="39.197987"><ele>142.0</ele><sym>right</sym></trkpt>
   <trkpt lon="-9.087000" lat="39.197916"><ele>142.5</ele></trkpt>
   <trkpt lon="-9.086875" lat="39.197845"><ele>142.9</ele></trkpt>
   <trkpt lon="-9.085929" lat="39.197303"><ele>143.3</ele></trkpt>
   <trkpt lon="-9.085390" lat="39.197041"><ele>143.6</ele></trkpt>
   <trkpt lon="-9.085251" lat="39.196973"><ele>144.0</ele></trkpt>
   <trkpt lon="-9.085015" lat="39.196838"><ele>144.4</ele></trkpt>
   <trkpt lon="-9.084832" lat="39.196698"><ele>144.7</ele></trkpt>
   <trkpt lon="-9.084586" lat="39.196497"><ele>145.0</ele></trkpt>
   <trkpt lon="-9.084387" lat="39.196368"><ele>145.0</ele></trkpt>
   <trkpt lon="-9.084340" lat="39.196343"><ele>144.8</ele></trkpt>
   <trkpt lon="-9.084128" lat="39.196282"><ele>144.6</ele></trkpt>
   <trkpt lon="-9.083895" lat="39.196245"><ele>145.5</ele></trkpt>
   <trkpt lon="-9.083770" lat="39.196232"><ele>147.6</ele></trkpt>
   <trkpt lon="-9.083698" lat="39.196218"><ele>149.0</ele></trkpt>
   <trkpt lon="-9.083561" lat="39.196158"><ele>151.6</ele></trkpt>
   <trkpt lon="-9.083481" lat="39.196077"><ele>154.1</ele></trkpt>
   <trkpt lon="-9.082598" lat="39.194528"><ele>157.0</ele></trkpt>
   <trkpt lon="-9.081709" lat="39.192885"><ele>160.1</ele></trkpt>
   <trkpt lon="-9.081439" lat="39.192408"><ele>163.1</ele></trkpt>
   <trkpt lon="-9.081460" lat="39.192322"><ele>165.3</ele><sym>left</sym></trkpt>
   <trkpt lon="-9.081241" lat="39.192268"><ele>168.5</ele></trkpt>
   <trkpt lon="-9.081016" lat="39.192326"><ele>172.6</ele></trkpt>
   <trkpt lon="-9.080554" lat="39.192484"><ele>175.7</ele></trkpt>
   <trkpt lon="-9.080448" lat="39.192507"><ele>177.7</ele></trkpt>
   <trkpt lon="-9.080346" lat="39.192507"><ele>179.5</ele></trkpt>
   <trkpt lon="-9.080206" lat="39.192461"><ele>182.0</ele></trkpt>
   <trkpt lon="-9.079621" lat="39.192061"><ele>184.6</ele></trkpt>
   <trkpt lon="-9.079519" lat="39.192006"><ele>187.0</ele></trkpt>
   <trkpt lon="-9.079401" lat="39.191986"><ele>189.3</ele></trkpt>
   <trkpt lon="-9.079101" lat="39.192019"><ele>191.8</ele></trkpt>
   <trkpt lon="-9.078211" lat="39.192224"><ele>194.4</ele></trkpt>
   <trkpt lon="-9.077979" lat="39.192243"><ele>196.9</ele></trkpt>
   <trkpt lon="-9.077760" lat="39.192236"><ele>198.6</ele></trkpt>
   <trkpt lon="-9.077647" lat="39.192214"><ele>200.4</ele></trkpt>
   <trkpt lon="-9.077526" lat="39.192132"><ele>202.1</ele></trkpt>
   <trkpt lon="-9.077448" lat="39.192090"><ele>203.9</ele></trkpt>
   <trkpt lon="-9.077261" lat="39.192081"><ele>205.1</ele></trkpt>
   <trkpt lon="-9.076707" lat="39.192134"><ele>206.2</ele></trkpt>
   <trkpt lon="-9.076545" lat="39.192149"><ele>207.3</ele></trkpt>
   <trkpt lon="-9.076467" lat="39.192156"><ele>208.5</ele></trkpt>
   <trkpt lon="-9.075490" lat="39.192187"><ele>209.7</ele></trkpt>
   <trkpt lon="-9.075319" lat="39.192208"><ele>210.7</ele></trkpt>
   <trkpt lon="-9.075082" lat="39.192251"><ele>211.7</ele><sym>pass_place</sym><type>Shaping</type></trkpt>
   <trkpt lon="-9.075080" lat="39.192252"><ele>211.7</ele></trkpt>
   <trkpt lon="-9.074664" lat="39.192279"><ele>212.1</ele></trkpt>
   <trkpt lon="-9.073978" lat="39.192368"><ele>212.5</ele></trkpt>
   <trkpt lon="-9.073669" lat="39.192366"><ele>211.9</ele></trkpt>
   <trkpt lon="-9.073511" lat="39.192359"><ele>211.0</ele></trkpt>
   <trkpt lon="-9.073356" lat="39.192332"><ele>209.9</ele></trkpt>
   <trkpt lon="-9.072913" lat="39.192188"><ele>208.8</ele></trkpt>
   <trkpt lon="-9.072585" lat="39.191996"><ele>207.6</ele></trkpt>
   <trkpt lon="-9.072180" lat="39.191934"><ele>206.4</ele></trkpt>
   <trkpt lon="-9.072044" lat="39.191896"><ele>205.4</ele></trkpt>
   <trkpt lon="-9.071901" lat="39.191811"><ele>204.5</ele></trkpt>
   <trkpt lon="-9.071795" lat="39.191712"><ele>203.6</ele></trkpt>
   <trkpt lon="-9.071658" lat="39.191550"><ele>203.1</ele></trkpt>
   <trkpt lon="-9.071572" lat="39.191481"><ele>202.7</ele></trkpt>
   <trkpt lon="-9.071478" lat="39.191427"><ele>202.8</ele></trkpt>
   <trkpt lon="-9.071400" lat="39.191391"><ele>203.3</ele></trkpt>
   <trkpt lon="-9.071263" lat="39.191368"><ele>203.9</ele></trkpt>
   <trkpt lon="-9.070992" lat="39.191341"><ele>204.5</ele></trkpt>
   <trkpt lon="-9.070813" lat="39.191344"><ele>205.1</ele></trkpt>
   <trkpt lon="-9.070694" lat="39.191402"><ele>205.9</ele></trkpt>
   <trkpt lon="-9.070276" lat="39.191776"><ele>206.7</ele></trkpt>
   <trkpt lon="-9.070163" lat="39.191905"><ele>207.4</ele></trkpt>
   <trkpt lon="-9.070053" lat="39.192052"><ele>208.2</ele></trkpt>
   <trkpt lon="-9.069981" lat="39.192131"><ele>208.9</ele></trkpt>
   <trkpt lon="-9.069446" lat="39.192584"><ele>209.7</ele></trkpt>
   <trkpt lon="-9.069380" lat="39.192636"><ele>210.6</ele></trkpt>
   <trkpt lon="-9.069109" lat="39.192732"><ele>211.2</ele></trkpt>
   <trkpt lon="-9.068830" lat="39.192884"><ele>211.7</ele></trkpt>
   <trkpt lon="-9.068683" lat="39.192925"><ele>211.8</ele></trkpt>
   <trkpt lon="-9.068272" lat="39.192998"><ele>211.8</ele></trkpt>
   <trkpt lon="-9.068179" lat="39.193021"><ele>211.2</ele></trkpt>
   <trkpt lon="-9.067951" lat="39.193177"><ele>210.5</ele></trkpt>
   <trkpt lon="-9.067369" lat="39.193568"><ele>209.8</ele></trkpt>
   <trkpt lon="-9.067025" lat="39.193889"><ele>209.1</ele></trkpt>
   <trkpt lon="-9.066886" lat="39.194020"><ele>208.2</ele></trkpt>
   <trkpt lon="-9.066739" lat="39.194249"><ele>207.2</ele></trkpt>
   <trkpt lon="-9.066524" lat="39.194696"><ele>206.0</ele></trkpt>
   <trkpt lon="-9.066446" lat="39.194778"><ele>204.9</ele></trkpt>
   <trkpt lon="-9.066073" lat="39.195023"><ele>203.9</ele></trkpt>
   <trkpt lon="-9.065939" lat="39.195100"><ele>203.1</ele></trkpt>
   <trkpt lon="-9.065730" lat="39.195178"><ele>202.5</ele></trkpt>
   <trkpt lon="-9.065658" lat="39.195238"><ele>202.2</ele></trkpt>
   <trkpt lon="-9.065549" lat="39.195400"><ele>202.2</ele></trkpt>
   <trkpt lon="-9.065481" lat="39.195514"><ele>202.6</ele></trkpt>
   <trkpt lon="-9.065389" lat="39.195622"><ele>203.3</ele></trkpt>
   <trkpt lon="-9.065301" lat="39.195642"><ele>204.4</ele></trkpt>
   <trkpt lon="-9.065225" lat="39.195626"><ele>205.7</ele></trkpt>
   <trkpt lon="-9.065115" lat="39.195574"><ele>207.2</ele></trkpt>
   <trkpt lon="-9.064853" lat="39.195435"><ele>208.8</ele></trkpt>
   <trkpt lon="-9.064643" lat="39.195285"><ele>210.6</ele></trkpt>
   <trkpt lon="-9.064437" lat="39.195112"><ele>212.7</ele></trkpt>
   <trkpt lon="-9.064279" lat="39.194936"><ele>214.7</ele></trkpt>
   <trkpt lon="-9.064187" lat="39.194875"><ele>217.0</ele></trkpt>
   <trkpt lon="-9.064110" lat="39.194807"><ele>219.1</ele><sym>right</sym></trkpt>
   <trkpt lon="-9.064177" lat="39.194653"><ele>221.1</ele></trkpt>
   <trkpt lon="-9.064244" lat="39.194468"><ele>222.8</ele></trkpt>
   <trkpt lon="-9.064297" lat="39.194358"><ele>224.2</ele></trkpt>
   <trkpt lon="-9.064955" lat="39.193659"><ele>225.5</ele></trkpt>
   <trkpt lon="-9.065024" lat="39.193574"><ele>226.8</ele></trkpt>
   <trkpt lon="-9.065081" lat="39.193474"><ele>228.2</ele></trkpt>
   <trkpt lon="-9.065100" lat="39.193396"><ele>229.5</ele></trkpt>
   <trkpt lon="-9.065102" lat="39.193337"><ele>230.9</ele></trkpt>
   <trkpt lon="-9.065089" lat="39.193287"><ele>232.1</ele></trkpt>
   <trkpt lon="-9.065059" lat="39.193241"><ele>233.4</ele></trkpt>
   <trkpt lon="-9.064989" lat="39.193196"><ele>235.1</ele></trkpt>
   <trkpt lon="-9.064882" lat="39.193171"><ele>237.2</ele></trkpt>
   <trkpt lon="-9.064700" lat="39.193162"><ele>240.2</ele></trkpt>
   <trkpt lon="-9.064499" lat="39.193187"><ele>243.5</ele></trkpt>
   <trkpt lon="-9.062386" lat="39.193496"><ele>246.8</ele></trkpt>
   <trkpt lon="-9.062283" lat="39.193516"><ele>248.8</ele></trkpt>
   <trkpt lon="-9.062235" lat="39.193537"><ele>249.8</ele></trkpt>
   <trkpt lon="-9.062070" lat="39.193657"><ele>253.4</ele></trkpt>
   <trkpt lon="-9.061538" lat="39.194046"><ele>256.9</ele></trkpt>
   <trkpt lon="-9.061401" lat="39.194131"><ele>260.3</ele></trkpt>
   <trkpt lon="-9.061205" lat="39.194210"><ele>261.8</ele><sym>pass_place</sym><type>Shaping</type></trkpt>
   <trkpt lon="-9.060763" lat="39.194360"><ele>263.4</ele></trkpt>
   <trkpt lon="-9.060540" lat="39.194467"><ele>265.1</ele></trkpt>
   <trkpt lon="-9.060333" lat="39.194619"><ele>267.3</ele></trkpt>
   <trkpt lon="-9.060145" lat="39.194777"><ele>269.4</ele></trkpt>
   <trkpt lon="-9.059800" lat="39.195087"><ele>271.4</ele></trkpt>
   <trkpt lon="-9.059703" lat="39.195200"><ele>272.9</ele></trkpt>
   <trkpt lon="-9.059633" lat="39.195294"><ele>273.9</ele></trkpt>
   <trkpt lon="-9.059505" lat="39.195706"><ele>274.8</ele></trkpt>
   <trkpt lon="-9.059420" lat="39.196127"><ele>275.8</ele></trkpt>
   <trkpt lon="-9.059419" lat="39.196246"><ele>277.0</ele></trkpt>
   <trkpt lon="-9.059502" lat="39.196489"><ele>278.3</ele></trkpt>
   <trkpt lon="-9.059520" lat="39.196594"><ele>279.7</ele></trkpt>
   <trkpt lon="-9.059501" lat="39.196691"><ele>281.2</ele></trkpt>
   <trkpt lon="-9.059433" lat="39.196797"><ele>282.3</ele></trkpt>
   <trkpt lon="-9.059353" lat="39.196868"><ele>283.4</ele></trkpt>
   <trkpt lon="-9.059247" lat="39.196930"><ele>284.5</ele></trkpt>
   <trkpt lon="-9.059170" lat="39.196955"><ele>286.1</ele></trkpt>
   <trkpt lon="-9.059079" lat="39.196973"><ele>287.9</ele></trkpt>
   <trkpt lon="-9.058854" lat="39.196985"><ele>290.3</ele></trkpt>
   <trkpt lon="-9.058678" lat="39.196987"><ele>293.1</ele></trkpt>
   <trkpt lon="-9.058568" lat="39.196979"><ele>295.2</ele></trkpt>
   <trkpt lon="-9.058441" lat="39.196955"><ele>297.7</ele></trkpt>
   <trkpt lon="-9.057766" lat="39.196793"><ele>300.1</ele></trkpt>
   <trkpt lon="-9.057387" lat="39.196649"><ele>302.4</ele></trkpt>
   <trkpt lon="-9.056780" lat="39.196432"><ele>304.3</ele></trkpt>
   <trkpt lon="-9.056694" lat="39.196386"><ele>306.3</ele></trkpt>
   <trkpt lon="-9.056629" lat="39.196319"><ele>308.3</ele></trkpt>
   <trkpt lon="-9.056593" lat="39.196269"><ele>309.7</ele></trkpt>
   <trkpt lon="-9.056567" lat="39.196213"><ele>311.2</ele></trkpt>
   <trkpt lon="-9.056573" lat="39.196121"><ele>312.8</ele></trkpt>
   <trkpt lon="-9.056619" lat="39.196008"><ele>313.9</ele></trkpt>
   <trkpt lon="-9.056668" lat="39.195939"><ele>314.4</ele></trkpt>
   <trkpt lon="-9.056768" lat="39.195865"><ele>314.7</ele></trkpt>
   <trkpt lon="-9.056811" lat="39.195852"><ele>314.8</ele></trkpt>
   <trkpt lon="-9.056927" lat="39.195847"><ele>314.8</ele></trkpt>
   <trkpt lon="-9.057139" lat="39.195877"><ele>314.7</ele></trkpt>
   <trkpt lon="-9.057980" lat="39.196232"><ele>314.3</ele></trkpt>
   <trkpt lon="-9.058123" lat="39.196271"><ele>313.7</ele></trkpt>
   <trkpt lon="-9.058216" lat="39.196288"><ele>312.9</ele></trkpt>
   <trkpt lon="-9.058303" lat="39.196290"><ele>312.1</ele></trkpt>
   <trkpt lon="-9.058382" lat="39.196268"><ele>311.4</ele></trkpt>
   <trkpt lon="-9.058437" lat="39.196228"><ele>311.4</ele></trkpt>
   <trkpt lon="-9.058476" lat="39.196174"><ele>312.9</ele></trkpt>
   <trkpt lon="-9.058497" lat="39.196126"><ele>314.1</ele></trkpt>
   <trkpt lon="-9.058503" lat="39.196056"><ele>315.9</ele></trkpt>
   <trkpt lon="-9.058494" lat="39.195980"><ele>317.7</ele></trkpt>
   <trkpt lon="-9.058330" lat="39.195522"><ele>322.4</ele></trkpt>
   <trkpt lon="-9.058122" lat="39.194985"><ele>327.3</ele></trkpt>
   <trkpt lon="-9.057916" lat="39.194508"><ele>332.3</ele></trkpt>
   <trkpt lon="-9.057707" lat="39.193995"><ele>337.5</ele></trkpt>
   <trkpt lon="-9.057587" lat="39.193745"><ele>342.9</ele></trkpt>
   <trkpt lon="-9.057420" lat="39.193464"><ele>348.6</ele></trkpt>
   <trkpt lon="-9.057400" lat="39.193411"><ele>349.9</ele></trkpt>
   <trkpt lon="-9.057385" lat="39.193337"><ele>351.8</ele></trkpt>
   <trkpt lon="-9.057403" lat="39.193166"><ele>355.2</ele></trkpt>
   <trkpt lon="-9.057415" lat="39.193043"><ele>358.2</ele></trkpt>
   <trkpt lon="-9.057482" lat="39.192716"><ele>361.1</ele></trkpt>
   <trkpt lon="-9.057562" lat="39.192470"><ele>363.5</ele></trkpt>
   <trkpt lon="-9.057689" lat="39.192151"><ele>366.0</ele></trkpt>
   <trkpt lon="-9.057833" lat="39.191792"><ele>369.0</ele></trkpt>
   <trkpt lon="-9.057969" lat="39.191398"><ele>372.2</ele></trkpt>
   <trkpt lon="-9.058001" lat="39.191236"><ele>375.9</ele></trkpt>
   <trkpt lon="-9.058033" lat="39.190994"><ele>379.2</ele></trkpt>
   <trkpt lon="-9.058042" lat="39.190839"><ele>382.4</ele></trkpt>
   <trkpt lon="-9.057998" lat="39.190441"><ele>385.8</ele></trkpt>
   <trkpt lon="-9.057959" lat="39.190244"><ele>389.0</ele></trkpt>
   <trkpt lon="-9.057849" lat="39.189830"><ele>392.1</ele></trkpt>
   <trkpt lon="-9.057833" lat="39.189737"><ele>394.4</ele></trkpt>
   <trkpt lon="-9.057831" lat="39.189634"><ele>396.9</ele></trkpt>
   <trkpt lon="-9.057867" lat="39.189102"><ele>400.5</ele></trkpt>
   <trkpt lon="-9.057860" lat="39.188920"><ele>404.4</ele></trkpt>
   <trkpt lon="-9.057838" lat="39.188712"><ele>408.0</ele></trkpt>
   <trkpt lon="-9.057789" lat="39.188383"><ele>411.1</ele></trkpt>
   <trkpt lon="-9.057751" lat="39.188251"><ele>414.4</ele></trkpt>
   <trkpt lon="-9.057691" lat="39.188090"><ele>417.8</ele></trkpt>
   <trkpt lon="-9.057400" lat="39.187400"><ele>421.5</ele><sym>pass_place</sym><type>Shaping</type></trkpt>
   <trkpt lon="-9.057399" lat="39.187400"><ele>421.5</ele></trkpt>
   <trkpt lon="-9.057375" lat="39.187266"><ele>424.8</ele></trkpt>
   <trkpt lon="-9.057385" lat="39.187131"><ele>428.1</ele></trkpt>
   <trkpt lon="-9.057436" lat="39.186906"><ele>431.2</ele></trkpt>
   <trkpt lon="-9.057546" lat="39.186486"><ele>434.0</ele></trkpt>
   <trkpt lon="-9.057656" lat="39.186283"><ele>435.5</ele></trkpt>
   <trkpt lon="-9.057770" lat="39.186123"><ele>437.8</ele></trkpt>
   <trkpt lon="-9.057840" lat="39.186034"><ele>439.8</ele></trkpt>
   <trkpt lon="-9.057951" lat="39.185952"><ele>442.7</ele></trkpt>
   <trkpt lon="-9.058115" lat="39.185886"><ele>445.3</ele></trkpt>
   <trkpt lon="-9.058420" lat="39.185803"><ele>446.9</ele></trkpt>
   <trkpt lon="-9.060273" lat="39.185393"><ele>448.0</ele></trkpt>
   <trkpt lon="-9.060360" lat="39.185378"><ele>448.7</ele></trkpt>
   <trkpt lon="-9.061462" lat="39.185242"><ele>449.3</ele></trkpt>
   <trkpt lon="-9.061838" lat="39.185207"><ele>449.9</ele></trkpt>
   <trkpt lon="-9.062184" lat="39.185200"><ele>450.5</ele></trkpt>
   <trkpt lon="-9.062315" lat="39.185204"><ele>451.4</ele></trkpt>
   <trkpt lon="-9.062414" lat="39.185194"><ele>451.7</ele></trkpt>
   <trkpt lon="-9.062503" lat="39.185171"><ele>451.8</ele></trkpt>
   <trkpt lon="-9.062576" lat="39.185136"><ele>450.7</ele></trkpt>
   <trkpt lon="-9.062621" lat="39.185085"><ele>450.2</ele></trkpt>
   <trkpt lon="-9.062638" lat="39.185031"><ele>450.6</ele></trkpt>
   <trkpt lon="-9.062629" lat="39.184985"><ele>451.2</ele></trkpt>
   <trkpt lon="-9.062606" lat="39.184937"><ele>452.0</ele></trkpt>
   <trkpt lon="-9.062568" lat="39.184888"><ele>453.4</ele></trkpt>
   <trkpt lon="-9.062192" lat="39.184614"><ele>454.9</ele></trkpt>
   <trkpt lon="-9.061771" lat="39.184291"><ele>456.3</ele></trkpt>
   <trkpt lon="-9.061586" lat="39.184149"><ele>457.7</ele></trkpt>
   <trkpt lon="-9.061087" lat="39.183805"><ele>458.9</ele></trkpt>
   <trkpt lon="-9.059573" lat="39.182879"><ele>460.2</ele></trkpt>
   <trkpt lon="-9.059524" lat="39.182838"><ele>461.5</ele></trkpt>
   <trkpt lon="-9.059482" lat="39.182780"><ele>462.6</ele></trkpt>
   <trkpt lon="-9.059453" lat="39.182725"><ele>463.6</ele></trkpt>
   <trkpt lon="-9.059384" lat="39.182467"><ele>464.5</ele></trkpt>
   <trkpt lon="-9.059337" lat="39.182372"><ele>465.7</ele></trkpt>
   <trkpt lon="-9.059285" lat="39.182295"><ele>466.4</ele></trkpt>
   <trkpt lon="-9.059218" lat="39.182217"><ele>467.3</ele></trkpt>
   <trkpt lon="-9.059131" lat="39.182141"><ele>468.5</ele></trkpt>
   <trkpt lon="-9.059009" lat="39.182063"><ele>469.6</ele></trkpt>
   <trkpt lon="-9.058772" lat="39.181936"><ele>471.0</ele></trkpt>
   <trkpt lon="-9.058561" lat="39.181842"><ele>472.6</ele></trkpt>
   <trkpt lon="-9.058280" lat="39.181733"><ele>474.3</ele></trkpt>
   <trkpt lon="-9.058069" lat="39.181614"><ele>476.0</ele></trkpt>
   <trkpt lon="-9.057959" lat="39.181519"><ele>477.6</ele></trkpt>
   <trkpt lon="-9.057548" lat="39.181079"><ele>479.3</ele></trkpt>
   <trkpt lon="-9.057291" lat="39.180787"><ele>480.8</ele></trkpt>
   <trkpt lon="-9.057243" lat="39.180723"><ele>482.2</ele></trkpt>
   <trkpt lon="-9.057226" lat="39.180676"><ele>483.4</ele></trkpt>
   <trkpt lon="-9.057222" lat="39.180617"><ele>484.4</ele></trkpt>
   <trkpt lon="-9.057259" lat="39.180496"><ele>485.6</ele><sym>straight</sym></trkpt>
   <trkpt lon="-9.057304" lat="39.180332"><ele>486.8</ele></trkpt>
   <trkpt lon="-9.057304" lat="39.180275"><ele>487.8</ele></trkpt>
   <trkpt lon="-9.057293" lat="39.180220"><ele>488.7</ele></trkpt>
   <trkpt lon="-9.057263" lat="39.180168"><ele>489.5</ele></trkpt>
   <trkpt lon="-9.057215" lat="39.180120"><ele>490.3</ele></trkpt>
   <trkpt lon="-9.057142" lat="39.180063"><ele>490.9</ele></trkpt>
   <trkpt lon="-9.056919" lat="39.179916"><ele>491.5</ele></trkpt>
   <trkpt lon="-9.056515" lat="39.179676"><ele>492.1</ele></trkpt>
   <trkpt lon="-9.056438" lat="39.179637"><ele>492.6</ele></trkpt>
   <trkpt lon="-9.056381" lat="39.179621"><ele>493.1</ele></trkpt>
   <trkpt lon="-9.056328" lat="39.179616"><ele>493.5</ele><sym>right</sym></trkpt>
   <trkpt lon="-9.056278" lat="39.179497"><ele>493.9</ele></trkpt>
   <trkpt lon="-9.056210" lat="39.179405"><ele>494.2</ele></trkpt>
   <trkpt lon="-9.055876" lat="39.179094"><ele>494.7</ele></trkpt>
   <trkpt lon="-9.055765" lat="39.178985"><ele>495.3</ele></trkpt>
   <trkpt lon="-9.055720" lat="39.178925"><ele>496.2</ele></trkpt>
   <trkpt lon="-9.055691" lat="39.178868"><ele>497.1</ele></trkpt>
   <trkpt lon="-9.055686" lat="39.178817"><ele>498.0</ele></trkpt>
   <trkpt lon="-9.055691" lat="39.178743"><ele>499.1</ele></trkpt>
   <trkpt lon="-9.055708" lat="39.178672"><ele>500.3</ele></trkpt>
   <trkpt lon="-9.055745" lat="39.178606"><ele>501.9</ele></trkpt>
   <trkpt lon="-9.055787" lat="39.178576"><ele>502.9</ele></trkpt>
   <trkpt lon="-9.055847" lat="39.178548"><ele>504.3</ele></trkpt>
   <trkpt lon="-9.055947" lat="39.178524"><ele>506.0</ele></trkpt>
   <trkpt lon="-9.056079" lat="39.178526"><ele>507.6</ele></trkpt>
   <trkpt lon="-9.056482" lat="39.178563"><ele>509.0</ele></trkpt>
   <trkpt lon="-9.056858" lat="39.178610"><ele>510.3</ele></trkpt>
   <trkpt lon="-9.056992" lat="39.178618"><ele>511.7</ele></trkpt>
   <trkpt lon="-9.057195" lat="39.178606"><ele>513.0</ele></trkpt>
   <trkpt lon="-9.057607" lat="39.178552"><ele>514.3</ele></trkpt>
   <trkpt lon="-9.057702" lat="39.178518"><ele>515.6</ele></trkpt>
   <trkpt lon="-9.057771" lat="39.178466"><ele>516.5</ele></trkpt>
   <trkpt lon="-9.057820" lat="39.178390"><ele>517.2</ele></trkpt>
   <trkpt lon="-9.057846" lat="39.178296"><ele>518.1</ele></trkpt>
   <trkpt lon="-9.057818" lat="39.178203"><ele>519.1</ele></trkpt>
   <trkpt lon="-9.057750" lat="39.178110"><ele>520.2</ele><sym>pass_place</sym><type>Shaping</type></trkpt>
   <trkpt lon="-9.057748" lat="39.178109"><ele>520.3</ele></trkpt>
   <trkpt lon="-9.057656" lat="39.178013"><ele>521.7</ele></trkpt>
   <trkpt lon="-9.057532" lat="39.177948"><ele>523.1</ele></trkpt>
   <trkpt lon="-9.057419" lat="39.177900"><ele>524.6</ele></trkpt>
   <trkpt lon="-9.056815" lat="39.177690"><ele>526.3</ele></trkpt>
   <trkpt lon="-9.056695" lat="39.177622"><ele>527.9</ele></trkpt>
   <trkpt lon="-9.056664" lat="39.177588"><ele>529.0</ele></trkpt>
   <trkpt lon="-9.056629" lat="39.177526"><ele>530.6</ele></trkpt>
   <trkpt lon="-9.056609" lat="39.177466"><ele>532.1</ele></trkpt>
   <trkpt lon="-9.056580" lat="39.177060"><ele>534.1</ele></trkpt>
   <trkpt lon="-9.056580" lat="39.176922"><ele>536.1</ele></trkpt>
   <trkpt lon="-9.056592" lat="39.176847"><ele>537.9</ele></trkpt>
   <trkpt lon="-9.056615" lat="39.176772"><ele>539.8</ele></trkpt>
   <trkpt lon="-9.056707" lat="39.176595"><ele>541.6</ele></trkpt>
   <trkpt lon="-9.056784" lat="39.176472"><ele>543.5</ele></trkpt>
   <trkpt lon="-9.056830" lat="39.176414"><ele>545.0</ele></trkpt>
   <trkpt lon="-9.056891" lat="39.176363"><ele>546.5</ele></trkpt>
   <trkpt lon="-9.056957" lat="39.176329"><ele>547.9</ele></trkpt>
   <trkpt lon="-9.057036" lat="39.176304"><ele>549.2</ele></trkpt>
   <trkpt lon="-9.057288" lat="39.176259"><ele>550.3</ele></trkpt>
   <trkpt lon="-9.057392" lat="39.176250"><ele>551.4</ele></trkpt>
   <trkpt lon="-9.057476" lat="39.176255"><ele>552.4</ele></trkpt>
   <trkpt lon="-9.057563" lat="39.176273"><ele>553.3</ele></trkpt>
   <trkpt lon="-9.057644" lat="39.176298"><ele>554.4</ele></trkpt>
   <trkpt lon="-9.057770" lat="39.176349"><ele>555.6</ele></trkpt>
   <trkpt lon="-9.058383" lat="39.176606"><ele>556.9</ele></trkpt>
   <trkpt lon="-9.058463" lat="39.176637"><ele>558.1</ele></trkpt>
   <trkpt lon="-9.058648" lat="39.176691"><ele>559.4</ele></trkpt>
   <trkpt lon="-9.058798" lat="39.176721"><ele>560.9</ele></trkpt>
   <trkpt lon="-9.058976" lat="39.176735"><ele>562.3</ele></trkpt>
   <trkpt lon="-9.059164" lat="39.176741"><ele>564.1</ele></trkpt>
   <trkpt lon="-9.059297" lat="39.176739"><ele>565.8</ele></trkpt>
   <trkpt lon="-9.059437" lat="39.176718"><ele>567.7</ele></trkpt>
   <trkpt lon="-9.059573" lat="39.176679"><ele>569.8</ele></trkpt>
   <trkpt lon="-9.059729" lat="39.176620"><ele>571.9</ele></trkpt>
   <trkpt lon="-9.060279" lat="39.176370"><ele>573.9</ele></trkpt>
   <trkpt lon="-9.060485" lat="39.176270"><ele>575.6</ele></trkpt>
   <trkpt lon="-9.060629" lat="39.176211"><ele>577.4</ele></trkpt>
   <trkpt lon="-9.060835" lat="39.176161"><ele>579.0</ele></trkpt>
   <trkpt lon="-9.061292" lat="39.176067"><ele>580.7</ele></trkpt>
   <trkpt lon="-9.061375" lat="39.176038"><ele>582.4</ele></trkpt>
   <trkpt lon="-9.061445" lat="39.176002"><ele>584.0</ele></trkpt>
   <trkpt lon="-9.061495" lat="39.175956"><ele>585.4</ele></trkpt>
   <trkpt lon="-9.061526" lat="39.175895"><ele>586.7</ele></trkpt>
   <trkpt lon="-9.061543" lat="39.175839"><ele>587.9</ele></trkpt>
   <trkpt lon="-9.061539" lat="39.175779"><ele>588.9</ele></trkpt>
   <trkpt lon="-9.061513" lat="39.175721"><ele>590.3</ele></trkpt>
   <trkpt lon="-9.061480" lat="39.175670"><ele>591.7</ele></trkpt>
   <trkpt lon="-9.061417" lat="39.175620"><ele>593.3</ele></trkpt>
   <trkpt lon="-9.061336" lat="39.175575"><ele>595.0</ele></trkpt>
   <trkpt lon="-9.061256" lat="39.175543"><ele>596.7</ele></trkpt>
   <trkpt lon="-9.060733" lat="39.175358"><ele>598.5</ele></trkpt>
   <trkpt lon="-9.060410" lat="39.175238"><ele>600.1</ele></trkpt>
   <trkpt lon="-9.060287" lat="39.175180"><ele>601.4</ele></trkpt>
   <trkpt lon="-9.060158" lat="39.175096"><ele>602.6</ele></trkpt>
   <trkpt lon="-9.059436" lat="39.174585"><ele>603.8</ele></trkpt>
   <trkpt lon="-9.059418" lat="39.174572"><ele>604.3</ele></trkpt>
   <trkpt lon="-9.059385" lat="39.174553"><ele>605.0</ele></trkpt>
   <trkpt lon="-9.059161" lat="39.174388"><ele>605.4</ele></trkpt>
   <trkpt lon="-9.058943" lat="39.174235"><ele>605.6</ele></trkpt>
   <trkpt lon="-9.058628" lat="39.174013"><ele>605.7</ele></trkpt>
   <trkpt lon="-9.058539" lat="39.173958"><ele>605.3</ele></trkpt>
   <trkpt lon="-9.058459" lat="39.173919"><ele>605.7</ele></trkpt>
   <trkpt lon="-9.058384" lat="39.173890"><ele>606.8</ele></trkpt>
   <trkpt lon="-9.058311" lat="39.173873"><ele>607.9</ele></trkpt>
   <trkpt lon="-9.058235" lat="39.173862"><ele>608.5</ele></trkpt>
   <trkpt lon="-9.058132" lat="39.173859"><ele>609.3</ele></trkpt>
   <trkpt lon="-9.054044" lat="39.174133"><ele>609.6</ele></trkpt>
   <trkpt lon="-9.053135" lat="39.174183"><ele>609.9</ele><sym>pass_place</sym><type>Shaping</type></trkpt>
   <trkpt lon="-9.053021" lat="39.174178"><ele>610.7</ele><sym>left_slight</sym></trkpt>
   <trkpt lon="-9.052659" lat="39.174355"><ele>611.5</ele></trkpt>
   <trkpt lon="-9.052096" lat="39.174174"><ele>612.7</ele></trkpt>
   <trkpt lon="-9.051645" lat="39.174366"><ele>614.0</ele><sym>pass_place</sym><type>Shaping</type></trkpt>
   <trkpt lon="-9.051645" lat="39.174366"><ele>614.0</ele></trkpt>
   <trkpt lon="-9.052096" lat="39.174174"><ele>612.7</ele></trkpt>
   <trkpt lon="-9.052659" lat="39.174355"><ele>611.5</ele></trkpt>
   <trkpt lon="-9.053021" lat="39.174178"><ele>610.7</ele><sym>right_slight</sym></trkpt>
   <trkpt lon="-9.053135" lat="39.174183"><ele>609.9</ele></trkpt>
   <trkpt lon="-9.054044" lat="39.174133"><ele>609.6</ele></trkpt>
   <trkpt lon="-9.058132" lat="39.173859"><ele>609.3</ele></trkpt>
   <trkpt lon="-9.058235" lat="39.173862"><ele>608.5</ele></trkpt>
   <trkpt lon="-9.058311" lat="39.173873"><ele>607.9</ele></trkpt>
   <trkpt lon="-9.058384" lat="39.173890"><ele>606.8</ele></trkpt>
   <trkpt lon="-9.058459" lat="39.173919"><ele>605.7</ele></trkpt>
   <trkpt lon="-9.058539" lat="39.173958"><ele>605.3</ele></trkpt>
   <trkpt lon="-9.058628" lat="39.174013"><ele>605.7</ele></trkpt>
   <trkpt lon="-9.058943" lat="39.174235"><ele>605.6</ele></trkpt>
   <trkpt lon="-9.059161" lat="39.174388"><ele>605.4</ele></trkpt>
   <trkpt lon="-9.059385" lat="39.174553"><ele>605.0</ele></trkpt>
   <trkpt lon="-9.059418" lat="39.174572"><ele>604.3</ele></trkpt>
   <trkpt lon="-9.059436" lat="39.174585"><ele>603.8</ele></trkpt>
   <trkpt lon="-9.060158" lat="39.175096"><ele>602.6</ele></trkpt>
   <trkpt lon="-9.060287" lat="39.175180"><ele>601.4</ele></trkpt>
   <trkpt lon="-9.060410" lat="39.175238"><ele>600.1</ele></trkpt>
   <trkpt lon="-9.060733" lat="39.175358"><ele>598.5</ele></trkpt>
   <trkpt lon="-9.061256" lat="39.175543"><ele>596.7</ele></trkpt>
   <trkpt lon="-9.061336" lat="39.175575"><ele>595.0</ele></trkpt>
   <trkpt lon="-9.061417" lat="39.175620"><ele>593.3</ele></trkpt>
   <trkpt lon="-9.061480" lat="39.175670"><ele>591.7</ele></trkpt>
   <trkpt lon="-9.061513" lat="39.175721"><ele>590.3</ele></trkpt>
   <trkpt lon="-9.061539" lat="39.175779"><ele>588.9</ele></trkpt>
   <trkpt lon="-9.061543" lat="39.175839"><ele>587.9</ele></trkpt>
   <trkpt lon="-9.061526" lat="39.175895"><ele>586.7</ele></trkpt>
   <trkpt lon="-9.061495" lat="39.175956"><ele>585.4</ele></trkpt>
   <trkpt lon="-9.061445" lat="39.176002"><ele>584.0</ele></trkpt>
   <trkpt lon="-9.061375" lat="39.176038"><ele>582.4</ele></trkpt>
   <trkpt lon="-9.061292" lat="39.176067"><ele>580.7</ele></trkpt>
   <trkpt lon="-9.060835" lat="39.176161"><ele>579.0</ele></trkpt>
   <trkpt lon="-9.060629" lat="39.176211"><ele>577.4</ele></trkpt>
   <trkpt lon="-9.060485" lat="39.176270"><ele>575.6</ele></trkpt>
   <trkpt lon="-9.060279" lat="39.176370"><ele>573.9</ele></trkpt>
   <trkpt lon="-9.059729" lat="39.176620"><ele>571.9</ele></trkpt>
   <trkpt lon="-9.059573" lat="39.176679"><ele>569.8</ele></trkpt>
   <trkpt lon="-9.059437" lat="39.176718"><ele>567.7</ele></trkpt>
   <trkpt lon="-9.059297" lat="39.176739"><ele>565.8</ele></trkpt>
   <trkpt lon="-9.059164" lat="39.176741"><ele>564.1</ele></trkpt>
   <trkpt lon="-9.058976" lat="39.176735"><ele>562.3</ele></trkpt>
   <trkpt lon="-9.058798" lat="39.176721"><ele>560.9</ele></trkpt>
   <trkpt lon="-9.058648" lat="39.176691"><ele>559.4</ele></trkpt>
   <trkpt lon="-9.058463" lat="39.176637"><ele>558.1</ele></trkpt>
   <trkpt lon="-9.058383" lat="39.176606"><ele>556.9</ele></trkpt>
   <trkpt lon="-9.057770" lat="39.176349"><ele>555.6</ele></trkpt>
   <trkpt lon="-9.057644" lat="39.176298"><ele>554.4</ele></trkpt>
   <trkpt lon="-9.057563" lat="39.176273"><ele>553.3</ele></trkpt>
   <trkpt lon="-9.057476" lat="39.176255"><ele>552.4</ele></trkpt>
   <trkpt lon="-9.057392" lat="39.176250"><ele>551.4</ele></trkpt>
   <trkpt lon="-9.057288" lat="39.176259"><ele>550.3</ele></trkpt>
   <trkpt lon="-9.057036" lat="39.176304"><ele>549.2</ele></trkpt>
   <trkpt lon="-9.056957" lat="39.176329"><ele>547.9</ele></trkpt>
   <trkpt lon="-9.056891" lat="39.176363"><ele>546.5</ele></trkpt>
   <trkpt lon="-9.056830" lat="39.176414"><ele>545.0</ele></trkpt>
   <trkpt lon="-9.056784" lat="39.176472"><ele>543.5</ele></trkpt>
   <trkpt lon="-9.056707" lat="39.176595"><ele>541.6</ele></trkpt>
   <trkpt lon="-9.056615" lat="39.176772"><ele>539.8</ele></trkpt>
   <trkpt lon="-9.056592" lat="39.176847"><ele>537.9</ele></trkpt>
   <trkpt lon="-9.056580" lat="39.176922"><ele>536.1</ele></trkpt>
   <trkpt lon="-9.056580" lat="39.177060"><ele>534.1</ele></trkpt>
   <trkpt lon="-9.056609" lat="39.177466"><ele>532.1</ele></trkpt>
   <trkpt lon="-9.056629" lat="39.177526"><ele>530.6</ele></trkpt>
   <trkpt lon="-9.056664" lat="39.177588"><ele>529.0</ele></trkpt>
   <trkpt lon="-9.056695" lat="39.177622"><ele>527.9</ele></trkpt>
   <trkpt lon="-9.056815" lat="39.177690"><ele>526.1</ele></trkpt>
   <trkpt lon="-9.057419" lat="39.177900"><ele>524.2</ele></trkpt>
   <trkpt lon="-9.057532" lat="39.177948"><ele>522.7</ele></trkpt>
   <trkpt lon="-9.057656" lat="39.178013"><ele>521.1</ele></trkpt>
   <trkpt lon="-9.057748" lat="39.178109"><ele>519.6</ele></trkpt>
   <trkpt lon="-9.057818" lat="39.178203"><ele>518.3</ele></trkpt>
   <trkpt lon="-9.057846" lat="39.178296"><ele>517.2</ele></trkpt>
   <trkpt lon="-9.057820" lat="39.178390"><ele>516.2</ele></trkpt>
   <trkpt lon="-9.057771" lat="39.178466"><ele>515.3</ele></trkpt>
   <trkpt lon="-9.057702" lat="39.178518"><ele>514.2</ele></trkpt>
   <trkpt lon="-9.057607" lat="39.178552"><ele>513.4</ele></trkpt>
   <trkpt lon="-9.057195" lat="39.178606"><ele>512.7</ele></trkpt>
   <trkpt lon="-9.056992" lat="39.178618"><ele>511.7</ele></trkpt>
   <trkpt lon="-9.056858" lat="39.178610"><ele>510.7</ele></trkpt>
   <trkpt lon="-9.056482" lat="39.178563"><ele>509.6</ele><sym>u-turn_right</sym></trkpt>
   <trkpt lon="-9.056480" lat="39.178560"><ele>509.5</ele><sym>pass_place</sym><type>Shaping</type></trkpt>
   <trkpt lon="-9.056482" lat="39.178563"><ele>509.4</ele></trkpt>
   <trkpt lon="-9.056079" lat="39.178526"><ele>508.0</ele></trkpt>
   <trkpt lon="-9.055947" lat="39.178524"><ele>506.2</ele></trkpt>
   <trkpt lon="-9.055847" lat="39.178548"><ele>504.4</ele></trkpt>
   <trkpt lon="-9.055787" lat="39.178576"><ele>503.1</ele></trkpt>
   <trkpt lon="-9.055745" lat="39.178606"><ele>502.0</ele></trkpt>
   <trkpt lon="-9.055708" lat="39.178672"><ele>500.4</ele></trkpt>
   <trkpt lon="-9.055691" lat="39.178743"><ele>499.2</ele></trkpt>
   <trkpt lon="-9.055686" lat="39.178817"><ele>498.2</ele></trkpt>
   <trkpt lon="-9.055691" lat="39.178868"><ele>497.2</ele></trkpt>
   <trkpt lon="-9.055720" lat="39.178925"><ele>496.3</ele></trkpt>
   <trkpt lon="-9.055765" lat="39.178985"><ele>495.5</ele></trkpt>
   <trkpt lon="-9.055876" lat="39.179094"><ele>494.9</ele></trkpt>
   <trkpt lon="-9.056210" lat="39.179405"><ele>494.4</ele></trkpt>
   <trkpt lon="-9.056278" lat="39.179497"><ele>494.1</ele></trkpt>
   <trkpt lon="-9.056328" lat="39.179616"><ele>493.7</ele><sym>left_slight</sym></trkpt>
   <trkpt lon="-9.056381" lat="39.179621"><ele>493.3</ele></trkpt>
   <trkpt lon="-9.056438" lat="39.179637"><ele>492.8</ele></trkpt>
   <trkpt lon="-9.056515" lat="39.179676"><ele>492.2</ele></trkpt>
   <trkpt lon="-9.056919" lat="39.179916"><ele>491.7</ele></trkpt>
   <trkpt lon="-9.057142" lat="39.180063"><ele>491.1</ele></trkpt>
   <trkpt lon="-9.057215" lat="39.180120"><ele>490.4</ele></trkpt>
   <trkpt lon="-9.057263" lat="39.180168"><ele>489.7</ele><sym>right_slight</sym></trkpt>
   <trkpt lon="-9.057293" lat="39.180220"><ele>488.9</ele></trkpt>
   <trkpt lon="-9.057304" lat="39.180275"><ele>488.0</ele></trkpt>
   <trkpt lon="-9.057304" lat="39.180332"><ele>487.0</ele></trkpt>
   <trkpt lon="-9.057259" lat="39.180496"><ele>485.8</ele><sym>straight</sym></trkpt>
   <trkpt lon="-9.057222" lat="39.180617"><ele>484.6</ele></trkpt>
   <trkpt lon="-9.057226" lat="39.180676"><ele>483.5</ele></trkpt>
   <trkpt lon="-9.057243" lat="39.180723"><ele>482.3</ele></trkpt>
   <trkpt lon="-9.057291" lat="39.180787"><ele>480.9</ele></trkpt>
   <trkpt lon="-9.057548" lat="39.181079"><ele>479.4</ele></trkpt>
   <trkpt lon="-9.057959" lat="39.181519"><ele>477.8</ele></trkpt>
   <trkpt lon="-9.058069" lat="39.181614"><ele>476.1</ele></trkpt>
   <trkpt lon="-9.058280" lat="39.181733"><ele>474.5</ele></trkpt>
   <trkpt lon="-9.058561" lat="39.181842"><ele>472.8</ele></trkpt>
   <trkpt lon="-9.058772" lat="39.181936"><ele>471.1</ele></trkpt>
   <trkpt lon="-9.059009" lat="39.182063"><ele>469.8</ele></trkpt>
   <trkpt lon="-9.059131" lat="39.182141"><ele>468.7</ele></trkpt>
   <trkpt lon="-9.059218" lat="39.182217"><ele>467.5</ele></trkpt>
   <trkpt lon="-9.059285" lat="39.182295"><ele>466.6</ele></trkpt>
   <trkpt lon="-9.059337" lat="39.182372"><ele>465.9</ele></trkpt>
   <trkpt lon="-9.059384" lat="39.182467"><ele>464.7</ele></trkpt>
   <trkpt lon="-9.059453" lat="39.182725"><ele>463.7</ele></trkpt>
   <trkpt lon="-9.059482" lat="39.182780"><ele>462.8</ele></trkpt>
   <trkpt lon="-9.059524" lat="39.182838"><ele>461.7</ele></trkpt>
   <trkpt lon="-9.059573" lat="39.182879"><ele>460.3</ele></trkpt>
   <trkpt lon="-9.061087" lat="39.183805"><ele>459.1</ele></trkpt>
   <trkpt lon="-9.061586" lat="39.184149"><ele>457.9</ele></trkpt>
   <trkpt lon="-9.061771" lat="39.184291"><ele>456.5</ele></trkpt>
   <trkpt lon="-9.062192" lat="39.184614"><ele>455.0</ele></trkpt>
   <trkpt lon="-9.062568" lat="39.184888"><ele>453.5</ele></trkpt>
   <trkpt lon="-9.062606" lat="39.184937"><ele>452.1</ele></trkpt>
   <trkpt lon="-9.062629" lat="39.184985"><ele>451.4</ele></trkpt>
   <trkpt lon="-9.062638" lat="39.185031"><ele>450.7</ele></trkpt>
   <trkpt lon="-9.062621" lat="39.185085"><ele>450.4</ele></trkpt>
   <trkpt lon="-9.062576" lat="39.185136"><ele>450.8</ele></trkpt>
   <trkpt lon="-9.062503" lat="39.185171"><ele>452.0</ele></trkpt>
   <trkpt lon="-9.062414" lat="39.185194"><ele>451.8</ele></trkpt>
   <trkpt lon="-9.062315" lat="39.185204"><ele>451.6</ele></trkpt>
   <trkpt lon="-9.062184" lat="39.185200"><ele>450.7</ele></trkpt>
   <trkpt lon="-9.061838" lat="39.185207"><ele>450.1</ele></trkpt>
   <trkpt lon="-9.061462" lat="39.185242"><ele>449.5</ele></trkpt>
   <trkpt lon="-9.060360" lat="39.185378"><ele>448.9</ele></trkpt>
   <trkpt lon="-9.060273" lat="39.185393"><ele>448.2</ele></trkpt>
   <trkpt lon="-9.058420" lat="39.185803"><ele>447.0</ele></trkpt>
   <trkpt lon="-9.058115" lat="39.185886"><ele>445.4</ele></trkpt>
   <trkpt lon="-9.057951" lat="39.185952"><ele>442.8</ele></trkpt>
   <trkpt lon="-9.057840" lat="39.186034"><ele>439.9</ele></trkpt>
   <trkpt lon="-9.057770" lat="39.186123"><ele>437.9</ele></trkpt>
   <trkpt lon="-9.057656" lat="39.186283"><ele>435.7</ele></trkpt>
   <trkpt lon="-9.057546" lat="39.186486"><ele>433.1</ele></trkpt>
   <trkpt lon="-9.057436" lat="39.186906"><ele>430.0</ele></trkpt>
   <trkpt lon="-9.057385" lat="39.187131"><ele>426.7</ele></trkpt>
   <trkpt lon="-9.057375" lat="39.187266"><ele>423.4</ele></trkpt>
   <trkpt lon="-9.057399" lat="39.187400"><ele>420.1</ele></trkpt>
   <trkpt lon="-9.057691" lat="39.188090"><ele>416.1</ele></trkpt>
   <trkpt lon="-9.057751" lat="39.188251"><ele>412.3</ele></trkpt>
   <trkpt lon="-9.057789" lat="39.188383"><ele>409.0</ele></trkpt>
   <trkpt lon="-9.057838" lat="39.188712"><ele>405.6</ele></trkpt>
   <trkpt lon="-9.057860" lat="39.188920"><ele>401.8</ele><sym>pass_place</sym><type>Shaping</type></trkpt>
   <trkpt lon="-9.057867" lat="39.189102"><ele>397.9</ele></trkpt>
   <trkpt lon="-9.057831" lat="39.189634"><ele>394.2</ele></trkpt>
   <trkpt lon="-9.057833" lat="39.189737"><ele>391.7</ele></trkpt>
   <trkpt lon="-9.057849" lat="39.189830"><ele>389.4</ele></trkpt>
   <trkpt lon="-9.057959" lat="39.190244"><ele>386.3</ele></trkpt>
   <trkpt lon="-9.057998" lat="39.190441"><ele>383.2</ele></trkpt>
   <trkpt lon="-9.058042" lat="39.190839"><ele>379.7</ele></trkpt>
   <trkpt lon="-9.058033" lat="39.190994"><ele>376.5</ele></trkpt>
   <trkpt lon="-9.058001" lat="39.191236"><ele>373.2</ele></trkpt>
   <trkpt lon="-9.057969" lat="39.191398"><ele>369.6</ele></trkpt>
   <trkpt lon="-9.057833" lat="39.191792"><ele>366.4</ele></trkpt>
   <trkpt lon="-9.057689" lat="39.192151"><ele>363.4</ele></trkpt>
   <trkpt lon="-9.057562" lat="39.192470"><ele>360.9</ele></trkpt>
   <trkpt lon="-9.057482" lat="39.192716"><ele>358.5</ele></trkpt>
   <trkpt lon="-9.057415" lat="39.193043"><ele>355.6</ele></trkpt>
   <trkpt lon="-9.057403" lat="39.193166"><ele>352.6</ele></trkpt>
   <trkpt lon="-9.057385" lat="39.193337"><ele>349.1</ele></trkpt>
   <trkpt lon="-9.057400" lat="39.193411"><ele>347.3</ele></trkpt>
   <trkpt lon="-9.057420" lat="39.193464"><ele>346.0</ele></trkpt>
   <trkpt lon="-9.057587" lat="39.193745"><ele>340.3</ele></trkpt>
   <trkpt lon="-9.057707" lat="39.193995"><ele>334.9</ele></trkpt>
   <trkpt lon="-9.057916" lat="39.194508"><ele>329.7</ele></trkpt>
   <trkpt lon="-9.058122" lat="39.194985"><ele>324.6</ele></trkpt>
   <trkpt lon="-9.058330" lat="39.195522"><ele>319.8</ele></trkpt>
   <trkpt lon="-9.058494" lat="39.195980"><ele>315.1</ele></trkpt>
   <trkpt lon="-9.058503" lat="39.196056"><ele>313.2</ele></trkpt>
   <trkpt lon="-9.058497" lat="39.196126"><ele>311.5</ele></trkpt>
   <trkpt lon="-9.058476" lat="39.196174"><ele>310.3</ele></trkpt>
   <trkpt lon="-9.058437" lat="39.196228"><ele>308.8</ele></trkpt>
   <trkpt lon="-9.058382" lat="39.196268"><ele>308.7</ele></trkpt>
   <trkpt lon="-9.058303" lat="39.196290"><ele>309.5</ele></trkpt>
   <trkpt lon="-9.058216" lat="39.196288"><ele>310.3</ele></trkpt>
   <trkpt lon="-9.058123" lat="39.196271"><ele>311.1</ele></trkpt>
   <trkpt lon="-9.057980" lat="39.196232"><ele>311.7</ele></trkpt>
   <trkpt lon="-9.057139" lat="39.195877"><ele>312.0</ele></trkpt>
   <trkpt lon="-9.056927" lat="39.195847"><ele>312.2</ele></trkpt>
   <trkpt lon="-9.056811" lat="39.195852"><ele>312.2</ele></trkpt>
   <trkpt lon="-9.056768" lat="39.195865"><ele>312.1</ele></trkpt>
   <trkpt lon="-9.056668" lat="39.195939"><ele>311.8</ele></trkpt>
   <trkpt lon="-9.056619" lat="39.196008"><ele>311.3</ele></trkpt>
   <trkpt lon="-9.056573" lat="39.196121"><ele>310.2</ele></trkpt>
   <trkpt lon="-9.056567" lat="39.196213"><ele>308.6</ele></trkpt>
   <trkpt lon="-9.056593" lat="39.196269"><ele>307.1</ele></trkpt>
   <trkpt lon="-9.056629" lat="39.196319"><ele>305.7</ele></trkpt>
   <trkpt lon="-9.056694" lat="39.196386"><ele>303.7</ele></trkpt>
   <trkpt lon="-9.056780" lat="39.196432"><ele>301.7</ele></trkpt>
   <trkpt lon="-9.057387" lat="39.196649"><ele>299.7</ele></trkpt>
   <trkpt lon="-9.057766" lat="39.196793"><ele>297.4</ele></trkpt>
   <trkpt lon="-9.058441" lat="39.196955"><ele>295.0</ele></trkpt>
   <trkpt lon="-9.058568" lat="39.196979"><ele>292.6</ele></trkpt>
   <trkpt lon="-9.058678" lat="39.196987"><ele>290.5</ele></trkpt>
   <trkpt lon="-9.058854" lat="39.196985"><ele>287.7</ele></trkpt>
   <trkpt lon="-9.059079" lat="39.196973"><ele>285.3</ele></trkpt>
   <trkpt lon="-9.059170" lat="39.196955"><ele>283.5</ele></trkpt>
   <trkpt lon="-9.059247" lat="39.196930"><ele>281.9</ele></trkpt>
   <trkpt lon="-9.059353" lat="39.196868"><ele>280.8</ele></trkpt>
   <trkpt lon="-9.059433" lat="39.196797"><ele>279.7</ele></trkpt>
   <trkpt lon="-9.059501" lat="39.196691"><ele>278.5</ele></trkpt>
   <trkpt lon="-9.059520" lat="39.196594"><ele>277.1</ele></trkpt>
   <trkpt lon="-9.059502" lat="39.196489"><ele>275.7</ele></trkpt>
   <trkpt lon="-9.059419" lat="39.196246"><ele>274.3</ele></trkpt>
   <trkpt lon="-9.059420" lat="39.196127"><ele>273.2</ele></trkpt>
   <trkpt lon="-9.059505" lat="39.195706"><ele>272.2</ele></trkpt>
   <trkpt lon="-9.059633" lat="39.195294"><ele>271.3</ele></trkpt>
   <trkpt lon="-9.059703" lat="39.195200"><ele>270.3</ele></trkpt>
   <trkpt lon="-9.059800" lat="39.195087"><ele>268.8</ele></trkpt>
   <trkpt lon="-9.060145" lat="39.194777"><ele>266.8</ele></trkpt>
   <trkpt lon="-9.060333" lat="39.194619"><ele>264.7</ele></trkpt>
   <trkpt lon="-9.060540" lat="39.194467"><ele>262.5</ele></trkpt>
   <trkpt lon="-9.060763" lat="39.194360"><ele>260.7</ele></trkpt>
   <trkpt lon="-9.061205" lat="39.194210"><ele>258.8</ele></trkpt>
   <trkpt lon="-9.061401" lat="39.194131"><ele>257.0</ele></trkpt>
   <trkpt lon="-9.061538" lat="39.194046"><ele>254.8</ele></trkpt>
   <trkpt lon="-9.062070" lat="39.193657"><ele>252.7</ele><sym>right_sharp</sym></trkpt>
   <trkpt lon="-9.062102" lat="39.193889"><ele>250.6</ele></trkpt>
   <trkpt lon="-9.062079" lat="39.194088"><ele>248.5</ele><sym>pass_place</sym><type>Shaping</type></trkpt>
   <trkpt lon="-9.062078" lat="39.194093"><ele>248.4</ele></trkpt>
   <trkpt lon="-9.062064" lat="39.194498"><ele>246.8</ele></trkpt>
   <trkpt lon="-9.062056" lat="39.194535"><ele>245.9</ele></trkpt>
   <trkpt lon="-9.062035" lat="39.194640"><ele>244.5</ele></trkpt>
   <trkpt lon="-9.061981" lat="39.194779"><ele>243.2</ele></trkpt>
   <trkpt lon="-9.061962" lat="39.194810"><ele>242.4</ele></trkpt>
   <trkpt lon="-9.061942" lat="39.194843"><ele>241.5</ele></trkpt>
   <trkpt lon="-9.061828" lat="39.195035"><ele>240.7</ele></trkpt>
   <trkpt lon="-9.061721" lat="39.195182"><ele>239.7</ele></trkpt>
   <trkpt lon="-9.061490" lat="39.195361"><ele>238.7</ele></trkpt>
   <trkpt lon="-9.061318" lat="39.195565"><ele>237.5</ele></trkpt>
   <trkpt lon="-9.061225" lat="39.195735"><ele>236.2</ele><sym>left_slight</sym></trkpt>
   <trkpt lon="-9.061198" lat="39.195914"><ele>234.9</ele></trkpt>
   <trkpt lon="-9.061195" lat="39.196115"><ele>233.6</ele></trkpt>
   <trkpt lon="-9.061247" lat="39.196206"><ele>232.5</ele></trkpt>
   <trkpt lon="-9.061310" lat="39.196373"><ele>231.1</ele></trkpt>
   <trkpt lon="-9.061335" lat="39.196484"><ele>229.5</ele></trkpt>
   <trkpt lon="-9.061335" lat="39.196610"><ele>227.6</ele></trkpt>
   <trkpt lon="-9.061359" lat="39.196675"><ele>225.9</ele></trkpt>
   <trkpt lon="-9.061423" lat="39.196706"><ele>224.5</ele></trkpt>
   <trkpt lon="-9.061493" lat="39.196708"><ele>223.2</ele></trkpt>
   <trkpt lon="-9.061619" lat="39.196656"><ele>221.7</ele></trkpt>
   <trkpt lon="-9.061866" lat="39.196434"><ele>220.3</ele></trkpt>
   <trkpt lon="-9.061989" lat="39.196384"><ele>219.1</ele></trkpt>
   <trkpt lon="-9.062096" lat="39.196385"><ele>218.0</ele><sym>right</sym></trkpt>
   <trkpt lon="-9.062090" lat="39.196508"><ele>217.0</ele></trkpt>
   <trkpt lon="-9.062112" lat="39.196621"><ele>216.0</ele></trkpt>
   <trkpt lon="-9.062163" lat="39.196694"><ele>215.2</ele><sym>right_slight</sym></trkpt>
   <trkpt lon="-9.062124" lat="39.196768"><ele>214.7</ele></trkpt>
   <trkpt lon="-9.062092" lat="39.197099"><ele>214.0</ele><sym>u-turn</sym><type>Via</type></trkpt>
   <trkpt lon="-9.062124" lat="39.196768"><ele>213.3</ele></trkpt>
   <trkpt lon="-9.062163" lat="39.196694"><ele>212.4</ele><sym>right</sym></trkpt>
   <trkpt lon="-9.062230" lat="39.196740"><ele>211.4</ele></trkpt>
   <trkpt lon="-9.062292" lat="39.196765"><ele>210.5</ele></trkpt>
   <trkpt lon="-9.062510" lat="39.196823"><ele>209.1</ele></trkpt>
   <trkpt lon="-9.062676" lat="39.196911"><ele>207.5</ele></trkpt>
   <trkpt lon="-9.062718" lat="39.196952"><ele>206.2</ele></trkpt>
   <trkpt lon="-9.062743" lat="39.197017"><ele>204.5</ele></trkpt>
   <trkpt lon="-9.062758" lat="39.197093"><ele>202.6</ele></trkpt>
   <trkpt lon="-9.062784" lat="39.197423"><ele>200.7</ele></trkpt>
   <trkpt lon="-9.062810" lat="39.197646"><ele>199.1</ele></trkpt>
   <trkpt lon="-9.062826" lat="39.197708"><ele>197.7</ele></trkpt>
   <trkpt lon="-9.062961" lat="39.197978"><ele>196.4</ele></trkpt>
   <trkpt lon="-9.063175" lat="39.198362"><ele>195.2</ele></trkpt>
   <trkpt lon="-9.063216" lat="39.198460"><ele>194.1</ele></trkpt>
   <trkpt lon="-9.063233" lat="39.198520"><ele>193.4</ele></trkpt>
   <trkpt lon="-9.063232" lat="39.198593"><ele>192.8</ele></trkpt>
   <trkpt lon="-9.063209" lat="39.198670"><ele>192.3</ele></trkpt>
   <trkpt lon="-9.063027" lat="39.198963"><ele>192.3</ele></trkpt>
   <trkpt lon="-9.062899" lat="39.199185"><ele>192.5</ele></trkpt>
   <trkpt lon="-9.062668" lat="39.199608"><ele>192.6</ele></trkpt>
   <trkpt lon="-9.062544" lat="39.199807"><ele>192.5</ele></trkpt>
   <trkpt lon="-9.062399" lat="39.200040"><ele>192.2</ele></trkpt>
   <trkpt lon="-9.062166" lat="39.200306"><ele>191.9</ele></trkpt>
   <trkpt lon="-9.062080" lat="39.200431"><ele>191.8</ele></trkpt>
   <trkpt lon="-9.062094" lat="39.200593"><ele>191.9</ele></trkpt>
   <trkpt lon="-9.062169" lat="39.200826"><ele>192.1</ele></trkpt>
   <trkpt lon="-9.062169" lat="39.201034"><ele>192.3</ele></trkpt>
   <trkpt lon="-9.062083" lat="39.201154"><ele>192.4</ele></trkpt>
   <trkpt lon="-9.061917" lat="39.201250"><ele>192.5</ele></trkpt>
   <trkpt lon="-9.061686" lat="39.201337"><ele>192.2</ele></trkpt>
   <trkpt lon="-9.061498" lat="39.201445"><ele>191.6</ele></trkpt>
   <trkpt lon="-9.061391" lat="39.201611"><ele>191.0</ele></trkpt>
   <trkpt lon="-9.061257" lat="39.201948"><ele>190.5</ele></trkpt>
   <trkpt lon="-9.061085" lat="39.202339"><ele>190.1</ele></trkpt>
   <trkpt lon="-9.060919" lat="39.202850"><ele>189.5</ele></trkpt>
   <trkpt lon="-9.060742" lat="39.203278"><ele>188.9</ele></trkpt>
   <trkpt lon="-9.060602" lat="39.203507"><ele>188.2</ele></trkpt>
   <trkpt lon="-9.060066" lat="39.203856"><ele>187.4</ele></trkpt>
   <trkpt lon="-9.059358" lat="39.204282"><ele>186.6</ele></trkpt>
   <trkpt lon="-9.058792" lat="39.204636"><ele>186.0</ele></trkpt>
   <trkpt lon="-9.058446" lat="39.204868"><ele>185.9</ele></trkpt>
   <trkpt lon="-9.058167" lat="39.205030"><ele>186.2</ele></trkpt>
   <trkpt lon="-9.057952" lat="39.205087"><ele>186.8</ele></trkpt>
   <trkpt lon="-9.057786" lat="39.205080"><ele>187.2</ele></trkpt>
   <trkpt lon="-9.057207" lat="39.204968"><ele>187.4</ele></trkpt>
   <trkpt lon="-9.057073" lat="39.204962"><ele>186.8</ele></trkpt>
   <trkpt lon="-9.056949" lat="39.204976"><ele>186.1</ele></trkpt>
   <trkpt lon="-9.056842" lat="39.205045"><ele>185.4</ele></trkpt>
   <trkpt lon="-9.056759" lat="39.205141"><ele>185.0</ele></trkpt>
   <trkpt lon="-9.056700" lat="39.205284"><ele>184.8</ele></trkpt>
   <trkpt lon="-9.056619" lat="39.205928"><ele>184.5</ele></trkpt>
   <trkpt lon="-9.056536" lat="39.206072"><ele>184.1</ele></trkpt>
   <trkpt lon="-9.056431" lat="39.206201"><ele>183.6</ele></trkpt>
   <trkpt lon="-9.056327" lat="39.206302"><ele>183.2</ele></trkpt>
   <trkpt lon="-9.056161" lat="39.206414"><ele>182.9</ele></trkpt>
   <trkpt lon="-9.055984" lat="39.206506"><ele>183.0</ele></trkpt>
   <trkpt lon="-9.055831" lat="39.206612"><ele>183.9</ele></trkpt>
   <trkpt lon="-9.055715" lat="39.206776"><ele>184.7</ele></trkpt>
   <trkpt lon="-9.055603" lat="39.206986"><ele>185.5</ele></trkpt>
   <trkpt lon="-9.055492" lat="39.207155"><ele>186.2</ele><sym>left</sym></trkpt>
   <trkpt lon="-9.056036" lat="39.207378"><ele>186.7</ele></trkpt>
   <trkpt lon="-9.056117" lat="39.207459"><ele>187.1</ele></trkpt>
   <trkpt lon="-9.056155" lat="39.207527"><ele>187.5</ele><sym>stay_left</sym></trkpt>
   <trkpt lon="-9.056246" lat="39.207520"><ele>187.9</ele></trkpt>
   <trkpt lon="-9.056324" lat="39.207687"><ele>188.2</ele></trkpt>
   <trkpt lon="-9.056346" lat="39.207847"><ele>188.3</ele></trkpt>
   <trkpt lon="-9.056708" lat="39.208190"><ele>188.2</ele></trkpt>
   <trkpt lon="-9.056898" lat="39.208429"><ele>188.0</ele></trkpt>
   <trkpt lon="-9.057064" lat="39.208686"><ele>187.7</ele></trkpt>
   <trkpt lon="-9.057378" lat="39.209011"><ele>187.5</ele><sym>pass_place</sym><type>Shaping</type></trkpt>
   <trkpt lon="-9.057614" lat="39.209314"><ele>187.1</ele></trkpt>
   <trkpt lon="-9.057706" lat="39.209503"><ele>186.7</ele></trkpt>
   <trkpt lon="-9.057786" lat="39.209692"><ele>186.0</ele></trkpt>
   <trkpt lon="-9.057870" lat="39.209743"><ele>185.0</ele></trkpt>
   <trkpt lon="-9.057888" lat="39.209755"><ele>184.6</ele></trkpt>
   <trkpt lon="-9.058022" lat="39.209748"><ele>183.3</ele></trkpt>
   <trkpt lon="-9.058116" lat="39.209727"><ele>182.0</ele></trkpt>
   <trkpt lon="-9.058258" lat="39.209599"><ele>180.8</ele></trkpt>
   <trkpt lon="-9.058440" lat="39.209420"><ele>179.6</ele></trkpt>
   <trkpt lon="-9.058736" lat="39.209295"><ele>178.2</ele></trkpt>
   <trkpt lon="-9.059046" lat="39.209250"><ele>176.7</ele></trkpt>
   <trkpt lon="-9.059485" lat="39.209238"><ele>175.3</ele></trkpt>
   <trkpt lon="-9.059771" lat="39.209204"><ele>173.9</ele></trkpt>
   <trkpt lon="-9.060058" lat="39.209100"><ele>172.7</ele></trkpt>
   <trkpt lon="-9.060334" lat="39.208992"><ele>171.8</ele></trkpt>
   <trkpt lon="-9.060479" lat="39.208965"><ele>171.2</ele></trkpt>
   <trkpt lon="-9.060712" lat="39.208961"><ele>170.7</ele></trkpt>
   <trkpt lon="-9.061005" lat="39.208944"><ele>170.3</ele></trkpt>
   <trkpt lon="-9.061359" lat="39.208963"><ele>169.8</ele></trkpt>
   <trkpt lon="-9.061638" lat="39.208994"><ele>169.4</ele></trkpt>
   <trkpt lon="-9.061933" lat="39.209058"><ele>168.8</ele></trkpt>
   <trkpt lon="-9.062169" lat="39.209048"><ele>168.0</ele></trkpt>
   <trkpt lon="-9.062571" lat="39.208988"><ele>167.1</ele></trkpt>
   <trkpt lon="-9.062869" lat="39.208911"><ele>166.2</ele><sym>right</sym></trkpt>
   <trkpt lon="-9.063093" lat="39.209101"><ele>165.4</ele></trkpt>
   <trkpt lon="-9.063216" lat="39.209342"><ele>164.6</ele></trkpt>
   <trkpt lon="-9.063308" lat="39.209786"><ele>163.8</ele></trkpt>
   <trkpt lon="-9.063613" lat="39.210127"><ele>163.1</ele></trkpt>
   <trkpt lon="-9.063751" lat="39.210270"><ele>162.4</ele></trkpt>
   <trkpt lon="-9.063816" lat="39.210453"><ele>161.9</ele></trkpt>
   <trkpt lon="-9.063939" lat="39.210673"><ele>161.4</ele></trkpt>
   <trkpt lon="-9.064032" lat="39.210788"><ele>161.2</ele></trkpt>
   <trkpt lon="-9.064193" lat="39.210892"><ele>161.3</ele></trkpt>
   <trkpt lon="-9.064395" lat="39.210977"><ele>161.2</ele></trkpt>
   <trkpt lon="-9.064600" lat="39.210992"><ele>161.0</ele></trkpt>
   <trkpt lon="-9.064901" lat="39.211004"><ele>160.7</ele></trkpt>
   <trkpt lon="-9.065260" lat="39.211091"><ele>160.2</ele></trkpt>
   <trkpt lon="-9.065942" lat="39.211241"><ele>159.6</ele></trkpt>
   <trkpt lon="-9.066800" lat="39.211461"><ele>158.9</ele></trkpt>
   <trkpt lon="-9.066975" lat="39.211500"><ele>158.1</ele><sym>right_slight</sym></trkpt>
   <trkpt lon="-9.067051" lat="39.211610"><ele>157.4</ele></trkpt>
   <trkpt lon="-9.067150" lat="39.211724"><ele>156.5</ele></trkpt>
   <trkpt lon="-9.067236" lat="39.211863"><ele>155.4</ele></trkpt>
   <trkpt lon="-9.067334" lat="39.211949"><ele>154.3</ele></trkpt>
   <trkpt lon="-9.067464" lat="39.212035"><ele>153.3</ele></trkpt>
   <trkpt lon="-9.067710" lat="39.212176"><ele>152.4</ele></trkpt>
   <trkpt lon="-9.067951" lat="39.212340"><ele>151.3</ele></trkpt>
   <trkpt lon="-9.068283" lat="39.212679"><ele>150.4</ele></trkpt>
   <trkpt lon="-9.068388" lat="39.212994"><ele>149.5</ele></trkpt>
   <trkpt lon="-9.068419" lat="39.213314"><ele>148.5</ele></trkpt>
   <trkpt lon="-9.068437" lat="39.213610"><ele>147.4</ele></trkpt>
   <trkpt lon="-9.068813" lat="39.214417"><ele>146.2</ele></trkpt>
   <trkpt lon="-9.068943" lat="39.214670"><ele>145.1</ele></trkpt>
   <trkpt lon="-9.069078" lat="39.214842"><ele>144.2</ele></trkpt>
   <trkpt lon="-9.069306" lat="39.215004"><ele>143.2</ele></trkpt>
   <trkpt lon="-9.069584" lat="39.215076"><ele>142.2</ele></trkpt>
   <trkpt lon="-9.069826" lat="39.215122"><ele>141.3</ele></trkpt>
   <trkpt lon="-9.070009" lat="39.215201"><ele>140.6</ele></trkpt>
   <trkpt lon="-9.070204" lat="39.215305"><ele>140.0</ele></trkpt>
   <trkpt lon="-9.070586" lat="39.215039"><ele>139.5</ele><sym>right</sym></trkpt>
   <trkpt lon="-9.070587" lat="39.215040"><ele>139.4</ele><sym>pass_place</sym><type>Shaping</type></trkpt>
   <trkpt lon="-9.070609" lat="39.215086"><ele>139.0</ele></trkpt>
   <trkpt lon="-9.070695" lat="39.215190"><ele>138.5</ele></trkpt>
   <trkpt lon="-9.070834" lat="39.215281"><ele>138.0</ele></trkpt>
   <trkpt lon="-9.070914" lat="39.215410"><ele>137.4</ele></trkpt>
   <trkpt lon="-9.070936" lat="39.215597"><ele>137.0</ele></trkpt>
   <trkpt lon="-9.070979" lat="39.215714"><ele>136.6</ele></trkpt>
   <trkpt lon="-9.071129" lat="39.215847"><ele>135.2</ele></trkpt>
   <trkpt lon="-9.071226" lat="39.215975"><ele>133.6</ele></trkpt>
   <trkpt lon="-9.071242" lat="39.216063"><ele>131.9</ele></trkpt>
   <trkpt lon="-9.071239" lat="39.216106"><ele>130.8</ele></trkpt>
   <trkpt lon="-9.071231" lat="39.216233"><ele>128.7</ele></trkpt>
   <trkpt lon="-9.071049" lat="39.216965"><ele>126.1</ele></trkpt>
   <trkpt lon="-9.071140" lat="39.217189"><ele>123.4</ele></trkpt>
   <trkpt lon="-9.071252" lat="39.217280"><ele>120.7</ele></trkpt>
   <trkpt lon="-9.071397" lat="39.217364"><ele>117.8</ele></trkpt>
   <trkpt lon="-9.071896" lat="39.217538"><ele>115.0</ele></trkpt>
   <trkpt lon="-9.072531" lat="39.217799"><ele>112.0</ele></trkpt>
   <trkpt lon="-9.072708" lat="39.217924"><ele>109.4</ele></trkpt>
   <trkpt lon="-9.072933" lat="39.218111"><ele>106.5</ele></trkpt>
   <trkpt lon="-9.073057" lat="39.218282"><ele>103.7</ele></trkpt>
   <trkpt lon="-9.073083" lat="39.218319"><ele>102.7</ele></trkpt>
   <trkpt lon="-9.073178" lat="39.218594"><ele>100.5</ele></trkpt>
   <trkpt lon="-9.073210" lat="39.218989"><ele>99.2</ele></trkpt>
   <trkpt lon="-9.073210" lat="39.219446"><ele>98.4</ele></trkpt>
   <trkpt lon="-9.073253" lat="39.219666"><ele>99.2</ele></trkpt>
   <trkpt lon="-9.073377" lat="39.219919"><ele>100.2</ele></trkpt>
   <trkpt lon="-9.073586" lat="39.220169"><ele>101.5</ele></trkpt>
   <trkpt lon="-9.073919" lat="39.220601"><ele>103.2</ele></trkpt>
   <trkpt lon="-9.074031" lat="39.220809"><ele>105.5</ele></trkpt>
   <trkpt lon="-9.074514" lat="39.222130"><ele>108.5</ele></trkpt>
   <trkpt lon="-9.074503" lat="39.222276"><ele>111.5</ele></trkpt>
   <trkpt lon="-9.074455" lat="39.222450"><ele>114.5</ele></trkpt>
   <trkpt lon="-9.074358" lat="39.222612"><ele>117.5</ele></trkpt>
   <trkpt lon="-9.074085" lat="39.222833"><ele>120.0</ele></trkpt>
   <trkpt lon="-9.073839" lat="39.222976"><ele>122.4</ele></trkpt>
   <trkpt lon="-9.073758" lat="39.223030"><ele>123.5</ele><sym>stay_left</sym></trkpt>
   <trkpt lon="-9.073626" lat="39.223128"><ele>124.4</ele></trkpt>
   <trkpt lon="-9.073599" lat="39.223163"><ele>125.1</ele></trkpt>
   <trkpt lon="-9.073578" lat="39.223200"><ele>125.8</ele></trkpt>
   <trkpt lon="-9.073585" lat="39.223282"><ele>126.2</ele><sym>left_slight</sym></trkpt>
   <trkpt lon="-9.073806" lat="39.223337"><ele>126.6</ele></trkpt>
   <trkpt lon="-9.073971" lat="39.223369"><ele>126.5</ele></trkpt>
   <trkpt lon="-9.074136" lat="39.223384"><ele>126.3</ele></trkpt>
   <trkpt lon="-9.074305" lat="39.223388"><ele>126.1</ele><sym>right_slight</sym></trkpt>
   <trkpt lon="-9.074460" lat="39.223516"><ele>126.2</ele></trkpt>
   <trkpt lon="-9.075045" lat="39.223614"><ele>126.2</ele></trkpt>
   <trkpt lon="-9.075812" lat="39.223714"><ele>125.9</ele></trkpt>
   <trkpt lon="-9.076127" lat="39.223783"><ele>125.6</ele><sym>right</sym></trkpt>
   <trkpt lon="-9.076105" lat="39.223886"><ele>125.1</ele></trkpt>
   <trkpt lon="-9.076287" lat="39.224404"><ele>124.6</ele></trkpt>
   <trkpt lon="-9.076410" lat="39.224948"><ele>123.5</ele></trkpt>
   <trkpt lon="-9.076604" lat="39.225601"><ele>121.6</ele></trkpt>
   <trkpt lon="-9.076692" lat="39.225883"><ele>119.6</ele></trkpt>
   <trkpt lon="-9.076709" lat="39.226088"><ele>117.5</ele></trkpt>
   <trkpt lon="-9.076735" lat="39.226388"><ele>115.4</ele></trkpt>
   <trkpt lon="-9.076732" lat="39.226818"><ele>112.9</ele></trkpt>
   <trkpt lon="-9.076638" lat="39.227404"><ele>110.0</ele></trkpt>
   <trkpt lon="-9.076542" lat="39.227896"><ele>107.4</ele><sym>left_slight</sym></trkpt>
   <trkpt lon="-9.076542" lat="39.228179"><ele>104.7</ele><sym>pass_place</sym><type>Shaping</type></trkpt>
   <trkpt lon="-9.076509" lat="39.228370"><ele>102.1</ele></trkpt>
   <trkpt lon="-9.076158" lat="39.229106"><ele>99.5</ele></trkpt>
   <trkpt lon="-9.074846" lat="39.230456"><ele>97.4</ele></trkpt>
   <trkpt lon="-9.074895" lat="39.230547"><ele>95.9</ele><sym>left_slight</sym></trkpt>
   <trkpt lon="-9.075013" lat="39.230626"><ele>94.9</ele></trkpt>
   <trkpt lon="-9.075192" lat="39.230722"><ele>93.7</ele></trkpt>
   <trkpt lon="-9.075418" lat="39.230830"><ele>92.4</ele></trkpt>
   <trkpt lon="-9.075772" lat="39.231023"><ele>91.1</ele></trkpt>
   <trkpt lon="-9.075935" lat="39.231100"><ele>90.0</ele></trkpt>
   <trkpt lon="-9.076096" lat="39.231154"><ele>88.6</ele><sym>right_slight</sym></trkpt>
   <trkpt lon="-9.076201" lat="39.231350"><ele>86.8</ele></trkpt>
   <trkpt lon="-9.076351" lat="39.231551"><ele>84.9</ele></trkpt>
   <trkpt lon="-9.076483" lat="39.231667"><ele>83.0</ele><sym>right_slight</sym></trkpt>
   <trkpt lon="-9.076553" lat="39.231837"><ele>81.0</ele></trkpt>
   <trkpt lon="-9.076660" lat="39.232046"><ele>79.1</ele></trkpt>
   <trkpt lon="-9.076762" lat="39.232346"><ele>76.8</ele></trkpt>
   <trkpt lon="-9.076880" lat="39.232806"><ele>74.6</ele></trkpt>
   <trkpt lon="-9.077009" lat="39.233205"><ele>72.7</ele></trkpt>
   <trkpt lon="-9.077156" lat="39.233570"><ele>70.9</ele></trkpt>
   <trkpt lon="-9.077191" lat="39.233657"><ele>69.3</ele></trkpt>
   <trkpt lon="-9.077360" lat="39.233971"><ele>68.0</ele></trkpt>
   <trkpt lon="-9.077411" lat="39.234171"><ele>67.5</ele></trkpt>
   <trkpt lon="-9.077295" lat="39.234268"><ele>67.0</ele></trkpt>
   <trkpt lon="-9.077041" lat="39.234424"><ele>67.6</ele></trkpt>
   <trkpt lon="-9.076738" lat="39.234562"><ele>68.9</ele><sym>left</sym></trkpt>
   <trkpt lon="-9.076791" lat="39.234639"><ele>70.4</ele><sym>left_slight</sym></trkpt>
   <trkpt lon="-9.077463" lat="39.235060"><ele>72.4</ele></trkpt>
   <trkpt lon="-9.077889" lat="39.235385"><ele>74.7</ele><sym>right</sym></trkpt>
   <trkpt lon="-9.077473" lat="39.235853"><ele>77.0</ele></trkpt>
   <trkpt lon="-9.077239" lat="39.236151"><ele>79.3</ele><sym>left_slight</sym></trkpt>
   <trkpt lon="-9.077172" lat="39.236339"><ele>81.6</ele></trkpt>
   <trkpt lon="-9.077070" lat="39.236514"><ele>83.9</ele></trkpt>
   <trkpt lon="-9.076888" lat="39.236722"><ele>85.8</ele></trkpt>
   <trkpt lon="-9.076708" lat="39.236895"><ele>87.8</ele></trkpt>
   <trkpt lon="-9.076513" lat="39.236950"><ele>88.9</ele></trkpt>
   <trkpt lon="-9.076252" lat="39.237107"><ele>90.0</ele></trkpt>
   <trkpt lon="-9.075715" lat="39.237551"><ele>91.2</ele></trkpt>
   <trkpt lon="-9.075407" lat="39.237777"><ele>92.2</ele></trkpt>
   <trkpt lon="-9.075053" lat="39.238006"><ele>93.2</ele></trkpt>
   <trkpt lon="-9.074471" lat="39.238291"><ele>94.3</ele></trkpt>
   <trkpt lon="-9.073993" lat="39.238598"><ele>95.4</ele></trkpt>
   <trkpt lon="-9.073412" lat="39.238936"><ele>96.6</ele></trkpt>
   <trkpt lon="-9.073221" lat="39.239101"><ele>97.9</ele></trkpt>
   <trkpt lon="-9.073140" lat="39.239234"><ele>99.2</ele></trkpt>
   <trkpt lon="-9.073074" lat="39.239476"><ele>100.5</ele></trkpt>
   <trkpt lon="-9.073033" lat="39.239691"><ele>101.8</ele></trkpt>
   <trkpt lon="-9.072980" lat="39.239899"><ele>102.7</ele></trkpt>
   <trkpt lon="-9.072607" lat="39.240220"><ele>103.2</ele></trkpt>
   <trkpt lon="-9.072135" lat="39.240594"><ele>104.0</ele></trkpt>
   <trkpt lon="-9.071690" lat="39.240898"><ele>104.8</ele><sym>pass_place</sym><type>Shaping</type></trkpt>
   <trkpt lon="-9.071685" lat="39.240902"><ele>104.9</ele></trkpt>
   <trkpt lon="-9.071558" lat="39.241037"><ele>105.4</ele></trkpt>
   <trkpt lon="-9.071504" lat="39.241112"><ele>105.6</ele></trkpt>
   <trkpt lon="-9.071182" lat="39.241556"><ele>105.7</ele></trkpt>
   <trkpt lon="-9.071051" lat="39.241685"><ele>105.7</ele></trkpt>
   <trkpt lon="-9.070963" lat="39.241772"><ele>105.6</ele></trkpt>
   <trkpt lon="-9.070526" lat="39.242086"><ele>106.8</ele></trkpt>
   <trkpt lon="-9.070207" lat="39.242273"><ele>109.0</ele></trkpt>
   <trkpt lon="-9.069855" lat="39.242480"><ele>111.3</ele></trkpt>
   <trkpt lon="-9.069335" lat="39.242721"><ele>113.3</ele></trkpt>
   <trkpt lon="-9.069026" lat="39.242940"><ele>115.1</ele></trkpt>
   <trkpt lon="-9.067830" lat="39.243866"><ele>116.9</ele></trkpt>
   <trkpt lon="-9.067384" lat="39.244415"><ele>118.8</ele></trkpt>
   <trkpt lon="-9.067240" lat="39.244651"><ele>120.7</ele></trkpt>
   <trkpt lon="-9.067245" lat="39.244780"><ele>122.4</ele></trkpt>
   <trkpt lon="-9.067237" lat="39.244960"><ele>124.4</ele></trkpt>
   <trkpt lon="-9.067178" lat="39.245106"><ele>126.7</ele></trkpt>
   <trkpt lon="-9.067028" lat="39.245289"><ele>127.6</ele></trkpt>
   <trkpt lon="-9.066873" lat="39.245634"><ele>127.6</ele></trkpt>
   <trkpt lon="-9.066851" lat="39.246203"><ele>127.5</ele></trkpt>
   <trkpt lon="-9.066717" lat="39.246485"><ele>127.3</ele></trkpt>
   <trkpt lon="-9.066580" lat="39.246837"><ele>127.3</ele></trkpt>
   <trkpt lon="-9.066349" lat="39.247190"><ele>127.4</ele></trkpt>
   <trkpt lon="-9.066218" lat="39.247486"><ele>127.6</ele></trkpt>
   <trkpt lon="-9.066245" lat="39.247702"><ele>128.1</ele></trkpt>
   <trkpt lon="-9.066465" lat="39.248176"><ele>128.8</ele></trkpt>
   <trkpt lon="-9.066546" lat="39.248271"><ele>129.6</ele></trkpt>
   <trkpt lon="-9.066687" lat="39.248436"><ele>130.2</ele></trkpt>
   <trkpt lon="-9.067004" lat="39.248689"><ele>130.9</ele></trkpt>
   <trkpt lon="-9.068031" lat="39.249580"><ele>131.5</ele></trkpt>
   <trkpt lon="-9.068699" lat="39.250127"><ele>132.4</ele></trkpt>
   <trkpt lon="-9.068897" lat="39.250285"><ele>133.5</ele></trkpt>
   <trkpt lon="-9.069090" lat="39.250418"><ele>134.5</ele></trkpt>
   <trkpt lon="-9.069399" lat="39.250556"><ele>135.2</ele></trkpt>
   <trkpt lon="-9.069659" lat="39.250692"><ele>135.9</ele></trkpt>
   <trkpt lon="-9.069938" lat="39.250912"><ele>135.8</ele></trkpt>
   <trkpt lon="-9.070324" lat="39.251182"><ele>135.3</ele></trkpt>
   <trkpt lon="-9.070580" lat="39.251283"><ele>134.8</ele></trkpt>
   <trkpt lon="-9.071081" lat="39.251585"><ele>134.3</ele></trkpt>
   <trkpt lon="-9.071177" lat="39.251682"><ele>133.7</ele></trkpt>
   <trkpt lon="-9.071558" lat="39.252054"><ele>132.9</ele></trkpt>
   <trkpt lon="-9.071862" lat="39.252430"><ele>131.9</ele></trkpt>
   <trkpt lon="-9.072145" lat="39.252955"><ele>130.9</ele></trkpt>
   <trkpt lon="-9.072189" lat="39.253036"><ele>130.1</ele></trkpt>
   <trkpt lon="-9.072389" lat="39.253338"><ele>129.4</ele></trkpt>
   <trkpt lon="-9.072577" lat="39.253483"><ele>128.9</ele></trkpt>
   <trkpt lon="-9.073058" lat="39.253759"><ele>128.9</ele><sym>pass_place</sym><type>Shaping</type></trkpt>
   <trkpt lon="-9.073339" lat="39.253899"><ele>129.2</ele></trkpt>
   <trkpt lon="-9.073435" lat="39.253995"><ele>129.3</ele></trkpt>
   <trkpt lon="-9.073444" lat="39.254017"><ele>129.4</ele></trkpt>
   <trkpt lon="-9.073922" lat="39.254590"><ele>129.7</ele></trkpt>
   <trkpt lon="-9.074093" lat="39.254843"><ele>130.0</ele></trkpt>
   <trkpt lon="-9.074251" lat="39.255012"><ele>130.1</ele></trkpt>
   <trkpt lon="-9.074728" lat="39.255108"><ele>129.7</ele></trkpt>
   <trkpt lon="-9.075649" lat="39.255333"><ele>128.9</ele></trkpt>
   <trkpt lon="-9.076352" lat="39.255513"><ele>127.6</ele><sym>right_slight</sym></trkpt>
   <trkpt lon="-9.076837" lat="39.255755"><ele>125.5</ele></trkpt>
   <trkpt lon="-9.077019" lat="39.255884"><ele>122.8</ele></trkpt>
   <trkpt lon="-9.077497" lat="39.256444"><ele>119.8</ele></trkpt>
   <trkpt lon="-9.077781" lat="39.256736"><ele>116.8</ele></trkpt>
   <trkpt lon="-9.077988" lat="39.256962"><ele>113.7</ele></trkpt>
   <trkpt lon="-9.078312" lat="39.257425"><ele>110.2</ele></trkpt>
   <trkpt lon="-9.078569" lat="39.257608"><ele>106.7</ele></trkpt>
   <trkpt lon="-9.078762" lat="39.257722"><ele>103.0</ele><sym>right_slight</sym></trkpt>
   <trkpt lon="-9.078839" lat="39.257973"><ele>99.6</ele></trkpt>
   <trkpt lon="-9.078995" lat="39.258154"><ele>96.3</ele></trkpt>
   <trkpt lon="-9.079189" lat="39.258429"><ele>93.0</ele></trkpt>
   <trkpt lon="-9.079323" lat="39.258709"><ele>90.3</ele></trkpt>
   <trkpt lon="-9.079368" lat="39.259039"><ele>88.1</ele></trkpt>
   <trkpt lon="-9.079374" lat="39.259667"><ele>86.1</ele></trkpt>
   <trkpt lon="-9.079303" lat="39.260052"><ele>83.4</ele></trkpt>
   <trkpt lon="-9.079169" lat="39.260400"><ele>80.8</ele></trkpt>
   <trkpt lon="-9.079018" lat="39.260484"><ele>78.2</ele></trkpt>
   <trkpt lon="-9.078924" lat="39.260495"><ele>76.4</ele></trkpt>
   <trkpt lon="-9.078734" lat="39.260466"><ele>73.9</ele></trkpt>
   <trkpt lon="-9.077437" lat="39.259946"><ele>71.5</ele></trkpt>
   <trkpt lon="-9.077135" lat="39.259845"><ele>69.4</ele></trkpt>
   <trkpt lon="-9.076952" lat="39.259852"><ele>67.7</ele></trkpt>
   <trkpt lon="-9.076738" lat="39.259919"><ele>66.3</ele><sym>left_sharp</sym></trkpt>
   <trkpt lon="-9.076871" lat="39.260003"><ele>65.1</ele><sym>right</sym></trkpt>
   <trkpt lon="-9.076860" lat="39.260025"><ele>64.5</ele></trkpt>
   <trkpt lon="-9.076756" lat="39.260157"><ele>64.5</ele><sym>u-turn</sym><type>Via</type></trkpt>
   <trkpt lon="-9.076860" lat="39.260025"><ele>65.3</ele></trkpt>
   <trkpt lon="-9.076871" lat="39.260003"><ele>65.9</ele></trkpt>
   <trkpt lon="-9.076952" lat="39.259852"><ele>67.3</ele><sym>right_slight</sym></trkpt>
   <trkpt lon="-9.077135" lat="39.259845"><ele>68.9</ele></trkpt>
   <trkpt lon="-9.077437" lat="39.259946"><ele>71.0</ele></trkpt>
   <trkpt lon="-9.078734" lat="39.260466"><ele>73.4</ele></trkpt>
   <trkpt lon="-9.078924" lat="39.260495"><ele>75.9</ele></trkpt>
   <trkpt lon="-9.079018" lat="39.260484"><ele>77.7</ele></trkpt>
   <trkpt lon="-9.079169" lat="39.260400"><ele>80.4</ele></trkpt>
   <trkpt lon="-9.079303" lat="39.260052"><ele>83.0</ele></trkpt>
   <trkpt lon="-9.079374" lat="39.259667"><ele>85.7</ele></trkpt>
   <trkpt lon="-9.079368" lat="39.259039"><ele>87.7</ele></trkpt>
   <trkpt lon="-9.079323" lat="39.258709"><ele>89.9</ele></trkpt>
   <trkpt lon="-9.079189" lat="39.258429"><ele>92.4</ele></trkpt>
   <trkpt lon="-9.078995" lat="39.258154"><ele>94.8</ele></trkpt>
   <trkpt lon="-9.078839" lat="39.257973"><ele>96.8</ele></trkpt>
   <trkpt lon="-9.078762" lat="39.257722"><ele>99.0</ele></trkpt>
   <trkpt lon="-9.078791" lat="39.257240"><ele>101.1</ele></trkpt>
   <trkpt lon="-9.078876" lat="39.257013"><ele>103.3</ele></trkpt>
   <trkpt lon="-9.078958" lat="39.256903"><ele>105.3</ele></trkpt>
   <trkpt lon="-9.079271" lat="39.256614"><ele>107.1</ele></trkpt>
   <trkpt lon="-9.079650" lat="39.256112"><ele>108.7</ele></trkpt>
   <trkpt lon="-9.080054" lat="39.255755"><ele>110.5</ele></trkpt>
   <trkpt lon="-9.080432" lat="39.255530"><ele>112.1</ele></trkpt>
   <trkpt lon="-9.080582" lat="39.255456"><ele>113.4</ele><sym>right_slight</sym></trkpt>
   <trkpt lon="-9.080813" lat="39.255426"><ele>114.7</ele></trkpt>
   <trkpt lon="-9.080966" lat="39.255407"><ele>115.9</ele></trkpt>
   <trkpt lon="-9.081440" lat="39.255352"><ele>117.1</ele></trkpt>
   <trkpt lon="-9.081630" lat="39.255330"><ele>118.4</ele></trkpt>
   <trkpt lon="-9.082153" lat="39.255295"><ele>119.8</ele></trkpt>
   <trkpt lon="-9.082949" lat="39.255270"><ele>120.9</ele></trkpt>
   <trkpt lon="-9.083894" lat="39.255277"><ele>121.8</ele></trkpt>
   <trkpt lon="-9.084511" lat="39.255347"><ele>122.6</ele></trkpt>
   <trkpt lon="-9.084724" lat="39.255383"><ele>122.8</ele></trkpt>
   <trkpt lon="-9.085458" lat="39.255533"><ele>123.0</ele></trkpt>
   <trkpt lon="-9.085757" lat="39.255625"><ele>122.7</ele></trkpt>
   <trkpt lon="-9.085918" lat="39.255682"><ele>122.3</ele></trkpt>
   <trkpt lon="-9.085993" lat="39.255709"><ele>121.9</ele></trkpt>
   <trkpt lon="-9.087020" lat="39.256262"><ele>120.9</ele></trkpt>
   <trkpt lon="-9.087242" lat="39.256341"><ele>119.5</ele></trkpt>
   <trkpt lon="-9.087498" lat="39.256354"><ele>117.4</ele></trkpt>
   <trkpt lon="-9.087674" lat="39.256338"><ele>115.2</ele></trkpt>
   <trkpt lon="-9.087838" lat="39.256308"><ele>112.5</ele></trkpt>
   <trkpt lon="-9.087927" lat="39.256262"><ele>110.4</ele></trkpt>
   <trkpt lon="-9.088201" lat="39.256048"><ele>106.9</ele></trkpt>
   <trkpt lon="-9.088445" lat="39.255669"><ele>103.2</ele></trkpt>
   <trkpt lon="-9.088602" lat="39.255453"><ele>99.5</ele></trkpt>
   <trkpt lon="-9.089205" lat="39.255028"><ele>95.9</ele></trkpt>
   <trkpt lon="-9.089361" lat="39.254876"><ele>92.5</ele></trkpt>
   <trkpt lon="-9.090024" lat="39.253744"><ele>89.4</ele><sym>pass_place</sym><type>Shaping</type></trkpt>
   <trkpt lon="-9.090143" lat="39.253557"><ele>86.2</ele></trkpt>
   <trkpt lon="-9.090513" lat="39.253226"><ele>83.6</ele></trkpt>
   <trkpt lon="-9.090991" lat="39.252891"><ele>81.4</ele></trkpt>
   <trkpt lon="-9.091233" lat="39.252621"><ele>79.3</ele></trkpt>
   <trkpt lon="-9.091406" lat="39.252211"><ele>77.2</ele></trkpt>
   <trkpt lon="-9.091623" lat="39.251585"><ele>75.9</ele></trkpt>
   <trkpt lon="-9.091950" lat="39.250867"><ele>74.6</ele></trkpt>
   <trkpt lon="-9.092240" lat="39.250279"><ele>73.1</ele></trkpt>
   <trkpt lon="-9.092393" lat="39.249876"><ele>71.5</ele></trkpt>
   <trkpt lon="-9.092422" lat="39.249691"><ele>69.7</ele></trkpt>
   <trkpt lon="-9.092487" lat="39.249398"><ele>67.8</ele></trkpt>
   <trkpt lon="-9.092692" lat="39.248922"><ele>65.8</ele></trkpt>
   <trkpt lon="-9.093014" lat="39.248374"><ele>63.1</ele></trkpt>
   <trkpt lon="-9.093218" lat="39.248054"><ele>60.3</ele></trkpt>
   <trkpt lon="-9.093503" lat="39.247884"><ele>58.1</ele></trkpt>
   <trkpt lon="-9.093762" lat="39.247845"><ele>56.1</ele></trkpt>
   <trkpt lon="-9.094015" lat="39.247871"><ele>54.3</ele></trkpt>
   <trkpt lon="-9.094837" lat="39.248067"><ele>52.9</ele></trkpt>
   <trkpt lon="-9.094982" lat="39.248098"><ele>52.0</ele></trkpt>
   <trkpt lon="-9.095035" lat="39.248094"><ele>51.2</ele></trkpt>
   <trkpt lon="-9.095164" lat="39.248083"><ele>50.5</ele></trkpt>
   <trkpt lon="-9.096501" lat="39.247878"><ele>49.8</ele></trkpt>
   <trkpt lon="-9.098128" lat="39.247605"><ele>49.3</ele></trkpt>
   <trkpt lon="-9.098324" lat="39.247596"><ele>50.0</ele></trkpt>
   <trkpt lon="-9.098532" lat="39.247636"><ele>50.9</ele></trkpt>
   <trkpt lon="-9.098652" lat="39.247686"><ele>52.3</ele></trkpt>
   <trkpt lon="-9.099394" lat="39.248169"><ele>54.2</ele></trkpt>
   <trkpt lon="-9.099696" lat="39.248374"><ele>56.3</ele></trkpt>
   <trkpt lon="-9.099980" lat="39.248473"><ele>58.5</ele></trkpt>
   <trkpt lon="-9.100179" lat="39.248499"><ele>61.2</ele></trkpt>
   <trkpt lon="-9.100452" lat="39.248448"><ele>64.2</ele></trkpt>
   <trkpt lon="-9.101030" lat="39.248287"><ele>67.4</ele></trkpt>
   <trkpt lon="-9.101263" lat="39.248222"><ele>70.8</ele></trkpt>
   <trkpt lon="-9.101508" lat="39.248087"><ele>74.5</ele></trkpt>
   <trkpt lon="-9.101974" lat="39.247477"><ele>78.0</ele></trkpt>
   <trkpt lon="-9.102051" lat="39.247343"><ele>81.3</ele></trkpt>
   <trkpt lon="-9.102022" lat="39.246869"><ele>84.3</ele></trkpt>
   <trkpt lon="-9.102045" lat="39.246534"><ele>86.7</ele></trkpt>
   <trkpt lon="-9.102207" lat="39.246113"><ele>89.0</ele></trkpt>
   <trkpt lon="-9.102358" lat="39.245752"><ele>91.1</ele></trkpt>
   <trkpt lon="-9.102372" lat="39.245592"><ele>92.8</ele></trkpt>
   <trkpt lon="-9.102341" lat="39.245299"><ele>94.4</ele><sym>pass_place</sym><type>Shaping</type></trkpt>
   <trkpt lon="-9.102340" lat="39.245296"><ele>94.5</ele></trkpt>
   <trkpt lon="-9.102290" lat="39.245014"><ele>95.8</ele></trkpt>
   <trkpt lon="-9.102141" lat="39.244625"><ele>96.8</ele></trkpt>
   <trkpt lon="-9.102091" lat="39.244492"><ele>97.6</ele></trkpt>
   <trkpt lon="-9.102038" lat="39.244394"><ele>98.4</ele></trkpt>
   <trkpt lon="-9.102002" lat="39.244324"><ele>99.2</ele></trkpt>
   <trkpt lon="-9.102027" lat="39.244192"><ele>100.0</ele></trkpt>
   <trkpt lon="-9.102052" lat="39.244084"><ele>101.0</ele></trkpt>
   <trkpt lon="-9.102092" lat="39.243930"><ele>101.8</ele></trkpt>
   <trkpt lon="-9.102139" lat="39.243737"><ele>102.4</ele></trkpt>
   <trkpt lon="-9.102146" lat="39.243708"><ele>102.9</ele></trkpt>
   <trkpt lon="-9.102265" lat="39.243518"><ele>103.3</ele></trkpt>
   <trkpt lon="-9.102293" lat="39.243254"><ele>103.7</ele></trkpt>
   <trkpt lon="-9.102277" lat="39.243025"><ele>103.9</ele></trkpt>
   <trkpt lon="-9.102270" lat="39.242919"><ele>104.1</ele></trkpt>
   <trkpt lon="-9.102247" lat="39.242776"><ele>104.2</ele><sym>right</sym></trkpt>
   <trkpt lon="-9.102457" lat="39.242759"><ele>104.3</ele></trkpt>
   <trkpt lon="-9.102554" lat="39.242758"><ele>104.2</ele></trkpt>
   <trkpt lon="-9.102661" lat="39.242756"><ele>104.0</ele><sym>pass_place</sym><type>Via</type></trkpt>
  </trkseg>
 </trk>
</gpx>
