<?xml version="1.0" encoding="UTF-8"?>
<!-- track-length = 35030 filtered ascend = 444 plain-ascend = 0 cost=59818 energy=.2kwh time=2h 10m 30s -->
<gpx 
 xmlns="http://www.topografix.com/GPX/1/1" 
 xmlns:xsi="http://www.w3.org/2001/XMLSchema-instance" 
 xsi:schemaLocation="http://www.topografix.com/GPX/1/1 http://www.topografix.com/GPX/1/1/gpx.xsd" 
 creator="BRouter-1.7.9" version="1.1"><wpt lat="39.59997" lon="-9.06973"><name>Casa Benfica</name><sym>Restaurant</sym></wpt><wpt lat="39.59688" lon="-9.07168"><name>Pastelaria Cenoura</name><sym>Restaurant</sym></wpt><wpt lat="39.59754" lon="-9.07176"><name>Lions Bar</name><sym>Restaurant</sym></wpt><wpt lat="39.59837" lon="-9.07196"><name>Maltinha</name><sym>Restaurant</sym></wpt><wpt lat="39.59838" lon="-9.07234"><name>Gelatomania</name><sym>Restaurant</sym></wpt><wpt lat="39.60598" lon="-9.06946"><name>Café do Ben II</name><sym>Restaurant</sym></wpt><wpt lat="39.58778" lon="-9.07325"><name>Caffé Concerto</name><sym>Restaurant</sym></wpt><wpt lat="39.60255" lon="-9.07404"><name>Café Atântida</name><sym>Restaurant</sym></wpt><wpt lat="39.60604" lon="-9.07395"><name>Dailda</name><sym>Restaurant</sym></wpt><wpt lat="39.60551" lon="-9.07583"><name>Terrasse</name><sym>Restaurant</sym></wpt><wpt lat="39.60584" lon="-9.07373"><name>O Redondo</name><sym>Restaurant</sym></wpt><wpt lat="39.60273" lon="-9.0736"><name>Lift</name><sym>Restaurant</sym></wpt><wpt lat="39.60119" lon="-9.06985"><name>Café Aninhas</name><sym>Restaurant</sym></wpt><wpt lat="39.59174" lon="-9.07303"><name>Chocolateria</name><sym>Restaurant</sym></wpt><wpt lat="39.59124" lon="-9.07322"><name>Perolazzi</name><sym>Restaurant</sym></wpt><wpt lat="39.52177" lon="-9.12031"><name>Drinking water</name><sym>Drinking Water</sym></wpt><wpt lat="39.59328" lon="-9.07282"><name>Drinking water</name><sym>Drinking Water</sym></wpt><wpt lat="39.59658" lon="-9.06856"><name>Lilly Café</name><sym>Restaurant</sym></wpt><wpt lat="39.5148" lon="-9.13261"><name>Pastelaria Marquel</name><sym>Restaurant</sym></wpt><wpt lat="39.60674" lon="-9.07546"><name>A Caravela</name><sym>Restaurant</sym></wpt><wpt lat="39.60583" lon="-9.07317"><name>Drinking water</name><sym>Drinking Water</sym></wpt><wpt lat="39.51372" lon="-9.13452"><name>Drinking water</name><sym>Drinking Water</sym></wpt>
 <trk>
  <src>brouter_fastbike-lowtraffic_0</src>
  <type>bike</type>
  <trkseg>
   <trkpt lon="-9.070214" lat="39.602650"><ele>35.2</ele><sym>pass_place</sym><type>Via</type></trkpt>
   <trkpt lon="-9.070131" lat="39.602543"><ele>36.4</ele></trkpt>
   <trkpt lon="-9.070018" lat="39.602249"><ele>37.5</ele><sym>left</sym></trkpt>
   <trkpt lon="-9.069616" lat="39.602329"><ele>38.4</ele><sym>left_slight</sym></trkpt>
   <trkpt lon="-9.069321" lat="39.602520"><ele>39.1</ele></trkpt>
   <trkpt lon="-9.069051" lat="39.602693"><ele>39.8</ele></trkpt>
   <trkpt lon="-9.069007" lat="39.602722"><ele>40.9</ele></trkpt>
   <trkpt lon="-9.068854" lat="39.602822"><ele>42.3</ele></trkpt>
   <trkpt lon="-9.068780" lat="39.602851"><ele>43.8</ele></trkpt>
   <trkpt lon="-9.068605" lat="39.602888"><ele>45.2</ele><sym>left_slight</sym></trkpt>
   <trkpt lon="-9.068500" lat="39.602961"><ele>46.0</ele></trkpt>
   <trkpt lon="-9.068490" lat="39.602993"><ele>46.6</ele></trkpt>
   <trkpt lon="-9.068492" lat="39.603060"><ele>47.2</ele></trkpt>
   <trkpt lon="-9.068510" lat="39.603106"><ele>47.7</ele></trkpt>
   <trkpt lon="-9.068542" lat="39.603149"><ele>48.2</ele></trkpt>
   <trkpt lon="-9.068614" lat="39.603207"><ele>48.9</ele></trkpt>
   <trkpt lon="-9.068754" lat="39.603340"><ele>49.4</ele></trkpt>
   <trkpt lon="-9.068788" lat="39.603383"><ele>50.0</ele></trkpt>
   <trkpt lon="-9.068815" lat="39.603434"><ele>50.6</ele></trkpt>
   <trkpt lon="-9.068820" lat="39.603488"><ele>51.4</ele></trkpt>
   <trkpt lon="-9.068802" lat="39.603533"><ele>52.2</ele></trkpt>
   <trkpt lon="-9.068768" lat="39.603569"><ele>53.2</ele></trkpt>
   <trkpt lon="-9.068721" lat="39.603599"><ele>54.0</ele></trkpt>
   <trkpt lon="-9.068574" lat="39.603695"><ele>54.9</ele></trkpt>
   <trkpt lon="-9.068485" lat="39.603753"><ele>55.7</ele></trkpt>
   <trkpt lon="-9.068389" lat="39.603812"><ele>56.4</ele></trkpt>
   <trkpt lon="-9.068304" lat="39.603849"><ele>57.2</ele></trkpt>
   <trkpt lon="-9.068211" lat="39.603869"><ele>58.2</ele></trkpt>
   <trkpt lon="-9.068139" lat="39.603874"><ele>59.1</ele></trkpt>
   <trkpt lon="-9.068039" lat="39.603865"><ele>60.1</ele></trkpt>
   <trkpt lon="-9.067977" lat="39.603850"><ele>60.9</ele><sym>left</sym></trkpt>
   <trkpt lon="-9.067938" lat="39.603959"><ele>61.7</ele></trkpt>
   <trkpt lon="-9.067893" lat="39.604088"><ele>62.4</ele></trkpt>
   <trkpt lon="-9.067861" lat="39.604138"><ele>63.5</ele><sym>right_slight</sym></trkpt>
   <trkpt lon="-9.067723" lat="39.604225"><ele>64.9</ele></trkpt>
   <trkpt lon="-9.067676" lat="39.604271"><ele>66.2</ele></trkpt>
   <trkpt lon="-9.067653" lat="39.604320"><ele>67.5</ele></trkpt>
   <trkpt lon="-9.067641" lat="39.604369"><ele>68.7</ele></trkpt>
   <trkpt lon="-9.067557" lat="39.604716"><ele>70.0</ele></trkpt>
   <trkpt lon="-9.067513" lat="39.604906"><ele>71.8</ele></trkpt>
   <trkpt lon="-9.067514" lat="39.604950"><ele>72.9</ele></trkpt>
   <trkpt lon="-9.067527" lat="39.604996"><ele>74.0</ele></trkpt>
   <trkpt lon="-9.067549" lat="39.605043"><ele>75.3</ele></trkpt>
   <trkpt lon="-9.067602" lat="39.605112"><ele>77.2</ele></trkpt>
   <trkpt lon="-9.068023" lat="39.605576"><ele>78.9</ele></trkpt>
   <trkpt lon="-9.068238" lat="39.605810"><ele>80.4</ele></trkpt>
   <trkpt lon="-9.068268" lat="39.605845"><ele>81.4</ele></trkpt>
   <trkpt lon="-9.068303" lat="39.605884"><ele>82.6</ele></trkpt>
   <trkpt lon="-9.068347" lat="39.605913"><ele>83.7</ele></trkpt>
   <trkpt lon="-9.068406" lat="39.605935"><ele>84.9</ele></trkpt>
   <trkpt lon="-9.068482" lat="39.605947"><ele>86.2</ele></trkpt>
   <trkpt lon="-9.068556" lat="39.605945"><ele>87.2</ele></trkpt>
   <trkpt lon="-9.068622" lat="39.605931"><ele>88.2</ele></trkpt>
   <trkpt lon="-9.068691" lat="39.605910"><ele>89.1</ele></trkpt>
   <trkpt lon="-9.069099" lat="39.605678"><ele>90.1</ele></trkpt>
   <trkpt lon="-9.069167" lat="39.605651"><ele>91.1</ele></trkpt>
   <trkpt lon="-9.069262" lat="39.605627"><ele>92.1</ele></trkpt>
   <trkpt lon="-9.069324" lat="39.605627"><ele>93.0</ele></trkpt>
   <trkpt lon="-9.069394" lat="39.605635"><ele>93.8</ele></trkpt>
   <trkpt lon="-9.069860" lat="39.605791"><ele>94.6</ele></trkpt>
   <trkpt lon="-9.069897" lat="39.605829"><ele>95.3</ele></trkpt>
   <trkpt lon="-9.069902" lat="39.605844"><ele>95.7</ele><sym>right_slight</sym></trkpt>
   <trkpt lon="-9.069909" lat="39.605871"><ele>96.4</ele></trkpt>
   <trkpt lon="-9.069896" lat="39.605917"><ele>97.3</ele></trkpt>
   <trkpt lon="-9.069865" lat="39.605966"><ele>98.2</ele></trkpt>
   <trkpt lon="-9.069796" lat="39.606055"><ele>98.8</ele></trkpt>
   <trkpt lon="-9.069751" lat="39.606138"><ele>99.4</ele></trkpt>
   <trkpt lon="-9.069722" lat="39.606172"><ele>100.3</ele></trkpt>
   <trkpt lon="-9.069678" lat="39.606193"><ele>101.3</ele></trkpt>
   <trkpt lon="-9.069530" lat="39.606243"><ele>102.3</ele></trkpt>
   <trkpt lon="-9.069484" lat="39.606273"><ele>103.4</ele></trkpt>
   <trkpt lon="-9.069451" lat="39.606317"><ele>104.4</ele></trkpt>
   <trkpt lon="-9.069377" lat="39.606572"><ele>105.3</ele></trkpt>
   <trkpt lon="-9.069372" lat="39.606625"><ele>106.4</ele></trkpt>
   <trkpt lon="-9.069382" lat="39.606670"><ele>107.6</ele></trkpt>
   <trkpt lon="-9.069399" lat="39.606706"><ele>108.5</ele></trkpt>
   <trkpt lon="-9.069417" lat="39.606742"><ele>109.4</ele><sym>left</sym></trkpt>
   <trkpt lon="-9.069638" lat="39.606659"><ele>111.2</ele></trkpt>
   <trkpt lon="-9.070570" lat="39.606393"><ele>112.6</ele></trkpt>
   <trkpt lon="-9.070797" lat="39.606326"><ele>113.6</ele></trkpt>
   <trkpt lon="-9.070850" lat="39.606305"><ele>114.6</ele></trkpt>
   <trkpt lon="-9.071200" lat="39.606172"><ele>115.3</ele></trkpt>
   <trkpt lon="-9.071499" lat="39.606103"><ele>115.9</ele></trkpt>
   <trkpt lon="-9.071714" lat="39.606053"><ele>116.5</ele></trkpt>
   <trkpt lon="-9.072162" lat="39.605961"><ele>116.8</ele><sym>right_slight</sym></trkpt>
   <trkpt lon="-9.072314" lat="39.606077"><ele>116.7</ele></trkpt>
   <trkpt lon="-9.072504" lat="39.606208"><ele>116.6</ele></trkpt>
   <trkpt lon="-9.072622" lat="39.606286"><ele>116.4</ele></trkpt>
   <trkpt lon="-9.072657" lat="39.606308"><ele>115.9</ele></trkpt>
   <trkpt lon="-9.072687" lat="39.606327"><ele>115.4</ele></trkpt>
   <trkpt lon="-9.072902" lat="39.606525"><ele>115.1</ele></trkpt>
   <trkpt lon="-9.072953" lat="39.606556"><ele>114.8</ele></trkpt>
   <trkpt lon="-9.073021" lat="39.606584"><ele>114.5</ele><sym>left</sym></trkpt>
   <trkpt lon="-9.073125" lat="39.606507"><ele>114.2</ele></trkpt>
   <trkpt lon="-9.073190" lat="39.606477"><ele>113.8</ele></trkpt>
   <trkpt lon="-9.073237" lat="39.606465"><ele>113.4</ele></trkpt>
   <trkpt lon="-9.073399" lat="39.606438"><ele>113.1</ele></trkpt>
   <trkpt lon="-9.073459" lat="39.606449"><ele>112.0</ele></trkpt>
   <trkpt lon="-9.073518" lat="39.606469"><ele>110.8</ele></trkpt>
   <trkpt lon="-9.073579" lat="39.606496"><ele>109.6</ele></trkpt>
   <trkpt lon="-9.073624" lat="39.606527"><ele>108.4</ele></trkpt>
   <trkpt lon="-9.073658" lat="39.606562"><ele>107.4</ele></trkpt>
   <trkpt lon="-9.073961" lat="39.607318"><ele>106.0</ele></trkpt>
   <trkpt lon="-9.073977" lat="39.607356"><ele>105.0</ele></trkpt>
   <trkpt lon="-9.074003" lat="39.607383"><ele>104.2</ele><sym>left</sym></trkpt>
   <trkpt lon="-9.074054" lat="39.607383"><ele>103.2</ele></trkpt>
   <trkpt lon="-9.074092" lat="39.607375"><ele>102.5</ele></trkpt>
   <trkpt lon="-9.074215" lat="39.607339"><ele>101.3</ele></trkpt>
   <trkpt lon="-9.074487" lat="39.607278"><ele>100.9</ele></trkpt>
   <trkpt lon="-9.074544" lat="39.607272"><ele>100.6</ele></trkpt>
   <trkpt lon="-9.074605" lat="39.607283"><ele>100.4</ele><sym>left</sym></trkpt>
   <trkpt lon="-9.074808" lat="39.607108"><ele>100.2</ele></trkpt>
   <trkpt lon="-9.074916" lat="39.607019"><ele>100.1</ele></trkpt>
   <trkpt lon="-9.074969" lat="39.606975"><ele>100.1</ele></trkpt>
   <trkpt lon="-9.075388" lat="39.606661"><ele>100.3</ele></trkpt>
   <trkpt lon="-9.075590" lat="39.606535"><ele>100.5</ele></trkpt>
   <trkpt lon="-9.075649" lat="39.606506"><ele>100.8</ele></trkpt>
   <trkpt lon="-9.075718" lat="39.606471"><ele>101.1</ele></trkpt>
   <trkpt lon="-9.075821" lat="39.606421"><ele>101.5</ele></trkpt>
   <trkpt lon="-9.075935" lat="39.606351"><ele>101.9</ele></trkpt>
   <trkpt lon="-9.075978" lat="39.606308"><ele>102.3</ele></trkpt>
   <trkpt lon="-9.076008" lat="39.606260"><ele>102.8</ele></trkpt>
   <trkpt lon="-9.076053" lat="39.606160"><ele>103.2</ele><sym>right_slight</sym></trkpt>
   <trkpt lon="-9.076172" lat="39.606081"><ele>103.7</ele></trkpt>
   <trkpt lon="-9.076346" lat="39.605957"><ele>104.2</ele></trkpt>
   <trkpt lon="-9.076596" lat="39.605738"><ele>104.6</ele></trkpt>
   <trkpt lon="-9.076647" lat="39.605699"><ele>105.1</ele></trkpt>
   <trkpt lon="-9.076693" lat="39.605675"><ele>105.4</ele></trkpt>
   <trkpt lon="-9.076809" lat="39.605637"><ele>105.6</ele></trkpt>
   <trkpt lon="-9.077268" lat="39.605579"><ele>105.6</ele></trkpt>
   <trkpt lon="-9.077296" lat="39.605563"><ele>105.6</ele></trkpt>
   <trkpt lon="-9.077313" lat="39.605533"><ele>105.4</ele></trkpt>
   <trkpt lon="-9.077315" lat="39.605488"><ele>105.0</ele><sym>right</sym></trkpt>
   <trkpt lon="-9.077435" lat="39.605487"><ele>104.6</ele></trkpt>
   <trkpt lon="-9.077566" lat="39.605489"><ele>104.1</ele></trkpt>
   <trkpt lon="-9.077638" lat="39.605493"><ele>103.6</ele></trkpt>
   <trkpt lon="-9.077757" lat="39.605480"><ele>103.0</ele></trkpt>
   <trkpt lon="-9.077872" lat="39.605444"><ele>102.3</ele></trkpt>
   <trkpt lon="-9.077907" lat="39.605424"><ele>101.6</ele></trkpt>
   <trkpt lon="-9.077931" lat="39.605393"><ele>100.9</ele></trkpt>
   <trkpt lon="-9.077939" lat="39.605362"><ele>100.2</ele></trkpt>
   <trkpt lon="-9.077948" lat="39.605214"><ele>99.4</ele></trkpt>
   <trkpt lon="-9.077970" lat="39.605189"><ele>98.7</ele></trkpt>
   <trkpt lon="-9.078041" lat="39.605145"><ele>97.8</ele></trkpt>
   <trkpt lon="-9.078116" lat="39.605118"><ele>96.8</ele><sym>left_slight</sym></trkpt>
   <trkpt lon="-9.078167" lat="39.605070"><ele>95.9</ele></trkpt>
   <trkpt lon="-9.078188" lat="39.604951"><ele>94.5</ele></trkpt>
   <trkpt lon="-9.078157" lat="39.604821"><ele>93.1</ele></trkpt>
   <trkpt lon="-9.078159" lat="39.604771"><ele>91.9</ele><sym>right</sym></trkpt>
   <trkpt lon="-9.078188" lat="39.604774"><ele>91.4</ele></trkpt>
   <trkpt lon="-9.078265" lat="39.604783"><ele>89.9</ele></trkpt>
   <trkpt lon="-9.078810" lat="39.604845"><ele>87.9</ele></trkpt>
   <trkpt lon="-9.078854" lat="39.604850"><ele>87.0</ele></trkpt>
   <trkpt lon="-9.078885" lat="39.604854"><ele>86.4</ele></trkpt>
   <trkpt lon="-9.079059" lat="39.604871"><ele>84.7</ele></trkpt>
   <trkpt lon="-9.079601" lat="39.604912"><ele>82.4</ele></trkpt>
   <trkpt lon="-9.079708" lat="39.604913"><ele>80.3</ele></trkpt>
   <trkpt lon="-9.079898" lat="39.604888"><ele>78.2</ele></trkpt>
   <trkpt lon="-9.080004" lat="39.604861"><ele>76.2</ele></trkpt>
   <trkpt lon="-9.080093" lat="39.604817"><ele>74.4</ele></trkpt>
   <trkpt lon="-9.080385" lat="39.604688"><ele>73.0</ele></trkpt>
   <trkpt lon="-9.080480" lat="39.604659"><ele>72.5</ele></trkpt>
   <trkpt lon="-9.080570" lat="39.604653"><ele>72.8</ele></trkpt>
   <trkpt lon="-9.080684" lat="39.604655"><ele>72.9</ele></trkpt>
   <trkpt lon="-9.080783" lat="39.604677"><ele>72.8</ele></trkpt>
   <trkpt lon="-9.080860" lat="39.604698"><ele>72.6</ele></trkpt>
   <trkpt lon="-9.081021" lat="39.604772"><ele>72.8</ele></trkpt>
   <trkpt lon="-9.081383" lat="39.605011"><ele>72.9</ele></trkpt>
   <trkpt lon="-9.081545" lat="39.605083"><ele>73.0</ele></trkpt>
   <trkpt lon="-9.081677" lat="39.605129"><ele>72.5</ele></trkpt>
   <trkpt lon="-9.081808" lat="39.605161"><ele>71.4</ele></trkpt>
   <trkpt lon="-9.081969" lat="39.605183"><ele>69.8</ele></trkpt>
   <trkpt lon="-9.082073" lat="39.605186"><ele>67.8</ele></trkpt>
   <trkpt lon="-9.082228" lat="39.605179"><ele>64.9</ele></trkpt>
   <trkpt lon="-9.082531" lat="39.605160"><ele>61.5</ele></trkpt>
   <trkpt lon="-9.082819" lat="39.605147"><ele>58.3</ele></trkpt>
   <trkpt lon="-9.083038" lat="39.605135"><ele>55.2</ele></trkpt>
   <trkpt lon="-9.083219" lat="39.605095"><ele>52.2</ele></trkpt>
   <trkpt lon="-9.083439" lat="39.605015"><ele>49.2</ele></trkpt>
   <trkpt lon="-9.083647" lat="39.604922"><ele>46.3</ele></trkpt>
   <trkpt lon="-9.083734" lat="39.604886"><ele>44.4</ele></trkpt>
   <trkpt lon="-9.083857" lat="39.604805"><ele>42.4</ele></trkpt>
   <trkpt lon="-9.083942" lat="39.604762"><ele>40.7</ele></trkpt>
   <trkpt lon="-9.084162" lat="39.604670"><ele>39.4</ele></trkpt>
   <trkpt lon="-9.084265" lat="39.604641"><ele>38.2</ele></trkpt>
   <trkpt lon="-9.084360" lat="39.604622"><ele>37.3</ele></trkpt>
   <trkpt lon="-9.084505" lat="39.604592"><ele>36.5</ele></trkpt>
   <trkpt lon="-9.084625" lat="39.604588"><ele>35.8</ele></trkpt>
   <trkpt lon="-9.084765" lat="39.604580"><ele>35.2</ele><sym>right</sym></trkpt>
   <trkpt lon="-9.084832" lat="39.604681"><ele>35.0</ele><sym>left</sym></trkpt>
   <trkpt lon="-9.084993" lat="39.604647"><ele>35.0</ele></trkpt>
   <trkpt lon="-9.085215" lat="39.604529"><ele>35.0</ele><sym>u-turn</sym><type>Via</type></trkpt>
   <trkpt lon="-9.084993" lat="39.604647"><ele>35.0</ele></trkpt>
   <trkpt lon="-9.084832" lat="39.604681"><ele>35.0</ele><sym>right_slight</sym></trkpt>
   <trkpt lon="-9.084765" lat="39.604580"><ele>35.2</ele><sym>left</sym></trkpt>
   <trkpt lon="-9.084625" lat="39.604588"><ele>35.8</ele></trkpt>
   <trkpt lon="-9.084505" lat="39.604592"><ele>36.5</ele></trkpt>
   <trkpt lon="-9.084360" lat="39.604622"><ele>37.3</ele></trkpt>
   <trkpt lon="-9.084265" lat="39.604641"><ele>38.2</ele></trkpt>
   <trkpt lon="-9.084162" lat="39.604670"><ele>39.4</ele></trkpt>
   <trkpt lon="-9.083942" lat="39.604762"><ele>40.7</ele></trkpt>
   <trkpt lon="-9.083857" lat="39.604805"><ele>42.4</ele></trkpt>
   <trkpt lon="-9.083734" lat="39.604886"><ele>44.4</ele></trkpt>
   <trkpt lon="-9.083647" lat="39.604922"><ele>46.3</ele></trkpt>
   <trkpt lon="-9.083439" lat="39.605015"><ele>49.2</ele></trkpt>
   <trkpt lon="-9.083219" lat="39.605095"><ele>52.2</ele></trkpt>
   <trkpt lon="-9.083038" lat="39.605135"><ele>55.2</ele></trkpt>
   <trkpt lon="-9.082819" lat="39.605147"><ele>58.3</ele></trkpt>
   <trkpt lon="-9.082531" lat="39.605160"><ele>61.5</ele></trkpt>
   <trkpt lon="-9.082228" lat="39.605179"><ele>64.9</ele></trkpt>
   <trkpt lon="-9.082073" lat="39.605186"><ele>67.8</ele></trkpt>
   <trkpt lon="-9.081969" lat="39.605183"><ele>69.8</ele></trkpt>
   <trkpt lon="-9.081808" lat="39.605161"><ele>71.4</ele></trkpt>
   <trkpt lon="-9.081677" lat="39.605129"><ele>72.5</ele></trkpt>
   <trkpt lon="-9.081545" lat="39.605083"><ele>73.0</ele></trkpt>
   <trkpt lon="-9.081383" lat="39.605011"><ele>72.9</ele></trkpt>
   <trkpt lon="-9.081021" lat="39.604772"><ele>72.8</ele></trkpt>
   <trkpt lon="-9.080860" lat="39.604698"><ele>72.6</ele></trkpt>
   <trkpt lon="-9.080783" lat="39.604677"><ele>72.8</ele></trkpt>
   <trkpt lon="-9.080684" lat="39.604655"><ele>72.9</ele></trkpt>
   <trkpt lon="-9.080570" lat="39.604653"><ele>72.8</ele></trkpt>
   <trkpt lon="-9.080480" lat="39.604659"><ele>72.5</ele></trkpt>
   <trkpt lon="-9.080385" lat="39.604688"><ele>73.0</ele></trkpt>
   <trkpt lon="-9.080093" lat="39.604817"><ele>74.4</ele></trkpt>
   <trkpt lon="-9.080004" lat="39.604861"><ele>76.2</ele></trkpt>
   <trkpt lon="-9.079898" lat="39.604888"><ele>78.2</ele></trkpt>
   <trkpt lon="-9.079708" lat="39.604913"><ele>80.3</ele></trkpt>
   <trkpt lon="-9.079601" lat="39.604912"><ele>82.4</ele></trkpt>
   <trkpt lon="-9.079059" lat="39.604871"><ele>84.7</ele></trkpt>
   <trkpt lon="-9.078885" lat="39.604854"><ele>86.4</ele></trkpt>
   <trkpt lon="-9.078854" lat="39.604850"><ele>87.0</ele></trkpt>
   <trkpt lon="-9.078810" lat="39.604845"><ele>87.9</ele></trkpt>
   <trkpt lon="-9.078265" lat="39.604783"><ele>88.6</ele></trkpt>
   <trkpt lon="-9.078188" lat="39.604774"><ele>89.0</ele></trkpt>
   <trkpt lon="-9.078159" lat="39.604771"><ele>89.1</ele></trkpt>
   <trkpt lon="-9.077945" lat="39.604721"><ele>88.9</ele></trkpt>
   <trkpt lon="-9.077879" lat="39.604705"><ele>88.9</ele></trkpt>
   <trkpt lon="-9.077693" lat="39.604665"><ele>88.9</ele></trkpt>
   <trkpt lon="-9.077261" lat="39.604629"><ele>88.7</ele></trkpt>
   <trkpt lon="-9.076877" lat="39.604627"><ele>88.5</ele></trkpt>
   <trkpt lon="-9.076831" lat="39.604629"><ele>88.5</ele></trkpt>
   <trkpt lon="-9.076577" lat="39.604637"><ele>88.9</ele></trkpt>
   <trkpt lon="-9.076469" lat="39.604657"><ele>89.7</ele></trkpt>
   <trkpt lon="-9.076296" lat="39.604706"><ele>91.0</ele></trkpt>
   <trkpt lon="-9.076169" lat="39.604758"><ele>92.7</ele></trkpt>
   <trkpt lon="-9.076087" lat="39.604807"><ele>94.5</ele></trkpt>
   <trkpt lon="-9.075859" lat="39.604970"><ele>96.4</ele></trkpt>
   <trkpt lon="-9.075753" lat="39.605044"><ele>98.2</ele></trkpt>
   <trkpt lon="-9.075704" lat="39.605080"><ele>99.5</ele></trkpt>
   <trkpt lon="-9.075625" lat="39.605139"><ele>101.3</ele></trkpt>
   <trkpt lon="-9.075544" lat="39.605199"><ele>103.1</ele></trkpt>
   <trkpt lon="-9.075449" lat="39.605264"><ele>104.7</ele></trkpt>
   <trkpt lon="-9.075417" lat="39.605286"><ele>105.5</ele></trkpt>
   <trkpt lon="-9.075276" lat="39.605382"><ele>106.5</ele></trkpt>
   <trkpt lon="-9.074873" lat="39.605624"><ele>107.2</ele></trkpt>
   <trkpt lon="-9.074750" lat="39.605686"><ele>107.5</ele><sym>left</sym></trkpt>
   <trkpt lon="-9.074852" lat="39.605851"><ele>107.5</ele></trkpt>
   <trkpt lon="-9.074912" lat="39.605929"><ele>107.2</ele></trkpt>
   <trkpt lon="-9.074943" lat="39.605967"><ele>106.6</ele></trkpt>
   <trkpt lon="-9.075023" lat="39.606054"><ele>105.7</ele></trkpt>
   <trkpt lon="-9.075149" lat="39.606153"><ele>104.7</ele></trkpt>
   <trkpt lon="-9.075249" lat="39.606237"><ele>103.7</ele></trkpt>
   <trkpt lon="-9.075285" lat="39.606268"><ele>103.0</ele></trkpt>
   <trkpt lon="-9.075590" lat="39.606535"><ele>102.4</ele><sym>left</sym></trkpt>
   <trkpt lon="-9.075649" lat="39.606506"><ele>102.0</ele></trkpt>
   <trkpt lon="-9.075718" lat="39.606471"><ele>101.8</ele></trkpt>
   <trkpt lon="-9.075821" lat="39.606421"><ele>101.9</ele><sym>left</sym></trkpt>
   <trkpt lon="-9.075720" lat="39.606318"><ele>102.3</ele><sym>pass_place</sym><type>Shaping</type></trkpt>
   <trkpt lon="-9.075635" lat="39.606233"><ele>103.0</ele></trkpt>
   <trkpt lon="-9.075514" lat="39.606106"><ele>104.1</ele></trkpt>
   <trkpt lon="-9.075431" lat="39.606027"><ele>105.3</ele></trkpt>
   <trkpt lon="-9.075345" lat="39.605957"><ele>106.4</ele></trkpt>
   <trkpt lon="-9.075158" lat="39.605838"><ele>107.7</ele></trkpt>
   <trkpt lon="-9.074873" lat="39.605624"><ele>108.9</ele><sym>left</sym></trkpt>
   <trkpt lon="-9.074750" lat="39.605686"><ele>110.1</ele></trkpt>
   <trkpt lon="-9.074720" lat="39.605698"><ele>110.7</ele></trkpt>
   <trkpt lon="-9.074693" lat="39.605708"><ele>111.3</ele></trkpt>
   <trkpt lon="-9.074555" lat="39.605748"><ele>112.2</ele></trkpt>
   <trkpt lon="-9.074470" lat="39.605797"><ele>113.0</ele></trkpt>
   <trkpt lon="-9.074415" lat="39.605844"><ele>113.8</ele></trkpt>
   <trkpt lon="-9.074391" lat="39.605860"><ele>114.4</ele></trkpt>
   <trkpt lon="-9.074359" lat="39.605870"><ele>115.0</ele></trkpt>
   <trkpt lon="-9.074327" lat="39.605873"><ele>115.6</ele></trkpt>
   <trkpt lon="-9.074274" lat="39.605865"><ele>116.2</ele></trkpt>
   <trkpt lon="-9.073850" lat="39.605733"><ele>116.6</ele></trkpt>
   <trkpt lon="-9.073782" lat="39.605734"><ele>117.0</ele></trkpt>
   <trkpt lon="-9.073689" lat="39.605733"><ele>117.4</ele></trkpt>
   <trkpt lon="-9.073565" lat="39.605718"><ele>117.8</ele></trkpt>
   <trkpt lon="-9.073513" lat="39.605716"><ele>118.2</ele></trkpt>
   <trkpt lon="-9.073419" lat="39.605713"><ele>118.5</ele></trkpt>
   <trkpt lon="-9.073320" lat="39.605722"><ele>118.5</ele></trkpt>
   <trkpt lon="-9.072885" lat="39.605791"><ele>118.7</ele></trkpt>
   <trkpt lon="-9.072749" lat="39.605819"><ele>118.8</ele></trkpt>
   <trkpt lon="-9.072648" lat="39.605841"><ele>118.7</ele></trkpt>
   <trkpt lon="-9.072311" lat="39.605925"><ele>118.4</ele></trkpt>
   <trkpt lon="-9.072162" lat="39.605961"><ele>118.0</ele><sym>stay_right</sym></trkpt>
   <trkpt lon="-9.071714" lat="39.606053"><ele>117.5</ele></trkpt>
   <trkpt lon="-9.071499" lat="39.606103"><ele>116.8</ele></trkpt>
   <trkpt lon="-9.071200" lat="39.606172"><ele>115.9</ele></trkpt>
   <trkpt lon="-9.070850" lat="39.606305"><ele>115.0</ele></trkpt>
   <trkpt lon="-9.070797" lat="39.606326"><ele>113.9</ele></trkpt>
   <trkpt lon="-9.070570" lat="39.606393"><ele>111.8</ele></trkpt>
   <trkpt lon="-9.069638" lat="39.606659"><ele>109.5</ele></trkpt>
   <trkpt lon="-9.069417" lat="39.606742"><ele>107.3</ele></trkpt>
   <trkpt lon="-9.069307" lat="39.606789"><ele>105.3</ele></trkpt>
   <trkpt lon="-9.068515" lat="39.607170"><ele>103.4</ele></trkpt>
   <trkpt lon="-9.067292" lat="39.607765"><ele>101.4</ele></trkpt>
   <trkpt lon="-9.067159" lat="39.607829"><ele>99.6</ele></trkpt>
   <trkpt lon="-9.067042" lat="39.607886"><ele>98.0</ele></trkpt>
   <trkpt lon="-9.066895" lat="39.607945"><ele>96.4</ele></trkpt>
   <trkpt lon="-9.066789" lat="39.607968"><ele>94.8</ele></trkpt>
   <trkpt lon="-9.066690" lat="39.607980"><ele>93.3</ele></trkpt>
   <trkpt lon="-9.066590" lat="39.607983"><ele>92.5</ele></trkpt>
   <trkpt lon="-9.066414" lat="39.607968"><ele>91.6</ele></trkpt>
   <trkpt lon="-9.066346" lat="39.607952"><ele>90.7</ele></trkpt>
   <trkpt lon="-9.066261" lat="39.607924"><ele>89.7</ele><sym>right_slight</sym></trkpt>
   <trkpt lon="-9.066212" lat="39.607875"><ele>88.7</ele></trkpt>
   <trkpt lon="-9.066080" lat="39.607740"><ele>87.7</ele></trkpt>
   <trkpt lon="-9.066030" lat="39.607690"><ele>86.8</ele><sym>roundabout_e1</sym></trkpt>
   <trkpt lon="-9.066013" lat="39.607632"><ele>85.9</ele></trkpt>
   <trkpt lon="-9.066000" lat="39.607558"><ele>84.9</ele></trkpt>
   <trkpt lon="-9.066000" lat="39.607499"><ele>83.8</ele></trkpt>
   <trkpt lon="-9.066032" lat="39.607372"><ele>82.7</ele></trkpt>
   <trkpt lon="-9.066171" lat="39.607051"><ele>81.2</ele></trkpt>
   <trkpt lon="-9.066257" lat="39.606853"><ele>79.7</ele></trkpt>
   <trkpt lon="-9.066303" lat="39.606723"><ele>77.7</ele></trkpt>
   <trkpt lon="-9.066381" lat="39.606445"><ele>75.6</ele></trkpt>
   <trkpt lon="-9.066403" lat="39.606275"><ele>73.5</ele></trkpt>
   <trkpt lon="-9.066599" lat="39.605386"><ele>71.3</ele></trkpt>
   <trkpt lon="-9.066632" lat="39.605235"><ele>69.0</ele></trkpt>
   <trkpt lon="-9.066730" lat="39.604791"><ele>66.9</ele></trkpt>
   <trkpt lon="-9.066789" lat="39.604526"><ele>64.7</ele></trkpt>
   <trkpt lon="-9.066812" lat="39.604410"><ele>62.7</ele></trkpt>
   <trkpt lon="-9.066865" lat="39.604279"><ele>60.7</ele></trkpt>
   <trkpt lon="-9.066902" lat="39.604227"><ele>59.3</ele></trkpt>
   <trkpt lon="-9.067005" lat="39.604108"><ele>57.8</ele></trkpt>
   <trkpt lon="-9.067231" lat="39.603945"><ele>56.9</ele></trkpt>
   <trkpt lon="-9.067372" lat="39.603861"><ele>56.1</ele></trkpt>
   <trkpt lon="-9.067464" lat="39.603798"><ele>55.3</ele><sym>roundabout_e1</sym></trkpt>
   <trkpt lon="-9.067491" lat="39.603783"><ele>54.7</ele></trkpt>
   <trkpt lon="-9.067731" lat="39.603767"><ele>54.0</ele><sym>right_slight</sym></trkpt>
   <trkpt lon="-9.067977" lat="39.603850"><ele>53.2</ele><sym>left_slight</sym></trkpt>
   <trkpt lon="-9.068039" lat="39.603865"><ele>52.4</ele></trkpt>
   <trkpt lon="-9.068139" lat="39.603874"><ele>51.6</ele></trkpt>
   <trkpt lon="-9.068211" lat="39.603869"><ele>50.7</ele></trkpt>
   <trkpt lon="-9.068304" lat="39.603849"><ele>49.8</ele></trkpt>
   <trkpt lon="-9.068389" lat="39.603812"><ele>49.0</ele></trkpt>
   <trkpt lon="-9.068485" lat="39.603753"><ele>48.3</ele></trkpt>
   <trkpt lon="-9.068574" lat="39.603695"><ele>47.5</ele></trkpt>
   <trkpt lon="-9.068721" lat="39.603599"><ele>46.6</ele></trkpt>
   <trkpt lon="-9.068768" lat="39.603569"><ele>45.8</ele></trkpt>
   <trkpt lon="-9.068802" lat="39.603533"><ele>44.9</ele></trkpt>
   <trkpt lon="-9.068820" lat="39.603488"><ele>43.9</ele></trkpt>
   <trkpt lon="-9.068815" lat="39.603434"><ele>43.0</ele></trkpt>
   <trkpt lon="-9.068788" lat="39.603383"><ele>42.1</ele></trkpt>
   <trkpt lon="-9.068754" lat="39.603340"><ele>41.4</ele></trkpt>
   <trkpt lon="-9.068614" lat="39.603207"><ele>40.6</ele></trkpt>
   <trkpt lon="-9.068586" lat="39.603076"><ele>39.6</ele></trkpt>
   <trkpt lon="-9.068605" lat="39.602888"><ele>38.7</ele><sym>straight</sym></trkpt>
   <trkpt lon="-9.068595" lat="39.602808"><ele>37.6</ele></trkpt>
   <trkpt lon="-9.068596" lat="39.602621"><ele>36.4</ele></trkpt>
   <trkpt lon="-9.068596" lat="39.602599"><ele>35.9</ele></trkpt>
   <trkpt lon="-9.068642" lat="39.602272"><ele>34.6</ele></trkpt>
   <trkpt lon="-9.068662" lat="39.602178"><ele>33.4</ele></trkpt>
   <trkpt lon="-9.068701" lat="39.602064"><ele>32.2</ele></trkpt>
   <trkpt lon="-9.068742" lat="39.601948"><ele>31.1</ele></trkpt>
   <trkpt lon="-9.068788" lat="39.601866"><ele>29.9</ele></trkpt>
   <trkpt lon="-9.068970" lat="39.601591"><ele>28.7</ele></trkpt>
   <trkpt lon="-9.069056" lat="39.601462"><ele>27.6</ele><sym>right_slight</sym></trkpt>
   <trkpt lon="-9.069095" lat="39.601451"><ele>26.8</ele></trkpt>
   <trkpt lon="-9.069149" lat="39.601447"><ele>25.8</ele></trkpt>
   <trkpt lon="-9.069738" lat="39.601429"><ele>24.7</ele></trkpt>
   <trkpt lon="-9.069826" lat="39.601429"><ele>23.8</ele><sym>straight</sym></trkpt>
   <trkpt lon="-9.069927" lat="39.601422"><ele>23.2</ele></trkpt>
   <trkpt lon="-9.070406" lat="39.601393"><ele>22.5</ele><sym>right</sym></trkpt>
   <trkpt lon="-9.070373" lat="39.601570"><ele>22.5</ele></trkpt>
   <trkpt lon="-9.070302" lat="39.601904"><ele>22.2</ele><sym>right</sym></trkpt>
   <trkpt lon="-9.070213" lat="39.601895"><ele>22.3</ele></trkpt>
   <trkpt lon="-9.070099" lat="39.601918"><ele>22.6</ele><sym>left_sharp</sym></trkpt>
   <trkpt lon="-9.070164" lat="39.601977"><ele>22.8</ele><sym>right</sym></trkpt>
   <trkpt lon="-9.069616" lat="39.602329"><ele>23.0</ele><sym>left_sharp</sym></trkpt>
   <trkpt lon="-9.070018" lat="39.602249"><ele>22.7</ele><sym>right</sym></trkpt>
   <trkpt lon="-9.070131" lat="39.602543"><ele>22.5</ele></trkpt>
   <trkpt lon="-9.070214" lat="39.602650"><ele>22.3</ele><sym>u-turn</sym><type>Via</type></trkpt>
   <trkpt lon="-9.070131" lat="39.602543"><ele>22.1</ele></trkpt>
   <trkpt lon="-9.070018" lat="39.602249"><ele>21.9</ele><sym>right</sym></trkpt>
   <trkpt lon="-9.071074" lat="39.602049"><ele>21.2</ele></trkpt>
   <trkpt lon="-9.071166" lat="39.602034"><ele>20.9</ele><sym>left</sym></trkpt>
   <trkpt lon="-9.071168" lat="39.601732"><ele>20.3</ele><sym>left</sym></trkpt>
   <trkpt lon="-9.071103" lat="39.601737"><ele>19.6</ele></trkpt>
   <trkpt lon="-9.070605" lat="39.601862"><ele>19.1</ele></trkpt>
   <trkpt lon="-9.070464" lat="39.601893"><ele>19.0</ele><sym>right_slight</sym></trkpt>
   <trkpt lon="-9.070302" lat="39.601904"><ele>19.4</ele></trkpt>
   <trkpt lon="-9.070213" lat="39.601895"><ele>19.9</ele><sym>right_slight</sym></trkpt>
   <trkpt lon="-9.070118" lat="39.601865"><ele>20.5</ele></trkpt>
   <trkpt lon="-9.070087" lat="39.601847"><ele>21.1</ele></trkpt>
   <trkpt lon="-9.069937" lat="39.601744"><ele>21.6</ele></trkpt>
   <trkpt lon="-9.069900" lat="39.601700"><ele>22.1</ele></trkpt>
   <trkpt lon="-9.069864" lat="39.601647"><ele>22.6</ele></trkpt>
   <trkpt lon="-9.069837" lat="39.601491"><ele>22.9</ele></trkpt>
   <trkpt lon="-9.069826" lat="39.601429"><ele>23.1</ele></trkpt>
   <trkpt lon="-9.069805" lat="39.601279"><ele>23.4</ele></trkpt>
   <trkpt lon="-9.069783" lat="39.601151"><ele>23.4</ele></trkpt>
   <trkpt lon="-9.069763" lat="39.601036"><ele>23.4</ele></trkpt>
   <trkpt lon="-9.069744" lat="39.600923"><ele>23.3</ele></trkpt>
   <trkpt lon="-9.069728" lat="39.600802"><ele>23.1</ele></trkpt>
   <trkpt lon="-9.069718" lat="39.600770"><ele>22.8</ele></trkpt>
   <trkpt lon="-9.069698" lat="39.600653"><ele>22.6</ele></trkpt>
   <trkpt lon="-9.069685" lat="39.600557"><ele>22.5</ele></trkpt>
   <trkpt lon="-9.069664" lat="39.600408"><ele>22.5</ele></trkpt>
   <trkpt lon="-9.069650" lat="39.600361"><ele>22.4</ele></trkpt>
   <trkpt lon="-9.069620" lat="39.600305"><ele>22.4</ele></trkpt>
   <trkpt lon="-9.069507" lat="39.600097"><ele>22.4</ele></trkpt>
   <trkpt lon="-9.069481" lat="39.600050"><ele>22.4</ele></trkpt>
   <trkpt lon="-9.069433" lat="39.600000"><ele>22.6</ele></trkpt>
   <trkpt lon="-9.069377" lat="39.599968"><ele>23.0</ele></trkpt>
   <trkpt lon="-9.069297" lat="39.599937"><ele>23.4</ele></trkpt>
   <trkpt lon="-9.069214" lat="39.599929"><ele>23.9</ele></trkpt>
   <trkpt lon="-9.069130" lat="39.599929"><ele>24.3</ele></trkpt>
   <trkpt lon="-9.069043" lat="39.599943"><ele>24.6</ele></trkpt>
   <trkpt lon="-9.068850" lat="39.600012"><ele>25.0</ele><sym>straight</sym></trkpt>
   <trkpt lon="-9.068730" lat="39.600048"><ele>25.3</ele></trkpt>
   <trkpt lon="-9.068642" lat="39.600062"><ele>25.8</ele></trkpt>
   <trkpt lon="-9.068579" lat="39.600063"><ele>26.3</ele></trkpt>
   <trkpt lon="-9.068528" lat="39.600058"><ele>26.7</ele></trkpt>
   <trkpt lon="-9.068443" lat="39.600048"><ele>27.2</ele><sym>right_slight</sym></trkpt>
   <trkpt lon="-9.068083" lat="39.599880"><ele>27.4</ele></trkpt>
   <trkpt lon="-9.067860" lat="39.599783"><ele>27.6</ele></trkpt>
   <trkpt lon="-9.067750" lat="39.599721"><ele>27.8</ele></trkpt>
   <trkpt lon="-9.067528" lat="39.599560"><ele>27.8</ele></trkpt>
   <trkpt lon="-9.067454" lat="39.599507"><ele>27.9</ele></trkpt>
   <trkpt lon="-9.067260" lat="39.599357"><ele>27.8</ele></trkpt>
   <trkpt lon="-9.067236" lat="39.599338"><ele>27.8</ele></trkpt>
   <trkpt lon="-9.067151" lat="39.599261"><ele>27.8</ele></trkpt>
   <trkpt lon="-9.067070" lat="39.599179"><ele>27.8</ele></trkpt>
   <trkpt lon="-9.066992" lat="39.599085"><ele>27.7</ele></trkpt>
   <trkpt lon="-9.066937" lat="39.599006"><ele>27.5</ele></trkpt>
   <trkpt lon="-9.066889" lat="39.598924"><ele>26.9</ele></trkpt>
   <trkpt lon="-9.066846" lat="39.598827"><ele>26.3</ele></trkpt>
   <trkpt lon="-9.066819" lat="39.598743"><ele>25.8</ele></trkpt>
   <trkpt lon="-9.066803" lat="39.598654"><ele>25.4</ele></trkpt>
   <trkpt lon="-9.066799" lat="39.598560"><ele>24.9</ele></trkpt>
   <trkpt lon="-9.066846" lat="39.598141"><ele>24.3</ele></trkpt>
   <trkpt lon="-9.066850" lat="39.598031"><ele>23.5</ele></trkpt>
   <trkpt lon="-9.066816" lat="39.597676"><ele>22.4</ele></trkpt>
   <trkpt lon="-9.066813" lat="39.597436"><ele>21.0</ele></trkpt>
   <trkpt lon="-9.066830" lat="39.597339"><ele>19.5</ele></trkpt>
   <trkpt lon="-9.066916" lat="39.596987"><ele>18.0</ele></trkpt>
   <trkpt lon="-9.066955" lat="39.596680"><ele>16.9</ele></trkpt>
   <trkpt lon="-9.067028" lat="39.596515"><ele>15.7</ele></trkpt>
   <trkpt lon="-9.067063" lat="39.596461"><ele>14.4</ele></trkpt>
   <trkpt lon="-9.067110" lat="39.596393"><ele>13.2</ele><sym>roundabout_e2</sym></trkpt>
   <trkpt lon="-9.067146" lat="39.596372"><ele>12.3</ele></trkpt>
   <trkpt lon="-9.067171" lat="39.596347"><ele>11.5</ele></trkpt>
   <trkpt lon="-9.067191" lat="39.596313"><ele>10.7</ele></trkpt>
   <trkpt lon="-9.067206" lat="39.596232"><ele>10.3</ele></trkpt>
   <trkpt lon="-9.067195" lat="39.596155"><ele>10.0</ele></trkpt>
   <trkpt lon="-9.067179" lat="39.596119"><ele>10.1</ele></trkpt>
   <trkpt lon="-9.067152" lat="39.596081"><ele>10.1</ele></trkpt>
   <trkpt lon="-9.067115" lat="39.596052"><ele>10.0</ele></trkpt>
   <trkpt lon="-9.067038" lat="39.595980"><ele>10.1</ele></trkpt>
   <trkpt lon="-9.066955" lat="39.595868"><ele>10.2</ele></trkpt>
   <trkpt lon="-9.066911" lat="39.595780"><ele>10.2</ele><sym>right_slight</sym></trkpt>
   <trkpt lon="-9.066921" lat="39.595505"><ele>9.9</ele></trkpt>
   <trkpt lon="-9.066968" lat="39.595252"><ele>9.6</ele></trkpt>
   <trkpt lon="-9.067007" lat="39.595114"><ele>9.1</ele></trkpt>
   <trkpt lon="-9.067292" lat="39.594149"><ele>8.8</ele></trkpt>
   <trkpt lon="-9.067298" lat="39.594131"><ele>8.3</ele></trkpt>
   <trkpt lon="-9.067430" lat="39.593586"><ele>7.6</ele></trkpt>
   <trkpt lon="-9.067659" lat="39.592772"><ele>6.6</ele></trkpt>
   <trkpt lon="-9.067762" lat="39.592476"><ele>5.7</ele></trkpt>
   <trkpt lon="-9.067867" lat="39.592272"><ele>4.9</ele></trkpt>
   <trkpt lon="-9.067952" lat="39.592132"><ele>4.0</ele></trkpt>
   <trkpt lon="-9.068269" lat="39.591693"><ele>3.0</ele></trkpt>
   <trkpt lon="-9.068870" lat="39.590874"><ele>2.3</ele></trkpt>
   <trkpt lon="-9.068975" lat="39.590735"><ele>1.6</ele></trkpt>
   <trkpt lon="-9.069434" lat="39.590116"><ele>1.2</ele></trkpt>
   <trkpt lon="-9.070389" lat="39.588829"><ele>0.7</ele></trkpt>
   <trkpt lon="-9.070666" lat="39.588402"><ele>-0.0</ele></trkpt>
   <trkpt lon="-9.070737" lat="39.588266"><ele>-0.6</ele></trkpt>
   <trkpt lon="-9.070848" lat="39.588015"><ele>-0.7</ele></trkpt>
   <trkpt lon="-9.070923" lat="39.587792"><ele>-0.8</ele></trkpt>
   <trkpt lon="-9.070984" lat="39.587511"><ele>-1.1</ele></trkpt>
   <trkpt lon="-9.071028" lat="39.587195"><ele>-1.2</ele><sym>right_slight</sym></trkpt>
   <trkpt lon="-9.071082" lat="39.587119"><ele>-1.2</ele></trkpt>
   <trkpt lon="-9.071116" lat="39.587085"><ele>-1.2</ele></trkpt>
   <trkpt lon="-9.071199" lat="39.587027"><ele>-1.2</ele></trkpt>
   <trkpt lon="-9.071259" lat="39.586995"><ele>-1.4</ele><sym>roundabout_e2</sym></trkpt>
   <trkpt lon="-9.071336" lat="39.586977"><ele>-1.7</ele></trkpt>
   <trkpt lon="-9.071370" lat="39.586960"><ele>-1.8</ele></trkpt>
   <trkpt lon="-9.071389" lat="39.586946"><ele>-1.9</ele></trkpt>
   <trkpt lon="-9.071434" lat="39.586891"><ele>-2.0</ele></trkpt>
   <trkpt lon="-9.071445" lat="39.586860"><ele>-2.0</ele></trkpt>
   <trkpt lon="-9.071441" lat="39.586795"><ele>-2.0</ele></trkpt>
   <trkpt lon="-9.071405" lat="39.586737"><ele>-1.6</ele></trkpt>
   <trkpt lon="-9.071369" lat="39.586708"><ele>-1.1</ele></trkpt>
   <trkpt lon="-9.071325" lat="39.586687"><ele>-0.9</ele></trkpt>
   <trkpt lon="-9.071275" lat="39.586675"><ele>-0.7</ele></trkpt>
   <trkpt lon="-9.071113" lat="39.586533"><ele>-0.5</ele></trkpt>
   <trkpt lon="-9.070968" lat="39.586349"><ele>-0.3</ele></trkpt>
   <trkpt lon="-9.070934" lat="39.586135"><ele>-0.2</ele></trkpt>
   <trkpt lon="-9.070832" lat="39.585409"><ele>0.3</ele></trkpt>
   <trkpt lon="-9.070824" lat="39.585340"><ele>1.0</ele></trkpt>
   <trkpt lon="-9.070825" lat="39.585165"><ele>1.8</ele></trkpt>
   <trkpt lon="-9.070862" lat="39.584964"><ele>2.1</ele></trkpt>
   <trkpt lon="-9.070895" lat="39.584862"><ele>2.2</ele></trkpt>
   <trkpt lon="-9.071752" lat="39.582643"><ele>2.0</ele></trkpt>
   <trkpt lon="-9.072027" lat="39.581907"><ele>2.0</ele></trkpt>
   <trkpt lon="-9.072177" lat="39.581599"><ele>2.1</ele></trkpt>
   <trkpt lon="-9.072553" lat="39.580980"><ele>2.3</ele></trkpt>
   <trkpt lon="-9.072652" lat="39.580848"><ele>2.5</ele><sym>right_slight</sym></trkpt>
   <trkpt lon="-9.072734" lat="39.580818"><ele>2.6</ele></trkpt>
   <trkpt lon="-9.072791" lat="39.580802"><ele>2.4</ele></trkpt>
   <trkpt lon="-9.072844" lat="39.580792"><ele>1.9</ele></trkpt>
   <trkpt lon="-9.072900" lat="39.580784"><ele>1.4</ele><sym>roundabout_e2</sym></trkpt>
   <trkpt lon="-9.072940" lat="39.580800"><ele>1.2</ele></trkpt>
   <trkpt lon="-9.073025" lat="39.580811"><ele>1.1</ele></trkpt>
   <trkpt lon="-9.073068" lat="39.580807"><ele>1.1</ele></trkpt>
   <trkpt lon="-9.073146" lat="39.580781"><ele>1.1</ele></trkpt>
   <trkpt lon="-9.073207" lat="39.580732"><ele>1.2</ele></trkpt>
   <trkpt lon="-9.073238" lat="39.580671"><ele>1.4</ele></trkpt>
   <trkpt lon="-9.073236" lat="39.580603"><ele>1.8</ele></trkpt>
   <trkpt lon="-9.073223" lat="39.580572"><ele>1.9</ele></trkpt>
   <trkpt lon="-9.073202" lat="39.580543"><ele>2.0</ele></trkpt>
   <trkpt lon="-9.073139" lat="39.580496"><ele>2.1</ele></trkpt>
   <trkpt lon="-9.073079" lat="39.580330"><ele>2.1</ele></trkpt>
   <trkpt lon="-9.073069" lat="39.580138"><ele>2.1</ele><sym>right_slight</sym></trkpt>
   <trkpt lon="-9.073528" lat="39.579397"><ele>1.9</ele></trkpt>
   <trkpt lon="-9.073622" lat="39.579254"><ele>1.7</ele></trkpt>
   <trkpt lon="-9.073891" lat="39.578811"><ele>1.4</ele></trkpt>
   <trkpt lon="-9.073979" lat="39.578629"><ele>1.1</ele></trkpt>
   <trkpt lon="-9.074043" lat="39.578443"><ele>0.7</ele></trkpt>
   <trkpt lon="-9.074080" lat="39.578261"><ele>0.3</ele></trkpt>
   <trkpt lon="-9.074084" lat="39.578140"><ele>0.2</ele></trkpt>
   <trkpt lon="-9.074069" lat="39.578017"><ele>0.3</ele></trkpt>
   <trkpt lon="-9.074035" lat="39.577904"><ele>0.6</ele></trkpt>
   <trkpt lon="-9.074009" lat="39.577870"><ele>1.0</ele></trkpt>
   <trkpt lon="-9.073951" lat="39.577795"><ele>1.5</ele></trkpt>
   <trkpt lon="-9.073842" lat="39.577709"><ele>2.2</ele></trkpt>
   <trkpt lon="-9.073726" lat="39.577651"><ele>2.9</ele></trkpt>
   <trkpt lon="-9.073605" lat="39.577611"><ele>3.6</ele></trkpt>
   <trkpt lon="-9.073461" lat="39.577584"><ele>4.3</ele></trkpt>
   <trkpt lon="-9.073333" lat="39.577582"><ele>4.9</ele></trkpt>
   <trkpt lon="-9.073216" lat="39.577597"><ele>5.3</ele></trkpt>
   <trkpt lon="-9.072687" lat="39.577734"><ele>5.6</ele></trkpt>
   <trkpt lon="-9.072557" lat="39.577757"><ele>5.7</ele></trkpt>
   <trkpt lon="-9.072447" lat="39.577767"><ele>5.6</ele></trkpt>
   <trkpt lon="-9.072359" lat="39.577761"><ele>5.3</ele></trkpt>
   <trkpt lon="-9.072230" lat="39.577732"><ele>5.0</ele></trkpt>
   <trkpt lon="-9.072108" lat="39.577690"><ele>5.1</ele></trkpt>
   <trkpt lon="-9.072014" lat="39.577645"><ele>5.3</ele></trkpt>
   <trkpt lon="-9.071969" lat="39.577610"><ele>5.4</ele></trkpt>
   <trkpt lon="-9.071882" lat="39.577531"><ele>5.6</ele></trkpt>
   <trkpt lon="-9.071816" lat="39.577449"><ele>5.7</ele></trkpt>
   <trkpt lon="-9.071227" lat="39.576655"><ele>5.7</ele></trkpt>
   <trkpt lon="-9.071187" lat="39.576593"><ele>5.5</ele></trkpt>
   <trkpt lon="-9.071157" lat="39.576527"><ele>5.1</ele></trkpt>
   <trkpt lon="-9.071144" lat="39.576455"><ele>4.8</ele></trkpt>
   <trkpt lon="-9.071157" lat="39.576290"><ele>4.2</ele></trkpt>
   <trkpt lon="-9.071201" lat="39.576031"><ele>3.5</ele><sym>right_slight</sym></trkpt>
   <trkpt lon="-9.071251" lat="39.575930"><ele>2.5</ele></trkpt>
   <trkpt lon="-9.071287" lat="39.575798"><ele>1.5</ele></trkpt>
   <trkpt lon="-9.071301" lat="39.575703"><ele>0.4</ele></trkpt>
   <trkpt lon="-9.071492" lat="39.574965"><ele>-0.7</ele></trkpt>
   <trkpt lon="-9.071546" lat="39.574770"><ele>-1.6</ele></trkpt>
   <trkpt lon="-9.071570" lat="39.574682"><ele>-2.1</ele></trkpt>
   <trkpt lon="-9.071599" lat="39.574573"><ele>-2.4</ele></trkpt>
   <trkpt lon="-9.071673" lat="39.574266"><ele>-2.5</ele></trkpt>
   <trkpt lon="-9.071677" lat="39.574226"><ele>-2.4</ele></trkpt>
   <trkpt lon="-9.071671" lat="39.574175"><ele>-2.1</ele></trkpt>
   <trkpt lon="-9.071649" lat="39.574116"><ele>-1.7</ele></trkpt>
   <trkpt lon="-9.071565" lat="39.574011"><ele>-1.3</ele></trkpt>
   <trkpt lon="-9.071531" lat="39.573981"><ele>-0.9</ele><sym>left_slight</sym></trkpt>
   <trkpt lon="-9.071452" lat="39.573942"><ele>-0.4</ele></trkpt>
   <trkpt lon="-9.071279" lat="39.573900"><ele>0.3</ele></trkpt>
   <trkpt lon="-9.070670" lat="39.573806"><ele>0.9</ele></trkpt>
   <trkpt lon="-9.070558" lat="39.573783"><ele>1.4</ele></trkpt>
   <trkpt lon="-9.070462" lat="39.573753"><ele>1.4</ele></trkpt>
   <trkpt lon="-9.070378" lat="39.573714"><ele>1.4</ele></trkpt>
   <trkpt lon="-9.069888" lat="39.573399"><ele>1.3</ele></trkpt>
   <trkpt lon="-9.069760" lat="39.573331"><ele>1.3</ele></trkpt>
   <trkpt lon="-9.069492" lat="39.573215"><ele>1.3</ele></trkpt>
   <trkpt lon="-9.069002" lat="39.573072"><ele>1.3</ele></trkpt>
   <trkpt lon="-9.068734" lat="39.572961"><ele>1.1</ele></trkpt>
   <trkpt lon="-9.068659" lat="39.572915"><ele>0.6</ele></trkpt>
   <trkpt lon="-9.068610" lat="39.572861"><ele>-0.1</ele><sym>left_slight</sym></trkpt>
   <trkpt lon="-9.068358" lat="39.572635"><ele>-0.8</ele></trkpt>
   <trkpt lon="-9.068227" lat="39.572449"><ele>-1.3</ele></trkpt>
   <trkpt lon="-9.068146" lat="39.572435"><ele>-1.6</ele></trkpt>
   <trkpt lon="-9.067794" lat="39.572434"><ele>-1.8</ele></trkpt>
   <trkpt lon="-9.067736" lat="39.572443"><ele>-2.0</ele><sym>right</sym></trkpt>
   <trkpt lon="-9.067709" lat="39.572402"><ele>-2.4</ele></trkpt>
   <trkpt lon="-9.067705" lat="39.572217"><ele>-2.8</ele></trkpt>
   <trkpt lon="-9.067646" lat="39.571488"><ele>-3.2</ele></trkpt>
   <trkpt lon="-9.067600" lat="39.571026"><ele>-3.6</ele></trkpt>
   <trkpt lon="-9.067556" lat="39.570390"><ele>-3.6</ele></trkpt>
   <trkpt lon="-9.067539" lat="39.570075"><ele>-3.7</ele></trkpt>
   <trkpt lon="-9.067537" lat="39.569882"><ele>-3.6</ele></trkpt>
   <trkpt lon="-9.067556" lat="39.569691"><ele>-3.5</ele></trkpt>
   <trkpt lon="-9.067702" lat="39.568843"><ele>-3.2</ele></trkpt>
   <trkpt lon="-9.068076" lat="39.566776"><ele>-2.7</ele></trkpt>
   <trkpt lon="-9.068263" lat="39.565926"><ele>-2.6</ele><sym>right</sym></trkpt>
   <trkpt lon="-9.068542" lat="39.565961"><ele>-2.3</ele></trkpt>
   <trkpt lon="-9.068747" lat="39.566013"><ele>-2.0</ele></trkpt>
   <trkpt lon="-9.068871" lat="39.566066"><ele>-1.8</ele></trkpt>
   <trkpt lon="-9.068975" lat="39.566132"><ele>-1.5</ele><sym>left_sharp</sym></trkpt>
   <trkpt lon="-9.069280" lat="39.565242"><ele>-1.4</ele></trkpt>
   <trkpt lon="-9.069331" lat="39.565035"><ele>-1.3</ele></trkpt>
   <trkpt lon="-9.069362" lat="39.564875"><ele>-1.1</ele></trkpt>
   <trkpt lon="-9.069375" lat="39.564727"><ele>-1.0</ele></trkpt>
   <trkpt lon="-9.069369" lat="39.564577"><ele>-1.0</ele></trkpt>
   <trkpt lon="-9.069347" lat="39.564408"><ele>-1.0</ele></trkpt>
   <trkpt lon="-9.069303" lat="39.564208"><ele>-0.8</ele></trkpt>
   <trkpt lon="-9.069058" lat="39.563291"><ele>-0.6</ele></trkpt>
   <trkpt lon="-9.069016" lat="39.563135"><ele>-0.4</ele></trkpt>
   <trkpt lon="-9.068758" lat="39.562188"><ele>-0.1</ele></trkpt>
   <trkpt lon="-9.068727" lat="39.562059"><ele>0.4</ele></trkpt>
   <trkpt lon="-9.068684" lat="39.561901"><ele>1.0</ele></trkpt>
   <trkpt lon="-9.068654" lat="39.561787"><ele>1.5</ele></trkpt>
   <trkpt lon="-9.068621" lat="39.561537"><ele>2.0</ele></trkpt>
   <trkpt lon="-9.068617" lat="39.561397"><ele>2.5</ele></trkpt>
   <trkpt lon="-9.068623" lat="39.561211"><ele>3.0</ele></trkpt>
   <trkpt lon="-9.068626" lat="39.561132"><ele>3.5</ele></trkpt>
   <trkpt lon="-9.068663" lat="39.560302"><ele>4.3</ele></trkpt>
   <trkpt lon="-9.068672" lat="39.560208"><ele>5.1</ele><sym>right</sym></trkpt>
   <trkpt lon="-9.068803" lat="39.560214"><ele>6.2</ele></trkpt>
   <trkpt lon="-9.068921" lat="39.560181"><ele>7.3</ele></trkpt>
   <trkpt lon="-9.069147" lat="39.560079"><ele>8.1</ele></trkpt>
   <trkpt lon="-9.069628" lat="39.559767"><ele>9.0</ele></trkpt>
   <trkpt lon="-9.070009" lat="39.559502"><ele>10.1</ele></trkpt>
   <trkpt lon="-9.070501" lat="39.559099"><ele>11.5</ele></trkpt>
   <trkpt lon="-9.071330" lat="39.558220"><ele>12.8</ele></trkpt>
   <trkpt lon="-9.072339" lat="39.557336"><ele>14.3</ele></trkpt>
   <trkpt lon="-9.072562" lat="39.557089"><ele>15.7</ele></trkpt>
   <trkpt lon="-9.072756" lat="39.556795"><ele>16.9</ele></trkpt>
   <trkpt lon="-9.073009" lat="39.556304"><ele>18.1</ele></trkpt>
   <trkpt lon="-9.073117" lat="39.556147"><ele>19.1</ele></trkpt>
   <trkpt lon="-9.073295" lat="39.555955"><ele>20.1</ele></trkpt>
   <trkpt lon="-9.073768" lat="39.555576"><ele>21.7</ele></trkpt>
   <trkpt lon="-9.073843" lat="39.555486"><ele>23.0</ele></trkpt>
   <trkpt lon="-9.073993" lat="39.555248"><ele>24.2</ele></trkpt>
   <trkpt lon="-9.074153" lat="39.555084"><ele>24.9</ele></trkpt>
   <trkpt lon="-9.074378" lat="39.554951"><ele>25.4</ele></trkpt>
   <trkpt lon="-9.074897" lat="39.554763"><ele>25.9</ele><sym>left_slight</sym></trkpt>
   <trkpt lon="-9.075003" lat="39.554675"><ele>26.3</ele></trkpt>
   <trkpt lon="-9.075070" lat="39.554551"><ele>26.7</ele></trkpt>
   <trkpt lon="-9.075228" lat="39.553955"><ele>27.0</ele></trkpt>
   <trkpt lon="-9.075327" lat="39.553763"><ele>27.2</ele></trkpt>
   <trkpt lon="-9.075668" lat="39.553455"><ele>27.1</ele></trkpt>
   <trkpt lon="-9.075893" lat="39.553181"><ele>26.8</ele></trkpt>
   <trkpt lon="-9.076047" lat="39.553064"><ele>26.2</ele></trkpt>
   <trkpt lon="-9.076107" lat="39.552980"><ele>25.6</ele></trkpt>
   <trkpt lon="-9.076155" lat="39.552842"><ele>25.2</ele><sym>right_slight</sym></trkpt>
   <trkpt lon="-9.076363" lat="39.552628"><ele>24.7</ele></trkpt>
   <trkpt lon="-9.076408" lat="39.552576"><ele>24.4</ele><sym>left_slight</sym></trkpt>
   <trkpt lon="-9.076596" lat="39.552128"><ele>24.0</ele></trkpt>
   <trkpt lon="-9.076768" lat="39.551845"><ele>23.8</ele></trkpt>
   <trkpt lon="-9.076806" lat="39.551727"><ele>23.7</ele></trkpt>
   <trkpt lon="-9.076797" lat="39.551604"><ele>23.6</ele></trkpt>
   <trkpt lon="-9.076628" lat="39.551102"><ele>23.5</ele><sym>straight</sym></trkpt>
   <trkpt lon="-9.076564" lat="39.550872"><ele>23.2</ele></trkpt>
   <trkpt lon="-9.076566" lat="39.550651"><ele>22.8</ele></trkpt>
   <trkpt lon="-9.076648" lat="39.550313"><ele>22.3</ele></trkpt>
   <trkpt lon="-9.076726" lat="39.549888"><ele>21.8</ele></trkpt>
   <trkpt lon="-9.076793" lat="39.549736"><ele>21.2</ele></trkpt>
   <trkpt lon="-9.077220" lat="39.549144"><ele>20.4</ele></trkpt>
   <trkpt lon="-9.077338" lat="39.548947"><ele>19.8</ele></trkpt>
   <trkpt lon="-9.077637" lat="39.548411"><ele>18.4</ele></trkpt>
   <trkpt lon="-9.077710" lat="39.548213"><ele>16.9</ele></trkpt>
   <trkpt lon="-9.077746" lat="39.548047"><ele>15.4</ele></trkpt>
   <trkpt lon="-9.077776" lat="39.547246"><ele>13.9</ele></trkpt>
   <trkpt lon="-9.077818" lat="39.546888"><ele>12.6</ele></trkpt>
   <trkpt lon="-9.077883" lat="39.546328"><ele>11.5</ele></trkpt>
   <trkpt lon="-9.077863" lat="39.546237"><ele>10.7</ele></trkpt>
   <trkpt lon="-9.077836" lat="39.546187"><ele>9.9</ele><sym>right</sym></trkpt>
   <trkpt lon="-9.077941" lat="39.546108"><ele>9.3</ele></trkpt>
   <trkpt lon="-9.078071" lat="39.545989"><ele>8.9</ele></trkpt>
   <trkpt lon="-9.078165" lat="39.545891"><ele>8.6</ele></trkpt>
   <trkpt lon="-9.079097" lat="39.544818"><ele>8.9</ele></trkpt>
   <trkpt lon="-9.079319" lat="39.544511"><ele>9.4</ele></trkpt>
   <trkpt lon="-9.079502" lat="39.544181"><ele>9.9</ele></trkpt>
   <trkpt lon="-9.080740" lat="39.541341"><ele>10.5</ele></trkpt>
   <trkpt lon="-9.080830" lat="39.541132"><ele>11.2</ele></trkpt>
   <trkpt lon="-9.080902" lat="39.540893"><ele>11.9</ele></trkpt>
   <trkpt lon="-9.080918" lat="39.540812"><ele>12.6</ele></trkpt>
   <trkpt lon="-9.080915" lat="39.540602"><ele>13.4</ele></trkpt>
   <trkpt lon="-9.080902" lat="39.540455"><ele>14.2</ele></trkpt>
   <trkpt lon="-9.080878" lat="39.540246"><ele>14.8</ele></trkpt>
   <trkpt lon="-9.080848" lat="39.540014"><ele>15.5</ele></trkpt>
   <trkpt lon="-9.080838" lat="39.539927"><ele>16.1</ele></trkpt>
   <trkpt lon="-9.080810" lat="39.539680"><ele>16.7</ele></trkpt>
   <trkpt lon="-9.080816" lat="39.539554"><ele>17.3</ele></trkpt>
   <trkpt lon="-9.080836" lat="39.539451"><ele>17.8</ele></trkpt>
   <trkpt lon="-9.081056" lat="39.538874"><ele>18.3</ele></trkpt>
   <trkpt lon="-9.081145" lat="39.538673"><ele>19.0</ele></trkpt>
   <trkpt lon="-9.081224" lat="39.538472"><ele>19.6</ele></trkpt>
   <trkpt lon="-9.081273" lat="39.538390"><ele>20.2</ele></trkpt>
   <trkpt lon="-9.081333" lat="39.538304"><ele>20.8</ele></trkpt>
   <trkpt lon="-9.081415" lat="39.538232"><ele>21.5</ele></trkpt>
   <trkpt lon="-9.081504" lat="39.538165"><ele>21.9</ele></trkpt>
   <trkpt lon="-9.081651" lat="39.538073"><ele>22.3</ele></trkpt>
   <trkpt lon="-9.081816" lat="39.537991"><ele>22.8</ele></trkpt>
   <trkpt lon="-9.082182" lat="39.537855"><ele>23.5</ele></trkpt>
   <trkpt lon="-9.082295" lat="39.537799"><ele>24.2</ele></trkpt>
   <trkpt lon="-9.082387" lat="39.537722"><ele>24.9</ele></trkpt>
   <trkpt lon="-9.082448" lat="39.537631"><ele>25.6</ele></trkpt>
   <trkpt lon="-9.082549" lat="39.537329"><ele>26.3</ele></trkpt>
   <trkpt lon="-9.082655" lat="39.537015"><ele>26.9</ele></trkpt>
   <trkpt lon="-9.082694" lat="39.536965"><ele>27.4</ele></trkpt>
   <trkpt lon="-9.082733" lat="39.536915"><ele>27.9</ele></trkpt>
   <trkpt lon="-9.082756" lat="39.536885"><ele>28.2</ele><sym>right</sym></trkpt>
   <trkpt lon="-9.082984" lat="39.536896"><ele>28.5</ele><sym>pass_place</sym><type>Shaping</type></trkpt>
   <trkpt lon="-9.083267" lat="39.536911"><ele>28.8</ele><sym>left_sharp</sym></trkpt>
   <trkpt lon="-9.083035" lat="39.536610"><ele>28.9</ele><sym>right</sym></trkpt>
   <trkpt lon="-9.083141" lat="39.536503"><ele>29.0</ele></trkpt>
   <trkpt lon="-9.083456" lat="39.536169"><ele>29.1</ele></trkpt>
   <trkpt lon="-9.083631" lat="39.535975"><ele>29.2</ele></trkpt>
   <trkpt lon="-9.083751" lat="39.535849"><ele>29.2</ele></trkpt>
   <trkpt lon="-9.083793" lat="39.535779"><ele>29.2</ele></trkpt>
   <trkpt lon="-9.083822" lat="39.535709"><ele>29.3</ele></trkpt>
   <trkpt lon="-9.083858" lat="39.535574"><ele>29.5</ele></trkpt>
   <trkpt lon="-9.083894" lat="39.535473"><ele>29.8</ele></trkpt>
   <trkpt lon="-9.084025" lat="39.535220"><ele>30.0</ele></trkpt>
   <trkpt lon="-9.084099" lat="39.535088"><ele>30.3</ele></trkpt>
   <trkpt lon="-9.084334" lat="39.534677"><ele>30.5</ele></trkpt>
   <trkpt lon="-9.084420" lat="39.534532"><ele>30.8</ele></trkpt>
   <trkpt lon="-9.084835" lat="39.533810"><ele>31.0</ele></trkpt>
   <trkpt lon="-9.084870" lat="39.533751"><ele>31.2</ele></trkpt>
   <trkpt lon="-9.085097" lat="39.533333"><ele>31.3</ele></trkpt>
   <trkpt lon="-9.085133" lat="39.533270"><ele>31.5</ele></trkpt>
   <trkpt lon="-9.085184" lat="39.533201"><ele>31.7</ele></trkpt>
   <trkpt lon="-9.085245" lat="39.533151"><ele>31.9</ele></trkpt>
   <trkpt lon="-9.085367" lat="39.533039"><ele>32.0</ele></trkpt>
   <trkpt lon="-9.085505" lat="39.532944"><ele>32.1</ele></trkpt>
   <trkpt lon="-9.085662" lat="39.532854"><ele>32.2</ele></trkpt>
   <trkpt lon="-9.085862" lat="39.532759"><ele>32.3</ele></trkpt>
   <trkpt lon="-9.087166" lat="39.532198"><ele>32.4</ele></trkpt>
   <trkpt lon="-9.089211" lat="39.531324"><ele>32.6</ele></trkpt>
   <trkpt lon="-9.089479" lat="39.531222"><ele>32.8</ele></trkpt>
   <trkpt lon="-9.089680" lat="39.531156"><ele>33.3</ele></trkpt>
   <trkpt lon="-9.089881" lat="39.531089"><ele>33.3</ele></trkpt>
   <trkpt lon="-9.090200" lat="39.531006"><ele>34.3</ele></trkpt>
   <trkpt lon="-9.090491" lat="39.530942"><ele>35.3</ele></trkpt>
   <trkpt lon="-9.090798" lat="39.530896"><ele>36.1</ele></trkpt>
   <trkpt lon="-9.091544" lat="39.530810"><ele>36.7</ele></trkpt>
   <trkpt lon="-9.093278" lat="39.530667"><ele>37.2</ele></trkpt>
   <trkpt lon="-9.096370" lat="39.530413"><ele>36.9</ele></trkpt>
   <trkpt lon="-9.096584" lat="39.530376"><ele>36.4</ele></trkpt>
   <trkpt lon="-9.096812" lat="39.530301"><ele>35.9</ele></trkpt>
   <trkpt lon="-9.098341" lat="39.529635"><ele>35.2</ele></trkpt>
   <trkpt lon="-9.099398" lat="39.529171"><ele>33.8</ele></trkpt>
   <trkpt lon="-9.102748" lat="39.527706"><ele>32.8</ele></trkpt>
   <trkpt lon="-9.107096" lat="39.525802"><ele>30.5</ele></trkpt>
   <trkpt lon="-9.107535" lat="39.525610"><ele>28.2</ele></trkpt>
   <trkpt lon="-9.109110" lat="39.524920"><ele>26.1</ele></trkpt>
   <trkpt lon="-9.110304" lat="39.524398"><ele>24.3</ele></trkpt>
   <trkpt lon="-9.111416" lat="39.523906"><ele>22.7</ele></trkpt>
   <trkpt lon="-9.111907" lat="39.523687"><ele>21.5</ele></trkpt>
   <trkpt lon="-9.112011" lat="39.523644"><ele>20.5</ele></trkpt>
   <trkpt lon="-9.114228" lat="39.522661"><ele>19.5</ele></trkpt>
   <trkpt lon="-9.115936" lat="39.521924"><ele>18.6</ele></trkpt>
   <trkpt lon="-9.119118" lat="39.520542"><ele>18.2</ele></trkpt>
   <trkpt lon="-9.120258" lat="39.520043"><ele>17.8</ele></trkpt>
   <trkpt lon="-9.120784" lat="39.519795"><ele>17.6</ele></trkpt>
   <trkpt lon="-9.121099" lat="39.519614"><ele>17.4</ele><sym>right_slight</sym></trkpt>
   <trkpt lon="-9.121336" lat="39.519646"><ele>17.3</ele><sym>right_slight</sym></trkpt>
   <trkpt lon="-9.121365" lat="39.519679"><ele>17.2</ele></trkpt>
   <trkpt lon="-9.121440" lat="39.519737"><ele>17.2</ele><sym>right_slight</sym></trkpt>
   <trkpt lon="-9.121621" lat="39.520085"><ele>17.5</ele></trkpt>
   <trkpt lon="-9.121673" lat="39.520223"><ele>18.0</ele></trkpt>
   <trkpt lon="-9.121737" lat="39.520448"><ele>18.8</ele></trkpt>
   <trkpt lon="-9.121756" lat="39.520802"><ele>20.1</ele></trkpt>
   <trkpt lon="-9.121773" lat="39.520937"><ele>21.6</ele></trkpt>
   <trkpt lon="-9.121801" lat="39.521049"><ele>23.1</ele></trkpt>
   <trkpt lon="-9.121851" lat="39.521162"><ele>24.8</ele></trkpt>
   <trkpt lon="-9.122291" lat="39.521915"><ele>26.3</ele></trkpt>
   <trkpt lon="-9.122733" lat="39.522364"><ele>27.8</ele></trkpt>
   <trkpt lon="-9.122894" lat="39.522527"><ele>29.2</ele><sym>left</sym></trkpt>
   <trkpt lon="-9.123068" lat="39.522368"><ele>30.4</ele></trkpt>
   <trkpt lon="-9.123214" lat="39.522251"><ele>31.5</ele></trkpt>
   <trkpt lon="-9.123293" lat="39.522201"><ele>32.3</ele></trkpt>
   <trkpt lon="-9.123370" lat="39.522154"><ele>32.6</ele></trkpt>
   <trkpt lon="-9.123738" lat="39.521957"><ele>32.4</ele></trkpt>
   <trkpt lon="-9.124043" lat="39.521794"><ele>32.0</ele></trkpt>
   <trkpt lon="-9.124133" lat="39.521739"><ele>31.8</ele></trkpt>
   <trkpt lon="-9.124437" lat="39.521488"><ele>31.6</ele></trkpt>
   <trkpt lon="-9.124534" lat="39.521411"><ele>31.5</ele></trkpt>
   <trkpt lon="-9.124877" lat="39.521105"><ele>31.4</ele></trkpt>
   <trkpt lon="-9.125179" lat="39.520906"><ele>31.2</ele></trkpt>
   <trkpt lon="-9.126475" lat="39.520349"><ele>31.2</ele></trkpt>
   <trkpt lon="-9.127145" lat="39.520062"><ele>31.2</ele></trkpt>
   <trkpt lon="-9.127526" lat="39.519856"><ele>31.3</ele></trkpt>
   <trkpt lon="-9.127704" lat="39.519713"><ele>31.3</ele></trkpt>
   <trkpt lon="-9.127776" lat="39.519656"><ele>31.1</ele></trkpt>
   <trkpt lon="-9.128169" lat="39.519082"><ele>30.8</ele></trkpt>
   <trkpt lon="-9.128285" lat="39.518947"><ele>30.4</ele></trkpt>
   <trkpt lon="-9.128490" lat="39.518751"><ele>29.7</ele></trkpt>
   <trkpt lon="-9.129015" lat="39.518271"><ele>28.8</ele></trkpt>
   <trkpt lon="-9.129693" lat="39.517736"><ele>27.9</ele></trkpt>
   <trkpt lon="-9.130377" lat="39.517376"><ele>27.1</ele></trkpt>
   <trkpt lon="-9.130509" lat="39.517304"><ele>26.1</ele></trkpt>
   <trkpt lon="-9.130882" lat="39.517047"><ele>25.2</ele></trkpt>
   <trkpt lon="-9.131088" lat="39.516959"><ele>24.3</ele></trkpt>
   <trkpt lon="-9.131594" lat="39.516685"><ele>23.5</ele></trkpt>
   <trkpt lon="-9.131813" lat="39.516558"><ele>23.0</ele></trkpt>
   <trkpt lon="-9.132058" lat="39.516330"><ele>22.6</ele></trkpt>
   <trkpt lon="-9.132177" lat="39.516186"><ele>22.2</ele></trkpt>
   <trkpt lon="-9.132243" lat="39.516116"><ele>21.9</ele></trkpt>
   <trkpt lon="-9.132346" lat="39.516044"><ele>21.7</ele></trkpt>
   <trkpt lon="-9.132403" lat="39.516021"><ele>21.7</ele><sym>left</sym></trkpt>
   <trkpt lon="-9.132349" lat="39.515937"><ele>21.7</ele><sym>right</sym></trkpt>
   <trkpt lon="-9.132395" lat="39.515926"><ele>21.7</ele></trkpt>
   <trkpt lon="-9.132452" lat="39.515899"><ele>21.8</ele></trkpt>
   <trkpt lon="-9.132508" lat="39.515840"><ele>21.8</ele></trkpt>
   <trkpt lon="-9.132783" lat="39.515421"><ele>21.7</ele></trkpt>
   <trkpt lon="-9.133118" lat="39.515051"><ele>21.7</ele></trkpt>
   <trkpt lon="-9.133235" lat="39.514922"><ele>21.8</ele></trkpt>
   <trkpt lon="-9.133288" lat="39.514862"><ele>21.9</ele></trkpt>
   <trkpt lon="-9.133562" lat="39.514559"><ele>22.0</ele></trkpt>
   <trkpt lon="-9.133651" lat="39.514443"><ele>22.1</ele><sym>left</sym></trkpt>
   <trkpt lon="-9.133477" lat="39.514357"><ele>22.0</ele><sym>right</sym></trkpt>
   <trkpt lon="-9.133618" lat="39.514200"><ele>21.9</ele></trkpt>
   <trkpt lon="-9.133650" lat="39.514103"><ele>21.8</ele></trkpt>
   <trkpt lon="-9.133575" lat="39.514032"><ele>21.3</ele></trkpt>
   <trkpt lon="-9.133499" lat="39.513896"><ele>20.8</ele></trkpt>
   <trkpt lon="-9.133507" lat="39.513806"><ele>20.4</ele></trkpt>
   <trkpt lon="-9.133503" lat="39.513731"><ele>20.3</ele></trkpt>
   <trkpt lon="-9.133465" lat="39.513661"><ele>20.2</ele></trkpt>
   <trkpt lon="-9.133433" lat="39.513504"><ele>20.1</ele><sym>right</sym></trkpt>
   <trkpt lon="-9.133519" lat="39.513454"><ele>20.2</ele><sym>u-turn</sym><type>Via</type></trkpt>
   <trkpt lon="-9.133433" lat="39.513504"><ele>20.1</ele><sym>left_slight</sym></trkpt>
   <trkpt lon="-9.133465" lat="39.513661"><ele>20.2</ele></trkpt>
   <trkpt lon="-9.133503" lat="39.513731"><ele>20.3</ele><sym>right_slight</sym></trkpt>
   <trkpt lon="-9.133507" lat="39.513806"><ele>20.4</ele></trkpt>
   <trkpt lon="-9.133499" lat="39.513896"><ele>20.8</ele></trkpt>
   <trkpt lon="-9.133575" lat="39.514032"><ele>21.3</ele></trkpt>
   <trkpt lon="-9.133650" lat="39.514103"><ele>21.8</ele></trkpt>
   <trkpt lon="-9.133618" lat="39.514200"><ele>21.9</ele></trkpt>
   <trkpt lon="-9.133477" lat="39.514357"><ele>22.0</ele><sym>left</sym></trkpt>
   <trkpt lon="-9.133651" lat="39.514443"><ele>22.1</ele><sym>right</sym></trkpt>
   <trkpt lon="-9.133562" lat="39.514559"><ele>22.0</ele></trkpt>
   <trkpt lon="-9.133288" lat="39.514862"><ele>21.9</ele></trkpt>
   <trkpt lon="-9.133235" lat="39.514922"><ele>21.8</ele></trkpt>
   <trkpt lon="-9.133118" lat="39.515051"><ele>21.7</ele></trkpt>
   <trkpt lon="-9.132783" lat="39.515421"><ele>21.7</ele></trkpt>
   <trkpt lon="-9.132508" lat="39.515840"><ele>21.8</ele></trkpt>
   <trkpt lon="-9.132452" lat="39.515899"><ele>21.8</ele></trkpt>
   <trkpt lon="-9.132395" lat="39.515926"><ele>21.7</ele></trkpt>
   <trkpt lon="-9.132349" lat="39.515937"><ele>21.7</ele><sym>left</sym></trkpt>
   <trkpt lon="-9.132403" lat="39.516021"><ele>21.7</ele><sym>right</sym></trkpt>
   <trkpt lon="-9.132346" lat="39.516044"><ele>21.7</ele></trkpt>
   <trkpt lon="-9.132243" lat="39.516116"><ele>21.9</ele></trkpt>
   <trkpt lon="-9.132177" lat="39.516186"><ele>22.2</ele></trkpt>
   <trkpt lon="-9.132058" lat="39.516330"><ele>22.6</ele></trkpt>
   <trkpt lon="-9.131813" lat="39.516558"><ele>23.0</ele></trkpt>
   <trkpt lon="-9.131594" lat="39.516685"><ele>23.5</ele></trkpt>
   <trkpt lon="-9.131088" lat="39.516959"><ele>24.3</ele></trkpt>
   <trkpt lon="-9.130882" lat="39.517047"><ele>25.2</ele></trkpt>
   <trkpt lon="-9.130509" lat="39.517304"><ele>26.1</ele></trkpt>
   <trkpt lon="-9.130377" lat="39.517376"><ele>27.1</ele></trkpt>
   <trkpt lon="-9.129693" lat="39.517736"><ele>27.9</ele></trkpt>
   <trkpt lon="-9.129015" lat="39.518271"><ele>28.8</ele></trkpt>
   <trkpt lon="-9.128490" lat="39.518751"><ele>29.7</ele></trkpt>
   <trkpt lon="-9.128285" lat="39.518947"><ele>30.4</ele></trkpt>
   <trkpt lon="-9.128169" lat="39.519082"><ele>30.8</ele></trkpt>
   <trkpt lon="-9.127776" lat="39.519656"><ele>31.1</ele></trkpt>
   <trkpt lon="-9.127704" lat="39.519713"><ele>31.3</ele></trkpt>
   <trkpt lon="-9.127526" lat="39.519856"><ele>31.3</ele></trkpt>
   <trkpt lon="-9.127145" lat="39.520062"><ele>31.1</ele></trkpt>
   <trkpt lon="-9.126475" lat="39.520349"><ele>30.9</ele></trkpt>
   <trkpt lon="-9.125179" lat="39.520906"><ele>30.5</ele></trkpt>
   <trkpt lon="-9.124877" lat="39.521105"><ele>30.2</ele></trkpt>
   <trkpt lon="-9.124534" lat="39.521411"><ele>29.8</ele><sym>right</sym></trkpt>
   <trkpt lon="-9.124412" lat="39.521323"><ele>29.4</ele></trkpt>
   <trkpt lon="-9.124317" lat="39.521265"><ele>29.0</ele></trkpt>
   <trkpt lon="-9.123946" lat="39.520887"><ele>28.7</ele><sym>roundabout_e2</sym></trkpt>
   <trkpt lon="-9.123984" lat="39.520842"><ele>28.5</ele></trkpt>
   <trkpt lon="-9.123991" lat="39.520815"><ele>28.4</ele></trkpt>
   <trkpt lon="-9.123990" lat="39.520788"><ele>28.2</ele></trkpt>
   <trkpt lon="-9.123962" lat="39.520739"><ele>27.9</ele></trkpt>
   <trkpt lon="-9.123907" lat="39.520706"><ele>26.8</ele></trkpt>
   <trkpt lon="-9.123873" lat="39.520698"><ele>26.1</ele></trkpt>
   <trkpt lon="-9.123838" lat="39.520697"><ele>25.4</ele></trkpt>
   <trkpt lon="-9.123773" lat="39.520715"><ele>24.4</ele></trkpt>
   <trkpt lon="-9.123584" lat="39.520508"><ele>23.4</ele></trkpt>
   <trkpt lon="-9.122277" lat="39.519215"><ele>22.5</ele></trkpt>
   <trkpt lon="-9.122207" lat="39.519046"><ele>21.6</ele><sym>left_slight</sym></trkpt>
   <trkpt lon="-9.122074" lat="39.518983"><ele>20.9</ele></trkpt>
   <trkpt lon="-9.121999" lat="39.518958"><ele>20.1</ele><sym>left_slight</sym></trkpt>
   <trkpt lon="-9.121810" lat="39.519113"><ele>19.1</ele></trkpt>
   <trkpt lon="-9.121707" lat="39.519192"><ele>18.2</ele></trkpt>
   <trkpt lon="-9.121605" lat="39.519271"><ele>18.1</ele></trkpt>
   <trkpt lon="-9.121417" lat="39.519401"><ele>18.4</ele></trkpt>
   <trkpt lon="-9.121287" lat="39.519495"><ele>18.6</ele></trkpt>
   <trkpt lon="-9.121099" lat="39.519614"><ele>18.9</ele><sym>stay_right</sym></trkpt>
   <trkpt lon="-9.120784" lat="39.519795"><ele>18.9</ele></trkpt>
   <trkpt lon="-9.120258" lat="39.520043"><ele>19.1</ele></trkpt>
   <trkpt lon="-9.119118" lat="39.520542"><ele>19.3</ele></trkpt>
   <trkpt lon="-9.115936" lat="39.521924"><ele>19.5</ele></trkpt>
   <trkpt lon="-9.114228" lat="39.522661"><ele>20.2</ele></trkpt>
   <trkpt lon="-9.112011" lat="39.523644"><ele>21.2</ele></trkpt>
   <trkpt lon="-9.111907" lat="39.523687"><ele>22.2</ele></trkpt>
   <trkpt lon="-9.111416" lat="39.523906"><ele>23.4</ele></trkpt>
   <trkpt lon="-9.110304" lat="39.524398"><ele>25.1</ele></trkpt>
   <trkpt lon="-9.109110" lat="39.524920"><ele>26.8</ele></trkpt>
   <trkpt lon="-9.107535" lat="39.525610"><ele>28.9</ele></trkpt>
   <trkpt lon="-9.107096" lat="39.525802"><ele>31.2</ele></trkpt>
   <trkpt lon="-9.102748" lat="39.527706"><ele>33.5</ele></trkpt>
   <trkpt lon="-9.099398" lat="39.529171"><ele>34.5</ele></trkpt>
   <trkpt lon="-9.098341" lat="39.529635"><ele>35.9</ele></trkpt>
   <trkpt lon="-9.096812" lat="39.530301"><ele>36.6</ele></trkpt>
   <trkpt lon="-9.096584" lat="39.530376"><ele>37.1</ele></trkpt>
   <trkpt lon="-9.096370" lat="39.530413"><ele>37.6</ele></trkpt>
   <trkpt lon="-9.093278" lat="39.530667"><ele>38.0</ele></trkpt>
   <trkpt lon="-9.091544" lat="39.530810"><ele>37.4</ele></trkpt>
   <trkpt lon="-9.090798" lat="39.530896"><ele>36.8</ele></trkpt>
   <trkpt lon="-9.090491" lat="39.530942"><ele>36.1</ele></trkpt>
   <trkpt lon="-9.090200" lat="39.531006"><ele>35.1</ele></trkpt>
   <trkpt lon="-9.089881" lat="39.531089"><ele>34.0</ele></trkpt>
   <trkpt lon="-9.089680" lat="39.531156"><ele>34.1</ele></trkpt>
   <trkpt lon="-9.089479" lat="39.531222"><ele>33.6</ele></trkpt>
   <trkpt lon="-9.089211" lat="39.531324"><ele>33.3</ele></trkpt>
   <trkpt lon="-9.087166" lat="39.532198"><ele>33.2</ele></trkpt>
   <trkpt lon="-9.085862" lat="39.532759"><ele>33.1</ele></trkpt>
   <trkpt lon="-9.085662" lat="39.532854"><ele>32.9</ele></trkpt>
   <trkpt lon="-9.085505" lat="39.532944"><ele>32.9</ele></trkpt>
   <trkpt lon="-9.085367" lat="39.533039"><ele>32.8</ele></trkpt>
   <trkpt lon="-9.085245" lat="39.533151"><ele>32.6</ele></trkpt>
   <trkpt lon="-9.085184" lat="39.533201"><ele>32.4</ele></trkpt>
   <trkpt lon="-9.085133" lat="39.533270"><ele>32.2</ele></trkpt>
   <trkpt lon="-9.085097" lat="39.533333"><ele>32.1</ele></trkpt>
   <trkpt lon="-9.084870" lat="39.533751"><ele>31.9</ele></trkpt>
   <trkpt lon="-9.084835" lat="39.533810"><ele>31.7</ele></trkpt>
   <trkpt lon="-9.084420" lat="39.534532"><ele>31.5</ele></trkpt>
   <trkpt lon="-9.084334" lat="39.534677"><ele>31.3</ele></trkpt>
   <trkpt lon="-9.084099" lat="39.535088"><ele>31.0</ele></trkpt>
   <trkpt lon="-9.084025" lat="39.535220"><ele>30.8</ele></trkpt>
   <trkpt lon="-9.083894" lat="39.535473"><ele>30.5</ele></trkpt>
   <trkpt lon="-9.083858" lat="39.535574"><ele>30.2</ele></trkpt>
   <trkpt lon="-9.083822" lat="39.535709"><ele>30.1</ele></trkpt>
   <trkpt lon="-9.083793" lat="39.535779"><ele>30.0</ele></trkpt>
   <trkpt lon="-9.083751" lat="39.535849"><ele>29.8</ele></trkpt>
   <trkpt lon="-9.083631" lat="39.535975"><ele>29.8</ele></trkpt>
   <trkpt lon="-9.083456" lat="39.536169"><ele>29.8</ele></trkpt>
   <trkpt lon="-9.083141" lat="39.536503"><ele>29.8</ele></trkpt>
   <trkpt lon="-9.083035" lat="39.536610"><ele>29.7</ele></trkpt>
   <trkpt lon="-9.082756" lat="39.536885"><ele>29.6</ele><sym>left_sharp</sym></trkpt>
   <trkpt lon="-9.082984" lat="39.536896"><ele>29.6</ele><sym>pass_place</sym><type>Shaping</type></trkpt>
   <trkpt lon="-9.083267" lat="39.536911"><ele>29.5</ele><sym>left_sharp</sym></trkpt>
   <trkpt lon="-9.083035" lat="39.536610"><ele>29.3</ele><sym>left_sharp</sym></trkpt>
   <trkpt lon="-9.082756" lat="39.536885"><ele>28.9</ele></trkpt>
   <trkpt lon="-9.082733" lat="39.536915"><ele>28.5</ele></trkpt>
   <trkpt lon="-9.082694" lat="39.536965"><ele>28.1</ele></trkpt>
   <trkpt lon="-9.082655" lat="39.537015"><ele>27.6</ele></trkpt>
   <trkpt lon="-9.082549" lat="39.537329"><ele>26.9</ele></trkpt>
   <trkpt lon="-9.082448" lat="39.537631"><ele>26.3</ele></trkpt>
   <trkpt lon="-9.082387" lat="39.537722"><ele>25.7</ele></trkpt>
   <trkpt lon="-9.082295" lat="39.537799"><ele>25.0</ele></trkpt>
   <trkpt lon="-9.082182" lat="39.537855"><ele>24.3</ele></trkpt>
   <trkpt lon="-9.081816" lat="39.537991"><ele>23.6</ele></trkpt>
   <trkpt lon="-9.081651" lat="39.538073"><ele>23.0</ele></trkpt>
   <trkpt lon="-9.081504" lat="39.538165"><ele>22.6</ele></trkpt>
   <trkpt lon="-9.081415" lat="39.538232"><ele>22.2</ele></trkpt>
   <trkpt lon="-9.081333" lat="39.538304"><ele>21.6</ele></trkpt>
   <trkpt lon="-9.081273" lat="39.538390"><ele>21.0</ele></trkpt>
   <trkpt lon="-9.081224" lat="39.538472"><ele>20.4</ele></trkpt>
   <trkpt lon="-9.081145" lat="39.538673"><ele>19.7</ele></trkpt>
   <trkpt lon="-9.081056" lat="39.538874"><ele>19.1</ele></trkpt>
   <trkpt lon="-9.080836" lat="39.539451"><ele>18.6</ele></trkpt>
   <trkpt lon="-9.080816" lat="39.539554"><ele>18.0</ele></trkpt>
   <trkpt lon="-9.080810" lat="39.539680"><ele>17.4</ele></trkpt>
   <trkpt lon="-9.080838" lat="39.539927"><ele>16.9</ele></trkpt>
   <trkpt lon="-9.080848" lat="39.540014"><ele>16.2</ele></trkpt>
   <trkpt lon="-9.080878" lat="39.540246"><ele>15.5</ele></trkpt>
   <trkpt lon="-9.080902" lat="39.540455"><ele>14.9</ele></trkpt>
   <trkpt lon="-9.080915" lat="39.540602"><ele>14.1</ele></trkpt>
   <trkpt lon="-9.080918" lat="39.540812"><ele>13.4</ele></trkpt>
   <trkpt lon="-9.080902" lat="39.540893"><ele>12.6</ele></trkpt>
   <trkpt lon="-9.080830" lat="39.541132"><ele>11.9</ele></trkpt>
   <trkpt lon="-9.080740" lat="39.541341"><ele>11.2</ele></trkpt>
   <trkpt lon="-9.079502" lat="39.544181"><ele>10.7</ele></trkpt>
   <trkpt lon="-9.079319" lat="39.544511"><ele>10.1</ele></trkpt>
   <trkpt lon="-9.079097" lat="39.544818"><ele>9.6</ele></trkpt>
   <trkpt lon="-9.078165" lat="39.545891"><ele>8.9</ele></trkpt>
   <trkpt lon="-9.078071" lat="39.545989"><ele>8.2</ele></trkpt>
   <trkpt lon="-9.077941" lat="39.546108"><ele>7.6</ele></trkpt>
   <trkpt lon="-9.077836" lat="39.546187"><ele>7.4</ele></trkpt>
   <trkpt lon="-9.077704" lat="39.546275"><ele>6.9</ele></trkpt>
   <trkpt lon="-9.077582" lat="39.546343"><ele>6.4</ele></trkpt>
   <trkpt lon="-9.076827" lat="39.546749"><ele>5.9</ele></trkpt>
   <trkpt lon="-9.076670" lat="39.546841"><ele>5.3</ele></trkpt>
   <trkpt lon="-9.076395" lat="39.547029"><ele>4.6</ele></trkpt>
   <trkpt lon="-9.074001" lat="39.549069"><ele>3.8</ele></trkpt>
   <trkpt lon="-9.073139" lat="39.549795"><ele>3.1</ele></trkpt>
   <trkpt lon="-9.072751" lat="39.550137"><ele>2.6</ele></trkpt>
   <trkpt lon="-9.072299" lat="39.550595"><ele>2.1</ele></trkpt>
   <trkpt lon="-9.072189" lat="39.550709"><ele>1.6</ele></trkpt>
   <trkpt lon="-9.071798" lat="39.551116"><ele>1.1</ele></trkpt>
   <trkpt lon="-9.071509" lat="39.551438"><ele>1.0</ele></trkpt>
   <trkpt lon="-9.071390" lat="39.551594"><ele>0.9</ele></trkpt>
   <trkpt lon="-9.071273" lat="39.551800"><ele>0.7</ele></trkpt>
   <trkpt lon="-9.071212" lat="39.551929"><ele>0.6</ele></trkpt>
   <trkpt lon="-9.071092" lat="39.552218"><ele>0.6</ele></trkpt>
   <trkpt lon="-9.070933" lat="39.552682"><ele>0.5</ele></trkpt>
   <trkpt lon="-9.070895" lat="39.552785"><ele>0.3</ele></trkpt>
   <trkpt lon="-9.070380" lat="39.554249"><ele>0.2</ele></trkpt>
   <trkpt lon="-9.069832" lat="39.555717"><ele>0.2</ele></trkpt>
   <trkpt lon="-9.069759" lat="39.555923"><ele>0.6</ele></trkpt>
   <trkpt lon="-9.069682" lat="39.556146"><ele>0.9</ele></trkpt>
   <trkpt lon="-9.069635" lat="39.556284"><ele>1.1</ele></trkpt>
   <trkpt lon="-9.069564" lat="39.556489"><ele>1.2</ele></trkpt>
   <trkpt lon="-9.069509" lat="39.556648"><ele>1.9</ele></trkpt>
   <trkpt lon="-9.069229" lat="39.557472"><ele>2.4</ele></trkpt>
   <trkpt lon="-9.069196" lat="39.557593"><ele>2.9</ele></trkpt>
   <trkpt lon="-9.069140" lat="39.557814"><ele>3.3</ele></trkpt>
   <trkpt lon="-9.069090" lat="39.558025"><ele>3.8</ele></trkpt>
   <trkpt lon="-9.068777" lat="39.559565"><ele>4.3</ele></trkpt>
   <trkpt lon="-9.068723" lat="39.559832"><ele>4.7</ele></trkpt>
   <trkpt lon="-9.068690" lat="39.560040"><ele>4.6</ele></trkpt>
   <trkpt lon="-9.068672" lat="39.560208"><ele>4.5</ele><sym>stay_left</sym></trkpt>
   <trkpt lon="-9.068663" lat="39.560302"><ele>4.3</ele></trkpt>
   <trkpt lon="-9.068626" lat="39.561132"><ele>4.2</ele></trkpt>
   <trkpt lon="-9.068623" lat="39.561211"><ele>3.7</ele></trkpt>
   <trkpt lon="-9.068617" lat="39.561397"><ele>3.2</ele></trkpt>
   <trkpt lon="-9.068621" lat="39.561537"><ele>2.7</ele></trkpt>
   <trkpt lon="-9.068654" lat="39.561787"><ele>2.3</ele></trkpt>
   <trkpt lon="-9.068684" lat="39.561901"><ele>1.7</ele></trkpt>
   <trkpt lon="-9.068727" lat="39.562059"><ele>1.1</ele></trkpt>
   <trkpt lon="-9.068758" lat="39.562188"><ele>0.6</ele></trkpt>
   <trkpt lon="-9.069016" lat="39.563135"><ele>0.3</ele></trkpt>
   <trkpt lon="-9.069058" lat="39.563291"><ele>0.1</ele></trkpt>
   <trkpt lon="-9.069303" lat="39.564208"><ele>-0.1</ele></trkpt>
   <trkpt lon="-9.069347" lat="39.564408"><ele>-0.3</ele></trkpt>
   <trkpt lon="-9.069369" lat="39.564577"><ele>-0.3</ele></trkpt>
   <trkpt lon="-9.069375" lat="39.564727"><ele>-0.3</ele></trkpt>
   <trkpt lon="-9.069362" lat="39.564875"><ele>-0.4</ele></trkpt>
   <trkpt lon="-9.069331" lat="39.565035"><ele>-0.6</ele></trkpt>
   <trkpt lon="-9.069280" lat="39.565242"><ele>-0.7</ele></trkpt>
   <trkpt lon="-9.068975" lat="39.566132"><ele>-0.8</ele><sym>right_sharp</sym></trkpt>
   <trkpt lon="-9.068871" lat="39.566066"><ele>-1.0</ele></trkpt>
   <trkpt lon="-9.068747" lat="39.566013"><ele>-1.3</ele></trkpt>
   <trkpt lon="-9.068542" lat="39.565961"><ele>-1.6</ele></trkpt>
   <trkpt lon="-9.068263" lat="39.565926"><ele>-1.9</ele><sym>left</sym></trkpt>
   <trkpt lon="-9.068076" lat="39.566776"><ele>-2.0</ele></trkpt>
   <trkpt lon="-9.067702" lat="39.568843"><ele>-2.5</ele></trkpt>
   <trkpt lon="-9.067556" lat="39.569691"><ele>-2.7</ele></trkpt>
   <trkpt lon="-9.067537" lat="39.569882"><ele>-2.9</ele></trkpt>
   <trkpt lon="-9.067539" lat="39.570075"><ele>-2.9</ele></trkpt>
   <trkpt lon="-9.067556" lat="39.570390"><ele>-2.9</ele></trkpt>
   <trkpt lon="-9.067600" lat="39.571026"><ele>-2.8</ele></trkpt>
   <trkpt lon="-9.067646" lat="39.571488"><ele>-2.5</ele></trkpt>
   <trkpt lon="-9.067705" lat="39.572217"><ele>-2.0</ele></trkpt>
   <trkpt lon="-9.067709" lat="39.572402"><ele>-1.6</ele></trkpt>
   <trkpt lon="-9.067736" lat="39.572443"><ele>-1.3</ele><sym>left</sym></trkpt>
   <trkpt lon="-9.067794" lat="39.572434"><ele>-1.1</ele></trkpt>
   <trkpt lon="-9.068146" lat="39.572435"><ele>-0.8</ele></trkpt>
   <trkpt lon="-9.068227" lat="39.572449"><ele>-0.6</ele></trkpt>
   <trkpt lon="-9.068358" lat="39.572635"><ele>-0.1</ele></trkpt>
   <trkpt lon="-9.068610" lat="39.572861"><ele>0.6</ele><sym>left_slight</sym></trkpt>
   <trkpt lon="-9.068659" lat="39.572915"><ele>1.4</ele></trkpt>
   <trkpt lon="-9.068734" lat="39.572961"><ele>1.9</ele></trkpt>
   <trkpt lon="-9.069002" lat="39.573072"><ele>2.0</ele></trkpt>
   <trkpt lon="-9.069492" lat="39.573215"><ele>2.0</ele></trkpt>
   <trkpt lon="-9.069760" lat="39.573331"><ele>2.0</ele></trkpt>
   <trkpt lon="-9.069888" lat="39.573399"><ele>2.1</ele></trkpt>
   <trkpt lon="-9.070378" lat="39.573714"><ele>2.1</ele></trkpt>
   <trkpt lon="-9.070462" lat="39.573753"><ele>2.1</ele></trkpt>
   <trkpt lon="-9.070558" lat="39.573783"><ele>2.1</ele></trkpt>
   <trkpt lon="-9.070670" lat="39.573806"><ele>1.6</ele></trkpt>
   <trkpt lon="-9.071279" lat="39.573900"><ele>1.0</ele></trkpt>
   <trkpt lon="-9.071452" lat="39.573942"><ele>0.3</ele></trkpt>
   <trkpt lon="-9.071531" lat="39.573981"><ele>-0.1</ele><sym>right_slight</sym></trkpt>
   <trkpt lon="-9.071565" lat="39.574011"><ele>-0.6</ele></trkpt>
   <trkpt lon="-9.071649" lat="39.574116"><ele>-1.0</ele></trkpt>
   <trkpt lon="-9.071671" lat="39.574175"><ele>-1.4</ele></trkpt>
   <trkpt lon="-9.071677" lat="39.574226"><ele>-1.7</ele></trkpt>
   <trkpt lon="-9.071673" lat="39.574266"><ele>-1.8</ele></trkpt>
   <trkpt lon="-9.071599" lat="39.574573"><ele>-1.7</ele></trkpt>
   <trkpt lon="-9.071570" lat="39.574682"><ele>-1.5</ele></trkpt>
   <trkpt lon="-9.071546" lat="39.574770"><ele>-1.1</ele></trkpt>
   <trkpt lon="-9.071492" lat="39.574965"><ele>-0.6</ele></trkpt>
   <trkpt lon="-9.071301" lat="39.575703"><ele>0.0</ele><sym>right_slight</sym></trkpt>
   <trkpt lon="-9.071220" lat="39.575751"><ele>0.7</ele><sym>left_slight</sym></trkpt>
   <trkpt lon="-9.071177" lat="39.575797"><ele>1.4</ele></trkpt>
   <trkpt lon="-9.071152" lat="39.575838"><ele>2.4</ele></trkpt>
   <trkpt lon="-9.071121" lat="39.575915"><ele>3.5</ele><sym>left_slight</sym></trkpt>
   <trkpt lon="-9.071156" lat="39.575945"><ele>4.5</ele></trkpt>
   <trkpt lon="-9.071183" lat="39.575984"><ele>5.3</ele></trkpt>
   <trkpt lon="-9.071201" lat="39.576031"><ele>5.9</ele><sym>right_slight</sym></trkpt>
   <trkpt lon="-9.071157" lat="39.576290"><ele>6.1</ele></trkpt>
   <trkpt lon="-9.071144" lat="39.576455"><ele>6.2</ele></trkpt>
   <trkpt lon="-9.071157" lat="39.576527"><ele>6.2</ele></trkpt>
   <trkpt lon="-9.071187" lat="39.576593"><ele>6.2</ele></trkpt>
   <trkpt lon="-9.071227" lat="39.576655"><ele>6.2</ele></trkpt>
   <trkpt lon="-9.071816" lat="39.577449"><ele>6.3</ele></trkpt>
   <trkpt lon="-9.071882" lat="39.577531"><ele>6.2</ele></trkpt>
   <trkpt lon="-9.071969" lat="39.577610"><ele>6.0</ele></trkpt>
   <trkpt lon="-9.072014" lat="39.577645"><ele>5.8</ele></trkpt>
   <trkpt lon="-9.072108" lat="39.577690"><ele>5.7</ele></trkpt>
   <trkpt lon="-9.072230" lat="39.577732"><ele>5.6</ele></trkpt>
   <trkpt lon="-9.072359" lat="39.577761"><ele>5.9</ele></trkpt>
   <trkpt lon="-9.072447" lat="39.577767"><ele>6.2</ele></trkpt>
   <trkpt lon="-9.072557" lat="39.577757"><ele>6.2</ele></trkpt>
   <trkpt lon="-9.072687" lat="39.577734"><ele>6.2</ele></trkpt>
   <trkpt lon="-9.073216" lat="39.577597"><ele>5.9</ele></trkpt>
   <trkpt lon="-9.073333" lat="39.577582"><ele>5.5</ele></trkpt>
   <trkpt lon="-9.073461" lat="39.577584"><ele>4.9</ele></trkpt>
   <trkpt lon="-9.073605" lat="39.577611"><ele>4.2</ele></trkpt>
   <trkpt lon="-9.073726" lat="39.577651"><ele>3.5</ele></trkpt>
   <trkpt lon="-9.073842" lat="39.577709"><ele>2.7</ele></trkpt>
   <trkpt lon="-9.073951" lat="39.577795"><ele>2.1</ele></trkpt>
   <trkpt lon="-9.074009" lat="39.577870"><ele>1.5</ele></trkpt>
   <trkpt lon="-9.074035" lat="39.577904"><ele>1.2</ele></trkpt>
   <trkpt lon="-9.074069" lat="39.578017"><ele>0.9</ele></trkpt>
   <trkpt lon="-9.074084" lat="39.578140"><ele>0.8</ele></trkpt>
   <trkpt lon="-9.074080" lat="39.578261"><ele>0.9</ele></trkpt>
   <trkpt lon="-9.074043" lat="39.578443"><ele>1.3</ele></trkpt>
   <trkpt lon="-9.073979" lat="39.578629"><ele>1.8</ele></trkpt>
   <trkpt lon="-9.073891" lat="39.578811"><ele>2.3</ele></trkpt>
   <trkpt lon="-9.073622" lat="39.579254"><ele>2.7</ele></trkpt>
   <trkpt lon="-9.073528" lat="39.579397"><ele>3.1</ele></trkpt>
   <trkpt lon="-9.073069" lat="39.580138"><ele>3.5</ele></trkpt>
   <trkpt lon="-9.073002" lat="39.580250"><ele>3.7</ele></trkpt>
   <trkpt lon="-9.072972" lat="39.580310"><ele>3.9</ele></trkpt>
   <trkpt lon="-9.072935" lat="39.580421"><ele>4.0</ele></trkpt>
   <trkpt lon="-9.072894" lat="39.580500"><ele>4.1</ele><sym>roundabout_e1</sym></trkpt>
   <trkpt lon="-9.072860" lat="39.580521"><ele>4.2</ele></trkpt>
   <trkpt lon="-9.072813" lat="39.580578"><ele>4.1</ele></trkpt>
   <trkpt lon="-9.072801" lat="39.580610"><ele>4.1</ele></trkpt>
   <trkpt lon="-9.072803" lat="39.580677"><ele>4.2</ele></trkpt>
   <trkpt lon="-9.072730" lat="39.580751"><ele>4.1</ele></trkpt>
   <trkpt lon="-9.072652" lat="39.580848"><ele>3.7</ele></trkpt>
   <trkpt lon="-9.072553" lat="39.580980"><ele>3.3</ele></trkpt>
   <trkpt lon="-9.072177" lat="39.581599"><ele>3.0</ele></trkpt>
   <trkpt lon="-9.072027" lat="39.581907"><ele>2.8</ele></trkpt>
   <trkpt lon="-9.071752" lat="39.582643"><ele>2.7</ele></trkpt>
   <trkpt lon="-9.070895" lat="39.584862"><ele>2.7</ele></trkpt>
   <trkpt lon="-9.070862" lat="39.584964"><ele>2.7</ele></trkpt>
   <trkpt lon="-9.070825" lat="39.585165"><ele>2.4</ele></trkpt>
   <trkpt lon="-9.070824" lat="39.585340"><ele>1.8</ele></trkpt>
   <trkpt lon="-9.070832" lat="39.585409"><ele>1.1</ele></trkpt>
   <trkpt lon="-9.070934" lat="39.586135"><ele>0.8</ele></trkpt>
   <trkpt lon="-9.070968" lat="39.586349"><ele>0.7</ele></trkpt>
   <trkpt lon="-9.071023" lat="39.586677"><ele>0.6</ele></trkpt>
   <trkpt lon="-9.071032" lat="39.586801"><ele>0.5</ele><sym>roundabout_e2</sym></trkpt>
   <trkpt lon="-9.071028" lat="39.586832"><ele>0.4</ele></trkpt>
   <trkpt lon="-9.071041" lat="39.586892"><ele>0.1</ele></trkpt>
   <trkpt lon="-9.071083" lat="39.586943"><ele>-0.3</ele></trkpt>
   <trkpt lon="-9.071145" lat="39.586979"><ele>-0.7</ele></trkpt>
   <trkpt lon="-9.071182" lat="39.586990"><ele>-0.9</ele></trkpt>
   <trkpt lon="-9.071259" lat="39.586995"><ele>-1.1</ele></trkpt>
   <trkpt lon="-9.071336" lat="39.586977"><ele>-1.4</ele></trkpt>
   <trkpt lon="-9.071370" lat="39.586960"><ele>-1.6</ele></trkpt>
   <trkpt lon="-9.071389" lat="39.586946"><ele>-1.9</ele></trkpt>
   <trkpt lon="-9.071632" lat="39.586938"><ele>-2.0</ele></trkpt>
   <trkpt lon="-9.071754" lat="39.586943"><ele>-2.2</ele><sym>right_slight</sym></trkpt>
   <trkpt lon="-9.071942" lat="39.587013"><ele>-2.4</ele></trkpt>
   <trkpt lon="-9.072009" lat="39.587038"><ele>-2.5</ele></trkpt>
   <trkpt lon="-9.072073" lat="39.587062"><ele>-2.8</ele></trkpt>
   <trkpt lon="-9.072570" lat="39.587262"><ele>-3.0</ele></trkpt>
   <trkpt lon="-9.072929" lat="39.587422"><ele>-3.0</ele></trkpt>
   <trkpt lon="-9.073210" lat="39.587566"><ele>-3.0</ele></trkpt>
   <trkpt lon="-9.073431" lat="39.587694"><ele>-3.0</ele></trkpt>
   <trkpt lon="-9.073877" lat="39.587991"><ele>-2.9</ele></trkpt>
   <trkpt lon="-9.074050" lat="39.588135"><ele>-2.9</ele></trkpt>
   <trkpt lon="-9.074172" lat="39.588270"><ele>-2.8</ele></trkpt>
   <trkpt lon="-9.074219" lat="39.588356"><ele>-2.8</ele></trkpt>
   <trkpt lon="-9.074260" lat="39.588451"><ele>-2.7</ele></trkpt>
   <trkpt lon="-9.074284" lat="39.588532"><ele>-2.6</ele></trkpt>
   <trkpt lon="-9.074298" lat="39.588633"><ele>-2.4</ele></trkpt>
   <trkpt lon="-9.074293" lat="39.588770"><ele>-2.2</ele></trkpt>
   <trkpt lon="-9.074265" lat="39.588924"><ele>-1.9</ele></trkpt>
   <trkpt lon="-9.074149" lat="39.589368"><ele>-1.5</ele></trkpt>
   <trkpt lon="-9.074023" lat="39.589873"><ele>-1.0</ele></trkpt>
   <trkpt lon="-9.073935" lat="39.590190"><ele>-0.6</ele></trkpt>
   <trkpt lon="-9.073869" lat="39.590393"><ele>-0.2</ele></trkpt>
   <trkpt lon="-9.073730" lat="39.590723"><ele>0.2</ele></trkpt>
   <trkpt lon="-9.073564" lat="39.591110"><ele>0.7</ele></trkpt>
   <trkpt lon="-9.073530" lat="39.591188"><ele>1.0</ele></trkpt>
   <trkpt lon="-9.073320" lat="39.591642"><ele>1.3</ele></trkpt>
   <trkpt lon="-9.073296" lat="39.591698"><ele>1.6</ele></trkpt>
   <trkpt lon="-9.073124" lat="39.592094"><ele>1.8</ele></trkpt>
   <trkpt lon="-9.073086" lat="39.592177"><ele>2.2</ele></trkpt>
   <trkpt lon="-9.072605" lat="39.593276"><ele>2.6</ele></trkpt>
   <trkpt lon="-9.072574" lat="39.593388"><ele>3.2</ele></trkpt>
   <trkpt lon="-9.072562" lat="39.593464"><ele>3.7</ele></trkpt>
   <trkpt lon="-9.072498" lat="39.594002"><ele>4.1</ele></trkpt>
   <trkpt lon="-9.072474" lat="39.594323"><ele>4.2</ele></trkpt>
   <trkpt lon="-9.072466" lat="39.594439"><ele>4.4</ele></trkpt>
   <trkpt lon="-9.072374" lat="39.595308"><ele>4.7</ele></trkpt>
   <trkpt lon="-9.072369" lat="39.595390"><ele>5.2</ele></trkpt>
   <trkpt lon="-9.072351" lat="39.595817"><ele>5.7</ele></trkpt>
   <trkpt lon="-9.072339" lat="39.596138"><ele>6.2</ele></trkpt>
   <trkpt lon="-9.072334" lat="39.596297"><ele>6.4</ele></trkpt>
   <trkpt lon="-9.072333" lat="39.596764"><ele>6.4</ele></trkpt>
   <trkpt lon="-9.072334" lat="39.596933"><ele>6.2</ele></trkpt>
   <trkpt lon="-9.072328" lat="39.597596"><ele>5.9</ele></trkpt>
   <trkpt lon="-9.072331" lat="39.597725"><ele>5.9</ele></trkpt>
   <trkpt lon="-9.072347" lat="39.597851"><ele>6.0</ele></trkpt>
   <trkpt lon="-9.072360" lat="39.597929"><ele>6.1</ele></trkpt>
   <trkpt lon="-9.072446" lat="39.598273"><ele>6.0</ele></trkpt>
   <trkpt lon="-9.072537" lat="39.598538"><ele>5.7</ele></trkpt>
   <trkpt lon="-9.072592" lat="39.598597"><ele>5.4</ele></trkpt>
   <trkpt lon="-9.072626" lat="39.598700"><ele>5.1</ele></trkpt>
   <trkpt lon="-9.072650" lat="39.598775"><ele>4.9</ele></trkpt>
   <trkpt lon="-9.072662" lat="39.598815"><ele>4.7</ele></trkpt>
   <trkpt lon="-9.072706" lat="39.598939"><ele>4.6</ele></trkpt>
   <trkpt lon="-9.072747" lat="39.599062"><ele>4.5</ele></trkpt>
   <trkpt lon="-9.072791" lat="39.599198"><ele>4.3</ele></trkpt>
   <trkpt lon="-9.072830" lat="39.599317"><ele>4.2</ele></trkpt>
   <trkpt lon="-9.072847" lat="39.599368"><ele>4.2</ele></trkpt>
   <trkpt lon="-9.072865" lat="39.599429"><ele>4.2</ele></trkpt>
   <trkpt lon="-9.072921" lat="39.599591"><ele>4.3</ele></trkpt>
   <trkpt lon="-9.072968" lat="39.599730"><ele>4.4</ele></trkpt>
   <trkpt lon="-9.072992" lat="39.599803"><ele>4.4</ele></trkpt>
   <trkpt lon="-9.073072" lat="39.600040"><ele>4.5</ele></trkpt>
   <trkpt lon="-9.073098" lat="39.600121"><ele>4.5</ele></trkpt>
   <trkpt lon="-9.073126" lat="39.600207"><ele>4.6</ele></trkpt>
   <trkpt lon="-9.073158" lat="39.600306"><ele>4.6</ele></trkpt>
   <trkpt lon="-9.073191" lat="39.600403"><ele>4.7</ele></trkpt>
   <trkpt lon="-9.073228" lat="39.600516"><ele>4.8</ele></trkpt>
   <trkpt lon="-9.073289" lat="39.600636"><ele>4.7</ele></trkpt>
   <trkpt lon="-9.073369" lat="39.600743"><ele>4.7</ele></trkpt>
   <trkpt lon="-9.073610" lat="39.601042"><ele>4.6</ele></trkpt>
   <trkpt lon="-9.073624" lat="39.601060"><ele>4.6</ele></trkpt>
   <trkpt lon="-9.073680" lat="39.601128"><ele>4.6</ele></trkpt>
   <trkpt lon="-9.073753" lat="39.601214"><ele>4.6</ele></trkpt>
   <trkpt lon="-9.073840" lat="39.601334"><ele>4.7</ele></trkpt>
   <trkpt lon="-9.073891" lat="39.601453"><ele>5.0</ele></trkpt>
   <trkpt lon="-9.073910" lat="39.601523"><ele>5.2</ele></trkpt>
   <trkpt lon="-9.073935" lat="39.601628"><ele>5.5</ele><sym>right</sym></trkpt>
   <trkpt lon="-9.073898" lat="39.601633"><ele>5.8</ele></trkpt>
   <trkpt lon="-9.073064" lat="39.601738"><ele>6.1</ele></trkpt>
   <trkpt lon="-9.072780" lat="39.601773"><ele>6.5</ele></trkpt>
   <trkpt lon="-9.072764" lat="39.601774"><ele>6.8</ele></trkpt>
   <trkpt lon="-9.072416" lat="39.601809"><ele>7.5</ele></trkpt>
   <trkpt lon="-9.072339" lat="39.601814"><ele>8.7</ele></trkpt>
   <trkpt lon="-9.072255" lat="39.601799"><ele>10.0</ele><sym>left_slight</sym></trkpt>
   <trkpt lon="-9.072181" lat="39.601844"><ele>11.1</ele></trkpt>
   <trkpt lon="-9.072009" lat="39.601871"><ele>12.6</ele></trkpt>
   <trkpt lon="-9.071839" lat="39.601907"><ele>14.5</ele></trkpt>
   <trkpt lon="-9.071260" lat="39.602020"><ele>16.4</ele></trkpt>
   <trkpt lon="-9.071166" lat="39.602034"><ele>17.3</ele><sym>stay_left</sym></trkpt>
   <trkpt lon="-9.071074" lat="39.602049"><ele>18.3</ele></trkpt>
   <trkpt lon="-9.070018" lat="39.602249"><ele>19.5</ele><sym>left</sym></trkpt>
   <trkpt lon="-9.070131" lat="39.602543"><ele>20.9</ele></trkpt>
   <trkpt lon="-9.070214" lat="39.602650"><ele>22.5</ele><sym>pass_place</sym><type>Via</type></trkpt>
  </trkseg>
 </trk>
</gpx>
