<?xml version="1.0" encoding="UTF-8"?>
<!-- track-length = 16711 filtered ascend = 161 plain-ascend = 1 cost=35306 energy=.1kwh time=56m 16s -->
<gpx 
 xmlns="http://www.topografix.com/GPX/1/1" 
 xmlns:xsi="http://www.w3.org/2001/XMLSchema-instance" 
 xsi:schemaLocation="http://www.topografix.com/GPX/1/1 http://www.topografix.com/GPX/1/1/gpx.xsd" 
 creator="BRouter-1.7.9" version="1.1"><wpt lat="39.76472" lon="2.71612"><name>Drinking water</name><sym>Drinking Water</sym></wpt><wpt lat="39.765" lon="2.71729"><name>Drinking water</name><sym>Drinking Water</sym></wpt><wpt lat="39.76564" lon="2.71905"><name>Drinking water</name><sym>Drinking Water</sym></wpt><wpt lat="39.76655" lon="2.71486"><name>Bini</name><sym>Restaurant</sym></wpt><wpt lat="39.79552" lon="2.69695"><name>Roma</name><sym>Restaurant</sym></wpt><wpt lat="39.76657" lon="2.71538"><name>Sóller</name><sym>Restaurant</sym></wpt><wpt lat="39.76774" lon="2.71832"><name>Mayol</name><sym>Bike Trail</sym></wpt><wpt lat="39.76768" lon="2.7176"><name>Tramuntana Tours</name><sym>Bike Trail</sym></wpt><wpt lat="39.76789" lon="2.7184"><name>Tres Llunes</name><sym>Restaurant</sym></wpt><wpt lat="39.76645" lon="2.71483"><name>Drinking water</name><sym>Drinking Water</sym></wpt><wpt lat="39.7676" lon="2.71586"><name>Drinking water</name><sym>Drinking Water</sym></wpt><wpt lat="39.76822" lon="2.71144"><name>Drinking water</name><sym>Drinking Water</sym></wpt><wpt lat="39.76847" lon="2.72461"><name>Drinking water</name><sym>Drinking Water</sym></wpt><wpt lat="39.76852" lon="2.70866"><name>Drinking water</name><sym>Drinking Water</sym></wpt><wpt lat="39.77105" lon="2.73419"><name>Drinking water</name><sym>Drinking Water</sym></wpt><wpt lat="39.79657" lon="2.69746"><name>Chiachi</name><sym>Restaurant</sym></wpt><wpt lat="39.78228" lon="2.74089"><name>Depor</name><sym>Restaurant</sym></wpt><wpt lat="39.78242" lon="2.74096"><name>Drinking water</name><sym>Drinking Water</sym></wpt><wpt lat="39.77119" lon="2.70632"><name>Stop</name><sym>Restaurant</sym></wpt><wpt lat="39.76733" lon="2.70962"><name>sa Petanca</name><sym>Restaurant</sym></wpt><wpt lat="39.78227" lon="2.74083"><name>Ca&#x27;n Benet</name><sym>Restaurant</sym></wpt><wpt lat="39.77573" lon="2.70728"><name>Drinking water</name><sym>Drinking Water</sym></wpt><wpt lat="39.79832" lon="2.69438"><name>Cava</name><sym>Restaurant</sym></wpt><wpt lat="39.77117" lon="2.73516"><name>Drinking water</name><sym>Drinking Water</sym></wpt><wpt lat="39.77555" lon="2.70728"><name>Can Massià</name><sym>Restaurant</sym></wpt><wpt lat="39.7982" lon="2.6966"><name>Drinking water</name><sym>Drinking Water</sym></wpt><wpt lat="39.76519" lon="2.71518"><name>el Tren</name><sym>Restaurant</sym></wpt><wpt lat="39.77577" lon="2.70709"><name>Bera</name><sym>Restaurant</sym></wpt><wpt lat="39.79803" lon="2.69517"><name>Cappuccino</name><sym>Restaurant</sym></wpt><wpt lat="39.76628" lon="2.71817"><name>Drinking water</name><sym>Drinking Water</sym></wpt><wpt lat="39.76789" lon="2.71964"><name>Drinking water</name><sym>Drinking Water</sym></wpt><wpt lat="39.76574" lon="2.71473"><name>es Pont</name><sym>Restaurant</sym></wpt><wpt lat="39.78282" lon="2.74066"><name>Font de sa Creveta</name><sym>Drinking Water</sym></wpt><wpt lat="39.76615" lon="2.71301"><name>Drinking water</name><sym>Drinking Water</sym></wpt><wpt lat="39.77829" lon="2.70463"><name>Drinking water</name><sym>Drinking Water</sym></wpt><wpt lat="39.78171" lon="2.74007"><name>Sa Font des carrer des Sol</name><sym>Drinking Water</sym></wpt><wpt lat="39.78193" lon="2.74081"><name>Corel la Café</name><sym>Restaurant</sym></wpt><wpt lat="39.76537" lon="2.71206"><name>Drinking water</name><sym>Drinking Water</sym></wpt><wpt lat="39.79062" lon="2.69358"><name>Reynés Bikes &amp; Bakes</name><sym>Restaurant</sym></wpt><wpt lat="39.77373" lon="2.70866"><name>Can Reus</name><sym>Restaurant</sym></wpt>
 <trk>
  <src>brouter_fastbike-lowtraffic_0</src>
  <type>bike</type>
  <trkseg>
   <trkpt lon="2.715059" lat="39.766199"><ele>34.25</ele><sym>pass_place</sym><type>Via</type></trkpt>
   <trkpt lon="2.715216" lat="39.766209"><ele>34.75</ele><sym>stay_right</sym></trkpt>
   <trkpt lon="2.715271" lat="39.766215"><ele>34.75</ele></trkpt>
   <trkpt lon="2.715565" lat="39.766247"><ele>36.0</ele></trkpt>
   <trkpt lon="2.715694" lat="39.766268"><ele>37.0</ele></trkpt>
   <trkpt lon="2.715795" lat="39.766281"><ele>38.0</ele></trkpt>
   <trkpt lon="2.716259" lat="39.766378"><ele>38.0</ele></trkpt>
   <trkpt lon="2.716297" lat="39.766339"><ele>38.25</ele><sym>left</sym></trkpt>
   <trkpt lon="2.717188" lat="39.766677"><ele>37.75</ele></trkpt>
   <trkpt lon="2.717385" lat="39.766734"><ele>38.25</ele></trkpt>
   <trkpt lon="2.718051" lat="39.766938"><ele>38.0</ele></trkpt>
   <trkpt lon="2.718768" lat="39.767157"><ele>38.0</ele></trkpt>
   <trkpt lon="2.719301" lat="39.767311"><ele>37.25</ele></trkpt>
   <trkpt lon="2.719823" lat="39.767469"><ele>37.0</ele><sym>left</sym></trkpt>
   <trkpt lon="2.719741" lat="39.767866"><ele>34.25</ele><sym>right</sym></trkpt>
   <trkpt lon="2.721064" lat="39.768267"><ele>35.0</ele><sym>right_slight</sym></trkpt>
   <trkpt lon="2.721257" lat="39.768237"><ele>36.0</ele></trkpt>
   <trkpt lon="2.721391" lat="39.768293"><ele>37.0</ele></trkpt>
   <trkpt lon="2.721855" lat="39.768512"><ele>37.75</ele></trkpt>
   <trkpt lon="2.721973" lat="39.768534"><ele>37.75</ele><sym>right_slight</sym></trkpt>
   <trkpt lon="2.722255" lat="39.768458"><ele>38.0</ele></trkpt>
   <trkpt lon="2.723000" lat="39.768526"><ele>37.5</ele></trkpt>
   <trkpt lon="2.723788" lat="39.768462"><ele>40.0</ele></trkpt>
   <trkpt lon="2.723992" lat="39.768485"><ele>40.0</ele></trkpt>
   <trkpt lon="2.724079" lat="39.768507"><ele>40.0</ele><sym>left</sym></trkpt>
   <trkpt lon="2.724077" lat="39.768530"><ele>39.5</ele></trkpt>
   <trkpt lon="2.724066" lat="39.768618"><ele>38.25</ele></trkpt>
   <trkpt lon="2.724257" lat="39.768825"><ele>39.75</ele></trkpt>
   <trkpt lon="2.724355" lat="39.769595"><ele>41.5</ele><sym>right</sym></trkpt>
   <trkpt lon="2.724667" lat="39.769644"><ele>42.5</ele></trkpt>
   <trkpt lon="2.724720" lat="39.769661"><ele>42.75</ele></trkpt>
   <trkpt lon="2.724824" lat="39.769736"><ele>43.25</ele></trkpt>
   <trkpt lon="2.724893" lat="39.769812"><ele>43.25</ele></trkpt>
   <trkpt lon="2.724996" lat="39.770048"><ele>43.75</ele></trkpt>
   <trkpt lon="2.725067" lat="39.770264"><ele>44.0</ele></trkpt>
   <trkpt lon="2.725095" lat="39.770309"><ele>43.75</ele></trkpt>
   <trkpt lon="2.725142" lat="39.770353"><ele>43.75</ele></trkpt>
   <trkpt lon="2.725667" lat="39.770717"><ele>45.0</ele></trkpt>
   <trkpt lon="2.726058" lat="39.771133"><ele>45.75</ele></trkpt>
   <trkpt lon="2.726443" lat="39.771545"><ele>47.0</ele></trkpt>
   <trkpt lon="2.726681" lat="39.771736"><ele>48.0</ele></trkpt>
   <trkpt lon="2.726946" lat="39.771910"><ele>48.75</ele></trkpt>
   <trkpt lon="2.727238" lat="39.772149"><ele>49.0</ele></trkpt>
   <trkpt lon="2.727470" lat="39.772327"><ele>50.0</ele></trkpt>
   <trkpt lon="2.727601" lat="39.772422"><ele>50.0</ele></trkpt>
   <trkpt lon="2.727714" lat="39.772478"><ele>50.5</ele></trkpt>
   <trkpt lon="2.727839" lat="39.772515"><ele>51.0</ele></trkpt>
   <trkpt lon="2.727999" lat="39.772548"><ele>51.25</ele></trkpt>
   <trkpt lon="2.728336" lat="39.772580"><ele>52.0</ele></trkpt>
   <trkpt lon="2.728806" lat="39.772622"><ele>53.25</ele></trkpt>
   <trkpt lon="2.728862" lat="39.772635"><ele>53.25</ele></trkpt>
   <trkpt lon="2.728903" lat="39.772662"><ele>53.25</ele></trkpt>
   <trkpt lon="2.729146" lat="39.772958"><ele>54.75</ele></trkpt>
   <trkpt lon="2.729324" lat="39.773213"><ele>55.75</ele></trkpt>
   <trkpt lon="2.729362" lat="39.773473"><ele>56.75</ele></trkpt>
   <trkpt lon="2.729383" lat="39.773531"><ele>57.25</ele></trkpt>
   <trkpt lon="2.729431" lat="39.773563"><ele>57.5</ele></trkpt>
   <trkpt lon="2.730112" lat="39.773692"><ele>58.0</ele></trkpt>
   <trkpt lon="2.730596" lat="39.773722"><ele>59.0</ele></trkpt>
   <trkpt lon="2.730775" lat="39.773711"><ele>59.75</ele></trkpt>
   <trkpt lon="2.730905" lat="39.773735"><ele>60.0</ele></trkpt>
   <trkpt lon="2.731256" lat="39.773834"><ele>60.75</ele><sym>pass_place</sym><type>Shaping</type></trkpt>
   <trkpt lon="2.731779" lat="39.774031"><ele>62.75</ele></trkpt>
   <trkpt lon="2.731828" lat="39.774045"><ele>62.75</ele></trkpt>
   <trkpt lon="2.732215" lat="39.774095"><ele>63.25</ele></trkpt>
   <trkpt lon="2.732482" lat="39.774148"><ele>64.0</ele></trkpt>
   <trkpt lon="2.732616" lat="39.774179"><ele>65.25</ele></trkpt>
   <trkpt lon="2.732877" lat="39.774258"><ele>66.75</ele></trkpt>
   <trkpt lon="2.733014" lat="39.774317"><ele>66.25</ele></trkpt>
   <trkpt lon="2.733495" lat="39.774468"><ele>68.5</ele></trkpt>
   <trkpt lon="2.733867" lat="39.774594"><ele>68.75</ele></trkpt>
   <trkpt lon="2.733979" lat="39.774638"><ele>69.25</ele></trkpt>
   <trkpt lon="2.734576" lat="39.774966"><ele>72.75</ele></trkpt>
   <trkpt lon="2.734715" lat="39.775047"><ele>73.5</ele></trkpt>
   <trkpt lon="2.734784" lat="39.775095"><ele>73.5</ele></trkpt>
   <trkpt lon="2.734929" lat="39.775280"><ele>74.0</ele></trkpt>
   <trkpt lon="2.734954" lat="39.775323"><ele>74.5</ele></trkpt>
   <trkpt lon="2.734978" lat="39.775390"><ele>75.25</ele></trkpt>
   <trkpt lon="2.735012" lat="39.775426"><ele>75.5</ele></trkpt>
   <trkpt lon="2.735066" lat="39.775453"><ele>75.5</ele></trkpt>
   <trkpt lon="2.735211" lat="39.775503"><ele>75.25</ele></trkpt>
   <trkpt lon="2.735435" lat="39.775569"><ele>75.5</ele></trkpt>
   <trkpt lon="2.735869" lat="39.775720"><ele>77.5</ele></trkpt>
   <trkpt lon="2.735904" lat="39.775730"><ele>77.75</ele></trkpt>
   <trkpt lon="2.736092" lat="39.775756"><ele>79.25</ele></trkpt>
   <trkpt lon="2.736188" lat="39.775811"><ele>80.0</ele></trkpt>
   <trkpt lon="2.736370" lat="39.775959"><ele>80.5</ele></trkpt>
   <trkpt lon="2.736452" lat="39.776005"><ele>80.75</ele></trkpt>
   <trkpt lon="2.736819" lat="39.776154"><ele>84.25</ele></trkpt>
   <trkpt lon="2.737131" lat="39.776303"><ele>84.5</ele></trkpt>
   <trkpt lon="2.737218" lat="39.776354"><ele>85.25</ele></trkpt>
   <trkpt lon="2.737347" lat="39.776460"><ele>87.0</ele></trkpt>
   <trkpt lon="2.737400" lat="39.776519"><ele>87.25</ele></trkpt>
   <trkpt lon="2.737528" lat="39.776694"><ele>87.0</ele></trkpt>
   <trkpt lon="2.737596" lat="39.776765"><ele>87.25</ele></trkpt>
   <trkpt lon="2.737708" lat="39.776857"><ele>88.75</ele></trkpt>
   <trkpt lon="2.737920" lat="39.777049"><ele>91.75</ele></trkpt>
   <trkpt lon="2.737992" lat="39.777104"><ele>92.25</ele></trkpt>
   <trkpt lon="2.738125" lat="39.777176"><ele>93.5</ele></trkpt>
   <trkpt lon="2.738306" lat="39.777413"><ele>95.75</ele></trkpt>
   <trkpt lon="2.738348" lat="39.777518"><ele>96.0</ele></trkpt>
   <trkpt lon="2.738390" lat="39.777701"><ele>95.5</ele></trkpt>
   <trkpt lon="2.738512" lat="39.777914"><ele>96.25</ele></trkpt>
   <trkpt lon="2.738575" lat="39.778021"><ele>95.5</ele></trkpt>
   <trkpt lon="2.738648" lat="39.778085"><ele>95.5</ele></trkpt>
   <trkpt lon="2.738795" lat="39.778187"><ele>96.75</ele></trkpt>
   <trkpt lon="2.738832" lat="39.778231"><ele>96.75</ele></trkpt>
   <trkpt lon="2.738867" lat="39.778296"><ele>97.0</ele></trkpt>
   <trkpt lon="2.738898" lat="39.778400"><ele>97.5</ele></trkpt>
   <trkpt lon="2.738915" lat="39.778500"><ele>98.25</ele></trkpt>
   <trkpt lon="2.738956" lat="39.778605"><ele>98.5</ele></trkpt>
   <trkpt lon="2.738990" lat="39.778647"><ele>99.0</ele></trkpt>
   <trkpt lon="2.739205" lat="39.778843"><ele>101.0</ele></trkpt>
   <trkpt lon="2.739224" lat="39.778875"><ele>101.5</ele></trkpt>
   <trkpt lon="2.739238" lat="39.778923"><ele>101.75</ele></trkpt>
   <trkpt lon="2.739241" lat="39.778977"><ele>102.25</ele></trkpt>
   <trkpt lon="2.739233" lat="39.779037"><ele>102.5</ele></trkpt>
   <trkpt lon="2.739142" lat="39.779253"><ele>103.5</ele></trkpt>
   <trkpt lon="2.739117" lat="39.779366"><ele>104.5</ele></trkpt>
   <trkpt lon="2.739128" lat="39.779443"><ele>105.0</ele></trkpt>
   <trkpt lon="2.739147" lat="39.779500"><ele>105.5</ele></trkpt>
   <trkpt lon="2.739176" lat="39.779557"><ele>106.0</ele></trkpt>
   <trkpt lon="2.739220" lat="39.779610"><ele>106.5</ele></trkpt>
   <trkpt lon="2.739305" lat="39.779674"><ele>106.75</ele></trkpt>
   <trkpt lon="2.739404" lat="39.779730"><ele>107.25</ele></trkpt>
   <trkpt lon="2.739538" lat="39.779793"><ele>107.75</ele></trkpt>
   <trkpt lon="2.739711" lat="39.779870"><ele>108.5</ele></trkpt>
   <trkpt lon="2.739847" lat="39.779950"><ele>110.25</ele></trkpt>
   <trkpt lon="2.739886" lat="39.779990"><ele>110.75</ele></trkpt>
   <trkpt lon="2.739918" lat="39.780044"><ele>111.25</ele></trkpt>
   <trkpt lon="2.739922" lat="39.780081"><ele>111.75</ele></trkpt>
   <trkpt lon="2.739915" lat="39.780145"><ele>112.25</ele></trkpt>
   <trkpt lon="2.739860" lat="39.780237"><ele>113.0</ele></trkpt>
   <trkpt lon="2.739798" lat="39.780288"><ele>113.5</ele></trkpt>
   <trkpt lon="2.739743" lat="39.780314"><ele>113.75</ele></trkpt>
   <trkpt lon="2.739689" lat="39.780323"><ele>114.25</ele></trkpt>
   <trkpt lon="2.739623" lat="39.780323"><ele>114.75</ele></trkpt>
   <trkpt lon="2.739525" lat="39.780307"><ele>115.0</ele></trkpt>
   <trkpt lon="2.739433" lat="39.780278"><ele>115.0</ele></trkpt>
   <trkpt lon="2.739353" lat="39.780244"><ele>115.0</ele></trkpt>
   <trkpt lon="2.739281" lat="39.780228"><ele>115.25</ele></trkpt>
   <trkpt lon="2.739224" lat="39.780223"><ele>115.75</ele></trkpt>
   <trkpt lon="2.739053" lat="39.780232"><ele>117.0</ele></trkpt>
   <trkpt lon="2.738980" lat="39.780230"><ele>117.5</ele></trkpt>
   <trkpt lon="2.738913" lat="39.780219"><ele>117.75</ele></trkpt>
   <trkpt lon="2.738574" lat="39.780093"><ele>117.5</ele></trkpt>
   <trkpt lon="2.738465" lat="39.780080"><ele>118.75</ele></trkpt>
   <trkpt lon="2.738403" lat="39.780085"><ele>119.75</ele></trkpt>
   <trkpt lon="2.738358" lat="39.780103"><ele>120.75</ele></trkpt>
   <trkpt lon="2.738329" lat="39.780123"><ele>121.25</ele></trkpt>
   <trkpt lon="2.738309" lat="39.780155"><ele>122.25</ele></trkpt>
   <trkpt lon="2.738309" lat="39.780186"><ele>122.5</ele></trkpt>
   <trkpt lon="2.738337" lat="39.780237"><ele>122.5</ele></trkpt>
   <trkpt lon="2.738362" lat="39.780263"><ele>122.5</ele></trkpt>
   <trkpt lon="2.738672" lat="39.780561"><ele>126.0</ele></trkpt>
   <trkpt lon="2.738731" lat="39.780657"><ele>127.0</ele></trkpt>
   <trkpt lon="2.738753" lat="39.780706"><ele>127.5</ele></trkpt>
   <trkpt lon="2.738797" lat="39.780753"><ele>128.0</ele></trkpt>
   <trkpt lon="2.738825" lat="39.780771"><ele>128.0</ele></trkpt>
   <trkpt lon="2.738872" lat="39.780787"><ele>128.0</ele></trkpt>
   <trkpt lon="2.739030" lat="39.780817"><ele>128.5</ele></trkpt>
   <trkpt lon="2.739219" lat="39.780850"><ele>129.0</ele></trkpt>
   <trkpt lon="2.739279" lat="39.780864"><ele>128.75</ele></trkpt>
   <trkpt lon="2.739317" lat="39.780881"><ele>128.75</ele></trkpt>
   <trkpt lon="2.739351" lat="39.780912"><ele>129.25</ele></trkpt>
   <trkpt lon="2.739392" lat="39.780973"><ele>130.0</ele></trkpt>
   <trkpt lon="2.739422" lat="39.781090"><ele>131.75</ele></trkpt>
   <trkpt lon="2.739441" lat="39.781123"><ele>132.25</ele></trkpt>
   <trkpt lon="2.739491" lat="39.781159"><ele>133.0</ele></trkpt>
   <trkpt lon="2.739617" lat="39.781232"><ele>135.0</ele></trkpt>
   <trkpt lon="2.739706" lat="39.781275"><ele>136.25</ele></trkpt>
   <trkpt lon="2.739821" lat="39.781312"><ele>136.5</ele></trkpt>
   <trkpt lon="2.740142" lat="39.781406"><ele>137.25</ele></trkpt>
   <trkpt lon="2.740186" lat="39.781417"><ele>137.5</ele></trkpt>
   <trkpt lon="2.740237" lat="39.781420"><ele>137.25</ele></trkpt>
   <trkpt lon="2.740446" lat="39.781392"><ele>137.0</ele></trkpt>
   <trkpt lon="2.740506" lat="39.781396"><ele>137.0</ele></trkpt>
   <trkpt lon="2.740577" lat="39.781420"><ele>137.25</ele></trkpt>
   <trkpt lon="2.740673" lat="39.781511"><ele>138.75</ele></trkpt>
   <trkpt lon="2.740748" lat="39.781587"><ele>140.0</ele></trkpt>
   <trkpt lon="2.740831" lat="39.781687"><ele>142.0</ele></trkpt>
   <trkpt lon="2.740882" lat="39.781777"><ele>141.75</ele></trkpt>
   <trkpt lon="2.740927" lat="39.781886"><ele>142.25</ele></trkpt>
   <trkpt lon="2.740932" lat="39.781938"><ele>143.0</ele></trkpt>
   <trkpt lon="2.740948" lat="39.782266"><ele>146.0</ele></trkpt>
   <trkpt lon="2.740955" lat="39.782314"><ele>146.5</ele></trkpt>
   <trkpt lon="2.740976" lat="39.782341"><ele>146.75</ele></trkpt>
   <trkpt lon="2.741007" lat="39.782359"><ele>146.5</ele></trkpt>
   <trkpt lon="2.741070" lat="39.782382"><ele>146.5</ele></trkpt>
   <trkpt lon="2.741227" lat="39.782416"><ele>146.0</ele></trkpt>
   <trkpt lon="2.741311" lat="39.782435"><ele>146.0</ele><sym>left</sym></trkpt>
   <trkpt lon="2.741266" lat="39.782532"><ele>148.0</ele></trkpt>
   <trkpt lon="2.741178" lat="39.782649"><ele>153.5</ele><sym>u-turn</sym><type>Via</type></trkpt>
   <trkpt lon="2.741266" lat="39.782532"><ele>148.0</ele></trkpt>
   <trkpt lon="2.741311" lat="39.782435"><ele>146.0</ele><sym>right</sym></trkpt>
   <trkpt lon="2.741227" lat="39.782416"><ele>146.0</ele></trkpt>
   <trkpt lon="2.741070" lat="39.782382"><ele>146.5</ele></trkpt>
   <trkpt lon="2.741007" lat="39.782359"><ele>146.5</ele></trkpt>
   <trkpt lon="2.740976" lat="39.782341"><ele>146.75</ele></trkpt>
   <trkpt lon="2.740955" lat="39.782314"><ele>146.5</ele></trkpt>
   <trkpt lon="2.740948" lat="39.782266"><ele>146.0</ele></trkpt>
   <trkpt lon="2.740932" lat="39.781938"><ele>143.0</ele></trkpt>
   <trkpt lon="2.740927" lat="39.781886"><ele>142.25</ele></trkpt>
   <trkpt lon="2.740882" lat="39.781777"><ele>141.75</ele></trkpt>
   <trkpt lon="2.740831" lat="39.781687"><ele>142.0</ele></trkpt>
   <trkpt lon="2.740748" lat="39.781587"><ele>140.0</ele></trkpt>
   <trkpt lon="2.740673" lat="39.781511"><ele>138.75</ele></trkpt>
   <trkpt lon="2.740577" lat="39.781420"><ele>137.25</ele></trkpt>
   <trkpt lon="2.740506" lat="39.781396"><ele>137.0</ele></trkpt>
   <trkpt lon="2.740446" lat="39.781392"><ele>137.0</ele></trkpt>
   <trkpt lon="2.740237" lat="39.781420"><ele>137.25</ele></trkpt>
   <trkpt lon="2.740186" lat="39.781417"><ele>137.5</ele></trkpt>
   <trkpt lon="2.740142" lat="39.781406"><ele>137.25</ele></trkpt>
   <trkpt lon="2.739821" lat="39.781312"><ele>136.5</ele></trkpt>
   <trkpt lon="2.739706" lat="39.781275"><ele>136.25</ele></trkpt>
   <trkpt lon="2.739617" lat="39.781232"><ele>135.0</ele></trkpt>
   <trkpt lon="2.739491" lat="39.781159"><ele>133.0</ele></trkpt>
   <trkpt lon="2.739441" lat="39.781123"><ele>132.25</ele></trkpt>
   <trkpt lon="2.739422" lat="39.781090"><ele>131.75</ele></trkpt>
   <trkpt lon="2.739392" lat="39.780973"><ele>130.0</ele></trkpt>
   <trkpt lon="2.739351" lat="39.780912"><ele>129.25</ele></trkpt>
   <trkpt lon="2.739317" lat="39.780881"><ele>128.75</ele></trkpt>
   <trkpt lon="2.739279" lat="39.780864"><ele>128.75</ele></trkpt>
   <trkpt lon="2.739219" lat="39.780850"><ele>129.0</ele></trkpt>
   <trkpt lon="2.739030" lat="39.780817"><ele>128.5</ele></trkpt>
   <trkpt lon="2.738872" lat="39.780787"><ele>128.0</ele></trkpt>
   <trkpt lon="2.738825" lat="39.780771"><ele>128.0</ele></trkpt>
   <trkpt lon="2.738797" lat="39.780753"><ele>128.0</ele></trkpt>
   <trkpt lon="2.738753" lat="39.780706"><ele>127.5</ele></trkpt>
   <trkpt lon="2.738731" lat="39.780657"><ele>127.0</ele></trkpt>
   <trkpt lon="2.738672" lat="39.780561"><ele>126.0</ele></trkpt>
   <trkpt lon="2.738362" lat="39.780263"><ele>122.5</ele></trkpt>
   <trkpt lon="2.738337" lat="39.780237"><ele>122.5</ele></trkpt>
   <trkpt lon="2.738309" lat="39.780186"><ele>122.5</ele></trkpt>
   <trkpt lon="2.738309" lat="39.780155"><ele>122.25</ele></trkpt>
   <trkpt lon="2.738329" lat="39.780123"><ele>121.25</ele></trkpt>
   <trkpt lon="2.738358" lat="39.780103"><ele>120.75</ele></trkpt>
   <trkpt lon="2.738403" lat="39.780085"><ele>119.75</ele></trkpt>
   <trkpt lon="2.738465" lat="39.780080"><ele>118.75</ele></trkpt>
   <trkpt lon="2.738574" lat="39.780093"><ele>117.5</ele></trkpt>
   <trkpt lon="2.738913" lat="39.780219"><ele>117.75</ele></trkpt>
   <trkpt lon="2.738980" lat="39.780230"><ele>117.5</ele></trkpt>
   <trkpt lon="2.739053" lat="39.780232"><ele>117.0</ele></trkpt>
   <trkpt lon="2.739224" lat="39.780223"><ele>115.75</ele></trkpt>
   <trkpt lon="2.739281" lat="39.780228"><ele>115.25</ele></trkpt>
   <trkpt lon="2.739353" lat="39.780244"><ele>115.0</ele></trkpt>
   <trkpt lon="2.739433" lat="39.780278"><ele>115.0</ele></trkpt>
   <trkpt lon="2.739525" lat="39.780307"><ele>115.0</ele></trkpt>
   <trkpt lon="2.739623" lat="39.780323"><ele>114.75</ele></trkpt>
   <trkpt lon="2.739689" lat="39.780323"><ele>114.25</ele></trkpt>
   <trkpt lon="2.739743" lat="39.780314"><ele>113.75</ele></trkpt>
   <trkpt lon="2.739798" lat="39.780288"><ele>113.5</ele></trkpt>
   <trkpt lon="2.739860" lat="39.780237"><ele>113.0</ele></trkpt>
   <trkpt lon="2.739915" lat="39.780145"><ele>112.25</ele></trkpt>
   <trkpt lon="2.739922" lat="39.780081"><ele>111.75</ele></trkpt>
   <trkpt lon="2.739918" lat="39.780044"><ele>111.25</ele></trkpt>
   <trkpt lon="2.739886" lat="39.779990"><ele>110.75</ele></trkpt>
   <trkpt lon="2.739847" lat="39.779950"><ele>110.25</ele></trkpt>
   <trkpt lon="2.739711" lat="39.779870"><ele>108.5</ele></trkpt>
   <trkpt lon="2.739538" lat="39.779793"><ele>107.75</ele></trkpt>
   <trkpt lon="2.739404" lat="39.779730"><ele>107.25</ele></trkpt>
   <trkpt lon="2.739305" lat="39.779674"><ele>106.75</ele></trkpt>
   <trkpt lon="2.739220" lat="39.779610"><ele>106.5</ele></trkpt>
   <trkpt lon="2.739176" lat="39.779557"><ele>106.0</ele></trkpt>
   <trkpt lon="2.739147" lat="39.779500"><ele>105.5</ele></trkpt>
   <trkpt lon="2.739128" lat="39.779443"><ele>105.0</ele></trkpt>
   <trkpt lon="2.739117" lat="39.779366"><ele>104.5</ele></trkpt>
   <trkpt lon="2.739142" lat="39.779253"><ele>103.5</ele></trkpt>
   <trkpt lon="2.739233" lat="39.779037"><ele>102.5</ele></trkpt>
   <trkpt lon="2.739241" lat="39.778977"><ele>102.25</ele></trkpt>
   <trkpt lon="2.739238" lat="39.778923"><ele>101.75</ele></trkpt>
   <trkpt lon="2.739224" lat="39.778875"><ele>101.5</ele></trkpt>
   <trkpt lon="2.739205" lat="39.778843"><ele>101.0</ele></trkpt>
   <trkpt lon="2.738990" lat="39.778647"><ele>99.0</ele></trkpt>
   <trkpt lon="2.738956" lat="39.778605"><ele>98.5</ele></trkpt>
   <trkpt lon="2.738915" lat="39.778500"><ele>98.25</ele></trkpt>
   <trkpt lon="2.738898" lat="39.778400"><ele>97.5</ele></trkpt>
   <trkpt lon="2.738867" lat="39.778296"><ele>97.0</ele></trkpt>
   <trkpt lon="2.738832" lat="39.778231"><ele>96.75</ele></trkpt>
   <trkpt lon="2.738795" lat="39.778187"><ele>96.75</ele></trkpt>
   <trkpt lon="2.738648" lat="39.778085"><ele>95.5</ele></trkpt>
   <trkpt lon="2.738575" lat="39.778021"><ele>95.5</ele></trkpt>
   <trkpt lon="2.738512" lat="39.777914"><ele>96.25</ele></trkpt>
   <trkpt lon="2.738390" lat="39.777701"><ele>95.5</ele></trkpt>
   <trkpt lon="2.738348" lat="39.777518"><ele>96.0</ele></trkpt>
   <trkpt lon="2.738306" lat="39.777413"><ele>95.75</ele></trkpt>
   <trkpt lon="2.738125" lat="39.777176"><ele>93.5</ele></trkpt>
   <trkpt lon="2.737992" lat="39.777104"><ele>92.25</ele></trkpt>
   <trkpt lon="2.737920" lat="39.777049"><ele>91.75</ele></trkpt>
   <trkpt lon="2.737708" lat="39.776857"><ele>88.75</ele></trkpt>
   <trkpt lon="2.737596" lat="39.776765"><ele>87.25</ele></trkpt>
   <trkpt lon="2.737528" lat="39.776694"><ele>87.0</ele></trkpt>
   <trkpt lon="2.737400" lat="39.776519"><ele>87.25</ele></trkpt>
   <trkpt lon="2.737347" lat="39.776460"><ele>87.0</ele></trkpt>
   <trkpt lon="2.737218" lat="39.776354"><ele>85.25</ele></trkpt>
   <trkpt lon="2.737131" lat="39.776303"><ele>84.5</ele></trkpt>
   <trkpt lon="2.736819" lat="39.776154"><ele>84.25</ele></trkpt>
   <trkpt lon="2.736452" lat="39.776005"><ele>80.75</ele></trkpt>
   <trkpt lon="2.736370" lat="39.775959"><ele>80.5</ele></trkpt>
   <trkpt lon="2.736188" lat="39.775811"><ele>80.0</ele></trkpt>
   <trkpt lon="2.736092" lat="39.775756"><ele>79.25</ele></trkpt>
   <trkpt lon="2.735904" lat="39.775730"><ele>77.75</ele></trkpt>
   <trkpt lon="2.735869" lat="39.775720"><ele>77.5</ele></trkpt>
   <trkpt lon="2.735435" lat="39.775569"><ele>75.5</ele></trkpt>
   <trkpt lon="2.735211" lat="39.775503"><ele>75.25</ele></trkpt>
   <trkpt lon="2.735066" lat="39.775453"><ele>75.5</ele></trkpt>
   <trkpt lon="2.735012" lat="39.775426"><ele>75.5</ele></trkpt>
   <trkpt lon="2.734978" lat="39.775390"><ele>75.25</ele></trkpt>
   <trkpt lon="2.734954" lat="39.775323"><ele>74.5</ele></trkpt>
   <trkpt lon="2.734929" lat="39.775280"><ele>74.0</ele></trkpt>
   <trkpt lon="2.734784" lat="39.775095"><ele>73.5</ele></trkpt>
   <trkpt lon="2.734715" lat="39.775047"><ele>73.5</ele></trkpt>
   <trkpt lon="2.734576" lat="39.774966"><ele>72.75</ele></trkpt>
   <trkpt lon="2.733979" lat="39.774638"><ele>69.25</ele></trkpt>
   <trkpt lon="2.733867" lat="39.774594"><ele>68.75</ele></trkpt>
   <trkpt lon="2.733495" lat="39.774468"><ele>68.5</ele></trkpt>
   <trkpt lon="2.733014" lat="39.774317"><ele>66.25</ele><sym>left</sym></trkpt>
   <trkpt lon="2.733059" lat="39.774183"><ele>67.75</ele></trkpt>
   <trkpt lon="2.733226" lat="39.773977"><ele>67.0</ele></trkpt>
   <trkpt lon="2.733483" lat="39.773514"><ele>68.0</ele></trkpt>
   <trkpt lon="2.734053" lat="39.772675"><ele>69.25</ele></trkpt>
   <trkpt lon="2.734121" lat="39.772520"><ele>71.0</ele></trkpt>
   <trkpt lon="2.734059" lat="39.772344"><ele>72.25</ele><sym>left</sym></trkpt>
   <trkpt lon="2.734099" lat="39.772275"><ele>74.0</ele></trkpt>
   <trkpt lon="2.734217" lat="39.772238"><ele>77.25</ele><sym>right</sym></trkpt>
   <trkpt lon="2.734207" lat="39.772129"><ele>78.0</ele><sym>u-turn</sym><type>Via</type></trkpt>
   <trkpt lon="2.734217" lat="39.772238"><ele>77.25</ele><sym>left</sym></trkpt>
   <trkpt lon="2.734099" lat="39.772275"><ele>74.0</ele></trkpt>
   <trkpt lon="2.734059" lat="39.772344"><ele>72.25</ele><sym>right_slight</sym></trkpt>
   <trkpt lon="2.734121" lat="39.772520"><ele>71.0</ele></trkpt>
   <trkpt lon="2.734053" lat="39.772675"><ele>69.25</ele></trkpt>
   <trkpt lon="2.733483" lat="39.773514"><ele>68.0</ele></trkpt>
   <trkpt lon="2.733226" lat="39.773977"><ele>67.0</ele></trkpt>
   <trkpt lon="2.733059" lat="39.774183"><ele>67.75</ele></trkpt>
   <trkpt lon="2.733014" lat="39.774317"><ele>66.25</ele><sym>left</sym></trkpt>
   <trkpt lon="2.732877" lat="39.774258"><ele>66.75</ele></trkpt>
   <trkpt lon="2.732616" lat="39.774179"><ele>65.25</ele></trkpt>
   <trkpt lon="2.732482" lat="39.774148"><ele>64.0</ele></trkpt>
   <trkpt lon="2.732215" lat="39.774095"><ele>63.25</ele></trkpt>
   <trkpt lon="2.731828" lat="39.774045"><ele>62.75</ele></trkpt>
   <trkpt lon="2.731779" lat="39.774031"><ele>62.75</ele></trkpt>
   <trkpt lon="2.731256" lat="39.773834"><ele>60.75</ele></trkpt>
   <trkpt lon="2.730905" lat="39.773735"><ele>60.0</ele></trkpt>
   <trkpt lon="2.730775" lat="39.773711"><ele>59.75</ele></trkpt>
   <trkpt lon="2.730596" lat="39.773722"><ele>59.0</ele></trkpt>
   <trkpt lon="2.730112" lat="39.773692"><ele>58.0</ele></trkpt>
   <trkpt lon="2.729431" lat="39.773563"><ele>57.5</ele></trkpt>
   <trkpt lon="2.729383" lat="39.773531"><ele>57.25</ele></trkpt>
   <trkpt lon="2.729362" lat="39.773473"><ele>56.75</ele></trkpt>
   <trkpt lon="2.729324" lat="39.773213"><ele>55.75</ele></trkpt>
   <trkpt lon="2.729146" lat="39.772958"><ele>54.75</ele></trkpt>
   <trkpt lon="2.728903" lat="39.772662"><ele>53.25</ele></trkpt>
   <trkpt lon="2.728862" lat="39.772635"><ele>53.25</ele></trkpt>
   <trkpt lon="2.728806" lat="39.772622"><ele>53.25</ele></trkpt>
   <trkpt lon="2.728336" lat="39.772580"><ele>52.0</ele></trkpt>
   <trkpt lon="2.727999" lat="39.772548"><ele>51.25</ele></trkpt>
   <trkpt lon="2.727839" lat="39.772515"><ele>51.0</ele></trkpt>
   <trkpt lon="2.727714" lat="39.772478"><ele>50.5</ele></trkpt>
   <trkpt lon="2.727601" lat="39.772422"><ele>50.0</ele></trkpt>
   <trkpt lon="2.727470" lat="39.772327"><ele>50.0</ele></trkpt>
   <trkpt lon="2.727238" lat="39.772149"><ele>49.0</ele></trkpt>
   <trkpt lon="2.726946" lat="39.771910"><ele>48.75</ele></trkpt>
   <trkpt lon="2.726681" lat="39.771736"><ele>48.0</ele></trkpt>
   <trkpt lon="2.726443" lat="39.771545"><ele>47.0</ele></trkpt>
   <trkpt lon="2.726058" lat="39.771133"><ele>45.75</ele></trkpt>
   <trkpt lon="2.725667" lat="39.770717"><ele>45.0</ele></trkpt>
   <trkpt lon="2.725142" lat="39.770353"><ele>43.75</ele></trkpt>
   <trkpt lon="2.725095" lat="39.770309"><ele>43.75</ele></trkpt>
   <trkpt lon="2.725067" lat="39.770264"><ele>44.0</ele></trkpt>
   <trkpt lon="2.724996" lat="39.770048"><ele>43.75</ele></trkpt>
   <trkpt lon="2.724893" lat="39.769812"><ele>43.25</ele></trkpt>
   <trkpt lon="2.724824" lat="39.769736"><ele>43.25</ele></trkpt>
   <trkpt lon="2.724720" lat="39.769661"><ele>42.75</ele></trkpt>
   <trkpt lon="2.724667" lat="39.769644"><ele>42.5</ele></trkpt>
   <trkpt lon="2.724355" lat="39.769595"><ele>41.5</ele><sym>left_slight</sym></trkpt>
   <trkpt lon="2.724257" lat="39.768825"><ele>39.75</ele></trkpt>
   <trkpt lon="2.724066" lat="39.768618"><ele>38.25</ele></trkpt>
   <trkpt lon="2.724077" lat="39.768530"><ele>39.5</ele></trkpt>
   <trkpt lon="2.724079" lat="39.768507"><ele>40.0</ele><sym>stay_left</sym></trkpt>
   <trkpt lon="2.724085" lat="39.768459"><ele>40.75</ele></trkpt>
   <trkpt lon="2.724097" lat="39.768267"><ele>43.25</ele><sym>right</sym></trkpt>
   <trkpt lon="2.724023" lat="39.768232"><ele>43.5</ele></trkpt>
   <trkpt lon="2.723190" lat="39.767837"><ele>43.25</ele></trkpt>
   <trkpt lon="2.722771" lat="39.767688"><ele>42.5</ele></trkpt>
   <trkpt lon="2.722365" lat="39.767596"><ele>41.0</ele></trkpt>
   <trkpt lon="2.722133" lat="39.767564"><ele>40.5</ele></trkpt>
   <trkpt lon="2.721862" lat="39.767536"><ele>39.5</ele></trkpt>
   <trkpt lon="2.721655" lat="39.767487"><ele>39.0</ele></trkpt>
   <trkpt lon="2.721438" lat="39.767418"><ele>39.0</ele></trkpt>
   <trkpt lon="2.721205" lat="39.767301"><ele>38.75</ele></trkpt>
   <trkpt lon="2.721017" lat="39.767164"><ele>38.5</ele></trkpt>
   <trkpt lon="2.720939" lat="39.767097"><ele>38.5</ele></trkpt>
   <trkpt lon="2.720840" lat="39.767041"><ele>38.5</ele></trkpt>
   <trkpt lon="2.719975" lat="39.766787"><ele>39.5</ele></trkpt>
   <trkpt lon="2.719767" lat="39.766724"><ele>40.25</ele></trkpt>
   <trkpt lon="2.719463" lat="39.766636"><ele>40.0</ele></trkpt>
   <trkpt lon="2.718916" lat="39.766476"><ele>41.25</ele></trkpt>
   <trkpt lon="2.718510" lat="39.766357"><ele>41.5</ele><sym>pass_place</sym><type>Shaping</type></trkpt>
   <trkpt lon="2.718506" lat="39.766356"><ele>41.5</ele></trkpt>
   <trkpt lon="2.718489" lat="39.766351"><ele>41.5</ele></trkpt>
   <trkpt lon="2.718258" lat="39.766283"><ele>42.0</ele></trkpt>
   <trkpt lon="2.717933" lat="39.766188"><ele>41.5</ele></trkpt>
   <trkpt lon="2.717606" lat="39.766100"><ele>42.0</ele></trkpt>
   <trkpt lon="2.716796" lat="39.765814"><ele>41.0</ele></trkpt>
   <trkpt lon="2.716723" lat="39.765789"><ele>41.0</ele></trkpt>
   <trkpt lon="2.716486" lat="39.765712"><ele>41.75</ele></trkpt>
   <trkpt lon="2.716212" lat="39.765686"><ele>41.25</ele></trkpt>
   <trkpt lon="2.715881" lat="39.765631"><ele>40.5</ele></trkpt>
   <trkpt lon="2.715798" lat="39.765616"><ele>40.25</ele></trkpt>
   <trkpt lon="2.715510" lat="39.765565"><ele>38.75</ele><sym>right_slight</sym></trkpt>
   <trkpt lon="2.715337" lat="39.765606"><ele>37.75</ele></trkpt>
   <trkpt lon="2.715197" lat="39.765615"><ele>37.25</ele></trkpt>
   <trkpt lon="2.715157" lat="39.765618"><ele>37.0</ele></trkpt>
   <trkpt lon="2.714896" lat="39.765574"><ele>36.75</ele></trkpt>
   <trkpt lon="2.714808" lat="39.765560"><ele>36.75</ele><sym>right</sym></trkpt>
   <trkpt lon="2.714793" lat="39.765609"><ele>36.75</ele></trkpt>
   <trkpt lon="2.714778" lat="39.765847"><ele>35.75</ele></trkpt>
   <trkpt lon="2.714825" lat="39.766186"><ele>34.0</ele><sym>left_sharp</sym></trkpt>
   <trkpt lon="2.714103" lat="39.766114"><ele>34.75</ele><sym>right</sym></trkpt>
   <trkpt lon="2.714019" lat="39.766108"><ele>35.0</ele></trkpt>
   <trkpt lon="2.713927" lat="39.766244"><ele>34.5</ele><sym>straight</sym></trkpt>
   <trkpt lon="2.713910" lat="39.766270"><ele>34.25</ele></trkpt>
   <trkpt lon="2.713736" lat="39.766536"><ele>32.75</ele></trkpt>
   <trkpt lon="2.713331" lat="39.767046"><ele>30.5</ele></trkpt>
   <trkpt lon="2.712929" lat="39.767412"><ele>29.25</ele></trkpt>
   <trkpt lon="2.712601" lat="39.767876"><ele>28.0</ele></trkpt>
   <trkpt lon="2.712131" lat="39.768445"><ele>26.75</ele></trkpt>
   <trkpt lon="2.712065" lat="39.768505"><ele>26.5</ele></trkpt>
   <trkpt lon="2.711794" lat="39.768774"><ele>25.25</ele></trkpt>
   <trkpt lon="2.711298" lat="39.769261"><ele>23.5</ele></trkpt>
   <trkpt lon="2.710541" lat="39.769996"><ele>21.0</ele></trkpt>
   <trkpt lon="2.710172" lat="39.770354"><ele>19.5</ele></trkpt>
   <trkpt lon="2.709887" lat="39.770628"><ele>18.5</ele></trkpt>
   <trkpt lon="2.709849" lat="39.770662"><ele>18.5</ele></trkpt>
   <trkpt lon="2.709618" lat="39.770899"><ele>17.75</ele></trkpt>
   <trkpt lon="2.708111" lat="39.772408"><ele>17.0</ele></trkpt>
   <trkpt lon="2.707944" lat="39.772578"><ele>17.25</ele></trkpt>
   <trkpt lon="2.707941" lat="39.772750"><ele>17.5</ele><sym>right_slight</sym></trkpt>
   <trkpt lon="2.708144" lat="39.772943"><ele>16.0</ele></trkpt>
   <trkpt lon="2.708357" lat="39.773122"><ele>16.0</ele></trkpt>
   <trkpt lon="2.708410" lat="39.773236"><ele>16.0</ele></trkpt>
   <trkpt lon="2.708299" lat="39.773457"><ele>15.75</ele><sym>straight</sym></trkpt>
   <trkpt lon="2.708289" lat="39.773477"><ele>15.5</ele></trkpt>
   <trkpt lon="2.708227" lat="39.773587"><ele>14.5</ele></trkpt>
   <trkpt lon="2.708054" lat="39.774006"><ele>13.75</ele></trkpt>
   <trkpt lon="2.707964" lat="39.774249"><ele>13.25</ele></trkpt>
   <trkpt lon="2.707870" lat="39.774462"><ele>13.0</ele></trkpt>
   <trkpt lon="2.707502" lat="39.775333"><ele>12.0</ele></trkpt>
   <trkpt lon="2.707317" lat="39.775632"><ele>12.0</ele></trkpt>
   <trkpt lon="2.707299" lat="39.775660"><ele>12.0</ele></trkpt>
   <trkpt lon="2.707176" lat="39.775774"><ele>11.75</ele></trkpt>
   <trkpt lon="2.706410" lat="39.776488"><ele>11.5</ele><sym>pass_place</sym><type>Shaping</type></trkpt>
   <trkpt lon="2.705965" lat="39.776805"><ele>10.5</ele></trkpt>
   <trkpt lon="2.705621" lat="39.777003"><ele>10.5</ele></trkpt>
   <trkpt lon="2.705563" lat="39.777043"><ele>10.5</ele></trkpt>
   <trkpt lon="2.705425" lat="39.777168"><ele>10.0</ele></trkpt>
   <trkpt lon="2.705162" lat="39.777449"><ele>10.0</ele></trkpt>
   <trkpt lon="2.704739" lat="39.777939"><ele>9.75</ele></trkpt>
   <trkpt lon="2.704616" lat="39.778099"><ele>9.5</ele></trkpt>
   <trkpt lon="2.704567" lat="39.778173"><ele>9.25</ele></trkpt>
   <trkpt lon="2.704531" lat="39.778252"><ele>9.5</ele></trkpt>
   <trkpt lon="2.704489" lat="39.778385"><ele>9.75</ele><sym>roundabout_e2</sym></trkpt>
   <trkpt lon="2.704489" lat="39.778412"><ele>9.75</ele></trkpt>
   <trkpt lon="2.704462" lat="39.778461"><ele>9.75</ele></trkpt>
   <trkpt lon="2.704410" lat="39.778500"><ele>9.75</ele></trkpt>
   <trkpt lon="2.704374" lat="39.778511"><ele>9.75</ele></trkpt>
   <trkpt lon="2.704299" lat="39.778508"><ele>9.75</ele></trkpt>
   <trkpt lon="2.704121" lat="39.778534"><ele>9.5</ele></trkpt>
   <trkpt lon="2.704023" lat="39.778556"><ele>9.25</ele></trkpt>
   <trkpt lon="2.703964" lat="39.778576"><ele>9.0</ele></trkpt>
   <trkpt lon="2.703815" lat="39.778648"><ele>8.75</ele></trkpt>
   <trkpt lon="2.703724" lat="39.778712"><ele>8.75</ele></trkpt>
   <trkpt lon="2.702806" lat="39.779387"><ele>8.5</ele></trkpt>
   <trkpt lon="2.702013" lat="39.779971"><ele>8.5</ele></trkpt>
   <trkpt lon="2.701574" lat="39.780294"><ele>8.75</ele></trkpt>
   <trkpt lon="2.701346" lat="39.780465"><ele>8.25</ele></trkpt>
   <trkpt lon="2.701256" lat="39.780545"><ele>8.25</ele></trkpt>
   <trkpt lon="2.701066" lat="39.780748"><ele>8.0</ele></trkpt>
   <trkpt lon="2.700973" lat="39.780874"><ele>7.5</ele></trkpt>
   <trkpt lon="2.700896" lat="39.780984"><ele>7.5</ele></trkpt>
   <trkpt lon="2.700355" lat="39.781826"><ele>7.75</ele></trkpt>
   <trkpt lon="2.700160" lat="39.782125"><ele>8.25</ele></trkpt>
   <trkpt lon="2.699995" lat="39.782383"><ele>9.25</ele></trkpt>
   <trkpt lon="2.699869" lat="39.782605"><ele>12.25</ele></trkpt>
   <trkpt lon="2.699718" lat="39.782885"><ele>8.25</ele><sym>right_slight</sym></trkpt>
   <trkpt lon="2.699622" lat="39.783139"><ele>10.25</ele></trkpt>
   <trkpt lon="2.699391" lat="39.783669"><ele>11.0</ele></trkpt>
   <trkpt lon="2.699193" lat="39.784178"><ele>11.75</ele></trkpt>
   <trkpt lon="2.699076" lat="39.784368"><ele>15.25</ele></trkpt>
   <trkpt lon="2.699022" lat="39.784440"><ele>15.0</ele></trkpt>
   <trkpt lon="2.698960" lat="39.784510"><ele>15.0</ele></trkpt>
   <trkpt lon="2.698807" lat="39.784652"><ele>14.5</ele></trkpt>
   <trkpt lon="2.698425" lat="39.784971"><ele>9.25</ele></trkpt>
   <trkpt lon="2.698048" lat="39.785261"><ele>5.75</ele></trkpt>
   <trkpt lon="2.697890" lat="39.785374"><ele>7.75</ele></trkpt>
   <trkpt lon="2.696706" lat="39.786334"><ele>4.5</ele></trkpt>
   <trkpt lon="2.696341" lat="39.786653"><ele>3.75</ele></trkpt>
   <trkpt lon="2.696188" lat="39.786802"><ele>4.5</ele></trkpt>
   <trkpt lon="2.696028" lat="39.786971"><ele>3.5</ele></trkpt>
   <trkpt lon="2.695862" lat="39.787254"><ele>3.5</ele></trkpt>
   <trkpt lon="2.695747" lat="39.787614"><ele>3.5</ele></trkpt>
   <trkpt lon="2.695654" lat="39.787910"><ele>3.25</ele></trkpt>
   <trkpt lon="2.695533" lat="39.788221"><ele>3.25</ele></trkpt>
   <trkpt lon="2.695345" lat="39.788634"><ele>3.0</ele></trkpt>
   <trkpt lon="2.694930" lat="39.789509"><ele>3.0</ele></trkpt>
   <trkpt lon="2.694831" lat="39.789747"><ele>3.0</ele><sym>pass_place</sym><type>Shaping</type></trkpt>
   <trkpt lon="2.694788" lat="39.789877"><ele>3.0</ele></trkpt>
   <trkpt lon="2.694733" lat="39.790110"><ele>3.0</ele></trkpt>
   <trkpt lon="2.694687" lat="39.790427"><ele>3.25</ele></trkpt>
   <trkpt lon="2.694672" lat="39.790589"><ele>3.5</ele></trkpt>
   <trkpt lon="2.694666" lat="39.790779"><ele>3.75</ele></trkpt>
   <trkpt lon="2.694683" lat="39.790891"><ele>3.75</ele></trkpt>
   <trkpt lon="2.694709" lat="39.790984"><ele>3.75</ele></trkpt>
   <trkpt lon="2.694751" lat="39.791061"><ele>5.0</ele></trkpt>
   <trkpt lon="2.694800" lat="39.791128"><ele>4.75</ele></trkpt>
   <trkpt lon="2.695262" lat="39.791670"><ele>3.75</ele></trkpt>
   <trkpt lon="2.695686" lat="39.792106"><ele>2.75</ele></trkpt>
   <trkpt lon="2.696004" lat="39.792488"><ele>3.0</ele></trkpt>
   <trkpt lon="2.696220" lat="39.792767"><ele>4.75</ele></trkpt>
   <trkpt lon="2.696351" lat="39.792959"><ele>4.5</ele></trkpt>
   <trkpt lon="2.696374" lat="39.792992"><ele>4.25</ele></trkpt>
   <trkpt lon="2.696543" lat="39.793253"><ele>3.75</ele></trkpt>
   <trkpt lon="2.696639" lat="39.793430"><ele>3.5</ele></trkpt>
   <trkpt lon="2.696699" lat="39.793572"><ele>3.25</ele></trkpt>
   <trkpt lon="2.696737" lat="39.793672"><ele>3.25</ele></trkpt>
   <trkpt lon="2.696805" lat="39.793898"><ele>2.75</ele></trkpt>
   <trkpt lon="2.696852" lat="39.794139"><ele>2.25</ele></trkpt>
   <trkpt lon="2.696858" lat="39.794167"><ele>2.25</ele></trkpt>
   <trkpt lon="2.696870" lat="39.794309"><ele>2.75</ele></trkpt>
   <trkpt lon="2.696881" lat="39.794645"><ele>3.25</ele></trkpt>
   <trkpt lon="2.696894" lat="39.795376"><ele>2.5</ele></trkpt>
   <trkpt lon="2.696896" lat="39.795486"><ele>2.5</ele></trkpt>
   <trkpt lon="2.696880" lat="39.795595"><ele>2.5</ele></trkpt>
   <trkpt lon="2.696754" lat="39.796019"><ele>2.5</ele></trkpt>
   <trkpt lon="2.696701" lat="39.796180"><ele>2.0</ele></trkpt>
   <trkpt lon="2.696659" lat="39.796270"><ele>1.75</ele></trkpt>
   <trkpt lon="2.696579" lat="39.796404"><ele>2.0</ele></trkpt>
   <trkpt lon="2.696269" lat="39.796894"><ele>1.75</ele></trkpt>
   <trkpt lon="2.696195" lat="39.796998"><ele>2.25</ele></trkpt>
   <trkpt lon="2.696016" lat="39.797274"><ele>2.75</ele></trkpt>
   <trkpt lon="2.695912" lat="39.797402"><ele>2.75</ele></trkpt>
   <trkpt lon="2.695816" lat="39.797491"><ele>2.75</ele></trkpt>
   <trkpt lon="2.695708" lat="39.797575"><ele>2.75</ele><sym>right</sym></trkpt>
   <trkpt lon="2.695773" lat="39.797623"><ele>2.75</ele></trkpt>
   <trkpt lon="2.696262" lat="39.797916"><ele>6.75</ele><sym>u-turn</sym><type>Via</type></trkpt>
   <trkpt lon="2.695773" lat="39.797623"><ele>2.75</ele></trkpt>
   <trkpt lon="2.695708" lat="39.797575"><ele>2.75</ele><sym>left</sym></trkpt>
   <trkpt lon="2.695816" lat="39.797491"><ele>2.75</ele></trkpt>
   <trkpt lon="2.695912" lat="39.797402"><ele>2.75</ele></trkpt>
   <trkpt lon="2.696016" lat="39.797274"><ele>2.75</ele></trkpt>
   <trkpt lon="2.696195" lat="39.796998"><ele>2.25</ele></trkpt>
   <trkpt lon="2.696269" lat="39.796894"><ele>1.75</ele></trkpt>
   <trkpt lon="2.696579" lat="39.796404"><ele>2.0</ele></trkpt>
   <trkpt lon="2.696659" lat="39.796270"><ele>1.75</ele></trkpt>
   <trkpt lon="2.696701" lat="39.796180"><ele>2.0</ele></trkpt>
   <trkpt lon="2.696754" lat="39.796019"><ele>2.5</ele></trkpt>
   <trkpt lon="2.696880" lat="39.795595"><ele>2.5</ele></trkpt>
   <trkpt lon="2.696896" lat="39.795486"><ele>2.5</ele></trkpt>
   <trkpt lon="2.696894" lat="39.795376"><ele>2.5</ele></trkpt>
   <trkpt lon="2.696881" lat="39.794645"><ele>3.25</ele></trkpt>
   <trkpt lon="2.696870" lat="39.794309"><ele>2.75</ele></trkpt>
   <trkpt lon="2.696858" lat="39.794167"><ele>2.25</ele></trkpt>
   <trkpt lon="2.696852" lat="39.794139"><ele>2.25</ele></trkpt>
   <trkpt lon="2.696805" lat="39.793898"><ele>2.75</ele></trkpt>
   <trkpt lon="2.696737" lat="39.793672"><ele>3.25</ele></trkpt>
   <trkpt lon="2.696699" lat="39.793572"><ele>3.25</ele></trkpt>
   <trkpt lon="2.696639" lat="39.793430"><ele>3.5</ele></trkpt>
   <trkpt lon="2.696543" lat="39.793253"><ele>4.0</ele></trkpt>
   <trkpt lon="2.696374" lat="39.792992"><ele>4.5</ele></trkpt>
   <trkpt lon="2.696351" lat="39.792959"><ele>4.5</ele></trkpt>
   <trkpt lon="2.696220" lat="39.792767"><ele>4.75</ele></trkpt>
   <trkpt lon="2.696004" lat="39.792488"><ele>3.0</ele></trkpt>
   <trkpt lon="2.695686" lat="39.792106"><ele>3.5</ele></trkpt>
   <trkpt lon="2.695262" lat="39.791670"><ele>4.0</ele></trkpt>
   <trkpt lon="2.694800" lat="39.791128"><ele>5.0</ele></trkpt>
   <trkpt lon="2.694751" lat="39.791061"><ele>5.0</ele></trkpt>
   <trkpt lon="2.694709" lat="39.790984"><ele>3.75</ele></trkpt>
   <trkpt lon="2.694683" lat="39.790891"><ele>3.75</ele></trkpt>
   <trkpt lon="2.694666" lat="39.790779"><ele>3.75</ele></trkpt>
   <trkpt lon="2.694672" lat="39.790589"><ele>3.5</ele></trkpt>
   <trkpt lon="2.694687" lat="39.790427"><ele>3.25</ele></trkpt>
   <trkpt lon="2.694733" lat="39.790110"><ele>3.0</ele></trkpt>
   <trkpt lon="2.694788" lat="39.789877"><ele>3.0</ele></trkpt>
   <trkpt lon="2.694831" lat="39.789747"><ele>3.0</ele></trkpt>
   <trkpt lon="2.694930" lat="39.789509"><ele>3.0</ele></trkpt>
   <trkpt lon="2.695345" lat="39.788634"><ele>3.0</ele></trkpt>
   <trkpt lon="2.695533" lat="39.788221"><ele>3.25</ele></trkpt>
   <trkpt lon="2.695654" lat="39.787910"><ele>3.25</ele></trkpt>
   <trkpt lon="2.695747" lat="39.787614"><ele>3.5</ele></trkpt>
   <trkpt lon="2.695862" lat="39.787254"><ele>3.5</ele></trkpt>
   <trkpt lon="2.696028" lat="39.786971"><ele>3.5</ele></trkpt>
   <trkpt lon="2.696188" lat="39.786802"><ele>4.5</ele></trkpt>
   <trkpt lon="2.696341" lat="39.786653"><ele>3.75</ele></trkpt>
   <trkpt lon="2.696706" lat="39.786334"><ele>4.5</ele></trkpt>
   <trkpt lon="2.697890" lat="39.785374"><ele>7.75</ele></trkpt>
   <trkpt lon="2.698210" lat="39.785074"><ele>7.5</ele></trkpt>
   <trkpt lon="2.698284" lat="39.784984"><ele>6.5</ele></trkpt>
   <trkpt lon="2.698375" lat="39.784849"><ele>7.0</ele></trkpt>
   <trkpt lon="2.699276" lat="39.783468"><ele>7.25</ele><sym>pass_place</sym><type>Shaping</type></trkpt>
   <trkpt lon="2.699278" lat="39.783466"><ele>7.25</ele></trkpt>
   <trkpt lon="2.699501" lat="39.783117"><ele>7.25</ele></trkpt>
   <trkpt lon="2.699663" lat="39.782845"><ele>7.25</ele></trkpt>
   <trkpt lon="2.699757" lat="39.782723"><ele>9.0</ele></trkpt>
   <trkpt lon="2.699869" lat="39.782605"><ele>12.25</ele></trkpt>
   <trkpt lon="2.699995" lat="39.782383"><ele>9.25</ele></trkpt>
   <trkpt lon="2.700160" lat="39.782125"><ele>8.25</ele></trkpt>
   <trkpt lon="2.700355" lat="39.781826"><ele>7.75</ele></trkpt>
   <trkpt lon="2.700896" lat="39.780984"><ele>7.5</ele></trkpt>
   <trkpt lon="2.700973" lat="39.780874"><ele>7.5</ele></trkpt>
   <trkpt lon="2.701066" lat="39.780748"><ele>8.0</ele></trkpt>
   <trkpt lon="2.701256" lat="39.780545"><ele>8.25</ele></trkpt>
   <trkpt lon="2.701346" lat="39.780465"><ele>8.25</ele></trkpt>
   <trkpt lon="2.701574" lat="39.780294"><ele>8.75</ele></trkpt>
   <trkpt lon="2.702013" lat="39.779971"><ele>8.5</ele></trkpt>
   <trkpt lon="2.702806" lat="39.779387"><ele>8.5</ele></trkpt>
   <trkpt lon="2.703724" lat="39.778712"><ele>8.75</ele></trkpt>
   <trkpt lon="2.703815" lat="39.778648"><ele>8.75</ele></trkpt>
   <trkpt lon="2.703913" lat="39.778570"><ele>9.0</ele></trkpt>
   <trkpt lon="2.704379" lat="39.778201"><ele>9.25</ele></trkpt>
   <trkpt lon="2.704515" lat="39.778062"><ele>9.25</ele></trkpt>
   <trkpt lon="2.704609" lat="39.777944"><ele>9.5</ele></trkpt>
   <trkpt lon="2.704646" lat="39.777898"><ele>9.5</ele></trkpt>
   <trkpt lon="2.704719" lat="39.777805"><ele>9.75</ele></trkpt>
   <trkpt lon="2.704880" lat="39.777519"><ele>10.0</ele></trkpt>
   <trkpt lon="2.704979" lat="39.777372"><ele>10.0</ele></trkpt>
   <trkpt lon="2.705113" lat="39.777198"><ele>10.0</ele></trkpt>
   <trkpt lon="2.705449" lat="39.776818"><ele>10.5</ele></trkpt>
   <trkpt lon="2.705534" lat="39.776684"><ele>10.75</ele></trkpt>
   <trkpt lon="2.705597" lat="39.776555"><ele>11.0</ele></trkpt>
   <trkpt lon="2.705623" lat="39.776478"><ele>11.0</ele></trkpt>
   <trkpt lon="2.705653" lat="39.776295"><ele>11.0</ele></trkpt>
   <trkpt lon="2.705658" lat="39.776212"><ele>11.0</ele></trkpt>
   <trkpt lon="2.705620" lat="39.775729"><ele>12.0</ele></trkpt>
   <trkpt lon="2.705536" lat="39.774782"><ele>15.5</ele></trkpt>
   <trkpt lon="2.705521" lat="39.774580"><ele>15.5</ele></trkpt>
   <trkpt lon="2.705466" lat="39.774129"><ele>16.0</ele></trkpt>
   <trkpt lon="2.705427" lat="39.773713"><ele>17.0</ele></trkpt>
   <trkpt lon="2.705422" lat="39.773547"><ele>17.5</ele></trkpt>
   <trkpt lon="2.705422" lat="39.773378"><ele>17.75</ele></trkpt>
   <trkpt lon="2.705439" lat="39.773191"><ele>18.25</ele></trkpt>
   <trkpt lon="2.705507" lat="39.772821"><ele>19.5</ele></trkpt>
   <trkpt lon="2.705546" lat="39.772676"><ele>20.0</ele></trkpt>
   <trkpt lon="2.705732" lat="39.772167"><ele>20.75</ele></trkpt>
   <trkpt lon="2.705960" lat="39.771648"><ele>22.0</ele></trkpt>
   <trkpt lon="2.706053" lat="39.771412"><ele>22.0</ele></trkpt>
   <trkpt lon="2.706079" lat="39.771217"><ele>23.25</ele></trkpt>
   <trkpt lon="2.706070" lat="39.771128"><ele>23.75</ele><sym>roundabout_e1</sym></trkpt>
   <trkpt lon="2.706033" lat="39.771097"><ele>24.0</ele></trkpt>
   <trkpt lon="2.706005" lat="39.771052"><ele>24.0</ele></trkpt>
   <trkpt lon="2.706004" lat="39.771013"><ele>24.0</ele></trkpt>
   <trkpt lon="2.706013" lat="39.770976"><ele>24.0</ele></trkpt>
   <trkpt lon="2.706059" lat="39.770929"><ele>24.0</ele></trkpt>
   <trkpt lon="2.706120" lat="39.770912"><ele>23.75</ele></trkpt>
   <trkpt lon="2.706175" lat="39.770877"><ele>23.75</ele></trkpt>
   <trkpt lon="2.706250" lat="39.770801"><ele>24.0</ele></trkpt>
   <trkpt lon="2.706380" lat="39.770632"><ele>25.25</ele></trkpt>
   <trkpt lon="2.706684" lat="39.769868"><ele>28.25</ele></trkpt>
   <trkpt lon="2.706724" lat="39.769769"><ele>28.25</ele></trkpt>
   <trkpt lon="2.707180" lat="39.768645"><ele>30.0</ele></trkpt>
   <trkpt lon="2.707181" lat="39.768640"><ele>31.75</ele><sym>pass_place</sym><type>Shaping</type></trkpt>
   <trkpt lon="2.707507" lat="39.767828"><ele>31.75</ele></trkpt>
   <trkpt lon="2.707828" lat="39.767027"><ele>34.25</ele></trkpt>
   <trkpt lon="2.707819" lat="39.766967"><ele>34.75</ele></trkpt>
   <trkpt lon="2.707814" lat="39.766901"><ele>35.0</ele></trkpt>
   <trkpt lon="2.707809" lat="39.766829"><ele>35.25</ele><sym>roundabout_e2</sym></trkpt>
   <trkpt lon="2.707782" lat="39.766804"><ele>35.25</ele></trkpt>
   <trkpt lon="2.707767" lat="39.766767"><ele>35.5</ele></trkpt>
   <trkpt lon="2.707768" lat="39.766741"><ele>35.75</ele></trkpt>
   <trkpt lon="2.707788" lat="39.766705"><ele>35.75</ele></trkpt>
   <trkpt lon="2.707819" lat="39.766681"><ele>35.75</ele></trkpt>
   <trkpt lon="2.707853" lat="39.766669"><ele>35.75</ele></trkpt>
   <trkpt lon="2.707898" lat="39.766665"><ele>36.0</ele></trkpt>
   <trkpt lon="2.707930" lat="39.766671"><ele>35.75</ele></trkpt>
   <trkpt lon="2.707966" lat="39.766687"><ele>35.75</ele></trkpt>
   <trkpt lon="2.707982" lat="39.766701"><ele>35.75</ele></trkpt>
   <trkpt lon="2.708004" lat="39.766735"><ele>35.5</ele></trkpt>
   <trkpt lon="2.708047" lat="39.766763"><ele>35.25</ele></trkpt>
   <trkpt lon="2.708113" lat="39.766806"><ele>34.5</ele></trkpt>
   <trkpt lon="2.708548" lat="39.766981"><ele>32.0</ele></trkpt>
   <trkpt lon="2.708936" lat="39.767131"><ele>30.0</ele></trkpt>
   <trkpt lon="2.709343" lat="39.767304"><ele>28.25</ele></trkpt>
   <trkpt lon="2.709659" lat="39.767432"><ele>27.25</ele></trkpt>
   <trkpt lon="2.709879" lat="39.767523"><ele>26.75</ele></trkpt>
   <trkpt lon="2.710296" lat="39.767705"><ele>26.75</ele></trkpt>
   <trkpt lon="2.710452" lat="39.767773"><ele>27.0</ele></trkpt>
   <trkpt lon="2.710957" lat="39.767992"><ele>26.75</ele></trkpt>
   <trkpt lon="2.710996" lat="39.768009"><ele>26.75</ele></trkpt>
   <trkpt lon="2.711252" lat="39.768121"><ele>26.75</ele></trkpt>
   <trkpt lon="2.711366" lat="39.768170"><ele>26.75</ele><sym>roundabout_e1</sym></trkpt>
   <trkpt lon="2.711384" lat="39.768154"><ele>26.75</ele></trkpt>
   <trkpt lon="2.711434" lat="39.768135"><ele>27.0</ele></trkpt>
   <trkpt lon="2.711489" lat="39.768141"><ele>27.0</ele></trkpt>
   <trkpt lon="2.711539" lat="39.768073"><ele>26.75</ele></trkpt>
   <trkpt lon="2.712789" lat="39.766367"><ele>33.0</ele></trkpt>
   <trkpt lon="2.712953" lat="39.766144"><ele>33.75</ele></trkpt>
   <trkpt lon="2.713023" lat="39.765980"><ele>34.75</ele><sym>left</sym></trkpt>
   <trkpt lon="2.713079" lat="39.765980"><ele>34.75</ele></trkpt>
   <trkpt lon="2.713481" lat="39.765979"><ele>35.0</ele></trkpt>
   <trkpt lon="2.713720" lat="39.766101"><ele>35.0</ele></trkpt>
   <trkpt lon="2.713868" lat="39.766204"><ele>34.5</ele></trkpt>
   <trkpt lon="2.713927" lat="39.766244"><ele>34.5</ele></trkpt>
   <trkpt lon="2.714190" lat="39.766353"><ele>34.0</ele></trkpt>
   <trkpt lon="2.714609" lat="39.766471"><ele>33.5</ele></trkpt>
   <trkpt lon="2.714695" lat="39.766505"><ele>33.0</ele><sym>right</sym></trkpt>
   <trkpt lon="2.714731" lat="39.766486"><ele>33.25</ele></trkpt>
   <trkpt lon="2.714782" lat="39.766443"><ele>33.5</ele></trkpt>
   <trkpt lon="2.714824" lat="39.766373"><ele>34.0</ele></trkpt>
   <trkpt lon="2.714825" lat="39.766186"><ele>34.0</ele><sym>left</sym></trkpt>
   <trkpt lon="2.715059" lat="39.766199"><ele>34.75</ele><sym>pass_place</sym><type>Via</type></trkpt>
  </trkseg>
 </trk>
</gpx>
