<?xml version="1.0" encoding="UTF-8"?>
<!-- track-length = 17099 filtered ascend = 135 plain-ascend = 1 cost=30028 energy=.1kwh time=57m 58s -->
<gpx 
 xmlns="http://www.topografix.com/GPX/1/1" 
 xmlns:xsi="http://www.w3.org/2001/XMLSchema-instance" 
 xsi:schemaLocation="http://www.topografix.com/GPX/1/1 http://www.topografix.com/GPX/1/1/gpx.xsd" 
 creator="BRouter-1.7.9" version="1.1"><wpt lat="39.76472" lon="2.71612"><name>Drinking water</name><sym>Drinking Water</sym></wpt><wpt lat="39.76655" lon="2.71486"><name>Bini</name><sym>Restaurant</sym></wpt><wpt lat="39.79552" lon="2.69695"><name>Roma</name><sym>Restaurant</sym></wpt><wpt lat="39.76657" lon="2.71538"><name>Sóller</name><sym>Restaurant</sym></wpt><wpt lat="39.79033" lon="2.69085"><name>Don Pedro</name><sym>Restaurant</sym></wpt><wpt lat="39.76645" lon="2.71483"><name>Drinking water</name><sym>Drinking Water</sym></wpt><wpt lat="39.7676" lon="2.71586"><name>Drinking water</name><sym>Drinking Water</sym></wpt><wpt lat="39.76822" lon="2.71144"><name>Drinking water</name><sym>Drinking Water</sym></wpt><wpt lat="39.76852" lon="2.70866"><name>Drinking water</name><sym>Drinking Water</sym></wpt><wpt lat="39.79657" lon="2.69746"><name>Chiachi</name><sym>Restaurant</sym></wpt><wpt lat="39.77119" lon="2.70632"><name>Stop</name><sym>Restaurant</sym></wpt><wpt lat="39.79062" lon="2.69027"><name>Drinking water</name><sym>Drinking Water</sym></wpt><wpt lat="39.76733" lon="2.70962"><name>sa Petanca</name><sym>Restaurant</sym></wpt><wpt lat="39.77573" lon="2.70728"><name>Drinking water</name><sym>Drinking Water</sym></wpt><wpt lat="39.79832" lon="2.69438"><name>Cava</name><sym>Restaurant</sym></wpt><wpt lat="39.77555" lon="2.70728"><name>Can Massià</name><sym>Restaurant</sym></wpt><wpt lat="39.7982" lon="2.6966"><name>Drinking water</name><sym>Drinking Water</sym></wpt><wpt lat="39.76519" lon="2.71518"><name>el Tren</name><sym>Restaurant</sym></wpt><wpt lat="39.77577" lon="2.70709"><name>Bera</name><sym>Restaurant</sym></wpt><wpt lat="39.79803" lon="2.69517"><name>Cappuccino</name><sym>Restaurant</sym></wpt><wpt lat="39.76574" lon="2.71473"><name>es Pont</name><sym>Restaurant</sym></wpt><wpt lat="39.76615" lon="2.71301"><name>Drinking water</name><sym>Drinking Water</sym></wpt><wpt lat="39.77829" lon="2.70463"><name>Drinking water</name><sym>Drinking Water</sym></wpt><wpt lat="39.76537" lon="2.71206"><name>Drinking water</name><sym>Drinking Water</sym></wpt><wpt lat="39.79062" lon="2.69358"><name>Reynés Bikes &amp; Bakes</name><sym>Restaurant</sym></wpt><wpt lat="39.79303" lon="2.68993"><name>es Mirall</name><sym>Restaurant</sym></wpt><wpt lat="39.77373" lon="2.70866"><name>Can Reus</name><sym>Restaurant</sym></wpt><wpt lat="39.7693" lon="2.71295"><name>es Camp de s&#x27;Oca</name><sym>Restaurant</sym></wpt>
 <trk>
  <src>brouter_fastbike-lowtraffic_0</src>
  <type>bike</type>
  <trkseg>
   <trkpt lon="2.715059" lat="39.766199"><ele>34.25</ele><sym>pass_place</sym><type>Via</type></trkpt>
   <trkpt lon="2.714825" lat="39.766186"><ele>34.0</ele><sym>stay_left</sym></trkpt>
   <trkpt lon="2.714103" lat="39.766114"><ele>34.75</ele><sym>right</sym></trkpt>
   <trkpt lon="2.714019" lat="39.766108"><ele>35.0</ele></trkpt>
   <trkpt lon="2.713927" lat="39.766244"><ele>34.5</ele><sym>straight</sym></trkpt>
   <trkpt lon="2.713910" lat="39.766270"><ele>34.25</ele></trkpt>
   <trkpt lon="2.713736" lat="39.766536"><ele>32.75</ele></trkpt>
   <trkpt lon="2.713331" lat="39.767046"><ele>30.5</ele></trkpt>
   <trkpt lon="2.712929" lat="39.767412"><ele>29.25</ele></trkpt>
   <trkpt lon="2.712601" lat="39.767876"><ele>28.0</ele></trkpt>
   <trkpt lon="2.712131" lat="39.768445"><ele>26.75</ele></trkpt>
   <trkpt lon="2.712065" lat="39.768505"><ele>26.5</ele></trkpt>
   <trkpt lon="2.711794" lat="39.768774"><ele>25.25</ele></trkpt>
   <trkpt lon="2.711298" lat="39.769261"><ele>23.5</ele></trkpt>
   <trkpt lon="2.710541" lat="39.769996"><ele>21.0</ele></trkpt>
   <trkpt lon="2.710172" lat="39.770354"><ele>19.5</ele></trkpt>
   <trkpt lon="2.709887" lat="39.770628"><ele>18.5</ele></trkpt>
   <trkpt lon="2.709849" lat="39.770662"><ele>18.5</ele></trkpt>
   <trkpt lon="2.709618" lat="39.770899"><ele>17.75</ele></trkpt>
   <trkpt lon="2.708111" lat="39.772408"><ele>17.0</ele></trkpt>
   <trkpt lon="2.707944" lat="39.772578"><ele>17.25</ele></trkpt>
   <trkpt lon="2.707941" lat="39.772750"><ele>17.5</ele><sym>right_slight</sym></trkpt>
   <trkpt lon="2.708144" lat="39.772943"><ele>16.0</ele></trkpt>
   <trkpt lon="2.708357" lat="39.773122"><ele>16.0</ele></trkpt>
   <trkpt lon="2.708410" lat="39.773236"><ele>16.0</ele></trkpt>
   <trkpt lon="2.708299" lat="39.773457"><ele>15.75</ele><sym>straight</sym></trkpt>
   <trkpt lon="2.708289" lat="39.773477"><ele>15.5</ele></trkpt>
   <trkpt lon="2.708227" lat="39.773587"><ele>14.5</ele></trkpt>
   <trkpt lon="2.708054" lat="39.774006"><ele>13.75</ele></trkpt>
   <trkpt lon="2.707964" lat="39.774249"><ele>13.25</ele></trkpt>
   <trkpt lon="2.707870" lat="39.774462"><ele>13.0</ele></trkpt>
   <trkpt lon="2.707502" lat="39.775333"><ele>12.0</ele></trkpt>
   <trkpt lon="2.707317" lat="39.775632"><ele>12.0</ele></trkpt>
   <trkpt lon="2.707299" lat="39.775660"><ele>12.0</ele></trkpt>
   <trkpt lon="2.707176" lat="39.775774"><ele>11.75</ele></trkpt>
   <trkpt lon="2.706410" lat="39.776488"><ele>11.5</ele></trkpt>
   <trkpt lon="2.705965" lat="39.776805"><ele>10.5</ele></trkpt>
   <trkpt lon="2.705621" lat="39.777003"><ele>10.5</ele></trkpt>
   <trkpt lon="2.705563" lat="39.777043"><ele>10.5</ele></trkpt>
   <trkpt lon="2.705425" lat="39.777168"><ele>10.0</ele></trkpt>
   <trkpt lon="2.705162" lat="39.777449"><ele>10.0</ele></trkpt>
   <trkpt lon="2.704739" lat="39.777939"><ele>9.75</ele></trkpt>
   <trkpt lon="2.704616" lat="39.778099"><ele>9.5</ele></trkpt>
   <trkpt lon="2.704567" lat="39.778173"><ele>9.25</ele></trkpt>
   <trkpt lon="2.704531" lat="39.778252"><ele>9.5</ele></trkpt>
   <trkpt lon="2.704489" lat="39.778385"><ele>9.75</ele><sym>roundabout_e2</sym></trkpt>
   <trkpt lon="2.704489" lat="39.778412"><ele>9.75</ele></trkpt>
   <trkpt lon="2.704462" lat="39.778461"><ele>9.75</ele></trkpt>
   <trkpt lon="2.704410" lat="39.778500"><ele>9.75</ele></trkpt>
   <trkpt lon="2.704374" lat="39.778511"><ele>9.75</ele></trkpt>
   <trkpt lon="2.704299" lat="39.778508"><ele>9.75</ele></trkpt>
   <trkpt lon="2.704121" lat="39.778534"><ele>9.5</ele></trkpt>
   <trkpt lon="2.704023" lat="39.778556"><ele>9.25</ele></trkpt>
   <trkpt lon="2.703964" lat="39.778576"><ele>9.0</ele></trkpt>
   <trkpt lon="2.703817" lat="39.778646"><ele>8.75</ele><sym>pass_place</sym><type>Shaping</type></trkpt>
   <trkpt lon="2.703815" lat="39.778648"><ele>8.75</ele></trkpt>
   <trkpt lon="2.703724" lat="39.778712"><ele>8.75</ele></trkpt>
   <trkpt lon="2.702806" lat="39.779387"><ele>8.5</ele></trkpt>
   <trkpt lon="2.702013" lat="39.779971"><ele>8.5</ele></trkpt>
   <trkpt lon="2.701574" lat="39.780294"><ele>8.75</ele></trkpt>
   <trkpt lon="2.701346" lat="39.780465"><ele>8.25</ele></trkpt>
   <trkpt lon="2.701256" lat="39.780545"><ele>8.25</ele></trkpt>
   <trkpt lon="2.701066" lat="39.780748"><ele>8.0</ele></trkpt>
   <trkpt lon="2.700973" lat="39.780874"><ele>7.5</ele></trkpt>
   <trkpt lon="2.700896" lat="39.780984"><ele>7.5</ele></trkpt>
   <trkpt lon="2.700355" lat="39.781826"><ele>7.75</ele></trkpt>
   <trkpt lon="2.700160" lat="39.782125"><ele>8.25</ele></trkpt>
   <trkpt lon="2.699995" lat="39.782383"><ele>9.25</ele></trkpt>
   <trkpt lon="2.699869" lat="39.782605"><ele>12.25</ele></trkpt>
   <trkpt lon="2.699718" lat="39.782885"><ele>8.25</ele><sym>right_slight</sym></trkpt>
   <trkpt lon="2.699622" lat="39.783139"><ele>10.25</ele></trkpt>
   <trkpt lon="2.699391" lat="39.783669"><ele>11.0</ele></trkpt>
   <trkpt lon="2.699193" lat="39.784178"><ele>11.75</ele></trkpt>
   <trkpt lon="2.699076" lat="39.784368"><ele>15.25</ele></trkpt>
   <trkpt lon="2.699022" lat="39.784440"><ele>15.0</ele></trkpt>
   <trkpt lon="2.698960" lat="39.784510"><ele>15.0</ele></trkpt>
   <trkpt lon="2.698807" lat="39.784652"><ele>14.5</ele></trkpt>
   <trkpt lon="2.698425" lat="39.784971"><ele>9.25</ele></trkpt>
   <trkpt lon="2.698048" lat="39.785261"><ele>5.75</ele></trkpt>
   <trkpt lon="2.697890" lat="39.785374"><ele>7.75</ele></trkpt>
   <trkpt lon="2.696706" lat="39.786334"><ele>4.5</ele></trkpt>
   <trkpt lon="2.696341" lat="39.786653"><ele>3.75</ele></trkpt>
   <trkpt lon="2.696188" lat="39.786802"><ele>4.5</ele></trkpt>
   <trkpt lon="2.696028" lat="39.786971"><ele>3.5</ele></trkpt>
   <trkpt lon="2.695862" lat="39.787254"><ele>3.5</ele></trkpt>
   <trkpt lon="2.695747" lat="39.787614"><ele>3.5</ele></trkpt>
   <trkpt lon="2.695654" lat="39.787910"><ele>3.25</ele></trkpt>
   <trkpt lon="2.695533" lat="39.788221"><ele>3.25</ele></trkpt>
   <trkpt lon="2.695345" lat="39.788634"><ele>3.0</ele></trkpt>
   <trkpt lon="2.694930" lat="39.789509"><ele>3.0</ele></trkpt>
   <trkpt lon="2.694831" lat="39.789747"><ele>3.0</ele></trkpt>
   <trkpt lon="2.694788" lat="39.789877"><ele>3.0</ele></trkpt>
   <trkpt lon="2.694733" lat="39.790110"><ele>3.0</ele></trkpt>
   <trkpt lon="2.694687" lat="39.790427"><ele>3.25</ele></trkpt>
   <trkpt lon="2.694672" lat="39.790589"><ele>3.5</ele></trkpt>
   <trkpt lon="2.694666" lat="39.790779"><ele>3.75</ele></trkpt>
   <trkpt lon="2.694683" lat="39.790891"><ele>3.75</ele></trkpt>
   <trkpt lon="2.694709" lat="39.790984"><ele>3.75</ele></trkpt>
   <trkpt lon="2.694751" lat="39.791061"><ele>5.0</ele></trkpt>
   <trkpt lon="2.694800" lat="39.791128"><ele>4.75</ele></trkpt>
   <trkpt lon="2.695262" lat="39.791670"><ele>3.75</ele></trkpt>
   <trkpt lon="2.695686" lat="39.792106"><ele>2.75</ele></trkpt>
   <trkpt lon="2.696004" lat="39.792488"><ele>3.0</ele><sym>pass_place</sym><type>Shaping</type></trkpt>
   <trkpt lon="2.696220" lat="39.792767"><ele>4.75</ele></trkpt>
   <trkpt lon="2.696351" lat="39.792959"><ele>4.5</ele></trkpt>
   <trkpt lon="2.696374" lat="39.792992"><ele>4.25</ele></trkpt>
   <trkpt lon="2.696543" lat="39.793253"><ele>3.75</ele></trkpt>
   <trkpt lon="2.696639" lat="39.793430"><ele>3.5</ele></trkpt>
   <trkpt lon="2.696699" lat="39.793572"><ele>3.25</ele></trkpt>
   <trkpt lon="2.696737" lat="39.793672"><ele>3.25</ele></trkpt>
   <trkpt lon="2.696805" lat="39.793898"><ele>2.75</ele></trkpt>
   <trkpt lon="2.696852" lat="39.794139"><ele>2.25</ele></trkpt>
   <trkpt lon="2.696858" lat="39.794167"><ele>2.25</ele></trkpt>
   <trkpt lon="2.696870" lat="39.794309"><ele>2.75</ele></trkpt>
   <trkpt lon="2.696881" lat="39.794645"><ele>3.25</ele></trkpt>
   <trkpt lon="2.696894" lat="39.795376"><ele>2.5</ele></trkpt>
   <trkpt lon="2.696896" lat="39.795486"><ele>2.5</ele></trkpt>
   <trkpt lon="2.696880" lat="39.795595"><ele>2.5</ele></trkpt>
   <trkpt lon="2.696754" lat="39.796019"><ele>2.5</ele></trkpt>
   <trkpt lon="2.696701" lat="39.796180"><ele>2.0</ele></trkpt>
   <trkpt lon="2.696659" lat="39.796270"><ele>1.75</ele></trkpt>
   <trkpt lon="2.696579" lat="39.796404"><ele>2.0</ele></trkpt>
   <trkpt lon="2.696269" lat="39.796894"><ele>1.75</ele></trkpt>
   <trkpt lon="2.696195" lat="39.796998"><ele>2.25</ele></trkpt>
   <trkpt lon="2.696016" lat="39.797274"><ele>2.75</ele></trkpt>
   <trkpt lon="2.695912" lat="39.797402"><ele>2.75</ele></trkpt>
   <trkpt lon="2.695816" lat="39.797491"><ele>2.75</ele></trkpt>
   <trkpt lon="2.695708" lat="39.797575"><ele>2.75</ele><sym>right</sym></trkpt>
   <trkpt lon="2.695773" lat="39.797623"><ele>2.75</ele></trkpt>
   <trkpt lon="2.696262" lat="39.797916"><ele>6.75</ele><sym>u-turn</sym><type>Via</type></trkpt>
   <trkpt lon="2.695773" lat="39.797623"><ele>2.75</ele></trkpt>
   <trkpt lon="2.695708" lat="39.797575"><ele>2.75</ele><sym>left</sym></trkpt>
   <trkpt lon="2.695816" lat="39.797491"><ele>2.75</ele></trkpt>
   <trkpt lon="2.695912" lat="39.797402"><ele>2.75</ele></trkpt>
   <trkpt lon="2.696016" lat="39.797274"><ele>2.75</ele></trkpt>
   <trkpt lon="2.696195" lat="39.796998"><ele>2.25</ele></trkpt>
   <trkpt lon="2.696269" lat="39.796894"><ele>1.75</ele></trkpt>
   <trkpt lon="2.696579" lat="39.796404"><ele>2.0</ele></trkpt>
   <trkpt lon="2.696659" lat="39.796270"><ele>1.75</ele></trkpt>
   <trkpt lon="2.696701" lat="39.796180"><ele>2.0</ele></trkpt>
   <trkpt lon="2.696754" lat="39.796019"><ele>2.5</ele></trkpt>
   <trkpt lon="2.696880" lat="39.795595"><ele>2.5</ele></trkpt>
   <trkpt lon="2.696896" lat="39.795486"><ele>2.5</ele></trkpt>
   <trkpt lon="2.696894" lat="39.795376"><ele>2.5</ele></trkpt>
   <trkpt lon="2.696881" lat="39.794645"><ele>3.25</ele></trkpt>
   <trkpt lon="2.696870" lat="39.794309"><ele>2.75</ele></trkpt>
   <trkpt lon="2.696858" lat="39.794167"><ele>2.25</ele></trkpt>
   <trkpt lon="2.696852" lat="39.794139"><ele>2.25</ele></trkpt>
   <trkpt lon="2.696805" lat="39.793898"><ele>2.75</ele></trkpt>
   <trkpt lon="2.696737" lat="39.793672"><ele>3.25</ele></trkpt>
   <trkpt lon="2.696699" lat="39.793572"><ele>3.25</ele></trkpt>
   <trkpt lon="2.696639" lat="39.793430"><ele>3.5</ele></trkpt>
   <trkpt lon="2.696543" lat="39.793253"><ele>4.0</ele></trkpt>
   <trkpt lon="2.696374" lat="39.792992"><ele>4.5</ele></trkpt>
   <trkpt lon="2.696351" lat="39.792959"><ele>4.5</ele></trkpt>
   <trkpt lon="2.696220" lat="39.792767"><ele>4.75</ele></trkpt>
   <trkpt lon="2.696004" lat="39.792488"><ele>3.0</ele></trkpt>
   <trkpt lon="2.695686" lat="39.792106"><ele>3.5</ele></trkpt>
   <trkpt lon="2.695262" lat="39.791670"><ele>4.0</ele></trkpt>
   <trkpt lon="2.694800" lat="39.791128"><ele>5.0</ele></trkpt>
   <trkpt lon="2.694751" lat="39.791061"><ele>5.0</ele></trkpt>
   <trkpt lon="2.694709" lat="39.790984"><ele>3.75</ele></trkpt>
   <trkpt lon="2.694683" lat="39.790891"><ele>3.75</ele></trkpt>
   <trkpt lon="2.694666" lat="39.790779"><ele>3.75</ele></trkpt>
   <trkpt lon="2.694672" lat="39.790589"><ele>3.5</ele></trkpt>
   <trkpt lon="2.694687" lat="39.790427"><ele>3.25</ele></trkpt>
   <trkpt lon="2.694733" lat="39.790110"><ele>3.0</ele></trkpt>
   <trkpt lon="2.694788" lat="39.789877"><ele>3.0</ele></trkpt>
   <trkpt lon="2.694831" lat="39.789747"><ele>3.0</ele></trkpt>
   <trkpt lon="2.694930" lat="39.789509"><ele>3.0</ele></trkpt>
   <trkpt lon="2.695345" lat="39.788634"><ele>3.0</ele></trkpt>
   <trkpt lon="2.695533" lat="39.788221"><ele>3.25</ele></trkpt>
   <trkpt lon="2.695654" lat="39.787910"><ele>3.25</ele></trkpt>
   <trkpt lon="2.695747" lat="39.787614"><ele>3.5</ele></trkpt>
   <trkpt lon="2.695862" lat="39.787254"><ele>3.5</ele></trkpt>
   <trkpt lon="2.696028" lat="39.786971"><ele>3.5</ele></trkpt>
   <trkpt lon="2.696188" lat="39.786802"><ele>4.5</ele></trkpt>
   <trkpt lon="2.696341" lat="39.786653"><ele>3.75</ele></trkpt>
   <trkpt lon="2.696706" lat="39.786334"><ele>4.5</ele><sym>right_sharp</sym></trkpt>
   <trkpt lon="2.696646" lat="39.786318"><ele>3.75</ele></trkpt>
   <trkpt lon="2.696587" lat="39.786306"><ele>3.75</ele></trkpt>
   <trkpt lon="2.696568" lat="39.786306"><ele>3.75</ele></trkpt>
   <trkpt lon="2.696537" lat="39.786317"><ele>3.75</ele></trkpt>
   <trkpt lon="2.696453" lat="39.786400"><ele>4.0</ele></trkpt>
   <trkpt lon="2.696390" lat="39.786425"><ele>4.0</ele></trkpt>
   <trkpt lon="2.696297" lat="39.786422"><ele>3.5</ele></trkpt>
   <trkpt lon="2.696154" lat="39.786379"><ele>3.0</ele></trkpt>
   <trkpt lon="2.695996" lat="39.786326"><ele>3.5</ele></trkpt>
   <trkpt lon="2.695892" lat="39.786284"><ele>4.25</ele></trkpt>
   <trkpt lon="2.695756" lat="39.786210"><ele>4.0</ele></trkpt>
   <trkpt lon="2.695636" lat="39.786152"><ele>3.75</ele></trkpt>
   <trkpt lon="2.695596" lat="39.786140"><ele>3.75</ele></trkpt>
   <trkpt lon="2.695546" lat="39.786135"><ele>3.75</ele></trkpt>
   <trkpt lon="2.695223" lat="39.786149"><ele>2.75</ele></trkpt>
   <trkpt lon="2.694941" lat="39.786178"><ele>2.75</ele></trkpt>
   <trkpt lon="2.694692" lat="39.786191"><ele>2.75</ele></trkpt>
   <trkpt lon="2.694532" lat="39.786246"><ele>3.0</ele></trkpt>
   <trkpt lon="2.694289" lat="39.786359"><ele>3.0</ele></trkpt>
   <trkpt lon="2.694012" lat="39.786500"><ele>2.5</ele></trkpt>
   <trkpt lon="2.693724" lat="39.786676"><ele>2.5</ele></trkpt>
   <trkpt lon="2.693635" lat="39.786737"><ele>2.5</ele></trkpt>
   <trkpt lon="2.693393" lat="39.786977"><ele>2.5</ele></trkpt>
   <trkpt lon="2.693308" lat="39.787078"><ele>2.75</ele></trkpt>
   <trkpt lon="2.693126" lat="39.787306"><ele>1.5</ele></trkpt>
   <trkpt lon="2.692929" lat="39.787489"><ele>1.5</ele></trkpt>
   <trkpt lon="2.692928" lat="39.787489"><ele>1.75</ele><sym>pass_place</sym><type>Shaping</type></trkpt>
   <trkpt lon="2.692162" lat="39.788007"><ele>1.75</ele></trkpt>
   <trkpt lon="2.692141" lat="39.788021"><ele>1.75</ele></trkpt>
   <trkpt lon="2.691831" lat="39.788228"><ele>1.75</ele></trkpt>
   <trkpt lon="2.691803" lat="39.788261"><ele>1.75</ele><sym>right_slight</sym></trkpt>
   <trkpt lon="2.691840" lat="39.788707"><ele>1.75</ele></trkpt>
   <trkpt lon="2.691771" lat="39.788858"><ele>1.5</ele></trkpt>
   <trkpt lon="2.691716" lat="39.788986"><ele>1.0</ele></trkpt>
   <trkpt lon="2.691673" lat="39.789083"><ele>1.0</ele></trkpt>
   <trkpt lon="2.691640" lat="39.789277"><ele>1.0</ele></trkpt>
   <trkpt lon="2.691637" lat="39.789591"><ele>1.0</ele></trkpt>
   <trkpt lon="2.691615" lat="39.789859"><ele>1.0</ele><sym>left</sym></trkpt>
   <trkpt lon="2.691332" lat="39.789831"><ele>1.0</ele></trkpt>
   <trkpt lon="2.691208" lat="39.789835"><ele>1.25</ele></trkpt>
   <trkpt lon="2.690644" lat="39.789960"><ele>1.0</ele><sym>right</sym></trkpt>
   <trkpt lon="2.690801" lat="39.790411"><ele>1.0</ele><sym>left</sym></trkpt>
   <trkpt lon="2.690670" lat="39.790450"><ele>1.0</ele></trkpt>
   <trkpt lon="2.690516" lat="39.790523"><ele>1.25</ele></trkpt>
   <trkpt lon="2.690464" lat="39.790565"><ele>1.5</ele></trkpt>
   <trkpt lon="2.690350" lat="39.790688"><ele>2.0</ele></trkpt>
   <trkpt lon="2.690332" lat="39.790709"><ele>2.0</ele></trkpt>
   <trkpt lon="2.690258" lat="39.790789"><ele>2.5</ele></trkpt>
   <trkpt lon="2.690191" lat="39.790880"><ele>2.5</ele></trkpt>
   <trkpt lon="2.690170" lat="39.790930"><ele>2.75</ele></trkpt>
   <trkpt lon="2.690159" lat="39.791006"><ele>3.0</ele></trkpt>
   <trkpt lon="2.690159" lat="39.791254"><ele>4.5</ele></trkpt>
   <trkpt lon="2.690157" lat="39.791326"><ele>5.25</ele></trkpt>
   <trkpt lon="2.690152" lat="39.791548"><ele>7.25</ele></trkpt>
   <trkpt lon="2.690149" lat="39.791680"><ele>8.25</ele></trkpt>
   <trkpt lon="2.690163" lat="39.791840"><ele>9.75</ele></trkpt>
   <trkpt lon="2.690183" lat="39.791917"><ele>10.0</ele></trkpt>
   <trkpt lon="2.690270" lat="39.792092"><ele>9.25</ele></trkpt>
   <trkpt lon="2.690288" lat="39.792135"><ele>9.0</ele></trkpt>
   <trkpt lon="2.690297" lat="39.792180"><ele>9.0</ele></trkpt>
   <trkpt lon="2.690303" lat="39.792246"><ele>9.25</ele></trkpt>
   <trkpt lon="2.690300" lat="39.792451"><ele>9.75</ele></trkpt>
   <trkpt lon="2.690286" lat="39.792519"><ele>10.0</ele></trkpt>
   <trkpt lon="2.690249" lat="39.792609"><ele>10.5</ele></trkpt>
   <trkpt lon="2.689972" lat="39.793147"><ele>10.5</ele></trkpt>
   <trkpt lon="2.689927" lat="39.793197"><ele>10.75</ele></trkpt>
   <trkpt lon="2.689897" lat="39.793219"><ele>11.0</ele></trkpt>
   <trkpt lon="2.689822" lat="39.793257"><ele>12.25</ele></trkpt>
   <trkpt lon="2.689735" lat="39.793279"><ele>13.75</ele></trkpt>
   <trkpt lon="2.689518" lat="39.793311"><ele>16.0</ele></trkpt>
   <trkpt lon="2.689287" lat="39.793330"><ele>17.75</ele></trkpt>
   <trkpt lon="2.689097" lat="39.793341"><ele>19.0</ele></trkpt>
   <trkpt lon="2.688851" lat="39.793343"><ele>20.25</ele></trkpt>
   <trkpt lon="2.688773" lat="39.793337"><ele>20.25</ele></trkpt>
   <trkpt lon="2.688694" lat="39.793305"><ele>21.5</ele></trkpt>
   <trkpt lon="2.688502" lat="39.793195"><ele>24.75</ele></trkpt>
   <trkpt lon="2.688373" lat="39.793161"><ele>24.25</ele></trkpt>
   <trkpt lon="2.688307" lat="39.793153"><ele>24.25</ele></trkpt>
   <trkpt lon="2.688233" lat="39.793149"><ele>24.25</ele></trkpt>
   <trkpt lon="2.688211" lat="39.793128"><ele>26.0</ele></trkpt>
   <trkpt lon="2.688211" lat="39.793111"><ele>27.5</ele></trkpt>
   <trkpt lon="2.688235" lat="39.793086"><ele>29.5</ele></trkpt>
   <trkpt lon="2.688257" lat="39.793079"><ele>29.75</ele></trkpt>
   <trkpt lon="2.688350" lat="39.793089"><ele>28.75</ele></trkpt>
   <trkpt lon="2.688707" lat="39.793195"><ele>27.25</ele></trkpt>
   <trkpt lon="2.688753" lat="39.793191"><ele>27.5</ele></trkpt>
   <trkpt lon="2.688781" lat="39.793167"><ele>28.75</ele></trkpt>
   <trkpt lon="2.688782" lat="39.793150"><ele>29.75</ele></trkpt>
   <trkpt lon="2.688776" lat="39.793134"><ele>30.5</ele></trkpt>
   <trkpt lon="2.688735" lat="39.793109"><ele>31.75</ele></trkpt>
   <trkpt lon="2.688463" lat="39.793057"><ele>32.25</ele></trkpt>
   <trkpt lon="2.688272" lat="39.792992"><ele>35.75</ele></trkpt>
   <trkpt lon="2.688191" lat="39.792981"><ele>37.25</ele></trkpt>
   <trkpt lon="2.688099" lat="39.792995"><ele>37.25</ele></trkpt>
   <trkpt lon="2.687850" lat="39.793084"><ele>35.25</ele></trkpt>
   <trkpt lon="2.687762" lat="39.793107"><ele>34.0</ele></trkpt>
   <trkpt lon="2.687450" lat="39.793144"><ele>34.25</ele></trkpt>
   <trkpt lon="2.687355" lat="39.793135"><ele>35.25</ele></trkpt>
   <trkpt lon="2.687303" lat="39.793118"><ele>37.5</ele></trkpt>
   <trkpt lon="2.687159" lat="39.793045"><ele>45.5</ele></trkpt>
   <trkpt lon="2.687118" lat="39.793040"><ele>46.0</ele></trkpt>
   <trkpt lon="2.687068" lat="39.793042"><ele>45.75</ele></trkpt>
   <trkpt lon="2.686759" lat="39.793098"><ele>42.75</ele></trkpt>
   <trkpt lon="2.686507" lat="39.793118"><ele>43.25</ele></trkpt>
   <trkpt lon="2.686365" lat="39.793127"><ele>43.75</ele></trkpt>
   <trkpt lon="2.686137" lat="39.793117"><ele>45.75</ele></trkpt>
   <trkpt lon="2.685977" lat="39.793098"><ele>47.75</ele></trkpt>
   <trkpt lon="2.685835" lat="39.793095"><ele>48.5</ele></trkpt>
   <trkpt lon="2.685654" lat="39.793105"><ele>50.75</ele></trkpt>
   <trkpt lon="2.685528" lat="39.793124"><ele>51.5</ele></trkpt>
   <trkpt lon="2.685314" lat="39.793169"><ele>52.25</ele></trkpt>
   <trkpt lon="2.684874" lat="39.793231"><ele>53.5</ele></trkpt>
   <trkpt lon="2.684753" lat="39.793242"><ele>54.0</ele></trkpt>
   <trkpt lon="2.684452" lat="39.793256"><ele>54.0</ele></trkpt>
   <trkpt lon="2.684366" lat="39.793263"><ele>54.5</ele></trkpt>
   <trkpt lon="2.684282" lat="39.793279"><ele>54.75</ele></trkpt>
   <trkpt lon="2.684089" lat="39.793333"><ele>53.25</ele></trkpt>
   <trkpt lon="2.684029" lat="39.793341"><ele>52.5</ele></trkpt>
   <trkpt lon="2.683885" lat="39.793333"><ele>51.75</ele></trkpt>
   <trkpt lon="2.683811" lat="39.793313"><ele>51.25</ele></trkpt>
   <trkpt lon="2.683756" lat="39.793285"><ele>51.75</ele></trkpt>
   <trkpt lon="2.683691" lat="39.793247"><ele>52.5</ele></trkpt>
   <trkpt lon="2.683461" lat="39.793086"><ele>54.25</ele></trkpt>
   <trkpt lon="2.683355" lat="39.793032"><ele>53.5</ele></trkpt>
   <trkpt lon="2.683252" lat="39.793002"><ele>53.5</ele></trkpt>
   <trkpt lon="2.683119" lat="39.792977"><ele>53.0</ele></trkpt>
   <trkpt lon="2.682806" lat="39.792878"><ele>54.75</ele></trkpt>
   <trkpt lon="2.682676" lat="39.792858"><ele>55.5</ele></trkpt>
   <trkpt lon="2.682618" lat="39.792866"><ele>56.0</ele></trkpt>
   <trkpt lon="2.682590" lat="39.792880"><ele>56.25</ele></trkpt>
   <trkpt lon="2.682560" lat="39.792917"><ele>56.5</ele></trkpt>
   <trkpt lon="2.682554" lat="39.792968"><ele>56.75</ele></trkpt>
   <trkpt lon="2.682625" lat="39.793150"><ele>53.5</ele></trkpt>
   <trkpt lon="2.682662" lat="39.793336"><ele>54.5</ele></trkpt>
   <trkpt lon="2.682755" lat="39.793718"><ele>56.5</ele></trkpt>
   <trkpt lon="2.682870" lat="39.794064"><ele>60.25</ele></trkpt>
   <trkpt lon="2.682979" lat="39.794600"><ele>63.75</ele></trkpt>
   <trkpt lon="2.683022" lat="39.794690"><ele>63.5</ele></trkpt>
   <trkpt lon="2.683151" lat="39.794863"><ele>62.5</ele></trkpt>
   <trkpt lon="2.683167" lat="39.794896"><ele>62.5</ele></trkpt>
   <trkpt lon="2.683170" lat="39.794959"><ele>63.5</ele><sym>pass_place</sym><type>Shaping</type></trkpt>
   <trkpt lon="2.683161" lat="39.795002"><ele>64.5</ele></trkpt>
   <trkpt lon="2.683075" lat="39.795200"><ele>67.75</ele></trkpt>
   <trkpt lon="2.682898" lat="39.795579"><ele>74.0</ele></trkpt>
   <trkpt lon="2.682780" lat="39.795960"><ele>78.25</ele></trkpt>
   <trkpt lon="2.682636" lat="39.796375"><ele>82.75</ele></trkpt>
   <trkpt lon="2.682509" lat="39.796599"><ele>84.75</ele></trkpt>
   <trkpt lon="2.682464" lat="39.796661"><ele>85.75</ele></trkpt>
   <trkpt lon="2.682206" lat="39.796938"><ele>87.75</ele></trkpt>
   <trkpt lon="2.682135" lat="39.797006"><ele>87.5</ele></trkpt>
   <trkpt lon="2.682098" lat="39.797023"><ele>88.5</ele></trkpt>
   <trkpt lon="2.682075" lat="39.797024"><ele>89.5</ele></trkpt>
   <trkpt lon="2.682041" lat="39.797010"><ele>91.5</ele></trkpt>
   <trkpt lon="2.682033" lat="39.796998"><ele>92.5</ele></trkpt>
   <trkpt lon="2.682034" lat="39.796968"><ele>94.0</ele></trkpt>
   <trkpt lon="2.682076" lat="39.796920"><ele>94.0</ele></trkpt>
   <trkpt lon="2.682181" lat="39.796831"><ele>92.5</ele></trkpt>
   <trkpt lon="2.682271" lat="39.796718"><ele>92.75</ele></trkpt>
   <trkpt lon="2.682295" lat="39.796666"><ele>93.5</ele></trkpt>
   <trkpt lon="2.682326" lat="39.796557"><ele>95.0</ele></trkpt>
   <trkpt lon="2.682328" lat="39.796521"><ele>95.75</ele></trkpt>
   <trkpt lon="2.682317" lat="39.796507"><ele>96.75</ele></trkpt>
   <trkpt lon="2.682279" lat="39.796498"><ele>99.25</ele></trkpt>
   <trkpt lon="2.682240" lat="39.796514"><ele>100.75</ele></trkpt>
   <trkpt lon="2.682177" lat="39.796585"><ele>100.75</ele></trkpt>
   <trkpt lon="2.682030" lat="39.796774"><ele>99.5</ele><sym>left_slight</sym></trkpt>
   <trkpt lon="2.681917" lat="39.796840"><ele>101.5</ele></trkpt>
   <trkpt lon="2.681895" lat="39.796847"><ele>101.75</ele></trkpt>
   <trkpt lon="2.681649" lat="39.796866"><ele>104.25</ele><sym>u-turn</sym><type>Via</type></trkpt>
   <trkpt lon="2.681895" lat="39.796847"><ele>101.75</ele></trkpt>
   <trkpt lon="2.681917" lat="39.796840"><ele>101.5</ele></trkpt>
   <trkpt lon="2.682030" lat="39.796774"><ele>99.5</ele><sym>right_slight</sym></trkpt>
   <trkpt lon="2.682177" lat="39.796585"><ele>100.75</ele></trkpt>
   <trkpt lon="2.682240" lat="39.796514"><ele>100.75</ele></trkpt>
   <trkpt lon="2.682279" lat="39.796498"><ele>99.25</ele></trkpt>
   <trkpt lon="2.682317" lat="39.796507"><ele>96.75</ele></trkpt>
   <trkpt lon="2.682328" lat="39.796521"><ele>95.75</ele></trkpt>
   <trkpt lon="2.682326" lat="39.796557"><ele>95.0</ele></trkpt>
   <trkpt lon="2.682295" lat="39.796666"><ele>93.5</ele></trkpt>
   <trkpt lon="2.682271" lat="39.796718"><ele>92.75</ele></trkpt>
   <trkpt lon="2.682181" lat="39.796831"><ele>92.5</ele></trkpt>
   <trkpt lon="2.682076" lat="39.796920"><ele>94.0</ele></trkpt>
   <trkpt lon="2.682034" lat="39.796968"><ele>94.0</ele></trkpt>
   <trkpt lon="2.682033" lat="39.796998"><ele>92.5</ele></trkpt>
   <trkpt lon="2.682041" lat="39.797010"><ele>91.5</ele></trkpt>
   <trkpt lon="2.682075" lat="39.797024"><ele>89.5</ele></trkpt>
   <trkpt lon="2.682098" lat="39.797023"><ele>88.5</ele></trkpt>
   <trkpt lon="2.682135" lat="39.797006"><ele>87.5</ele></trkpt>
   <trkpt lon="2.682206" lat="39.796938"><ele>87.75</ele></trkpt>
   <trkpt lon="2.682464" lat="39.796661"><ele>85.75</ele></trkpt>
   <trkpt lon="2.682509" lat="39.796599"><ele>84.75</ele></trkpt>
   <trkpt lon="2.682636" lat="39.796375"><ele>82.75</ele></trkpt>
   <trkpt lon="2.682780" lat="39.795960"><ele>78.25</ele></trkpt>
   <trkpt lon="2.682898" lat="39.795579"><ele>74.0</ele></trkpt>
   <trkpt lon="2.683075" lat="39.795200"><ele>67.75</ele></trkpt>
   <trkpt lon="2.683161" lat="39.795002"><ele>64.5</ele></trkpt>
   <trkpt lon="2.683171" lat="39.794960"><ele>63.5</ele></trkpt>
   <trkpt lon="2.683167" lat="39.794896"><ele>62.5</ele></trkpt>
   <trkpt lon="2.683151" lat="39.794863"><ele>62.5</ele></trkpt>
   <trkpt lon="2.683022" lat="39.794690"><ele>63.5</ele></trkpt>
   <trkpt lon="2.682979" lat="39.794600"><ele>63.75</ele></trkpt>
   <trkpt lon="2.682870" lat="39.794064"><ele>60.25</ele></trkpt>
   <trkpt lon="2.682755" lat="39.793718"><ele>56.5</ele></trkpt>
   <trkpt lon="2.682662" lat="39.793336"><ele>54.5</ele></trkpt>
   <trkpt lon="2.682625" lat="39.793150"><ele>53.5</ele></trkpt>
   <trkpt lon="2.682554" lat="39.792968"><ele>56.75</ele></trkpt>
   <trkpt lon="2.682560" lat="39.792917"><ele>56.0</ele></trkpt>
   <trkpt lon="2.682590" lat="39.792880"><ele>55.5</ele></trkpt>
   <trkpt lon="2.682618" lat="39.792866"><ele>55.25</ele></trkpt>
   <trkpt lon="2.682676" lat="39.792858"><ele>54.75</ele></trkpt>
   <trkpt lon="2.682806" lat="39.792878"><ele>54.75</ele></trkpt>
   <trkpt lon="2.683119" lat="39.792977"><ele>53.0</ele></trkpt>
   <trkpt lon="2.683252" lat="39.793002"><ele>53.5</ele></trkpt>
   <trkpt lon="2.683355" lat="39.793032"><ele>53.5</ele></trkpt>
   <trkpt lon="2.683461" lat="39.793086"><ele>54.25</ele></trkpt>
   <trkpt lon="2.683691" lat="39.793247"><ele>52.5</ele></trkpt>
   <trkpt lon="2.683756" lat="39.793285"><ele>51.75</ele></trkpt>
   <trkpt lon="2.683811" lat="39.793313"><ele>51.25</ele></trkpt>
   <trkpt lon="2.683885" lat="39.793333"><ele>51.75</ele></trkpt>
   <trkpt lon="2.684029" lat="39.793341"><ele>52.5</ele></trkpt>
   <trkpt lon="2.684089" lat="39.793333"><ele>53.25</ele></trkpt>
   <trkpt lon="2.684282" lat="39.793279"><ele>54.75</ele></trkpt>
   <trkpt lon="2.684366" lat="39.793263"><ele>54.5</ele></trkpt>
   <trkpt lon="2.684452" lat="39.793256"><ele>54.0</ele></trkpt>
   <trkpt lon="2.684753" lat="39.793242"><ele>54.0</ele></trkpt>
   <trkpt lon="2.684874" lat="39.793231"><ele>53.5</ele></trkpt>
   <trkpt lon="2.685314" lat="39.793169"><ele>52.25</ele></trkpt>
   <trkpt lon="2.685528" lat="39.793124"><ele>51.5</ele></trkpt>
   <trkpt lon="2.685654" lat="39.793105"><ele>50.75</ele></trkpt>
   <trkpt lon="2.685835" lat="39.793095"><ele>48.5</ele></trkpt>
   <trkpt lon="2.685977" lat="39.793098"><ele>47.75</ele></trkpt>
   <trkpt lon="2.686137" lat="39.793117"><ele>45.75</ele></trkpt>
   <trkpt lon="2.686365" lat="39.793127"><ele>43.75</ele></trkpt>
   <trkpt lon="2.686507" lat="39.793118"><ele>43.25</ele></trkpt>
   <trkpt lon="2.686759" lat="39.793098"><ele>42.75</ele></trkpt>
   <trkpt lon="2.687068" lat="39.793042"><ele>45.75</ele></trkpt>
   <trkpt lon="2.687118" lat="39.793040"><ele>46.0</ele></trkpt>
   <trkpt lon="2.687159" lat="39.793045"><ele>45.5</ele></trkpt>
   <trkpt lon="2.687303" lat="39.793118"><ele>37.5</ele></trkpt>
   <trkpt lon="2.687355" lat="39.793135"><ele>35.25</ele></trkpt>
   <trkpt lon="2.687450" lat="39.793144"><ele>34.25</ele></trkpt>
   <trkpt lon="2.687762" lat="39.793107"><ele>34.0</ele></trkpt>
   <trkpt lon="2.687850" lat="39.793084"><ele>35.25</ele></trkpt>
   <trkpt lon="2.688099" lat="39.792995"><ele>37.25</ele></trkpt>
   <trkpt lon="2.688191" lat="39.792981"><ele>37.25</ele></trkpt>
   <trkpt lon="2.688272" lat="39.792992"><ele>35.75</ele></trkpt>
   <trkpt lon="2.688463" lat="39.793057"><ele>32.25</ele></trkpt>
   <trkpt lon="2.688735" lat="39.793109"><ele>31.75</ele></trkpt>
   <trkpt lon="2.688776" lat="39.793134"><ele>30.5</ele></trkpt>
   <trkpt lon="2.688782" lat="39.793150"><ele>29.75</ele></trkpt>
   <trkpt lon="2.688781" lat="39.793167"><ele>28.75</ele></trkpt>
   <trkpt lon="2.688753" lat="39.793191"><ele>27.5</ele></trkpt>
   <trkpt lon="2.688707" lat="39.793195"><ele>27.25</ele></trkpt>
   <trkpt lon="2.688350" lat="39.793089"><ele>28.75</ele></trkpt>
   <trkpt lon="2.688257" lat="39.793079"><ele>29.75</ele></trkpt>
   <trkpt lon="2.688235" lat="39.793086"><ele>29.5</ele></trkpt>
   <trkpt lon="2.688211" lat="39.793111"><ele>27.5</ele></trkpt>
   <trkpt lon="2.688211" lat="39.793128"><ele>26.0</ele></trkpt>
   <trkpt lon="2.688233" lat="39.793149"><ele>24.25</ele></trkpt>
   <trkpt lon="2.688307" lat="39.793153"><ele>24.25</ele></trkpt>
   <trkpt lon="2.688373" lat="39.793161"><ele>24.25</ele></trkpt>
   <trkpt lon="2.688502" lat="39.793195"><ele>24.75</ele></trkpt>
   <trkpt lon="2.688694" lat="39.793305"><ele>21.5</ele></trkpt>
   <trkpt lon="2.688773" lat="39.793337"><ele>20.25</ele></trkpt>
   <trkpt lon="2.688851" lat="39.793343"><ele>20.25</ele></trkpt>
   <trkpt lon="2.689097" lat="39.793341"><ele>19.0</ele></trkpt>
   <trkpt lon="2.689287" lat="39.793330"><ele>17.75</ele></trkpt>
   <trkpt lon="2.689518" lat="39.793311"><ele>16.0</ele></trkpt>
   <trkpt lon="2.689735" lat="39.793279"><ele>13.75</ele></trkpt>
   <trkpt lon="2.689822" lat="39.793257"><ele>12.25</ele></trkpt>
   <trkpt lon="2.689897" lat="39.793219"><ele>11.0</ele></trkpt>
   <trkpt lon="2.689927" lat="39.793197"><ele>10.75</ele></trkpt>
   <trkpt lon="2.689972" lat="39.793147"><ele>10.5</ele></trkpt>
   <trkpt lon="2.690249" lat="39.792609"><ele>9.5</ele></trkpt>
   <trkpt lon="2.690286" lat="39.792519"><ele>9.5</ele></trkpt>
   <trkpt lon="2.690300" lat="39.792451"><ele>9.25</ele></trkpt>
   <trkpt lon="2.690303" lat="39.792246"><ele>9.0</ele></trkpt>
   <trkpt lon="2.690297" lat="39.792180"><ele>9.0</ele></trkpt>
   <trkpt lon="2.690288" lat="39.792135"><ele>9.0</ele></trkpt>
   <trkpt lon="2.690270" lat="39.792092"><ele>9.25</ele></trkpt>
   <trkpt lon="2.690183" lat="39.791917"><ele>10.0</ele></trkpt>
   <trkpt lon="2.690163" lat="39.791840"><ele>9.75</ele></trkpt>
   <trkpt lon="2.690149" lat="39.791680"><ele>8.25</ele></trkpt>
   <trkpt lon="2.690152" lat="39.791548"><ele>7.25</ele></trkpt>
   <trkpt lon="2.690157" lat="39.791326"><ele>5.25</ele></trkpt>
   <trkpt lon="2.690159" lat="39.791254"><ele>4.5</ele></trkpt>
   <trkpt lon="2.690159" lat="39.791006"><ele>3.0</ele></trkpt>
   <trkpt lon="2.690170" lat="39.790930"><ele>2.75</ele></trkpt>
   <trkpt lon="2.690191" lat="39.790880"><ele>2.5</ele></trkpt>
   <trkpt lon="2.690258" lat="39.790789"><ele>2.0</ele></trkpt>
   <trkpt lon="2.690332" lat="39.790709"><ele>1.75</ele></trkpt>
   <trkpt lon="2.690350" lat="39.790688"><ele>1.5</ele></trkpt>
   <trkpt lon="2.690464" lat="39.790565"><ele>1.0</ele></trkpt>
   <trkpt lon="2.690516" lat="39.790523"><ele>1.0</ele></trkpt>
   <trkpt lon="2.690670" lat="39.790450"><ele>1.0</ele></trkpt>
   <trkpt lon="2.690801" lat="39.790411"><ele>1.0</ele><sym>right_slight</sym></trkpt>
   <trkpt lon="2.690644" lat="39.789960"><ele>1.0</ele><sym>u-turn_right</sym></trkpt>
   <trkpt lon="2.690640" lat="39.789960"><ele>1.0</ele><sym>pass_place</sym><type>Shaping</type></trkpt>
   <trkpt lon="2.690644" lat="39.789960"><ele>1.0</ele></trkpt>
   <trkpt lon="2.691208" lat="39.789835"><ele>1.25</ele></trkpt>
   <trkpt lon="2.691332" lat="39.789831"><ele>1.0</ele></trkpt>
   <trkpt lon="2.691615" lat="39.789859"><ele>1.0</ele><sym>right</sym></trkpt>
   <trkpt lon="2.691637" lat="39.789591"><ele>1.0</ele></trkpt>
   <trkpt lon="2.691640" lat="39.789277"><ele>1.0</ele></trkpt>
   <trkpt lon="2.691673" lat="39.789083"><ele>1.0</ele></trkpt>
   <trkpt lon="2.691716" lat="39.788986"><ele>1.0</ele></trkpt>
   <trkpt lon="2.691771" lat="39.788858"><ele>1.5</ele></trkpt>
   <trkpt lon="2.691840" lat="39.788707"><ele>1.75</ele></trkpt>
   <trkpt lon="2.691803" lat="39.788261"><ele>1.75</ele><sym>left_slight</sym></trkpt>
   <trkpt lon="2.691831" lat="39.788228"><ele>1.75</ele></trkpt>
   <trkpt lon="2.692141" lat="39.788021"><ele>1.75</ele></trkpt>
   <trkpt lon="2.692162" lat="39.788007"><ele>1.75</ele></trkpt>
   <trkpt lon="2.692929" lat="39.787489"><ele>1.5</ele></trkpt>
   <trkpt lon="2.693126" lat="39.787306"><ele>1.5</ele></trkpt>
   <trkpt lon="2.693308" lat="39.787078"><ele>2.75</ele></trkpt>
   <trkpt lon="2.693393" lat="39.786977"><ele>2.5</ele></trkpt>
   <trkpt lon="2.693635" lat="39.786737"><ele>2.5</ele></trkpt>
   <trkpt lon="2.693724" lat="39.786676"><ele>2.5</ele></trkpt>
   <trkpt lon="2.694012" lat="39.786500"><ele>2.5</ele></trkpt>
   <trkpt lon="2.694289" lat="39.786359"><ele>3.0</ele></trkpt>
   <trkpt lon="2.694532" lat="39.786246"><ele>3.0</ele></trkpt>
   <trkpt lon="2.694692" lat="39.786191"><ele>2.75</ele></trkpt>
   <trkpt lon="2.694941" lat="39.786178"><ele>2.75</ele></trkpt>
   <trkpt lon="2.695223" lat="39.786149"><ele>2.75</ele></trkpt>
   <trkpt lon="2.695546" lat="39.786135"><ele>3.75</ele></trkpt>
   <trkpt lon="2.695596" lat="39.786140"><ele>3.75</ele></trkpt>
   <trkpt lon="2.695636" lat="39.786152"><ele>3.75</ele></trkpt>
   <trkpt lon="2.695756" lat="39.786210"><ele>4.0</ele></trkpt>
   <trkpt lon="2.695892" lat="39.786284"><ele>4.25</ele></trkpt>
   <trkpt lon="2.695996" lat="39.786326"><ele>3.5</ele></trkpt>
   <trkpt lon="2.696154" lat="39.786379"><ele>3.0</ele></trkpt>
   <trkpt lon="2.696297" lat="39.786422"><ele>3.5</ele></trkpt>
   <trkpt lon="2.696390" lat="39.786425"><ele>4.0</ele></trkpt>
   <trkpt lon="2.696453" lat="39.786400"><ele>4.0</ele></trkpt>
   <trkpt lon="2.696537" lat="39.786317"><ele>3.75</ele></trkpt>
   <trkpt lon="2.696568" lat="39.786306"><ele>3.75</ele></trkpt>
   <trkpt lon="2.696587" lat="39.786306"><ele>3.75</ele></trkpt>
   <trkpt lon="2.696646" lat="39.786318"><ele>3.75</ele></trkpt>
   <trkpt lon="2.696706" lat="39.786334"><ele>4.5</ele><sym>left_sharp</sym></trkpt>
   <trkpt lon="2.696341" lat="39.786653"><ele>3.75</ele></trkpt>
   <trkpt lon="2.696188" lat="39.786802"><ele>4.5</ele></trkpt>
   <trkpt lon="2.696028" lat="39.786971"><ele>3.5</ele></trkpt>
   <trkpt lon="2.695862" lat="39.787254"><ele>3.5</ele></trkpt>
   <trkpt lon="2.695747" lat="39.787614"><ele>3.5</ele></trkpt>
   <trkpt lon="2.695654" lat="39.787910"><ele>3.25</ele></trkpt>
   <trkpt lon="2.695533" lat="39.788221"><ele>3.25</ele></trkpt>
   <trkpt lon="2.695345" lat="39.788634"><ele>3.0</ele></trkpt>
   <trkpt lon="2.694930" lat="39.789509"><ele>3.0</ele></trkpt>
   <trkpt lon="2.694831" lat="39.789747"><ele>3.0</ele></trkpt>
   <trkpt lon="2.694788" lat="39.789877"><ele>3.0</ele></trkpt>
   <trkpt lon="2.694733" lat="39.790110"><ele>3.0</ele></trkpt>
   <trkpt lon="2.694687" lat="39.790427"><ele>3.25</ele></trkpt>
   <trkpt lon="2.694672" lat="39.790589"><ele>3.5</ele></trkpt>
   <trkpt lon="2.694666" lat="39.790779"><ele>3.75</ele></trkpt>
   <trkpt lon="2.694683" lat="39.790891"><ele>3.75</ele></trkpt>
   <trkpt lon="2.694709" lat="39.790984"><ele>3.75</ele></trkpt>
   <trkpt lon="2.694751" lat="39.791061"><ele>5.0</ele></trkpt>
   <trkpt lon="2.694800" lat="39.791128"><ele>4.75</ele></trkpt>
   <trkpt lon="2.695262" lat="39.791670"><ele>3.75</ele></trkpt>
   <trkpt lon="2.695686" lat="39.792106"><ele>2.75</ele></trkpt>
   <trkpt lon="2.696004" lat="39.792488"><ele>3.0</ele></trkpt>
   <trkpt lon="2.696220" lat="39.792767"><ele>4.75</ele></trkpt>
   <trkpt lon="2.696351" lat="39.792959"><ele>4.5</ele></trkpt>
   <trkpt lon="2.696374" lat="39.792992"><ele>4.25</ele></trkpt>
   <trkpt lon="2.696543" lat="39.793253"><ele>3.75</ele></trkpt>
   <trkpt lon="2.696639" lat="39.793430"><ele>3.5</ele></trkpt>
   <trkpt lon="2.696699" lat="39.793572"><ele>3.25</ele></trkpt>
   <trkpt lon="2.696737" lat="39.793672"><ele>3.25</ele></trkpt>
   <trkpt lon="2.696805" lat="39.793898"><ele>2.75</ele></trkpt>
   <trkpt lon="2.696852" lat="39.794139"><ele>2.25</ele></trkpt>
   <trkpt lon="2.696858" lat="39.794167"><ele>2.25</ele></trkpt>
   <trkpt lon="2.696870" lat="39.794309"><ele>2.75</ele></trkpt>
   <trkpt lon="2.696881" lat="39.794645"><ele>3.25</ele><sym>pass_place</sym><type>Shaping</type></trkpt>
   <trkpt lon="2.696894" lat="39.795376"><ele>2.5</ele></trkpt>
   <trkpt lon="2.696896" lat="39.795486"><ele>2.5</ele></trkpt>
   <trkpt lon="2.696880" lat="39.795595"><ele>2.5</ele></trkpt>
   <trkpt lon="2.696754" lat="39.796019"><ele>2.5</ele></trkpt>
   <trkpt lon="2.696701" lat="39.796180"><ele>2.0</ele></trkpt>
   <trkpt lon="2.696659" lat="39.796270"><ele>1.75</ele></trkpt>
   <trkpt lon="2.696579" lat="39.796404"><ele>2.0</ele></trkpt>
   <trkpt lon="2.696269" lat="39.796894"><ele>1.75</ele></trkpt>
   <trkpt lon="2.696195" lat="39.796998"><ele>2.25</ele></trkpt>
   <trkpt lon="2.696016" lat="39.797274"><ele>2.75</ele></trkpt>
   <trkpt lon="2.695912" lat="39.797402"><ele>2.75</ele></trkpt>
   <trkpt lon="2.695816" lat="39.797491"><ele>2.75</ele></trkpt>
   <trkpt lon="2.695708" lat="39.797575"><ele>2.75</ele><sym>right</sym></trkpt>
   <trkpt lon="2.695773" lat="39.797623"><ele>2.75</ele></trkpt>
   <trkpt lon="2.696262" lat="39.797916"><ele>6.75</ele><sym>u-turn</sym><type>Via</type></trkpt>
   <trkpt lon="2.695773" lat="39.797623"><ele>2.75</ele></trkpt>
   <trkpt lon="2.695708" lat="39.797575"><ele>2.75</ele><sym>left</sym></trkpt>
   <trkpt lon="2.695816" lat="39.797491"><ele>2.75</ele></trkpt>
   <trkpt lon="2.695912" lat="39.797402"><ele>2.75</ele></trkpt>
   <trkpt lon="2.696016" lat="39.797274"><ele>2.75</ele></trkpt>
   <trkpt lon="2.696195" lat="39.796998"><ele>2.25</ele></trkpt>
   <trkpt lon="2.696269" lat="39.796894"><ele>1.75</ele></trkpt>
   <trkpt lon="2.696579" lat="39.796404"><ele>2.0</ele></trkpt>
   <trkpt lon="2.696659" lat="39.796270"><ele>1.75</ele></trkpt>
   <trkpt lon="2.696701" lat="39.796180"><ele>2.0</ele></trkpt>
   <trkpt lon="2.696754" lat="39.796019"><ele>2.5</ele></trkpt>
   <trkpt lon="2.696880" lat="39.795595"><ele>2.5</ele></trkpt>
   <trkpt lon="2.696896" lat="39.795486"><ele>2.5</ele></trkpt>
   <trkpt lon="2.696894" lat="39.795376"><ele>2.5</ele></trkpt>
   <trkpt lon="2.696881" lat="39.794645"><ele>3.25</ele></trkpt>
   <trkpt lon="2.696870" lat="39.794309"><ele>2.75</ele></trkpt>
   <trkpt lon="2.696858" lat="39.794167"><ele>2.25</ele></trkpt>
   <trkpt lon="2.696852" lat="39.794139"><ele>2.25</ele></trkpt>
   <trkpt lon="2.696805" lat="39.793898"><ele>2.75</ele></trkpt>
   <trkpt lon="2.696737" lat="39.793672"><ele>3.25</ele></trkpt>
   <trkpt lon="2.696699" lat="39.793572"><ele>3.25</ele></trkpt>
   <trkpt lon="2.696639" lat="39.793430"><ele>3.5</ele></trkpt>
   <trkpt lon="2.696543" lat="39.793253"><ele>4.0</ele></trkpt>
   <trkpt lon="2.696374" lat="39.792992"><ele>4.5</ele></trkpt>
   <trkpt lon="2.696351" lat="39.792959"><ele>4.5</ele></trkpt>
   <trkpt lon="2.696220" lat="39.792767"><ele>4.75</ele></trkpt>
   <trkpt lon="2.696004" lat="39.792488"><ele>3.0</ele></trkpt>
   <trkpt lon="2.695686" lat="39.792106"><ele>3.5</ele></trkpt>
   <trkpt lon="2.695262" lat="39.791670"><ele>4.0</ele></trkpt>
   <trkpt lon="2.694800" lat="39.791128"><ele>5.0</ele></trkpt>
   <trkpt lon="2.694751" lat="39.791061"><ele>5.0</ele></trkpt>
   <trkpt lon="2.694709" lat="39.790984"><ele>3.75</ele></trkpt>
   <trkpt lon="2.694683" lat="39.790891"><ele>3.75</ele></trkpt>
   <trkpt lon="2.694666" lat="39.790779"><ele>3.75</ele></trkpt>
   <trkpt lon="2.694672" lat="39.790589"><ele>3.5</ele></trkpt>
   <trkpt lon="2.694687" lat="39.790427"><ele>3.25</ele></trkpt>
   <trkpt lon="2.694733" lat="39.790110"><ele>3.0</ele></trkpt>
   <trkpt lon="2.694788" lat="39.789877"><ele>3.0</ele></trkpt>
   <trkpt lon="2.694831" lat="39.789747"><ele>3.0</ele></trkpt>
   <trkpt lon="2.694930" lat="39.789509"><ele>3.0</ele></trkpt>
   <trkpt lon="2.695345" lat="39.788634"><ele>3.0</ele></trkpt>
   <trkpt lon="2.695533" lat="39.788221"><ele>3.25</ele></trkpt>
   <trkpt lon="2.695654" lat="39.787910"><ele>3.25</ele></trkpt>
   <trkpt lon="2.695747" lat="39.787614"><ele>3.5</ele></trkpt>
   <trkpt lon="2.695862" lat="39.787254"><ele>3.5</ele></trkpt>
   <trkpt lon="2.696028" lat="39.786971"><ele>3.5</ele></trkpt>
   <trkpt lon="2.696188" lat="39.786802"><ele>4.5</ele></trkpt>
   <trkpt lon="2.696341" lat="39.786653"><ele>3.75</ele></trkpt>
   <trkpt lon="2.696706" lat="39.786334"><ele>4.5</ele></trkpt>
   <trkpt lon="2.697890" lat="39.785374"><ele>7.75</ele></trkpt>
   <trkpt lon="2.698210" lat="39.785074"><ele>7.5</ele></trkpt>
   <trkpt lon="2.698284" lat="39.784984"><ele>6.5</ele></trkpt>
   <trkpt lon="2.698375" lat="39.784849"><ele>7.0</ele></trkpt>
   <trkpt lon="2.699276" lat="39.783468"><ele>7.25</ele><sym>pass_place</sym><type>Shaping</type></trkpt>
   <trkpt lon="2.699278" lat="39.783466"><ele>7.25</ele></trkpt>
   <trkpt lon="2.699501" lat="39.783117"><ele>7.25</ele></trkpt>
   <trkpt lon="2.699663" lat="39.782845"><ele>7.25</ele></trkpt>
   <trkpt lon="2.699757" lat="39.782723"><ele>9.0</ele></trkpt>
   <trkpt lon="2.699869" lat="39.782605"><ele>12.25</ele></trkpt>
   <trkpt lon="2.699995" lat="39.782383"><ele>9.25</ele></trkpt>
   <trkpt lon="2.700160" lat="39.782125"><ele>8.25</ele></trkpt>
   <trkpt lon="2.700355" lat="39.781826"><ele>7.75</ele></trkpt>
   <trkpt lon="2.700896" lat="39.780984"><ele>7.5</ele></trkpt>
   <trkpt lon="2.700973" lat="39.780874"><ele>7.5</ele></trkpt>
   <trkpt lon="2.701066" lat="39.780748"><ele>8.0</ele></trkpt>
   <trkpt lon="2.701256" lat="39.780545"><ele>8.25</ele></trkpt>
   <trkpt lon="2.701346" lat="39.780465"><ele>8.25</ele></trkpt>
   <trkpt lon="2.701574" lat="39.780294"><ele>8.75</ele></trkpt>
   <trkpt lon="2.702013" lat="39.779971"><ele>8.5</ele></trkpt>
   <trkpt lon="2.702806" lat="39.779387"><ele>8.5</ele></trkpt>
   <trkpt lon="2.703724" lat="39.778712"><ele>8.75</ele></trkpt>
   <trkpt lon="2.703815" lat="39.778648"><ele>8.75</ele></trkpt>
   <trkpt lon="2.703913" lat="39.778570"><ele>9.0</ele></trkpt>
   <trkpt lon="2.704379" lat="39.778201"><ele>9.25</ele></trkpt>
   <trkpt lon="2.704515" lat="39.778062"><ele>9.25</ele></trkpt>
   <trkpt lon="2.704609" lat="39.777944"><ele>9.5</ele></trkpt>
   <trkpt lon="2.704646" lat="39.777898"><ele>9.5</ele></trkpt>
   <trkpt lon="2.704719" lat="39.777805"><ele>9.75</ele></trkpt>
   <trkpt lon="2.704880" lat="39.777519"><ele>10.0</ele></trkpt>
   <trkpt lon="2.704979" lat="39.777372"><ele>10.0</ele></trkpt>
   <trkpt lon="2.705113" lat="39.777198"><ele>10.0</ele></trkpt>
   <trkpt lon="2.705449" lat="39.776818"><ele>10.5</ele></trkpt>
   <trkpt lon="2.705534" lat="39.776684"><ele>10.75</ele></trkpt>
   <trkpt lon="2.705597" lat="39.776555"><ele>11.0</ele></trkpt>
   <trkpt lon="2.705623" lat="39.776478"><ele>11.0</ele></trkpt>
   <trkpt lon="2.705653" lat="39.776295"><ele>11.0</ele></trkpt>
   <trkpt lon="2.705658" lat="39.776212"><ele>11.0</ele></trkpt>
   <trkpt lon="2.705620" lat="39.775729"><ele>12.0</ele></trkpt>
   <trkpt lon="2.705536" lat="39.774782"><ele>15.5</ele></trkpt>
   <trkpt lon="2.705521" lat="39.774580"><ele>15.5</ele></trkpt>
   <trkpt lon="2.705466" lat="39.774129"><ele>16.0</ele></trkpt>
   <trkpt lon="2.705427" lat="39.773713"><ele>17.0</ele></trkpt>
   <trkpt lon="2.705422" lat="39.773547"><ele>17.5</ele></trkpt>
   <trkpt lon="2.705422" lat="39.773378"><ele>17.75</ele></trkpt>
   <trkpt lon="2.705439" lat="39.773191"><ele>18.25</ele></trkpt>
   <trkpt lon="2.705507" lat="39.772821"><ele>19.5</ele></trkpt>
   <trkpt lon="2.705546" lat="39.772676"><ele>20.0</ele></trkpt>
   <trkpt lon="2.705732" lat="39.772167"><ele>20.75</ele></trkpt>
   <trkpt lon="2.705960" lat="39.771648"><ele>22.0</ele></trkpt>
   <trkpt lon="2.706053" lat="39.771412"><ele>22.0</ele></trkpt>
   <trkpt lon="2.706079" lat="39.771217"><ele>23.25</ele></trkpt>
   <trkpt lon="2.706070" lat="39.771128"><ele>23.75</ele><sym>roundabout_e1</sym></trkpt>
   <trkpt lon="2.706033" lat="39.771097"><ele>24.0</ele></trkpt>
   <trkpt lon="2.706005" lat="39.771052"><ele>24.0</ele></trkpt>
   <trkpt lon="2.706004" lat="39.771013"><ele>24.0</ele></trkpt>
   <trkpt lon="2.706013" lat="39.770976"><ele>24.0</ele></trkpt>
   <trkpt lon="2.706059" lat="39.770929"><ele>24.0</ele></trkpt>
   <trkpt lon="2.706120" lat="39.770912"><ele>23.75</ele></trkpt>
   <trkpt lon="2.706175" lat="39.770877"><ele>23.75</ele></trkpt>
   <trkpt lon="2.706250" lat="39.770801"><ele>24.0</ele></trkpt>
   <trkpt lon="2.706380" lat="39.770632"><ele>25.25</ele></trkpt>
   <trkpt lon="2.706684" lat="39.769868"><ele>28.25</ele></trkpt>
   <trkpt lon="2.706724" lat="39.769769"><ele>28.25</ele></trkpt>
   <trkpt lon="2.707180" lat="39.768645"><ele>30.0</ele></trkpt>
   <trkpt lon="2.707181" lat="39.768640"><ele>31.75</ele><sym>pass_place</sym><type>Shaping</type></trkpt>
   <trkpt lon="2.707507" lat="39.767828"><ele>31.75</ele></trkpt>
   <trkpt lon="2.707828" lat="39.767027"><ele>34.25</ele></trkpt>
   <trkpt lon="2.707819" lat="39.766967"><ele>34.75</ele></trkpt>
   <trkpt lon="2.707814" lat="39.766901"><ele>35.0</ele></trkpt>
   <trkpt lon="2.707809" lat="39.766829"><ele>35.25</ele><sym>roundabout_e2</sym></trkpt>
   <trkpt lon="2.707782" lat="39.766804"><ele>35.25</ele></trkpt>
   <trkpt lon="2.707767" lat="39.766767"><ele>35.5</ele></trkpt>
   <trkpt lon="2.707768" lat="39.766741"><ele>35.75</ele></trkpt>
   <trkpt lon="2.707788" lat="39.766705"><ele>35.75</ele></trkpt>
   <trkpt lon="2.707819" lat="39.766681"><ele>35.75</ele></trkpt>
   <trkpt lon="2.707853" lat="39.766669"><ele>35.75</ele></trkpt>
   <trkpt lon="2.707898" lat="39.766665"><ele>36.0</ele></trkpt>
   <trkpt lon="2.707930" lat="39.766671"><ele>35.75</ele></trkpt>
   <trkpt lon="2.707966" lat="39.766687"><ele>35.75</ele></trkpt>
   <trkpt lon="2.707982" lat="39.766701"><ele>35.75</ele></trkpt>
   <trkpt lon="2.708004" lat="39.766735"><ele>35.5</ele></trkpt>
   <trkpt lon="2.708047" lat="39.766763"><ele>35.25</ele></trkpt>
   <trkpt lon="2.708113" lat="39.766806"><ele>34.5</ele></trkpt>
   <trkpt lon="2.708548" lat="39.766981"><ele>32.0</ele></trkpt>
   <trkpt lon="2.708936" lat="39.767131"><ele>30.0</ele></trkpt>
   <trkpt lon="2.709343" lat="39.767304"><ele>28.25</ele></trkpt>
   <trkpt lon="2.709659" lat="39.767432"><ele>27.25</ele></trkpt>
   <trkpt lon="2.709879" lat="39.767523"><ele>26.75</ele></trkpt>
   <trkpt lon="2.710296" lat="39.767705"><ele>26.75</ele></trkpt>
   <trkpt lon="2.710452" lat="39.767773"><ele>27.0</ele></trkpt>
   <trkpt lon="2.710957" lat="39.767992"><ele>26.75</ele></trkpt>
   <trkpt lon="2.710996" lat="39.768009"><ele>26.75</ele></trkpt>
   <trkpt lon="2.711252" lat="39.768121"><ele>26.75</ele></trkpt>
   <trkpt lon="2.711366" lat="39.768170"><ele>26.75</ele><sym>roundabout_e1</sym></trkpt>
   <trkpt lon="2.711384" lat="39.768154"><ele>26.75</ele></trkpt>
   <trkpt lon="2.711434" lat="39.768135"><ele>27.0</ele></trkpt>
   <trkpt lon="2.711489" lat="39.768141"><ele>27.0</ele></trkpt>
   <trkpt lon="2.711539" lat="39.768073"><ele>26.75</ele></trkpt>
   <trkpt lon="2.712789" lat="39.766367"><ele>33.0</ele></trkpt>
   <trkpt lon="2.712953" lat="39.766144"><ele>33.75</ele></trkpt>
   <trkpt lon="2.713023" lat="39.765980"><ele>34.75</ele><sym>left</sym></trkpt>
   <trkpt lon="2.713079" lat="39.765980"><ele>34.75</ele></trkpt>
   <trkpt lon="2.713481" lat="39.765979"><ele>35.0</ele></trkpt>
   <trkpt lon="2.713720" lat="39.766101"><ele>35.0</ele></trkpt>
   <trkpt lon="2.713868" lat="39.766204"><ele>34.5</ele></trkpt>
   <trkpt lon="2.713927" lat="39.766244"><ele>34.5</ele></trkpt>
   <trkpt lon="2.714190" lat="39.766353"><ele>34.0</ele></trkpt>
   <trkpt lon="2.714609" lat="39.766471"><ele>33.5</ele></trkpt>
   <trkpt lon="2.714695" lat="39.766505"><ele>33.0</ele><sym>right</sym></trkpt>
   <trkpt lon="2.714731" lat="39.766486"><ele>33.25</ele></trkpt>
   <trkpt lon="2.714782" lat="39.766443"><ele>33.5</ele></trkpt>
   <trkpt lon="2.714824" lat="39.766373"><ele>34.0</ele></trkpt>
   <trkpt lon="2.714825" lat="39.766186"><ele>34.0</ele><sym>left</sym></trkpt>
   <trkpt lon="2.715059" lat="39.766199"><ele>34.75</ele><sym>pass_place</sym><type>Via</type></trkpt>
  </trkseg>
 </trk>
</gpx>
