<?xml version="1.0" encoding="UTF-8"?>
<!-- track-length = 28662 filtered ascend = 559 plain-ascend = 1 cost=52279 energy=.2kwh time=2h 2m 1s -->
<gpx 
 xmlns="http://www.topografix.com/GPX/1/1" 
 xmlns:xsi="http://www.w3.org/2001/XMLSchema-instance" 
 xsi:schemaLocation="http://www.topografix.com/GPX/1/1 http://www.topografix.com/GPX/1/1/gpx.xsd" 
 creator="BRouter-1.7.9" version="1.1"><wpt lat="39.76472" lon="2.71612"><name>Drinking water</name><sym>Drinking Water</sym></wpt><wpt lat="39.76655" lon="2.71486"><name>Bini</name><sym>Restaurant</sym></wpt><wpt lat="39.74643" lon="2.64954"><name>sa Font Fresca</name><sym>Restaurant</sym></wpt><wpt lat="39.76657" lon="2.71538"><name>Sóller</name><sym>Restaurant</sym></wpt><wpt lat="39.76645" lon="2.71483"><name>Drinking water</name><sym>Drinking Water</sym></wpt><wpt lat="39.7676" lon="2.71586"><name>Drinking water</name><sym>Drinking Water</sym></wpt><wpt lat="39.76822" lon="2.71144"><name>Drinking water</name><sym>Drinking Water</sym></wpt><wpt lat="39.76852" lon="2.70866"><name>Drinking water</name><sym>Drinking Water</sym></wpt><wpt lat="39.77119" lon="2.70632"><name>Stop</name><sym>Restaurant</sym></wpt><wpt lat="39.74664" lon="2.64922"><name>The Village Cafe</name><sym>Restaurant</sym></wpt><wpt lat="39.76733" lon="2.70962"><name>sa Petanca</name><sym>Restaurant</sym></wpt><wpt lat="39.74745" lon="2.64441"><name>S&#x27;Hortet</name><sym>Restaurant</sym></wpt><wpt lat="39.76519" lon="2.71518"><name>el Tren</name><sym>Restaurant</sym></wpt><wpt lat="39.76574" lon="2.71473"><name>es Pont</name><sym>Restaurant</sym></wpt><wpt lat="39.76615" lon="2.71301"><name>Drinking water</name><sym>Drinking Water</sym></wpt><wpt lat="39.74638" lon="2.64936"><name>Drinking water</name><sym>Drinking Water</sym></wpt><wpt lat="39.76537" lon="2.71206"><name>Drinking water</name><sym>Drinking Water</sym></wpt><wpt lat="39.77149" lon="2.67621"><name>Son Mico</name><sym>Restaurant</sym></wpt><wpt lat="39.7693" lon="2.71295"><name>es Camp de s&#x27;Oca</name><sym>Restaurant</sym></wpt>
 <trk>
  <src>brouter_fastbike-lowtraffic_0</src>
  <type>bike</type>
  <trkseg>
   <trkpt lon="2.715059" lat="39.766199"><ele>34.25</ele><sym>pass_place</sym><type>Via</type></trkpt>
   <trkpt lon="2.714825" lat="39.766186"><ele>34.0</ele><sym>stay_left</sym></trkpt>
   <trkpt lon="2.714103" lat="39.766114"><ele>34.75</ele><sym>right</sym></trkpt>
   <trkpt lon="2.714019" lat="39.766108"><ele>35.0</ele></trkpt>
   <trkpt lon="2.713927" lat="39.766244"><ele>34.5</ele><sym>straight</sym></trkpt>
   <trkpt lon="2.713910" lat="39.766270"><ele>34.25</ele></trkpt>
   <trkpt lon="2.713736" lat="39.766536"><ele>32.75</ele></trkpt>
   <trkpt lon="2.713331" lat="39.767046"><ele>30.5</ele></trkpt>
   <trkpt lon="2.712929" lat="39.767412"><ele>29.25</ele></trkpt>
   <trkpt lon="2.712601" lat="39.767876"><ele>28.0</ele></trkpt>
   <trkpt lon="2.712131" lat="39.768445"><ele>26.75</ele></trkpt>
   <trkpt lon="2.712065" lat="39.768505"><ele>26.5</ele></trkpt>
   <trkpt lon="2.711794" lat="39.768774"><ele>25.25</ele></trkpt>
   <trkpt lon="2.711298" lat="39.769261"><ele>23.5</ele><sym>left</sym></trkpt>
   <trkpt lon="2.711018" lat="39.769091"><ele>23.75</ele></trkpt>
   <trkpt lon="2.710869" lat="39.768986"><ele>24.25</ele></trkpt>
   <trkpt lon="2.710410" lat="39.768727"><ele>24.25</ele></trkpt>
   <trkpt lon="2.709983" lat="39.768473"><ele>24.25</ele><sym>right</sym></trkpt>
   <trkpt lon="2.709811" lat="39.768707"><ele>23.5</ele></trkpt>
   <trkpt lon="2.709651" lat="39.768924"><ele>22.75</ele><sym>left</sym></trkpt>
   <trkpt lon="2.709200" lat="39.768721"><ele>23.75</ele></trkpt>
   <trkpt lon="2.708751" lat="39.768511"><ele>24.0</ele></trkpt>
   <trkpt lon="2.708583" lat="39.768435"><ele>24.75</ele></trkpt>
   <trkpt lon="2.708216" lat="39.768263"><ele>27.75</ele><sym>right</sym></trkpt>
   <trkpt lon="2.708061" lat="39.768513"><ele>27.5</ele></trkpt>
   <trkpt lon="2.707917" lat="39.768745"><ele>27.25</ele></trkpt>
   <trkpt lon="2.707621" lat="39.768999"><ele>27.75</ele></trkpt>
   <trkpt lon="2.707438" lat="39.769156"><ele>27.25</ele></trkpt>
   <trkpt lon="2.707097" lat="39.769449"><ele>26.75</ele></trkpt>
   <trkpt lon="2.706724" lat="39.769769"><ele>28.25</ele><sym>right_slight</sym></trkpt>
   <trkpt lon="2.706684" lat="39.769868"><ele>28.25</ele></trkpt>
   <trkpt lon="2.706380" lat="39.770632"><ele>25.25</ele></trkpt>
   <trkpt lon="2.706315" lat="39.770824"><ele>24.0</ele></trkpt>
   <trkpt lon="2.706275" lat="39.770981"><ele>23.25</ele><sym>roundabout_e2</sym></trkpt>
   <trkpt lon="2.706280" lat="39.771040"><ele>23.0</ele></trkpt>
   <trkpt lon="2.706251" lat="39.771099"><ele>23.0</ele></trkpt>
   <trkpt lon="2.706221" lat="39.771121"><ele>23.0</ele></trkpt>
   <trkpt lon="2.706151" lat="39.771230"><ele>22.75</ele></trkpt>
   <trkpt lon="2.706053" lat="39.771412"><ele>22.0</ele></trkpt>
   <trkpt lon="2.705960" lat="39.771648"><ele>22.0</ele></trkpt>
   <trkpt lon="2.705807" lat="39.772136"><ele>20.5</ele></trkpt>
   <trkpt lon="2.705651" lat="39.772597"><ele>19.5</ele><sym>left_slight</sym></trkpt>
   <trkpt lon="2.705599" lat="39.772682"><ele>19.75</ele></trkpt>
   <trkpt lon="2.705579" lat="39.772728"><ele>19.75</ele></trkpt>
   <trkpt lon="2.705543" lat="39.772851"><ele>19.5</ele></trkpt>
   <trkpt lon="2.705506" lat="39.773025"><ele>18.75</ele></trkpt>
   <trkpt lon="2.705478" lat="39.773204"><ele>18.25</ele></trkpt>
   <trkpt lon="2.705460" lat="39.773482"><ele>17.5</ele></trkpt>
   <trkpt lon="2.705455" lat="39.773513"><ele>17.5</ele></trkpt>
   <trkpt lon="2.705444" lat="39.773530"><ele>17.5</ele></trkpt>
   <trkpt lon="2.705422" lat="39.773547"><ele>17.5</ele><sym>left_slight</sym></trkpt>
   <trkpt lon="2.705398" lat="39.773558"><ele>17.5</ele></trkpt>
   <trkpt lon="2.705345" lat="39.773573"><ele>17.75</ele></trkpt>
   <trkpt lon="2.705309" lat="39.773574"><ele>17.75</ele><sym>left_slight</sym></trkpt>
   <trkpt lon="2.703450" lat="39.772803"><ele>24.75</ele><sym>left_slight</sym></trkpt>
   <trkpt lon="2.703224" lat="39.772412"><ele>26.0</ele></trkpt>
   <trkpt lon="2.703046" lat="39.772184"><ele>28.25</ele></trkpt>
   <trkpt lon="2.702900" lat="39.772122"><ele>29.25</ele></trkpt>
   <trkpt lon="2.702803" lat="39.772072"><ele>29.75</ele><sym>right_slight</sym></trkpt>
   <trkpt lon="2.702703" lat="39.772058"><ele>30.0</ele><sym>pass_place</sym><type>Shaping</type></trkpt>
   <trkpt lon="2.702586" lat="39.772053"><ele>30.0</ele></trkpt>
   <trkpt lon="2.702478" lat="39.772057"><ele>30.0</ele></trkpt>
   <trkpt lon="2.702348" lat="39.772085"><ele>29.5</ele></trkpt>
   <trkpt lon="2.702203" lat="39.772130"><ele>29.5</ele></trkpt>
   <trkpt lon="2.702101" lat="39.772190"><ele>30.25</ele></trkpt>
   <trkpt lon="2.701995" lat="39.772263"><ele>31.0</ele></trkpt>
   <trkpt lon="2.701889" lat="39.772335"><ele>32.25</ele></trkpt>
   <trkpt lon="2.701847" lat="39.772382"><ele>32.75</ele></trkpt>
   <trkpt lon="2.701263" lat="39.773118"><ele>36.0</ele></trkpt>
   <trkpt lon="2.699551" lat="39.774324"><ele>46.5</ele></trkpt>
   <trkpt lon="2.699259" lat="39.774504"><ele>50.25</ele></trkpt>
   <trkpt lon="2.698970" lat="39.774658"><ele>52.25</ele></trkpt>
   <trkpt lon="2.698541" lat="39.774834"><ele>53.75</ele></trkpt>
   <trkpt lon="2.697845" lat="39.775046"><ele>53.75</ele></trkpt>
   <trkpt lon="2.697421" lat="39.775127"><ele>54.25</ele></trkpt>
   <trkpt lon="2.697182" lat="39.775143"><ele>56.75</ele></trkpt>
   <trkpt lon="2.697110" lat="39.775132"><ele>57.0</ele></trkpt>
   <trkpt lon="2.697068" lat="39.775106"><ele>57.25</ele></trkpt>
   <trkpt lon="2.697036" lat="39.775042"><ele>58.5</ele></trkpt>
   <trkpt lon="2.697039" lat="39.774976"><ele>60.25</ele></trkpt>
   <trkpt lon="2.697090" lat="39.774914"><ele>62.5</ele></trkpt>
   <trkpt lon="2.697199" lat="39.774882"><ele>62.75</ele></trkpt>
   <trkpt lon="2.697441" lat="39.774882"><ele>63.0</ele></trkpt>
   <trkpt lon="2.697823" lat="39.774831"><ele>61.25</ele></trkpt>
   <trkpt lon="2.698648" lat="39.774518"><ele>62.25</ele></trkpt>
   <trkpt lon="2.698713" lat="39.774460"><ele>63.25</ele></trkpt>
   <trkpt lon="2.698727" lat="39.774390"><ele>64.25</ele></trkpt>
   <trkpt lon="2.698691" lat="39.774311"><ele>65.75</ele></trkpt>
   <trkpt lon="2.698577" lat="39.774244"><ele>68.25</ele></trkpt>
   <trkpt lon="2.698453" lat="39.774256"><ele>70.0</ele></trkpt>
   <trkpt lon="2.698067" lat="39.774416"><ele>68.5</ele></trkpt>
   <trkpt lon="2.697936" lat="39.774461"><ele>68.75</ele></trkpt>
   <trkpt lon="2.697660" lat="39.774548"><ele>70.5</ele></trkpt>
   <trkpt lon="2.697298" lat="39.774615"><ele>71.25</ele></trkpt>
   <trkpt lon="2.697231" lat="39.774628"><ele>71.0</ele></trkpt>
   <trkpt lon="2.697065" lat="39.774659"><ele>72.0</ele></trkpt>
   <trkpt lon="2.696729" lat="39.774674"><ele>74.75</ele></trkpt>
   <trkpt lon="2.696266" lat="39.774649"><ele>77.75</ele></trkpt>
   <trkpt lon="2.696187" lat="39.774661"><ele>77.75</ele></trkpt>
   <trkpt lon="2.696118" lat="39.774688"><ele>77.25</ele></trkpt>
   <trkpt lon="2.696047" lat="39.774758"><ele>77.25</ele></trkpt>
   <trkpt lon="2.695999" lat="39.774867"><ele>78.0</ele></trkpt>
   <trkpt lon="2.695952" lat="39.775042"><ele>78.25</ele></trkpt>
   <trkpt lon="2.695888" lat="39.775162"><ele>78.75</ele></trkpt>
   <trkpt lon="2.695778" lat="39.775275"><ele>80.0</ele></trkpt>
   <trkpt lon="2.695620" lat="39.775362"><ele>80.25</ele></trkpt>
   <trkpt lon="2.695514" lat="39.775387"><ele>80.25</ele></trkpt>
   <trkpt lon="2.695341" lat="39.775404"><ele>78.75</ele></trkpt>
   <trkpt lon="2.695180" lat="39.775384"><ele>78.75</ele></trkpt>
   <trkpt lon="2.695048" lat="39.775345"><ele>80.0</ele></trkpt>
   <trkpt lon="2.694957" lat="39.775294"><ele>81.5</ele></trkpt>
   <trkpt lon="2.694866" lat="39.775229"><ele>82.25</ele></trkpt>
   <trkpt lon="2.694776" lat="39.775101"><ele>83.75</ele></trkpt>
   <trkpt lon="2.694578" lat="39.774818"><ele>86.75</ele></trkpt>
   <trkpt lon="2.694519" lat="39.774757"><ele>87.0</ele></trkpt>
   <trkpt lon="2.694435" lat="39.774700"><ele>86.75</ele></trkpt>
   <trkpt lon="2.694037" lat="39.774517"><ele>88.5</ele></trkpt>
   <trkpt lon="2.693853" lat="39.774423"><ele>89.25</ele></trkpt>
   <trkpt lon="2.693676" lat="39.774270"><ele>90.75</ele></trkpt>
   <trkpt lon="2.693470" lat="39.774028"><ele>93.0</ele></trkpt>
   <trkpt lon="2.693419" lat="39.773990"><ele>93.0</ele></trkpt>
   <trkpt lon="2.693353" lat="39.773956"><ele>92.0</ele><sym>right_slight</sym></trkpt>
   <trkpt lon="2.693253" lat="39.773939"><ele>92.25</ele></trkpt>
   <trkpt lon="2.693121" lat="39.773929"><ele>92.75</ele></trkpt>
   <trkpt lon="2.692904" lat="39.773943"><ele>95.75</ele></trkpt>
   <trkpt lon="2.692698" lat="39.774009"><ele>99.0</ele></trkpt>
   <trkpt lon="2.692512" lat="39.774089"><ele>101.0</ele></trkpt>
   <trkpt lon="2.692416" lat="39.774177"><ele>98.75</ele></trkpt>
   <trkpt lon="2.692355" lat="39.774262"><ele>99.75</ele></trkpt>
   <trkpt lon="2.692321" lat="39.774348"><ele>100.75</ele></trkpt>
   <trkpt lon="2.692319" lat="39.774738"><ele>102.25</ele></trkpt>
   <trkpt lon="2.692263" lat="39.774917"><ele>104.0</ele></trkpt>
   <trkpt lon="2.692157" lat="39.775099"><ele>105.0</ele></trkpt>
   <trkpt lon="2.691743" lat="39.775545"><ele>107.0</ele></trkpt>
   <trkpt lon="2.691594" lat="39.775650"><ele>108.0</ele></trkpt>
   <trkpt lon="2.691445" lat="39.775699"><ele>110.0</ele></trkpt>
   <trkpt lon="2.691267" lat="39.775722"><ele>110.5</ele></trkpt>
   <trkpt lon="2.691059" lat="39.775710"><ele>111.5</ele></trkpt>
   <trkpt lon="2.690936" lat="39.775675"><ele>113.0</ele></trkpt>
   <trkpt lon="2.690775" lat="39.775629"><ele>114.5</ele></trkpt>
   <trkpt lon="2.690669" lat="39.775562"><ele>115.5</ele></trkpt>
   <trkpt lon="2.690568" lat="39.775459"><ele>116.75</ele></trkpt>
   <trkpt lon="2.690437" lat="39.775259"><ele>118.75</ele></trkpt>
   <trkpt lon="2.690256" lat="39.774920"><ele>120.0</ele><sym>pass_place</sym><type>Shaping</type></trkpt>
   <trkpt lon="2.690255" lat="39.774919"><ele>120.0</ele></trkpt>
   <trkpt lon="2.690165" lat="39.774834"><ele>120.25</ele></trkpt>
   <trkpt lon="2.690094" lat="39.774766"><ele>121.0</ele></trkpt>
   <trkpt lon="2.689962" lat="39.774677"><ele>122.0</ele></trkpt>
   <trkpt lon="2.689676" lat="39.774533"><ele>124.0</ele></trkpt>
   <trkpt lon="2.689562" lat="39.774493"><ele>123.75</ele></trkpt>
   <trkpt lon="2.689376" lat="39.774429"><ele>124.25</ele></trkpt>
   <trkpt lon="2.689159" lat="39.774373"><ele>125.0</ele></trkpt>
   <trkpt lon="2.689006" lat="39.774355"><ele>126.75</ele></trkpt>
   <trkpt lon="2.688794" lat="39.774376"><ele>127.5</ele></trkpt>
   <trkpt lon="2.688509" lat="39.774426"><ele>127.75</ele></trkpt>
   <trkpt lon="2.688372" lat="39.774416"><ele>128.25</ele></trkpt>
   <trkpt lon="2.688278" lat="39.774388"><ele>128.5</ele></trkpt>
   <trkpt lon="2.688133" lat="39.774317"><ele>129.0</ele></trkpt>
   <trkpt lon="2.688001" lat="39.774223"><ele>130.75</ele></trkpt>
   <trkpt lon="2.687862" lat="39.774148"><ele>133.0</ele></trkpt>
   <trkpt lon="2.687770" lat="39.774129"><ele>133.0</ele></trkpt>
   <trkpt lon="2.687657" lat="39.774122"><ele>134.5</ele></trkpt>
   <trkpt lon="2.687561" lat="39.774138"><ele>135.5</ele></trkpt>
   <trkpt lon="2.687489" lat="39.774162"><ele>136.25</ele></trkpt>
   <trkpt lon="2.687383" lat="39.774246"><ele>137.5</ele></trkpt>
   <trkpt lon="2.687288" lat="39.774372"><ele>138.5</ele></trkpt>
   <trkpt lon="2.687124" lat="39.774650"><ele>140.25</ele></trkpt>
   <trkpt lon="2.687074" lat="39.774757"><ele>141.0</ele></trkpt>
   <trkpt lon="2.687034" lat="39.774843"><ele>141.75</ele></trkpt>
   <trkpt lon="2.686993" lat="39.774992"><ele>141.75</ele></trkpt>
   <trkpt lon="2.686940" lat="39.775273"><ele>145.0</ele></trkpt>
   <trkpt lon="2.686891" lat="39.775332"><ele>144.5</ele></trkpt>
   <trkpt lon="2.686828" lat="39.775376"><ele>144.75</ele></trkpt>
   <trkpt lon="2.686729" lat="39.775422"><ele>145.25</ele></trkpt>
   <trkpt lon="2.686598" lat="39.775483"><ele>145.25</ele></trkpt>
   <trkpt lon="2.686498" lat="39.775505"><ele>146.0</ele></trkpt>
   <trkpt lon="2.686425" lat="39.775503"><ele>147.0</ele></trkpt>
   <trkpt lon="2.686340" lat="39.775472"><ele>147.5</ele></trkpt>
   <trkpt lon="2.685932" lat="39.775185"><ele>150.5</ele></trkpt>
   <trkpt lon="2.685539" lat="39.775023"><ele>152.25</ele></trkpt>
   <trkpt lon="2.685371" lat="39.774995"><ele>153.0</ele></trkpt>
   <trkpt lon="2.684621" lat="39.774966"><ele>156.5</ele></trkpt>
   <trkpt lon="2.684472" lat="39.774944"><ele>157.5</ele></trkpt>
   <trkpt lon="2.684135" lat="39.774798"><ele>158.0</ele></trkpt>
   <trkpt lon="2.683895" lat="39.774725"><ele>159.75</ele></trkpt>
   <trkpt lon="2.683690" lat="39.774633"><ele>159.5</ele></trkpt>
   <trkpt lon="2.683546" lat="39.774515"><ele>160.25</ele></trkpt>
   <trkpt lon="2.683549" lat="39.774449"><ele>161.75</ele><sym>left</sym></trkpt>
   <trkpt lon="2.683598" lat="39.774409"><ele>163.25</ele></trkpt>
   <trkpt lon="2.683657" lat="39.774400"><ele>164.25</ele></trkpt>
   <trkpt lon="2.683734" lat="39.774434"><ele>164.0</ele></trkpt>
   <trkpt lon="2.683887" lat="39.774556"><ele>163.5</ele></trkpt>
   <trkpt lon="2.684063" lat="39.774604"><ele>164.0</ele></trkpt>
   <trkpt lon="2.684371" lat="39.774647"><ele>166.25</ele></trkpt>
   <trkpt lon="2.684992" lat="39.774646"><ele>167.75</ele></trkpt>
   <trkpt lon="2.685135" lat="39.774614"><ele>168.0</ele></trkpt>
   <trkpt lon="2.685261" lat="39.774550"><ele>169.25</ele></trkpt>
   <trkpt lon="2.685401" lat="39.774516"><ele>171.0</ele></trkpt>
   <trkpt lon="2.685509" lat="39.774515"><ele>171.75</ele></trkpt>
   <trkpt lon="2.685846" lat="39.774600"><ele>170.75</ele></trkpt>
   <trkpt lon="2.685918" lat="39.774600"><ele>169.75</ele></trkpt>
   <trkpt lon="2.685977" lat="39.774574"><ele>169.75</ele></trkpt>
   <trkpt lon="2.686004" lat="39.774538"><ele>170.25</ele></trkpt>
   <trkpt lon="2.686082" lat="39.774104"><ele>172.75</ele></trkpt>
   <trkpt lon="2.686055" lat="39.774041"><ele>173.5</ele></trkpt>
   <trkpt lon="2.685979" lat="39.774014"><ele>175.5</ele></trkpt>
   <trkpt lon="2.685912" lat="39.774019"><ele>177.25</ele></trkpt>
   <trkpt lon="2.685857" lat="39.774060"><ele>178.0</ele></trkpt>
   <trkpt lon="2.685780" lat="39.774256"><ele>177.5</ele></trkpt>
   <trkpt lon="2.685734" lat="39.774318"><ele>177.25</ele></trkpt>
   <trkpt lon="2.685655" lat="39.774349"><ele>177.25</ele></trkpt>
   <trkpt lon="2.685590" lat="39.774353"><ele>177.75</ele></trkpt>
   <trkpt lon="2.685507" lat="39.774332"><ele>178.0</ele></trkpt>
   <trkpt lon="2.685407" lat="39.774269"><ele>179.25</ele></trkpt>
   <trkpt lon="2.685156" lat="39.774035"><ele>183.25</ele></trkpt>
   <trkpt lon="2.684999" lat="39.773981"><ele>184.0</ele></trkpt>
   <trkpt lon="2.684630" lat="39.773957"><ele>183.75</ele></trkpt>
   <trkpt lon="2.684381" lat="39.773970"><ele>184.5</ele></trkpt>
   <trkpt lon="2.684012" lat="39.774013"><ele>185.0</ele></trkpt>
   <trkpt lon="2.683859" lat="39.774013"><ele>184.75</ele></trkpt>
   <trkpt lon="2.683745" lat="39.773985"><ele>184.75</ele></trkpt>
   <trkpt lon="2.683486" lat="39.773829"><ele>187.75</ele></trkpt>
   <trkpt lon="2.683421" lat="39.773756"><ele>188.0</ele></trkpt>
   <trkpt lon="2.683314" lat="39.773555"><ele>190.75</ele><sym>right_slight</sym></trkpt>
   <trkpt lon="2.683158" lat="39.773499"><ele>191.5</ele></trkpt>
   <trkpt lon="2.683036" lat="39.773483"><ele>191.5</ele></trkpt>
   <trkpt lon="2.682169" lat="39.773370"><ele>194.75</ele></trkpt>
   <trkpt lon="2.681823" lat="39.773269"><ele>197.5</ele></trkpt>
   <trkpt lon="2.681484" lat="39.773265"><ele>197.75</ele></trkpt>
   <trkpt lon="2.681167" lat="39.773303"><ele>199.25</ele></trkpt>
   <trkpt lon="2.681042" lat="39.773302"><ele>199.5</ele></trkpt>
   <trkpt lon="2.680956" lat="39.773270"><ele>199.75</ele></trkpt>
   <trkpt lon="2.680884" lat="39.773214"><ele>200.5</ele></trkpt>
   <trkpt lon="2.680784" lat="39.773137"><ele>201.75</ele></trkpt>
   <trkpt lon="2.680682" lat="39.773105"><ele>202.5</ele></trkpt>
   <trkpt lon="2.680577" lat="39.773110"><ele>202.25</ele></trkpt>
   <trkpt lon="2.680342" lat="39.773135"><ele>202.5</ele></trkpt>
   <trkpt lon="2.680238" lat="39.773124"><ele>202.5</ele></trkpt>
   <trkpt lon="2.680137" lat="39.773069"><ele>203.0</ele></trkpt>
   <trkpt lon="2.680074" lat="39.772988"><ele>204.25</ele></trkpt>
   <trkpt lon="2.680034" lat="39.772887"><ele>206.0</ele></trkpt>
   <trkpt lon="2.679981" lat="39.772779"><ele>207.5</ele></trkpt>
   <trkpt lon="2.679911" lat="39.772721"><ele>208.75</ele></trkpt>
   <trkpt lon="2.679825" lat="39.772702"><ele>208.5</ele></trkpt>
   <trkpt lon="2.679698" lat="39.772702"><ele>207.5</ele></trkpt>
   <trkpt lon="2.679211" lat="39.772701"><ele>208.0</ele></trkpt>
   <trkpt lon="2.679014" lat="39.772692"><ele>208.25</ele></trkpt>
   <trkpt lon="2.678081" lat="39.772532"><ele>214.5</ele><sym>pass_place</sym><type>Shaping</type></trkpt>
   <trkpt lon="2.677605" lat="39.772524"><ele>215.0</ele></trkpt>
   <trkpt lon="2.677376" lat="39.772473"><ele>216.75</ele></trkpt>
   <trkpt lon="2.677064" lat="39.772353"><ele>220.75</ele></trkpt>
   <trkpt lon="2.676963" lat="39.772353"><ele>220.75</ele></trkpt>
   <trkpt lon="2.676733" lat="39.772402"><ele>222.5</ele></trkpt>
   <trkpt lon="2.676676" lat="39.772442"><ele>222.0</ele></trkpt>
   <trkpt lon="2.676650" lat="39.772492"><ele>221.0</ele></trkpt>
   <trkpt lon="2.676574" lat="39.773542"><ele>224.25</ele></trkpt>
   <trkpt lon="2.676564" lat="39.773704"><ele>224.5</ele></trkpt>
   <trkpt lon="2.676546" lat="39.773764"><ele>224.25</ele></trkpt>
   <trkpt lon="2.676378" lat="39.774056"><ele>220.75</ele></trkpt>
   <trkpt lon="2.676339" lat="39.774148"><ele>220.0</ele></trkpt>
   <trkpt lon="2.676327" lat="39.774207"><ele>219.5</ele></trkpt>
   <trkpt lon="2.676307" lat="39.774420"><ele>218.75</ele></trkpt>
   <trkpt lon="2.676308" lat="39.774573"><ele>217.0</ele></trkpt>
   <trkpt lon="2.676289" lat="39.774622"><ele>216.0</ele></trkpt>
   <trkpt lon="2.676248" lat="39.774647"><ele>215.25</ele><sym>left</sym></trkpt>
   <trkpt lon="2.676180" lat="39.774648"><ele>214.25</ele></trkpt>
   <trkpt lon="2.676132" lat="39.774626"><ele>213.5</ele></trkpt>
   <trkpt lon="2.676101" lat="39.774582"><ele>213.25</ele></trkpt>
   <trkpt lon="2.676091" lat="39.774443"><ele>213.5</ele></trkpt>
   <trkpt lon="2.676092" lat="39.774315"><ele>214.0</ele></trkpt>
   <trkpt lon="2.676060" lat="39.774233"><ele>214.0</ele></trkpt>
   <trkpt lon="2.676008" lat="39.774179"><ele>213.75</ele></trkpt>
   <trkpt lon="2.675935" lat="39.774150"><ele>213.75</ele></trkpt>
   <trkpt lon="2.675820" lat="39.774140"><ele>213.25</ele></trkpt>
   <trkpt lon="2.675665" lat="39.774155"><ele>212.5</ele></trkpt>
   <trkpt lon="2.675170" lat="39.774256"><ele>209.25</ele></trkpt>
   <trkpt lon="2.675033" lat="39.774271"><ele>208.5</ele></trkpt>
   <trkpt lon="2.674842" lat="39.774278"><ele>208.0</ele></trkpt>
   <trkpt lon="2.674738" lat="39.774292"><ele>207.5</ele></trkpt>
   <trkpt lon="2.674657" lat="39.774312"><ele>207.5</ele></trkpt>
   <trkpt lon="2.674414" lat="39.774430"><ele>205.5</ele></trkpt>
   <trkpt lon="2.674309" lat="39.774468"><ele>204.25</ele></trkpt>
   <trkpt lon="2.674212" lat="39.774485"><ele>204.0</ele></trkpt>
   <trkpt lon="2.673978" lat="39.774488"><ele>202.75</ele></trkpt>
   <trkpt lon="2.673758" lat="39.774481"><ele>201.75</ele></trkpt>
   <trkpt lon="2.673501" lat="39.774450"><ele>201.0</ele></trkpt>
   <trkpt lon="2.673331" lat="39.774417"><ele>199.75</ele></trkpt>
   <trkpt lon="2.673203" lat="39.774380"><ele>198.5</ele></trkpt>
   <trkpt lon="2.673107" lat="39.774324"><ele>198.25</ele></trkpt>
   <trkpt lon="2.673030" lat="39.774252"><ele>198.75</ele></trkpt>
   <trkpt lon="2.672932" lat="39.774143"><ele>199.5</ele></trkpt>
   <trkpt lon="2.672885" lat="39.774104"><ele>199.75</ele></trkpt>
   <trkpt lon="2.672782" lat="39.774073"><ele>198.0</ele></trkpt>
   <trkpt lon="2.672087" lat="39.773965"><ele>195.25</ele></trkpt>
   <trkpt lon="2.671958" lat="39.773936"><ele>194.75</ele></trkpt>
   <trkpt lon="2.671809" lat="39.773868"><ele>193.25</ele></trkpt>
   <trkpt lon="2.671599" lat="39.773752"><ele>194.5</ele></trkpt>
   <trkpt lon="2.671534" lat="39.773738"><ele>194.5</ele></trkpt>
   <trkpt lon="2.671223" lat="39.773731"><ele>190.75</ele></trkpt>
   <trkpt lon="2.671136" lat="39.773708"><ele>190.75</ele></trkpt>
   <trkpt lon="2.671000" lat="39.773631"><ele>190.75</ele></trkpt>
   <trkpt lon="2.670800" lat="39.773541"><ele>190.75</ele></trkpt>
   <trkpt lon="2.670693" lat="39.773506"><ele>191.25</ele></trkpt>
   <trkpt lon="2.670574" lat="39.773497"><ele>189.5</ele></trkpt>
   <trkpt lon="2.670375" lat="39.773496"><ele>187.5</ele></trkpt>
   <trkpt lon="2.670257" lat="39.773474"><ele>187.0</ele></trkpt>
   <trkpt lon="2.669953" lat="39.773373"><ele>185.25</ele></trkpt>
   <trkpt lon="2.669829" lat="39.773297"><ele>183.5</ele></trkpt>
   <trkpt lon="2.669754" lat="39.773197"><ele>182.75</ele></trkpt>
   <trkpt lon="2.669631" lat="39.772894"><ele>182.25</ele></trkpt>
   <trkpt lon="2.669222" lat="39.772574"><ele>180.25</ele></trkpt>
   <trkpt lon="2.668927" lat="39.772317"><ele>179.25</ele></trkpt>
   <trkpt lon="2.668774" lat="39.772159"><ele>178.75</ele></trkpt>
   <trkpt lon="2.668374" lat="39.771665"><ele>176.0</ele></trkpt>
   <trkpt lon="2.668328" lat="39.771571"><ele>174.25</ele></trkpt>
   <trkpt lon="2.668310" lat="39.771470"><ele>173.25</ele></trkpt>
   <trkpt lon="2.668286" lat="39.771195"><ele>173.75</ele></trkpt>
   <trkpt lon="2.668252" lat="39.771141"><ele>173.0</ele></trkpt>
   <trkpt lon="2.667923" lat="39.770852"><ele>169.5</ele></trkpt>
   <trkpt lon="2.667863" lat="39.770763"><ele>168.0</ele></trkpt>
   <trkpt lon="2.667859" lat="39.770699"><ele>167.0</ele></trkpt>
   <trkpt lon="2.667885" lat="39.770612"><ele>167.25</ele></trkpt>
   <trkpt lon="2.667979" lat="39.770395"><ele>171.5</ele></trkpt>
   <trkpt lon="2.667967" lat="39.770338"><ele>171.0</ele></trkpt>
   <trkpt lon="2.667908" lat="39.770297"><ele>169.5</ele></trkpt>
   <trkpt lon="2.667767" lat="39.770246"><ele>168.25</ele></trkpt>
   <trkpt lon="2.667538" lat="39.770191"><ele>168.25</ele></trkpt>
   <trkpt lon="2.667421" lat="39.770183"><ele>168.5</ele></trkpt>
   <trkpt lon="2.667304" lat="39.770210"><ele>168.0</ele></trkpt>
   <trkpt lon="2.667187" lat="39.770266"><ele>167.0</ele></trkpt>
   <trkpt lon="2.667072" lat="39.770345"><ele>166.75</ele></trkpt>
   <trkpt lon="2.666954" lat="39.770446"><ele>165.75</ele></trkpt>
   <trkpt lon="2.666847" lat="39.770559"><ele>165.0</ele></trkpt>
   <trkpt lon="2.666690" lat="39.770767"><ele>164.0</ele></trkpt>
   <trkpt lon="2.666581" lat="39.770880"><ele>162.0</ele></trkpt>
   <trkpt lon="2.666489" lat="39.770929"><ele>160.75</ele></trkpt>
   <trkpt lon="2.666389" lat="39.770963"><ele>160.0</ele></trkpt>
   <trkpt lon="2.666081" lat="39.771010"><ele>161.0</ele></trkpt>
   <trkpt lon="2.665740" lat="39.771045"><ele>162.5</ele></trkpt>
   <trkpt lon="2.665363" lat="39.771068"><ele>161.25</ele></trkpt>
   <trkpt lon="2.664831" lat="39.771009"><ele>160.75</ele></trkpt>
   <trkpt lon="2.664552" lat="39.770970"><ele>157.5</ele></trkpt>
   <trkpt lon="2.664451" lat="39.770905"><ele>158.5</ele></trkpt>
   <trkpt lon="2.664153" lat="39.770457"><ele>160.5</ele><sym>pass_place</sym><type>Shaping</type></trkpt>
   <trkpt lon="2.664152" lat="39.770456"><ele>160.5</ele></trkpt>
   <trkpt lon="2.663962" lat="39.770304"><ele>158.25</ele></trkpt>
   <trkpt lon="2.663813" lat="39.770152"><ele>156.5</ele></trkpt>
   <trkpt lon="2.663745" lat="39.770024"><ele>157.5</ele></trkpt>
   <trkpt lon="2.663704" lat="39.769925"><ele>158.5</ele></trkpt>
   <trkpt lon="2.663650" lat="39.769832"><ele>158.75</ele></trkpt>
   <trkpt lon="2.663459" lat="39.769663"><ele>155.75</ele></trkpt>
   <trkpt lon="2.663359" lat="39.769559"><ele>154.25</ele></trkpt>
   <trkpt lon="2.663326" lat="39.769432"><ele>155.5</ele></trkpt>
   <trkpt lon="2.663338" lat="39.769296"><ele>155.5</ele></trkpt>
   <trkpt lon="2.663331" lat="39.769162"><ele>154.75</ele></trkpt>
   <trkpt lon="2.663288" lat="39.769045"><ele>155.25</ele></trkpt>
   <trkpt lon="2.663218" lat="39.768954"><ele>154.75</ele></trkpt>
   <trkpt lon="2.663032" lat="39.768791"><ele>153.5</ele></trkpt>
   <trkpt lon="2.662791" lat="39.768665"><ele>152.25</ele></trkpt>
   <trkpt lon="2.662689" lat="39.768628"><ele>152.0</ele></trkpt>
   <trkpt lon="2.662560" lat="39.768608"><ele>151.5</ele></trkpt>
   <trkpt lon="2.662344" lat="39.768611"><ele>150.25</ele></trkpt>
   <trkpt lon="2.661989" lat="39.768602"><ele>148.5</ele></trkpt>
   <trkpt lon="2.661868" lat="39.768577"><ele>147.75</ele></trkpt>
   <trkpt lon="2.661775" lat="39.768534"><ele>147.75</ele></trkpt>
   <trkpt lon="2.661611" lat="39.768405"><ele>147.5</ele></trkpt>
   <trkpt lon="2.661494" lat="39.768242"><ele>147.25</ele></trkpt>
   <trkpt lon="2.661407" lat="39.768001"><ele>146.75</ele></trkpt>
   <trkpt lon="2.661355" lat="39.767917"><ele>146.75</ele></trkpt>
   <trkpt lon="2.661283" lat="39.767842"><ele>146.0</ele></trkpt>
   <trkpt lon="2.661128" lat="39.767729"><ele>143.75</ele></trkpt>
   <trkpt lon="2.661051" lat="39.767647"><ele>143.25</ele></trkpt>
   <trkpt lon="2.660988" lat="39.767556"><ele>143.5</ele></trkpt>
   <trkpt lon="2.660886" lat="39.767313"><ele>143.5</ele></trkpt>
   <trkpt lon="2.660792" lat="39.767191"><ele>143.0</ele></trkpt>
   <trkpt lon="2.660744" lat="39.767140"><ele>143.75</ele></trkpt>
   <trkpt lon="2.660661" lat="39.767088"><ele>143.75</ele></trkpt>
   <trkpt lon="2.660406" lat="39.767008"><ele>142.25</ele></trkpt>
   <trkpt lon="2.660120" lat="39.766935"><ele>141.0</ele></trkpt>
   <trkpt lon="2.659607" lat="39.766848"><ele>139.0</ele></trkpt>
   <trkpt lon="2.659326" lat="39.766768"><ele>137.5</ele></trkpt>
   <trkpt lon="2.659091" lat="39.766661"><ele>136.75</ele></trkpt>
   <trkpt lon="2.658887" lat="39.766608"><ele>135.25</ele></trkpt>
   <trkpt lon="2.658675" lat="39.766530"><ele>134.25</ele></trkpt>
   <trkpt lon="2.658541" lat="39.766438"><ele>134.25</ele></trkpt>
   <trkpt lon="2.658408" lat="39.766353"><ele>133.75</ele></trkpt>
   <trkpt lon="2.658311" lat="39.766317"><ele>133.0</ele></trkpt>
   <trkpt lon="2.658188" lat="39.766308"><ele>132.25</ele></trkpt>
   <trkpt lon="2.658074" lat="39.766314"><ele>131.0</ele></trkpt>
   <trkpt lon="2.657851" lat="39.766369"><ele>129.25</ele></trkpt>
   <trkpt lon="2.657727" lat="39.766391"><ele>128.5</ele></trkpt>
   <trkpt lon="2.657526" lat="39.766369"><ele>128.5</ele></trkpt>
   <trkpt lon="2.657334" lat="39.766299"><ele>127.25</ele></trkpt>
   <trkpt lon="2.657158" lat="39.766164"><ele>127.25</ele></trkpt>
   <trkpt lon="2.657046" lat="39.766052"><ele>128.25</ele></trkpt>
   <trkpt lon="2.656890" lat="39.765977"><ele>126.5</ele></trkpt>
   <trkpt lon="2.656735" lat="39.765952"><ele>124.0</ele></trkpt>
   <trkpt lon="2.656582" lat="39.765913"><ele>122.75</ele></trkpt>
   <trkpt lon="2.656466" lat="39.765849"><ele>124.0</ele></trkpt>
   <trkpt lon="2.656365" lat="39.765780"><ele>124.5</ele></trkpt>
   <trkpt lon="2.656326" lat="39.765741"><ele>124.25</ele></trkpt>
   <trkpt lon="2.656208" lat="39.765697"><ele>122.5</ele></trkpt>
   <trkpt lon="2.656030" lat="39.765641"><ele>120.75</ele></trkpt>
   <trkpt lon="2.655890" lat="39.765564"><ele>121.25</ele></trkpt>
   <trkpt lon="2.655648" lat="39.765284"><ele>120.75</ele></trkpt>
   <trkpt lon="2.655457" lat="39.765137"><ele>119.25</ele></trkpt>
   <trkpt lon="2.655361" lat="39.765039"><ele>118.5</ele></trkpt>
   <trkpt lon="2.655283" lat="39.764937"><ele>118.5</ele></trkpt>
   <trkpt lon="2.655117" lat="39.764656"><ele>118.75</ele></trkpt>
   <trkpt lon="2.654786" lat="39.764306"><ele>115.5</ele></trkpt>
   <trkpt lon="2.654542" lat="39.763938"><ele>114.25</ele></trkpt>
   <trkpt lon="2.654460" lat="39.763871"><ele>114.0</ele></trkpt>
   <trkpt lon="2.654370" lat="39.763817"><ele>114.75</ele></trkpt>
   <trkpt lon="2.654228" lat="39.763755"><ele>114.75</ele></trkpt>
   <trkpt lon="2.653983" lat="39.763700"><ele>114.75</ele></trkpt>
   <trkpt lon="2.653772" lat="39.763671"><ele>114.5</ele></trkpt>
   <trkpt lon="2.653575" lat="39.763619"><ele>115.5</ele></trkpt>
   <trkpt lon="2.653448" lat="39.763560"><ele>114.75</ele></trkpt>
   <trkpt lon="2.653300" lat="39.763464"><ele>115.25</ele></trkpt>
   <trkpt lon="2.652839" lat="39.762995"><ele>118.75</ele></trkpt>
   <trkpt lon="2.652768" lat="39.762904"><ele>119.25</ele></trkpt>
   <trkpt lon="2.652729" lat="39.762825"><ele>120.0</ele></trkpt>
   <trkpt lon="2.652715" lat="39.762734"><ele>121.25</ele></trkpt>
   <trkpt lon="2.652694" lat="39.762667"><ele>121.25</ele></trkpt>
   <trkpt lon="2.652639" lat="39.762569"><ele>121.25</ele></trkpt>
   <trkpt lon="2.652580" lat="39.762508"><ele>121.25</ele></trkpt>
   <trkpt lon="2.652427" lat="39.762380"><ele>122.0</ele></trkpt>
   <trkpt lon="2.652353" lat="39.762296"><ele>122.25</ele></trkpt>
   <trkpt lon="2.652298" lat="39.762148"><ele>124.75</ele></trkpt>
   <trkpt lon="2.652245" lat="39.762077"><ele>125.5</ele></trkpt>
   <trkpt lon="2.652183" lat="39.762033"><ele>125.75</ele></trkpt>
   <trkpt lon="2.652009" lat="39.761960"><ele>126.0</ele></trkpt>
   <trkpt lon="2.651938" lat="39.761922"><ele>126.25</ele></trkpt>
   <trkpt lon="2.651868" lat="39.761856"><ele>126.75</ele></trkpt>
   <trkpt lon="2.651708" lat="39.761669"><ele>128.5</ele></trkpt>
   <trkpt lon="2.651632" lat="39.761578"><ele>129.75</ele></trkpt>
   <trkpt lon="2.651557" lat="39.761509"><ele>130.5</ele></trkpt>
   <trkpt lon="2.651440" lat="39.761449"><ele>130.5</ele></trkpt>
   <trkpt lon="2.650793" lat="39.761218"><ele>132.25</ele></trkpt>
   <trkpt lon="2.650677" lat="39.761175"><ele>132.25</ele></trkpt>
   <trkpt lon="2.650491" lat="39.761105"><ele>132.25</ele></trkpt>
   <trkpt lon="2.650406" lat="39.761028"><ele>132.0</ele></trkpt>
   <trkpt lon="2.650385" lat="39.760975"><ele>132.25</ele></trkpt>
   <trkpt lon="2.650390" lat="39.760912"><ele>132.75</ele></trkpt>
   <trkpt lon="2.650436" lat="39.760839"><ele>134.0</ele></trkpt>
   <trkpt lon="2.650640" lat="39.760675"><ele>135.25</ele></trkpt>
   <trkpt lon="2.650714" lat="39.760600"><ele>135.5</ele></trkpt>
   <trkpt lon="2.650739" lat="39.760529"><ele>135.75</ele></trkpt>
   <trkpt lon="2.650732" lat="39.760477"><ele>136.25</ele></trkpt>
   <trkpt lon="2.650685" lat="39.760375"><ele>136.25</ele></trkpt>
   <trkpt lon="2.650651" lat="39.760273"><ele>136.5</ele></trkpt>
   <trkpt lon="2.650608" lat="39.760149"><ele>136.25</ele><sym>pass_place</sym><type>Shaping</type></trkpt>
   <trkpt lon="2.650607" lat="39.760146"><ele>136.25</ele></trkpt>
   <trkpt lon="2.650555" lat="39.759983"><ele>136.0</ele></trkpt>
   <trkpt lon="2.650430" lat="39.759692"><ele>135.5</ele></trkpt>
   <trkpt lon="2.650422" lat="39.759599"><ele>135.0</ele></trkpt>
   <trkpt lon="2.650433" lat="39.759439"><ele>135.0</ele></trkpt>
   <trkpt lon="2.650450" lat="39.759327"><ele>137.0</ele></trkpt>
   <trkpt lon="2.650440" lat="39.759253"><ele>137.75</ele></trkpt>
   <trkpt lon="2.650370" lat="39.759080"><ele>138.25</ele></trkpt>
   <trkpt lon="2.650287" lat="39.758989"><ele>137.75</ele></trkpt>
   <trkpt lon="2.650123" lat="39.758867"><ele>137.5</ele></trkpt>
   <trkpt lon="2.650052" lat="39.758797"><ele>136.25</ele></trkpt>
   <trkpt lon="2.650037" lat="39.758765"><ele>135.75</ele></trkpt>
   <trkpt lon="2.650042" lat="39.758727"><ele>135.5</ele></trkpt>
   <trkpt lon="2.650070" lat="39.758663"><ele>135.75</ele></trkpt>
   <trkpt lon="2.650127" lat="39.758593"><ele>136.75</ele></trkpt>
   <trkpt lon="2.650298" lat="39.758417"><ele>138.0</ele></trkpt>
   <trkpt lon="2.650344" lat="39.758362"><ele>138.0</ele></trkpt>
   <trkpt lon="2.650397" lat="39.758243"><ele>138.5</ele></trkpt>
   <trkpt lon="2.650428" lat="39.758143"><ele>138.5</ele></trkpt>
   <trkpt lon="2.650437" lat="39.758024"><ele>139.0</ele></trkpt>
   <trkpt lon="2.650417" lat="39.757974"><ele>139.75</ele></trkpt>
   <trkpt lon="2.650376" lat="39.757934"><ele>140.0</ele></trkpt>
   <trkpt lon="2.650327" lat="39.757899"><ele>140.5</ele></trkpt>
   <trkpt lon="2.650264" lat="39.757883"><ele>140.5</ele></trkpt>
   <trkpt lon="2.650184" lat="39.757887"><ele>140.25</ele></trkpt>
   <trkpt lon="2.649974" lat="39.757918"><ele>137.75</ele></trkpt>
   <trkpt lon="2.649802" lat="39.757924"><ele>137.0</ele></trkpt>
   <trkpt lon="2.649604" lat="39.757897"><ele>138.0</ele></trkpt>
   <trkpt lon="2.649562" lat="39.757892"><ele>138.0</ele></trkpt>
   <trkpt lon="2.649330" lat="39.757817"><ele>139.75</ele></trkpt>
   <trkpt lon="2.648919" lat="39.757695"><ele>141.0</ele></trkpt>
   <trkpt lon="2.648523" lat="39.757577"><ele>144.0</ele></trkpt>
   <trkpt lon="2.648405" lat="39.757586"><ele>144.0</ele></trkpt>
   <trkpt lon="2.648304" lat="39.757637"><ele>143.0</ele></trkpt>
   <trkpt lon="2.647956" lat="39.757902"><ele>142.25</ele><sym>left_slight</sym></trkpt>
   <trkpt lon="2.647831" lat="39.757945"><ele>143.0</ele></trkpt>
   <trkpt lon="2.647743" lat="39.757961"><ele>143.5</ele></trkpt>
   <trkpt lon="2.647623" lat="39.757954"><ele>143.0</ele></trkpt>
   <trkpt lon="2.647528" lat="39.757932"><ele>143.5</ele></trkpt>
   <trkpt lon="2.647404" lat="39.757870"><ele>143.25</ele></trkpt>
   <trkpt lon="2.647321" lat="39.757790"><ele>144.0</ele></trkpt>
   <trkpt lon="2.647274" lat="39.757706"><ele>144.5</ele></trkpt>
   <trkpt lon="2.646857" lat="39.756591"><ele>149.75</ele></trkpt>
   <trkpt lon="2.646776" lat="39.756369"><ele>152.5</ele></trkpt>
   <trkpt lon="2.646764" lat="39.756292"><ele>151.75</ele></trkpt>
   <trkpt lon="2.646766" lat="39.756224"><ele>151.5</ele></trkpt>
   <trkpt lon="2.646809" lat="39.756121"><ele>152.0</ele></trkpt>
   <trkpt lon="2.647046" lat="39.755820"><ele>153.75</ele></trkpt>
   <trkpt lon="2.647084" lat="39.755763"><ele>154.5</ele></trkpt>
   <trkpt lon="2.647119" lat="39.755653"><ele>154.75</ele></trkpt>
   <trkpt lon="2.647185" lat="39.755363"><ele>155.0</ele></trkpt>
   <trkpt lon="2.647215" lat="39.755292"><ele>155.75</ele></trkpt>
   <trkpt lon="2.647260" lat="39.755233"><ele>155.5</ele></trkpt>
   <trkpt lon="2.647689" lat="39.754924"><ele>159.0</ele></trkpt>
   <trkpt lon="2.647769" lat="39.754864"><ele>159.25</ele></trkpt>
   <trkpt lon="2.647858" lat="39.754800"><ele>160.0</ele></trkpt>
   <trkpt lon="2.647893" lat="39.754727"><ele>159.5</ele></trkpt>
   <trkpt lon="2.647877" lat="39.754648"><ele>159.5</ele></trkpt>
   <trkpt lon="2.647682" lat="39.754399"><ele>159.75</ele></trkpt>
   <trkpt lon="2.647241" lat="39.753819"><ele>161.5</ele></trkpt>
   <trkpt lon="2.647179" lat="39.753722"><ele>161.25</ele></trkpt>
   <trkpt lon="2.647136" lat="39.753602"><ele>161.5</ele></trkpt>
   <trkpt lon="2.647132" lat="39.753457"><ele>162.5</ele></trkpt>
   <trkpt lon="2.647231" lat="39.752913"><ele>165.5</ele></trkpt>
   <trkpt lon="2.647232" lat="39.752839"><ele>165.75</ele></trkpt>
   <trkpt lon="2.647186" lat="39.752769"><ele>165.75</ele></trkpt>
   <trkpt lon="2.646906" lat="39.752520"><ele>166.25</ele></trkpt>
   <trkpt lon="2.646672" lat="39.752322"><ele>165.5</ele></trkpt>
   <trkpt lon="2.646641" lat="39.752277"><ele>165.5</ele></trkpt>
   <trkpt lon="2.646632" lat="39.752219"><ele>166.0</ele></trkpt>
   <trkpt lon="2.646657" lat="39.752160"><ele>166.0</ele></trkpt>
   <trkpt lon="2.646880" lat="39.751937"><ele>168.25</ele></trkpt>
   <trkpt lon="2.647137" lat="39.751658"><ele>167.75</ele></trkpt>
   <trkpt lon="2.647225" lat="39.751491"><ele>169.25</ele></trkpt>
   <trkpt lon="2.647261" lat="39.751287"><ele>169.25</ele></trkpt>
   <trkpt lon="2.647272" lat="39.751095"><ele>168.75</ele></trkpt>
   <trkpt lon="2.647282" lat="39.750996"><ele>168.5</ele></trkpt>
   <trkpt lon="2.647299" lat="39.750876"><ele>168.5</ele></trkpt>
   <trkpt lon="2.647327" lat="39.750814"><ele>169.0</ele></trkpt>
   <trkpt lon="2.647366" lat="39.750750"><ele>169.0</ele></trkpt>
   <trkpt lon="2.647428" lat="39.750680"><ele>169.5</ele></trkpt>
   <trkpt lon="2.648055" lat="39.750178"><ele>172.25</ele></trkpt>
   <trkpt lon="2.648334" lat="39.749957"><ele>175.0</ele></trkpt>
   <trkpt lon="2.648416" lat="39.749876"><ele>175.75</ele></trkpt>
   <trkpt lon="2.648440" lat="39.749806"><ele>174.5</ele></trkpt>
   <trkpt lon="2.648433" lat="39.749445"><ele>171.5</ele></trkpt>
   <trkpt lon="2.648409" lat="39.749140"><ele>175.0</ele></trkpt>
   <trkpt lon="2.648411" lat="39.749085"><ele>175.75</ele></trkpt>
   <trkpt lon="2.648443" lat="39.749002"><ele>176.75</ele></trkpt>
   <trkpt lon="2.648688" lat="39.748802"><ele>177.5</ele></trkpt>
   <trkpt lon="2.648845" lat="39.748678"><ele>177.5</ele></trkpt>
   <trkpt lon="2.648896" lat="39.748633"><ele>177.0</ele></trkpt>
   <trkpt lon="2.648911" lat="39.748616"><ele>177.0</ele></trkpt>
   <trkpt lon="2.648985" lat="39.748541"><ele>177.25</ele></trkpt>
   <trkpt lon="2.649029" lat="39.748476"><ele>177.75</ele></trkpt>
   <trkpt lon="2.649047" lat="39.748398"><ele>177.75</ele></trkpt>
   <trkpt lon="2.649046" lat="39.748374"><ele>177.75</ele></trkpt>
   <trkpt lon="2.649021" lat="39.748293"><ele>177.5</ele></trkpt>
   <trkpt lon="2.648690" lat="39.747823"><ele>175.0</ele></trkpt>
   <trkpt lon="2.648688" lat="39.747819"><ele>172.75</ele><sym>pass_place</sym><type>Shaping</type></trkpt>
   <trkpt lon="2.648588" lat="39.747658"><ele>172.75</ele></trkpt>
   <trkpt lon="2.648567" lat="39.747581"><ele>172.25</ele></trkpt>
   <trkpt lon="2.648564" lat="39.747486"><ele>172.5</ele></trkpt>
   <trkpt lon="2.648585" lat="39.747389"><ele>172.0</ele></trkpt>
   <trkpt lon="2.648624" lat="39.747316"><ele>172.25</ele></trkpt>
   <trkpt lon="2.648673" lat="39.747248"><ele>172.5</ele></trkpt>
   <trkpt lon="2.648732" lat="39.747184"><ele>172.5</ele></trkpt>
   <trkpt lon="2.648862" lat="39.747093"><ele>172.5</ele></trkpt>
   <trkpt lon="2.648893" lat="39.747075"><ele>172.75</ele></trkpt>
   <trkpt lon="2.649369" lat="39.746803"><ele>170.75</ele></trkpt>
   <trkpt lon="2.649484" lat="39.746737"><ele>170.25</ele></trkpt>
   <trkpt lon="2.649537" lat="39.746708"><ele>170.0</ele></trkpt>
   <trkpt lon="2.649596" lat="39.746662"><ele>169.5</ele></trkpt>
   <trkpt lon="2.649640" lat="39.746601"><ele>169.75</ele></trkpt>
   <trkpt lon="2.649654" lat="39.746518"><ele>169.75</ele></trkpt>
   <trkpt lon="2.649652" lat="39.746420"><ele>169.5</ele></trkpt>
   <trkpt lon="2.649641" lat="39.746361"><ele>169.75</ele></trkpt>
   <trkpt lon="2.649593" lat="39.746313"><ele>170.0</ele></trkpt>
   <trkpt lon="2.649546" lat="39.746295"><ele>169.75</ele></trkpt>
   <trkpt lon="2.649514" lat="39.746292"><ele>169.5</ele></trkpt>
   <trkpt lon="2.649430" lat="39.746305"><ele>168.25</ele></trkpt>
   <trkpt lon="2.649321" lat="39.746343"><ele>166.5</ele></trkpt>
   <trkpt lon="2.649188" lat="39.746365"><ele>165.25</ele></trkpt>
   <trkpt lon="2.649113" lat="39.746370"><ele>164.5</ele></trkpt>
   <trkpt lon="2.649021" lat="39.746366"><ele>164.25</ele></trkpt>
   <trkpt lon="2.648094" lat="39.746195"><ele>162.5</ele></trkpt>
   <trkpt lon="2.647731" lat="39.746108"><ele>161.5</ele></trkpt>
   <trkpt lon="2.647665" lat="39.746093"><ele>161.5</ele></trkpt>
   <trkpt lon="2.647513" lat="39.746058"><ele>161.25</ele></trkpt>
   <trkpt lon="2.646961" lat="39.745931"><ele>158.75</ele></trkpt>
   <trkpt lon="2.646860" lat="39.745903"><ele>158.0</ele></trkpt>
   <trkpt lon="2.646783" lat="39.745865"><ele>158.0</ele></trkpt>
   <trkpt lon="2.646702" lat="39.745813"><ele>158.25</ele></trkpt>
   <trkpt lon="2.646281" lat="39.745458"><ele>157.25</ele></trkpt>
   <trkpt lon="2.645908" lat="39.745116"><ele>156.5</ele></trkpt>
   <trkpt lon="2.645648" lat="39.744797"><ele>156.0</ele></trkpt>
   <trkpt lon="2.645581" lat="39.744759"><ele>154.75</ele></trkpt>
   <trkpt lon="2.645504" lat="39.744737"><ele>154.25</ele></trkpt>
   <trkpt lon="2.645386" lat="39.744741"><ele>153.25</ele></trkpt>
   <trkpt lon="2.645313" lat="39.744765"><ele>152.5</ele></trkpt>
   <trkpt lon="2.645248" lat="39.744802"><ele>152.5</ele></trkpt>
   <trkpt lon="2.645191" lat="39.744881"><ele>153.0</ele></trkpt>
   <trkpt lon="2.644887" lat="39.745772"><ele>150.25</ele></trkpt>
   <trkpt lon="2.644784" lat="39.746016"><ele>148.5</ele></trkpt>
   <trkpt lon="2.644710" lat="39.746127"><ele>147.75</ele></trkpt>
   <trkpt lon="2.644591" lat="39.746252"><ele>146.75</ele></trkpt>
   <trkpt lon="2.644430" lat="39.746382"><ele>146.5</ele></trkpt>
   <trkpt lon="2.644095" lat="39.746636"><ele>143.75</ele></trkpt>
   <trkpt lon="2.643921" lat="39.746793"><ele>142.5</ele></trkpt>
   <trkpt lon="2.643690" lat="39.747124"><ele>140.5</ele></trkpt>
   <trkpt lon="2.643595" lat="39.747204"><ele>140.75</ele></trkpt>
   <trkpt lon="2.643467" lat="39.747264"><ele>139.5</ele></trkpt>
   <trkpt lon="2.643362" lat="39.747294"><ele>139.0</ele></trkpt>
   <trkpt lon="2.643199" lat="39.747309"><ele>138.75</ele></trkpt>
   <trkpt lon="2.642579" lat="39.747302"><ele>136.25</ele></trkpt>
   <trkpt lon="2.642473" lat="39.747298"><ele>136.25</ele></trkpt>
   <trkpt lon="2.642329" lat="39.747296"><ele>136.5</ele></trkpt>
   <trkpt lon="2.642216" lat="39.747316"><ele>135.75</ele></trkpt>
   <trkpt lon="2.642147" lat="39.747327"><ele>135.5</ele></trkpt>
   <trkpt lon="2.641978" lat="39.747378"><ele>134.25</ele></trkpt>
   <trkpt lon="2.641876" lat="39.747422"><ele>133.25</ele></trkpt>
   <trkpt lon="2.641844" lat="39.747455"><ele>132.75</ele></trkpt>
   <trkpt lon="2.641795" lat="39.747536"><ele>132.5</ele></trkpt>
   <trkpt lon="2.641787" lat="39.747606"><ele>133.75</ele></trkpt>
   <trkpt lon="2.641807" lat="39.747676"><ele>134.5</ele></trkpt>
   <trkpt lon="2.641850" lat="39.747725"><ele>134.0</ele></trkpt>
   <trkpt lon="2.642274" lat="39.747986"><ele>131.25</ele></trkpt>
   <trkpt lon="2.642392" lat="39.748091"><ele>130.5</ele></trkpt>
   <trkpt lon="2.642493" lat="39.748201"><ele>129.25</ele></trkpt>
   <trkpt lon="2.642531" lat="39.748315"><ele>130.0</ele></trkpt>
   <trkpt lon="2.642537" lat="39.748435"><ele>129.25</ele></trkpt>
   <trkpt lon="2.642480" lat="39.748563"><ele>129.75</ele></trkpt>
   <trkpt lon="2.642433" lat="39.748622"><ele>130.5</ele></trkpt>
   <trkpt lon="2.642357" lat="39.748687"><ele>130.5</ele></trkpt>
   <trkpt lon="2.642006" lat="39.748931"><ele>131.5</ele></trkpt>
   <trkpt lon="2.641638" lat="39.749186"><ele>133.5</ele></trkpt>
   <trkpt lon="2.641548" lat="39.749268"><ele>135.25</ele></trkpt>
   <trkpt lon="2.641463" lat="39.749365"><ele>136.5</ele></trkpt>
   <trkpt lon="2.641409" lat="39.749530"><ele>137.5</ele></trkpt>
   <trkpt lon="2.641416" lat="39.749646"><ele>138.0</ele></trkpt>
   <trkpt lon="2.641453" lat="39.749766"><ele>138.25</ele></trkpt>
   <trkpt lon="2.641500" lat="39.749848"><ele>138.75</ele></trkpt>
   <trkpt lon="2.641608" lat="39.750018"><ele>139.25</ele></trkpt>
   <trkpt lon="2.641722" lat="39.750216"><ele>139.5</ele></trkpt>
   <trkpt lon="2.641764" lat="39.750344"><ele>139.5</ele></trkpt>
   <trkpt lon="2.641764" lat="39.750414"><ele>139.75</ele></trkpt>
   <trkpt lon="2.641718" lat="39.750524"><ele>141.5</ele></trkpt>
   <trkpt lon="2.641617" lat="39.750651"><ele>142.25</ele></trkpt>
   <trkpt lon="2.641462" lat="39.750798"><ele>144.0</ele></trkpt>
   <trkpt lon="2.641277" lat="39.750912"><ele>146.25</ele></trkpt>
   <trkpt lon="2.641078" lat="39.750997"><ele>147.0</ele></trkpt>
   <trkpt lon="2.640866" lat="39.751035"><ele>148.75</ele></trkpt>
   <trkpt lon="2.640689" lat="39.751053"><ele>150.0</ele></trkpt>
   <trkpt lon="2.640480" lat="39.751083"><ele>150.75</ele></trkpt>
   <trkpt lon="2.640240" lat="39.751104"><ele>151.5</ele></trkpt>
   <trkpt lon="2.640110" lat="39.751101"><ele>152.5</ele></trkpt>
   <trkpt lon="2.639974" lat="39.751085"><ele>154.0</ele></trkpt>
   <trkpt lon="2.639858" lat="39.751063"><ele>154.75</ele></trkpt>
   <trkpt lon="2.639709" lat="39.751014"><ele>156.25</ele></trkpt>
   <trkpt lon="2.639252" lat="39.750775"><ele>158.5</ele></trkpt>
   <trkpt lon="2.639079" lat="39.750684"><ele>160.0</ele></trkpt>
   <trkpt lon="2.638607" lat="39.750424"><ele>162.0</ele><sym>pass_place</sym><type>Shaping</type></trkpt>
   <trkpt lon="2.638455" lat="39.750399"><ele>161.25</ele></trkpt>
   <trkpt lon="2.638330" lat="39.750417"><ele>159.5</ele></trkpt>
   <trkpt lon="2.638253" lat="39.750444"><ele>160.5</ele></trkpt>
   <trkpt lon="2.638248" lat="39.750446"><ele>160.5</ele></trkpt>
   <trkpt lon="2.638173" lat="39.750521"><ele>161.75</ele></trkpt>
   <trkpt lon="2.638130" lat="39.750602"><ele>162.5</ele></trkpt>
   <trkpt lon="2.638111" lat="39.750644"><ele>162.75</ele></trkpt>
   <trkpt lon="2.638015" lat="39.751039"><ele>164.5</ele></trkpt>
   <trkpt lon="2.637916" lat="39.751221"><ele>165.25</ele></trkpt>
   <trkpt lon="2.637836" lat="39.751351"><ele>166.25</ele></trkpt>
   <trkpt lon="2.637793" lat="39.751456"><ele>167.5</ele></trkpt>
   <trkpt lon="2.637784" lat="39.751554"><ele>168.25</ele></trkpt>
   <trkpt lon="2.637809" lat="39.751667"><ele>168.0</ele></trkpt>
   <trkpt lon="2.638055" lat="39.752122"><ele>172.0</ele></trkpt>
   <trkpt lon="2.638113" lat="39.752247"><ele>173.25</ele></trkpt>
   <trkpt lon="2.638128" lat="39.752325"><ele>173.25</ele></trkpt>
   <trkpt lon="2.638126" lat="39.752442"><ele>174.25</ele></trkpt>
   <trkpt lon="2.637940" lat="39.753094"><ele>179.75</ele></trkpt>
   <trkpt lon="2.637878" lat="39.753240"><ele>179.5</ele></trkpt>
   <trkpt lon="2.637789" lat="39.753338"><ele>180.5</ele></trkpt>
   <trkpt lon="2.637633" lat="39.753483"><ele>183.25</ele></trkpt>
   <trkpt lon="2.637540" lat="39.753621"><ele>182.75</ele></trkpt>
   <trkpt lon="2.637267" lat="39.754260"><ele>189.0</ele></trkpt>
   <trkpt lon="2.637136" lat="39.754422"><ele>191.75</ele></trkpt>
   <trkpt lon="2.637071" lat="39.754472"><ele>192.5</ele></trkpt>
   <trkpt lon="2.636967" lat="39.754536"><ele>193.0</ele></trkpt>
   <trkpt lon="2.636837" lat="39.754580"><ele>194.25</ele></trkpt>
   <trkpt lon="2.636546" lat="39.754621"><ele>197.25</ele></trkpt>
   <trkpt lon="2.636205" lat="39.754656"><ele>199.75</ele></trkpt>
   <trkpt lon="2.636076" lat="39.754701"><ele>200.75</ele></trkpt>
   <trkpt lon="2.636016" lat="39.754753"><ele>201.75</ele></trkpt>
   <trkpt lon="2.635988" lat="39.754819"><ele>202.75</ele></trkpt>
   <trkpt lon="2.635980" lat="39.754941"><ele>203.5</ele></trkpt>
   <trkpt lon="2.636001" lat="39.755261"><ele>205.25</ele></trkpt>
   <trkpt lon="2.635951" lat="39.755856"><ele>208.25</ele></trkpt>
   <trkpt lon="2.635909" lat="39.756035"><ele>209.0</ele></trkpt>
   <trkpt lon="2.635819" lat="39.756200"><ele>210.0</ele></trkpt>
   <trkpt lon="2.635688" lat="39.756331"><ele>210.75</ele></trkpt>
   <trkpt lon="2.635490" lat="39.756448"><ele>211.75</ele></trkpt>
   <trkpt lon="2.635284" lat="39.756548"><ele>212.0</ele></trkpt>
   <trkpt lon="2.635107" lat="39.756611"><ele>213.75</ele></trkpt>
   <trkpt lon="2.634910" lat="39.756661"><ele>215.5</ele></trkpt>
   <trkpt lon="2.634743" lat="39.756675"><ele>216.5</ele></trkpt>
   <trkpt lon="2.634034" lat="39.756658"><ele>220.5</ele></trkpt>
   <trkpt lon="2.633816" lat="39.756629"><ele>220.75</ele></trkpt>
   <trkpt lon="2.633613" lat="39.756567"><ele>220.25</ele></trkpt>
   <trkpt lon="2.633465" lat="39.756495"><ele>221.0</ele></trkpt>
   <trkpt lon="2.633323" lat="39.756400"><ele>222.5</ele></trkpt>
   <trkpt lon="2.633131" lat="39.756229"><ele>223.0</ele></trkpt>
   <trkpt lon="2.633034" lat="39.756106"><ele>224.25</ele></trkpt>
   <trkpt lon="2.632934" lat="39.755919"><ele>223.75</ele></trkpt>
   <trkpt lon="2.632800" lat="39.755238"><ele>231.25</ele></trkpt>
   <trkpt lon="2.632622" lat="39.754356"><ele>241.0</ele></trkpt>
   <trkpt lon="2.632548" lat="39.754151"><ele>243.5</ele></trkpt>
   <trkpt lon="2.632281" lat="39.753646"><ele>249.0</ele></trkpt>
   <trkpt lon="2.632146" lat="39.753464"><ele>251.75</ele></trkpt>
   <trkpt lon="2.631920" lat="39.753268"><ele>253.75</ele></trkpt>
   <trkpt lon="2.631692" lat="39.753114"><ele>255.25</ele></trkpt>
   <trkpt lon="2.631502" lat="39.752997"><ele>257.5</ele></trkpt>
   <trkpt lon="2.631294" lat="39.752907"><ele>259.5</ele></trkpt>
   <trkpt lon="2.631124" lat="39.752858"><ele>261.0</ele></trkpt>
   <trkpt lon="2.630700" lat="39.752804"><ele>263.0</ele></trkpt>
   <trkpt lon="2.630445" lat="39.752765"><ele>264.75</ele></trkpt>
   <trkpt lon="2.630239" lat="39.752702"><ele>266.5</ele></trkpt>
   <trkpt lon="2.630017" lat="39.752587"><ele>268.0</ele></trkpt>
   <trkpt lon="2.629896" lat="39.752478"><ele>270.25</ele></trkpt>
   <trkpt lon="2.629820" lat="39.752367"><ele>271.75</ele></trkpt>
   <trkpt lon="2.629765" lat="39.752269"><ele>272.75</ele></trkpt>
   <trkpt lon="2.629739" lat="39.752153"><ele>273.5</ele></trkpt>
   <trkpt lon="2.629732" lat="39.752031"><ele>274.25</ele></trkpt>
   <trkpt lon="2.629742" lat="39.751920"><ele>275.25</ele><sym>u-turn_right</sym></trkpt>
   <trkpt lon="2.629739" lat="39.751919"><ele>273.75</ele><sym>pass_place</sym><type>Shaping</type></trkpt>
   <trkpt lon="2.629742" lat="39.751920"><ele>275.25</ele></trkpt>
   <trkpt lon="2.629732" lat="39.752031"><ele>274.25</ele></trkpt>
   <trkpt lon="2.629739" lat="39.752153"><ele>273.5</ele></trkpt>
   <trkpt lon="2.629765" lat="39.752269"><ele>272.75</ele></trkpt>
   <trkpt lon="2.629820" lat="39.752367"><ele>271.75</ele></trkpt>
   <trkpt lon="2.629896" lat="39.752478"><ele>270.25</ele></trkpt>
   <trkpt lon="2.630017" lat="39.752587"><ele>268.0</ele></trkpt>
   <trkpt lon="2.630239" lat="39.752702"><ele>266.5</ele></trkpt>
   <trkpt lon="2.630445" lat="39.752765"><ele>264.75</ele></trkpt>
   <trkpt lon="2.630700" lat="39.752804"><ele>263.0</ele></trkpt>
   <trkpt lon="2.631124" lat="39.752858"><ele>261.0</ele></trkpt>
   <trkpt lon="2.631294" lat="39.752907"><ele>259.5</ele></trkpt>
   <trkpt lon="2.631502" lat="39.752997"><ele>257.5</ele></trkpt>
   <trkpt lon="2.631692" lat="39.753114"><ele>255.25</ele></trkpt>
   <trkpt lon="2.631920" lat="39.753268"><ele>253.75</ele></trkpt>
   <trkpt lon="2.632146" lat="39.753464"><ele>251.75</ele></trkpt>
   <trkpt lon="2.632281" lat="39.753646"><ele>249.0</ele></trkpt>
   <trkpt lon="2.632548" lat="39.754151"><ele>243.5</ele></trkpt>
   <trkpt lon="2.632622" lat="39.754356"><ele>241.0</ele></trkpt>
   <trkpt lon="2.632800" lat="39.755238"><ele>231.25</ele></trkpt>
   <trkpt lon="2.632934" lat="39.755919"><ele>223.75</ele></trkpt>
   <trkpt lon="2.633034" lat="39.756106"><ele>224.25</ele></trkpt>
   <trkpt lon="2.633131" lat="39.756229"><ele>223.0</ele></trkpt>
   <trkpt lon="2.633323" lat="39.756400"><ele>222.5</ele></trkpt>
   <trkpt lon="2.633465" lat="39.756495"><ele>221.0</ele></trkpt>
   <trkpt lon="2.633613" lat="39.756567"><ele>220.25</ele></trkpt>
   <trkpt lon="2.633816" lat="39.756629"><ele>220.75</ele></trkpt>
   <trkpt lon="2.634034" lat="39.756658"><ele>220.5</ele></trkpt>
   <trkpt lon="2.634743" lat="39.756675"><ele>216.5</ele></trkpt>
   <trkpt lon="2.634910" lat="39.756661"><ele>215.5</ele></trkpt>
   <trkpt lon="2.635107" lat="39.756611"><ele>213.75</ele></trkpt>
   <trkpt lon="2.635284" lat="39.756548"><ele>212.0</ele></trkpt>
   <trkpt lon="2.635490" lat="39.756448"><ele>211.75</ele></trkpt>
   <trkpt lon="2.635688" lat="39.756331"><ele>210.75</ele></trkpt>
   <trkpt lon="2.635819" lat="39.756200"><ele>210.0</ele></trkpt>
   <trkpt lon="2.635909" lat="39.756035"><ele>209.0</ele></trkpt>
   <trkpt lon="2.635951" lat="39.755856"><ele>208.25</ele></trkpt>
   <trkpt lon="2.636001" lat="39.755261"><ele>205.25</ele></trkpt>
   <trkpt lon="2.635980" lat="39.754941"><ele>203.5</ele></trkpt>
   <trkpt lon="2.635988" lat="39.754819"><ele>202.75</ele></trkpt>
   <trkpt lon="2.636016" lat="39.754753"><ele>201.75</ele></trkpt>
   <trkpt lon="2.636076" lat="39.754701"><ele>200.75</ele></trkpt>
   <trkpt lon="2.636205" lat="39.754656"><ele>199.75</ele></trkpt>
   <trkpt lon="2.636546" lat="39.754621"><ele>197.25</ele></trkpt>
   <trkpt lon="2.636837" lat="39.754580"><ele>194.25</ele></trkpt>
   <trkpt lon="2.636967" lat="39.754536"><ele>193.0</ele></trkpt>
   <trkpt lon="2.637071" lat="39.754472"><ele>192.5</ele></trkpt>
   <trkpt lon="2.637136" lat="39.754422"><ele>191.75</ele></trkpt>
   <trkpt lon="2.637267" lat="39.754260"><ele>189.0</ele></trkpt>
   <trkpt lon="2.637540" lat="39.753621"><ele>182.75</ele></trkpt>
   <trkpt lon="2.637633" lat="39.753483"><ele>183.25</ele></trkpt>
   <trkpt lon="2.637789" lat="39.753338"><ele>180.5</ele></trkpt>
   <trkpt lon="2.637878" lat="39.753240"><ele>179.5</ele></trkpt>
   <trkpt lon="2.637940" lat="39.753094"><ele>179.75</ele></trkpt>
   <trkpt lon="2.638126" lat="39.752442"><ele>174.25</ele><sym>pass_place</sym><type>Shaping</type></trkpt>
   <trkpt lon="2.638128" lat="39.752325"><ele>173.25</ele></trkpt>
   <trkpt lon="2.638113" lat="39.752247"><ele>173.25</ele></trkpt>
   <trkpt lon="2.638055" lat="39.752122"><ele>172.0</ele></trkpt>
   <trkpt lon="2.637809" lat="39.751667"><ele>168.0</ele></trkpt>
   <trkpt lon="2.637784" lat="39.751554"><ele>168.25</ele></trkpt>
   <trkpt lon="2.637793" lat="39.751456"><ele>167.5</ele></trkpt>
   <trkpt lon="2.637836" lat="39.751351"><ele>166.25</ele></trkpt>
   <trkpt lon="2.637916" lat="39.751221"><ele>165.25</ele></trkpt>
   <trkpt lon="2.638015" lat="39.751039"><ele>164.5</ele></trkpt>
   <trkpt lon="2.638111" lat="39.750644"><ele>162.75</ele></trkpt>
   <trkpt lon="2.638130" lat="39.750602"><ele>162.5</ele></trkpt>
   <trkpt lon="2.638173" lat="39.750521"><ele>161.75</ele></trkpt>
   <trkpt lon="2.638248" lat="39.750446"><ele>160.5</ele></trkpt>
   <trkpt lon="2.638253" lat="39.750444"><ele>160.5</ele></trkpt>
   <trkpt lon="2.638330" lat="39.750417"><ele>159.5</ele></trkpt>
   <trkpt lon="2.638455" lat="39.750399"><ele>161.25</ele></trkpt>
   <trkpt lon="2.638607" lat="39.750424"><ele>162.0</ele></trkpt>
   <trkpt lon="2.639079" lat="39.750684"><ele>160.0</ele></trkpt>
   <trkpt lon="2.639252" lat="39.750775"><ele>158.5</ele></trkpt>
   <trkpt lon="2.639709" lat="39.751014"><ele>156.25</ele></trkpt>
   <trkpt lon="2.639858" lat="39.751063"><ele>154.75</ele></trkpt>
   <trkpt lon="2.639974" lat="39.751085"><ele>154.0</ele></trkpt>
   <trkpt lon="2.640110" lat="39.751101"><ele>152.5</ele></trkpt>
   <trkpt lon="2.640240" lat="39.751104"><ele>151.5</ele></trkpt>
   <trkpt lon="2.640480" lat="39.751083"><ele>150.75</ele></trkpt>
   <trkpt lon="2.640689" lat="39.751053"><ele>150.0</ele></trkpt>
   <trkpt lon="2.640866" lat="39.751035"><ele>148.75</ele></trkpt>
   <trkpt lon="2.641078" lat="39.750997"><ele>147.0</ele></trkpt>
   <trkpt lon="2.641277" lat="39.750912"><ele>146.25</ele></trkpt>
   <trkpt lon="2.641462" lat="39.750798"><ele>144.0</ele></trkpt>
   <trkpt lon="2.641617" lat="39.750651"><ele>142.25</ele></trkpt>
   <trkpt lon="2.641718" lat="39.750524"><ele>141.5</ele></trkpt>
   <trkpt lon="2.641764" lat="39.750414"><ele>139.75</ele></trkpt>
   <trkpt lon="2.641764" lat="39.750344"><ele>139.5</ele></trkpt>
   <trkpt lon="2.641722" lat="39.750216"><ele>139.5</ele></trkpt>
   <trkpt lon="2.641608" lat="39.750018"><ele>139.25</ele></trkpt>
   <trkpt lon="2.641500" lat="39.749848"><ele>138.75</ele></trkpt>
   <trkpt lon="2.641453" lat="39.749766"><ele>138.25</ele></trkpt>
   <trkpt lon="2.641416" lat="39.749646"><ele>138.0</ele></trkpt>
   <trkpt lon="2.641409" lat="39.749530"><ele>137.5</ele></trkpt>
   <trkpt lon="2.641463" lat="39.749365"><ele>136.5</ele></trkpt>
   <trkpt lon="2.641548" lat="39.749268"><ele>135.25</ele></trkpt>
   <trkpt lon="2.641638" lat="39.749186"><ele>133.5</ele></trkpt>
   <trkpt lon="2.642006" lat="39.748931"><ele>131.5</ele></trkpt>
   <trkpt lon="2.642357" lat="39.748687"><ele>130.5</ele></trkpt>
   <trkpt lon="2.642433" lat="39.748622"><ele>130.5</ele></trkpt>
   <trkpt lon="2.642480" lat="39.748563"><ele>129.75</ele></trkpt>
   <trkpt lon="2.642537" lat="39.748435"><ele>129.25</ele></trkpt>
   <trkpt lon="2.642531" lat="39.748315"><ele>130.0</ele></trkpt>
   <trkpt lon="2.642493" lat="39.748201"><ele>129.25</ele></trkpt>
   <trkpt lon="2.642392" lat="39.748091"><ele>130.5</ele></trkpt>
   <trkpt lon="2.642274" lat="39.747986"><ele>131.25</ele></trkpt>
   <trkpt lon="2.641850" lat="39.747725"><ele>134.0</ele></trkpt>
   <trkpt lon="2.641807" lat="39.747676"><ele>134.5</ele></trkpt>
   <trkpt lon="2.641787" lat="39.747606"><ele>133.75</ele></trkpt>
   <trkpt lon="2.641795" lat="39.747536"><ele>132.5</ele></trkpt>
   <trkpt lon="2.641844" lat="39.747455"><ele>132.75</ele></trkpt>
   <trkpt lon="2.641876" lat="39.747422"><ele>133.25</ele></trkpt>
   <trkpt lon="2.641978" lat="39.747378"><ele>134.25</ele></trkpt>
   <trkpt lon="2.642147" lat="39.747327"><ele>135.5</ele></trkpt>
   <trkpt lon="2.642216" lat="39.747316"><ele>135.75</ele></trkpt>
   <trkpt lon="2.642329" lat="39.747296"><ele>136.5</ele></trkpt>
   <trkpt lon="2.642473" lat="39.747298"><ele>136.25</ele></trkpt>
   <trkpt lon="2.642579" lat="39.747302"><ele>136.25</ele></trkpt>
   <trkpt lon="2.643199" lat="39.747309"><ele>138.75</ele></trkpt>
   <trkpt lon="2.643362" lat="39.747294"><ele>139.0</ele></trkpt>
   <trkpt lon="2.643467" lat="39.747264"><ele>139.5</ele></trkpt>
   <trkpt lon="2.643595" lat="39.747204"><ele>140.75</ele></trkpt>
   <trkpt lon="2.643690" lat="39.747124"><ele>140.5</ele></trkpt>
   <trkpt lon="2.643921" lat="39.746793"><ele>142.5</ele></trkpt>
   <trkpt lon="2.644095" lat="39.746636"><ele>143.75</ele></trkpt>
   <trkpt lon="2.644430" lat="39.746382"><ele>146.5</ele></trkpt>
   <trkpt lon="2.644591" lat="39.746252"><ele>146.75</ele></trkpt>
   <trkpt lon="2.644710" lat="39.746127"><ele>147.75</ele></trkpt>
   <trkpt lon="2.644784" lat="39.746016"><ele>148.5</ele></trkpt>
   <trkpt lon="2.644887" lat="39.745772"><ele>150.25</ele></trkpt>
   <trkpt lon="2.645191" lat="39.744881"><ele>153.0</ele></trkpt>
   <trkpt lon="2.645248" lat="39.744802"><ele>152.5</ele></trkpt>
   <trkpt lon="2.645313" lat="39.744765"><ele>152.5</ele></trkpt>
   <trkpt lon="2.645386" lat="39.744741"><ele>153.25</ele></trkpt>
   <trkpt lon="2.645504" lat="39.744737"><ele>154.25</ele></trkpt>
   <trkpt lon="2.645581" lat="39.744759"><ele>154.75</ele></trkpt>
   <trkpt lon="2.645648" lat="39.744797"><ele>156.0</ele></trkpt>
   <trkpt lon="2.645908" lat="39.745116"><ele>156.5</ele></trkpt>
   <trkpt lon="2.646281" lat="39.745458"><ele>157.25</ele></trkpt>
   <trkpt lon="2.646702" lat="39.745813"><ele>158.25</ele></trkpt>
   <trkpt lon="2.646783" lat="39.745865"><ele>158.0</ele></trkpt>
   <trkpt lon="2.646860" lat="39.745903"><ele>158.0</ele></trkpt>
   <trkpt lon="2.646961" lat="39.745931"><ele>158.75</ele></trkpt>
   <trkpt lon="2.647513" lat="39.746058"><ele>161.25</ele></trkpt>
   <trkpt lon="2.647665" lat="39.746093"><ele>161.5</ele></trkpt>
   <trkpt lon="2.647731" lat="39.746108"><ele>161.5</ele></trkpt>
   <trkpt lon="2.648094" lat="39.746195"><ele>162.5</ele></trkpt>
   <trkpt lon="2.649021" lat="39.746366"><ele>164.25</ele><sym>pass_place</sym><type>Shaping</type></trkpt>
   <trkpt lon="2.649113" lat="39.746370"><ele>164.5</ele></trkpt>
   <trkpt lon="2.649188" lat="39.746365"><ele>165.25</ele></trkpt>
   <trkpt lon="2.649321" lat="39.746343"><ele>166.5</ele></trkpt>
   <trkpt lon="2.649430" lat="39.746305"><ele>168.25</ele></trkpt>
   <trkpt lon="2.649514" lat="39.746292"><ele>169.5</ele></trkpt>
   <trkpt lon="2.649546" lat="39.746295"><ele>169.75</ele></trkpt>
   <trkpt lon="2.649593" lat="39.746313"><ele>170.0</ele></trkpt>
   <trkpt lon="2.649641" lat="39.746361"><ele>169.75</ele></trkpt>
   <trkpt lon="2.649652" lat="39.746420"><ele>169.5</ele></trkpt>
   <trkpt lon="2.649654" lat="39.746518"><ele>169.75</ele></trkpt>
   <trkpt lon="2.649640" lat="39.746601"><ele>169.75</ele></trkpt>
   <trkpt lon="2.649596" lat="39.746662"><ele>169.5</ele></trkpt>
   <trkpt lon="2.649537" lat="39.746708"><ele>170.0</ele></trkpt>
   <trkpt lon="2.649484" lat="39.746737"><ele>170.25</ele></trkpt>
   <trkpt lon="2.649369" lat="39.746803"><ele>170.75</ele></trkpt>
   <trkpt lon="2.648893" lat="39.747075"><ele>172.75</ele></trkpt>
   <trkpt lon="2.648862" lat="39.747093"><ele>172.5</ele></trkpt>
   <trkpt lon="2.648732" lat="39.747184"><ele>172.5</ele></trkpt>
   <trkpt lon="2.648673" lat="39.747248"><ele>172.5</ele></trkpt>
   <trkpt lon="2.648624" lat="39.747316"><ele>172.25</ele></trkpt>
   <trkpt lon="2.648585" lat="39.747389"><ele>172.0</ele></trkpt>
   <trkpt lon="2.648564" lat="39.747486"><ele>172.5</ele></trkpt>
   <trkpt lon="2.648567" lat="39.747581"><ele>172.25</ele></trkpt>
   <trkpt lon="2.648588" lat="39.747658"><ele>172.75</ele></trkpt>
   <trkpt lon="2.648690" lat="39.747823"><ele>175.0</ele></trkpt>
   <trkpt lon="2.649021" lat="39.748293"><ele>177.5</ele></trkpt>
   <trkpt lon="2.649046" lat="39.748374"><ele>177.75</ele></trkpt>
   <trkpt lon="2.649047" lat="39.748398"><ele>177.75</ele></trkpt>
   <trkpt lon="2.649029" lat="39.748476"><ele>177.75</ele></trkpt>
   <trkpt lon="2.648985" lat="39.748541"><ele>177.25</ele></trkpt>
   <trkpt lon="2.648911" lat="39.748616"><ele>177.0</ele></trkpt>
   <trkpt lon="2.648896" lat="39.748633"><ele>177.0</ele></trkpt>
   <trkpt lon="2.648845" lat="39.748678"><ele>177.5</ele></trkpt>
   <trkpt lon="2.648688" lat="39.748802"><ele>177.5</ele></trkpt>
   <trkpt lon="2.648443" lat="39.749002"><ele>176.75</ele></trkpt>
   <trkpt lon="2.648411" lat="39.749085"><ele>175.75</ele></trkpt>
   <trkpt lon="2.648409" lat="39.749140"><ele>175.0</ele></trkpt>
   <trkpt lon="2.648433" lat="39.749445"><ele>171.5</ele></trkpt>
   <trkpt lon="2.648440" lat="39.749806"><ele>174.5</ele></trkpt>
   <trkpt lon="2.648416" lat="39.749876"><ele>175.75</ele></trkpt>
   <trkpt lon="2.648334" lat="39.749957"><ele>175.0</ele></trkpt>
   <trkpt lon="2.648055" lat="39.750178"><ele>172.25</ele></trkpt>
   <trkpt lon="2.647428" lat="39.750680"><ele>169.5</ele></trkpt>
   <trkpt lon="2.647366" lat="39.750750"><ele>169.0</ele></trkpt>
   <trkpt lon="2.647327" lat="39.750814"><ele>169.0</ele></trkpt>
   <trkpt lon="2.647299" lat="39.750876"><ele>168.5</ele></trkpt>
   <trkpt lon="2.647282" lat="39.750996"><ele>168.5</ele></trkpt>
   <trkpt lon="2.647272" lat="39.751095"><ele>168.75</ele></trkpt>
   <trkpt lon="2.647261" lat="39.751287"><ele>169.25</ele></trkpt>
   <trkpt lon="2.647225" lat="39.751491"><ele>169.25</ele></trkpt>
   <trkpt lon="2.647137" lat="39.751658"><ele>167.75</ele></trkpt>
   <trkpt lon="2.646880" lat="39.751937"><ele>168.25</ele></trkpt>
   <trkpt lon="2.646657" lat="39.752160"><ele>166.0</ele></trkpt>
   <trkpt lon="2.646632" lat="39.752219"><ele>166.0</ele></trkpt>
   <trkpt lon="2.646641" lat="39.752277"><ele>165.5</ele></trkpt>
   <trkpt lon="2.646672" lat="39.752322"><ele>165.5</ele></trkpt>
   <trkpt lon="2.646906" lat="39.752520"><ele>166.25</ele></trkpt>
   <trkpt lon="2.647186" lat="39.752769"><ele>165.75</ele></trkpt>
   <trkpt lon="2.647232" lat="39.752839"><ele>165.75</ele></trkpt>
   <trkpt lon="2.647231" lat="39.752913"><ele>165.5</ele></trkpt>
   <trkpt lon="2.647132" lat="39.753457"><ele>162.5</ele></trkpt>
   <trkpt lon="2.647136" lat="39.753602"><ele>161.5</ele></trkpt>
   <trkpt lon="2.647179" lat="39.753722"><ele>161.25</ele></trkpt>
   <trkpt lon="2.647241" lat="39.753819"><ele>161.5</ele></trkpt>
   <trkpt lon="2.647682" lat="39.754399"><ele>159.75</ele></trkpt>
   <trkpt lon="2.647877" lat="39.754648"><ele>159.5</ele></trkpt>
   <trkpt lon="2.647893" lat="39.754727"><ele>159.5</ele></trkpt>
   <trkpt lon="2.647858" lat="39.754800"><ele>160.0</ele></trkpt>
   <trkpt lon="2.647769" lat="39.754864"><ele>159.25</ele></trkpt>
   <trkpt lon="2.647689" lat="39.754924"><ele>159.0</ele></trkpt>
   <trkpt lon="2.647260" lat="39.755233"><ele>155.5</ele></trkpt>
   <trkpt lon="2.647215" lat="39.755292"><ele>155.75</ele></trkpt>
   <trkpt lon="2.647185" lat="39.755363"><ele>155.0</ele></trkpt>
   <trkpt lon="2.647119" lat="39.755653"><ele>154.75</ele></trkpt>
   <trkpt lon="2.647084" lat="39.755763"><ele>154.5</ele></trkpt>
   <trkpt lon="2.647046" lat="39.755820"><ele>153.75</ele></trkpt>
   <trkpt lon="2.646809" lat="39.756121"><ele>152.0</ele></trkpt>
   <trkpt lon="2.646766" lat="39.756224"><ele>151.5</ele></trkpt>
   <trkpt lon="2.646764" lat="39.756292"><ele>151.75</ele></trkpt>
   <trkpt lon="2.646776" lat="39.756369"><ele>152.5</ele></trkpt>
   <trkpt lon="2.646857" lat="39.756591"><ele>149.75</ele></trkpt>
   <trkpt lon="2.647274" lat="39.757706"><ele>144.5</ele></trkpt>
   <trkpt lon="2.647321" lat="39.757790"><ele>144.0</ele></trkpt>
   <trkpt lon="2.647404" lat="39.757870"><ele>143.25</ele></trkpt>
   <trkpt lon="2.647528" lat="39.757932"><ele>143.5</ele></trkpt>
   <trkpt lon="2.647623" lat="39.757954"><ele>143.0</ele></trkpt>
   <trkpt lon="2.647743" lat="39.757961"><ele>143.5</ele></trkpt>
   <trkpt lon="2.647831" lat="39.757945"><ele>143.0</ele></trkpt>
   <trkpt lon="2.647956" lat="39.757902"><ele>142.25</ele><sym>right_slight</sym></trkpt>
   <trkpt lon="2.648304" lat="39.757637"><ele>143.0</ele></trkpt>
   <trkpt lon="2.648405" lat="39.757586"><ele>144.0</ele></trkpt>
   <trkpt lon="2.648523" lat="39.757577"><ele>144.0</ele></trkpt>
   <trkpt lon="2.648919" lat="39.757695"><ele>141.0</ele></trkpt>
   <trkpt lon="2.649330" lat="39.757817"><ele>139.75</ele></trkpt>
   <trkpt lon="2.649562" lat="39.757892"><ele>138.0</ele></trkpt>
   <trkpt lon="2.649604" lat="39.757897"><ele>138.0</ele></trkpt>
   <trkpt lon="2.649802" lat="39.757924"><ele>137.0</ele></trkpt>
   <trkpt lon="2.649974" lat="39.757918"><ele>137.75</ele></trkpt>
   <trkpt lon="2.650184" lat="39.757887"><ele>140.25</ele></trkpt>
   <trkpt lon="2.650260" lat="39.757883"><ele>140.5</ele><sym>pass_place</sym><type>Shaping</type></trkpt>
   <trkpt lon="2.650264" lat="39.757883"><ele>140.5</ele></trkpt>
   <trkpt lon="2.650327" lat="39.757899"><ele>140.5</ele></trkpt>
   <trkpt lon="2.650376" lat="39.757934"><ele>140.0</ele></trkpt>
   <trkpt lon="2.650417" lat="39.757974"><ele>139.75</ele></trkpt>
   <trkpt lon="2.650437" lat="39.758024"><ele>139.0</ele></trkpt>
   <trkpt lon="2.650428" lat="39.758143"><ele>138.5</ele></trkpt>
   <trkpt lon="2.650397" lat="39.758243"><ele>138.5</ele></trkpt>
   <trkpt lon="2.650344" lat="39.758362"><ele>138.0</ele></trkpt>
   <trkpt lon="2.650298" lat="39.758417"><ele>138.0</ele></trkpt>
   <trkpt lon="2.650127" lat="39.758593"><ele>136.75</ele></trkpt>
   <trkpt lon="2.650070" lat="39.758663"><ele>135.75</ele></trkpt>
   <trkpt lon="2.650042" lat="39.758727"><ele>135.5</ele></trkpt>
   <trkpt lon="2.650037" lat="39.758765"><ele>135.75</ele></trkpt>
   <trkpt lon="2.650052" lat="39.758797"><ele>136.25</ele></trkpt>
   <trkpt lon="2.650123" lat="39.758867"><ele>137.5</ele></trkpt>
   <trkpt lon="2.650287" lat="39.758989"><ele>137.75</ele></trkpt>
   <trkpt lon="2.650370" lat="39.759080"><ele>138.25</ele></trkpt>
   <trkpt lon="2.650440" lat="39.759253"><ele>137.75</ele></trkpt>
   <trkpt lon="2.650450" lat="39.759327"><ele>137.0</ele></trkpt>
   <trkpt lon="2.650433" lat="39.759439"><ele>135.0</ele></trkpt>
   <trkpt lon="2.650422" lat="39.759599"><ele>135.0</ele></trkpt>
   <trkpt lon="2.650430" lat="39.759692"><ele>135.5</ele></trkpt>
   <trkpt lon="2.650555" lat="39.759983"><ele>136.0</ele></trkpt>
   <trkpt lon="2.650607" lat="39.760146"><ele>136.25</ele></trkpt>
   <trkpt lon="2.650651" lat="39.760273"><ele>136.5</ele></trkpt>
   <trkpt lon="2.650685" lat="39.760375"><ele>136.25</ele></trkpt>
   <trkpt lon="2.650732" lat="39.760477"><ele>136.25</ele></trkpt>
   <trkpt lon="2.650739" lat="39.760529"><ele>135.75</ele></trkpt>
   <trkpt lon="2.650714" lat="39.760600"><ele>135.5</ele></trkpt>
   <trkpt lon="2.650640" lat="39.760675"><ele>135.25</ele></trkpt>
   <trkpt lon="2.650436" lat="39.760839"><ele>134.0</ele></trkpt>
   <trkpt lon="2.650390" lat="39.760912"><ele>132.75</ele></trkpt>
   <trkpt lon="2.650385" lat="39.760975"><ele>132.25</ele></trkpt>
   <trkpt lon="2.650406" lat="39.761028"><ele>132.0</ele></trkpt>
   <trkpt lon="2.650491" lat="39.761105"><ele>132.25</ele></trkpt>
   <trkpt lon="2.650677" lat="39.761175"><ele>132.25</ele></trkpt>
   <trkpt lon="2.650793" lat="39.761218"><ele>132.25</ele></trkpt>
   <trkpt lon="2.651440" lat="39.761449"><ele>130.5</ele></trkpt>
   <trkpt lon="2.651557" lat="39.761509"><ele>130.5</ele></trkpt>
   <trkpt lon="2.651632" lat="39.761578"><ele>129.75</ele></trkpt>
   <trkpt lon="2.651708" lat="39.761669"><ele>128.5</ele></trkpt>
   <trkpt lon="2.651868" lat="39.761856"><ele>126.75</ele></trkpt>
   <trkpt lon="2.651938" lat="39.761922"><ele>126.25</ele></trkpt>
   <trkpt lon="2.652009" lat="39.761960"><ele>126.0</ele></trkpt>
   <trkpt lon="2.652183" lat="39.762033"><ele>125.75</ele></trkpt>
   <trkpt lon="2.652245" lat="39.762077"><ele>125.5</ele></trkpt>
   <trkpt lon="2.652298" lat="39.762148"><ele>124.75</ele></trkpt>
   <trkpt lon="2.652353" lat="39.762296"><ele>122.25</ele></trkpt>
   <trkpt lon="2.652427" lat="39.762380"><ele>122.0</ele></trkpt>
   <trkpt lon="2.652580" lat="39.762508"><ele>121.25</ele></trkpt>
   <trkpt lon="2.652639" lat="39.762569"><ele>121.25</ele></trkpt>
   <trkpt lon="2.652694" lat="39.762667"><ele>121.25</ele></trkpt>
   <trkpt lon="2.652715" lat="39.762734"><ele>121.25</ele></trkpt>
   <trkpt lon="2.652729" lat="39.762825"><ele>120.0</ele></trkpt>
   <trkpt lon="2.652768" lat="39.762904"><ele>119.25</ele></trkpt>
   <trkpt lon="2.652839" lat="39.762995"><ele>118.75</ele></trkpt>
   <trkpt lon="2.653300" lat="39.763464"><ele>115.25</ele></trkpt>
   <trkpt lon="2.653448" lat="39.763560"><ele>114.75</ele></trkpt>
   <trkpt lon="2.653575" lat="39.763619"><ele>115.5</ele></trkpt>
   <trkpt lon="2.653772" lat="39.763671"><ele>114.5</ele></trkpt>
   <trkpt lon="2.653983" lat="39.763700"><ele>114.75</ele></trkpt>
   <trkpt lon="2.654228" lat="39.763755"><ele>114.75</ele></trkpt>
   <trkpt lon="2.654370" lat="39.763817"><ele>114.75</ele></trkpt>
   <trkpt lon="2.654460" lat="39.763871"><ele>114.0</ele></trkpt>
   <trkpt lon="2.654542" lat="39.763938"><ele>114.25</ele></trkpt>
   <trkpt lon="2.654786" lat="39.764306"><ele>115.5</ele></trkpt>
   <trkpt lon="2.655117" lat="39.764656"><ele>118.75</ele></trkpt>
   <trkpt lon="2.655283" lat="39.764937"><ele>118.5</ele></trkpt>
   <trkpt lon="2.655361" lat="39.765039"><ele>118.5</ele></trkpt>
   <trkpt lon="2.655457" lat="39.765137"><ele>119.25</ele></trkpt>
   <trkpt lon="2.655648" lat="39.765284"><ele>120.75</ele></trkpt>
   <trkpt lon="2.655890" lat="39.765564"><ele>121.25</ele></trkpt>
   <trkpt lon="2.656030" lat="39.765641"><ele>120.75</ele></trkpt>
   <trkpt lon="2.656208" lat="39.765697"><ele>122.5</ele></trkpt>
   <trkpt lon="2.656326" lat="39.765741"><ele>124.25</ele></trkpt>
   <trkpt lon="2.656365" lat="39.765780"><ele>124.5</ele></trkpt>
   <trkpt lon="2.656466" lat="39.765849"><ele>124.0</ele></trkpt>
   <trkpt lon="2.656582" lat="39.765913"><ele>122.75</ele></trkpt>
   <trkpt lon="2.656735" lat="39.765952"><ele>124.0</ele></trkpt>
   <trkpt lon="2.656890" lat="39.765977"><ele>126.5</ele></trkpt>
   <trkpt lon="2.657046" lat="39.766052"><ele>128.25</ele></trkpt>
   <trkpt lon="2.657158" lat="39.766164"><ele>127.25</ele></trkpt>
   <trkpt lon="2.657334" lat="39.766299"><ele>127.25</ele></trkpt>
   <trkpt lon="2.657526" lat="39.766369"><ele>128.5</ele></trkpt>
   <trkpt lon="2.657727" lat="39.766391"><ele>128.5</ele></trkpt>
   <trkpt lon="2.657851" lat="39.766369"><ele>129.25</ele></trkpt>
   <trkpt lon="2.658074" lat="39.766314"><ele>131.0</ele></trkpt>
   <trkpt lon="2.658188" lat="39.766308"><ele>132.25</ele></trkpt>
   <trkpt lon="2.658311" lat="39.766317"><ele>133.0</ele></trkpt>
   <trkpt lon="2.658408" lat="39.766353"><ele>133.75</ele></trkpt>
   <trkpt lon="2.658541" lat="39.766438"><ele>134.25</ele></trkpt>
   <trkpt lon="2.658675" lat="39.766530"><ele>134.25</ele></trkpt>
   <trkpt lon="2.658887" lat="39.766608"><ele>135.25</ele></trkpt>
   <trkpt lon="2.659091" lat="39.766661"><ele>136.75</ele></trkpt>
   <trkpt lon="2.659326" lat="39.766768"><ele>137.5</ele></trkpt>
   <trkpt lon="2.659607" lat="39.766848"><ele>139.0</ele></trkpt>
   <trkpt lon="2.660120" lat="39.766935"><ele>141.0</ele></trkpt>
   <trkpt lon="2.660406" lat="39.767008"><ele>142.25</ele></trkpt>
   <trkpt lon="2.660661" lat="39.767088"><ele>143.75</ele></trkpt>
   <trkpt lon="2.660744" lat="39.767140"><ele>143.75</ele></trkpt>
   <trkpt lon="2.660792" lat="39.767191"><ele>143.0</ele></trkpt>
   <trkpt lon="2.660886" lat="39.767313"><ele>143.5</ele></trkpt>
   <trkpt lon="2.660988" lat="39.767556"><ele>143.5</ele></trkpt>
   <trkpt lon="2.661051" lat="39.767647"><ele>143.25</ele></trkpt>
   <trkpt lon="2.661128" lat="39.767729"><ele>143.75</ele></trkpt>
   <trkpt lon="2.661283" lat="39.767842"><ele>146.0</ele></trkpt>
   <trkpt lon="2.661355" lat="39.767917"><ele>146.75</ele></trkpt>
   <trkpt lon="2.661407" lat="39.768001"><ele>146.75</ele></trkpt>
   <trkpt lon="2.661494" lat="39.768242"><ele>147.25</ele></trkpt>
   <trkpt lon="2.661611" lat="39.768405"><ele>147.5</ele></trkpt>
   <trkpt lon="2.661775" lat="39.768534"><ele>147.75</ele></trkpt>
   <trkpt lon="2.661868" lat="39.768577"><ele>147.75</ele></trkpt>
   <trkpt lon="2.661989" lat="39.768602"><ele>148.5</ele></trkpt>
   <trkpt lon="2.662338" lat="39.768610"><ele>150.25</ele><sym>pass_place</sym><type>Shaping</type></trkpt>
   <trkpt lon="2.662344" lat="39.768611"><ele>150.25</ele></trkpt>
   <trkpt lon="2.662560" lat="39.768608"><ele>151.5</ele></trkpt>
   <trkpt lon="2.662689" lat="39.768628"><ele>152.0</ele></trkpt>
   <trkpt lon="2.662791" lat="39.768665"><ele>152.25</ele></trkpt>
   <trkpt lon="2.663032" lat="39.768791"><ele>153.5</ele></trkpt>
   <trkpt lon="2.663218" lat="39.768954"><ele>154.75</ele></trkpt>
   <trkpt lon="2.663288" lat="39.769045"><ele>155.25</ele></trkpt>
   <trkpt lon="2.663331" lat="39.769162"><ele>154.75</ele></trkpt>
   <trkpt lon="2.663338" lat="39.769296"><ele>155.5</ele></trkpt>
   <trkpt lon="2.663326" lat="39.769432"><ele>155.5</ele></trkpt>
   <trkpt lon="2.663359" lat="39.769559"><ele>154.25</ele></trkpt>
   <trkpt lon="2.663459" lat="39.769663"><ele>155.75</ele></trkpt>
   <trkpt lon="2.663650" lat="39.769832"><ele>158.75</ele></trkpt>
   <trkpt lon="2.663704" lat="39.769925"><ele>158.5</ele></trkpt>
   <trkpt lon="2.663745" lat="39.770024"><ele>157.5</ele></trkpt>
   <trkpt lon="2.663813" lat="39.770152"><ele>156.5</ele></trkpt>
   <trkpt lon="2.663962" lat="39.770304"><ele>158.25</ele></trkpt>
   <trkpt lon="2.664152" lat="39.770456"><ele>160.5</ele></trkpt>
   <trkpt lon="2.664451" lat="39.770905"><ele>158.5</ele></trkpt>
   <trkpt lon="2.664552" lat="39.770970"><ele>157.5</ele></trkpt>
   <trkpt lon="2.664831" lat="39.771009"><ele>160.75</ele></trkpt>
   <trkpt lon="2.665363" lat="39.771068"><ele>161.25</ele></trkpt>
   <trkpt lon="2.665740" lat="39.771045"><ele>162.5</ele></trkpt>
   <trkpt lon="2.666081" lat="39.771010"><ele>161.0</ele></trkpt>
   <trkpt lon="2.666389" lat="39.770963"><ele>160.0</ele></trkpt>
   <trkpt lon="2.666489" lat="39.770929"><ele>160.75</ele></trkpt>
   <trkpt lon="2.666581" lat="39.770880"><ele>162.0</ele></trkpt>
   <trkpt lon="2.666690" lat="39.770767"><ele>164.0</ele></trkpt>
   <trkpt lon="2.666847" lat="39.770559"><ele>165.0</ele></trkpt>
   <trkpt lon="2.666954" lat="39.770446"><ele>165.75</ele></trkpt>
   <trkpt lon="2.667072" lat="39.770345"><ele>166.75</ele></trkpt>
   <trkpt lon="2.667187" lat="39.770266"><ele>167.0</ele></trkpt>
   <trkpt lon="2.667304" lat="39.770210"><ele>168.0</ele></trkpt>
   <trkpt lon="2.667421" lat="39.770183"><ele>168.5</ele></trkpt>
   <trkpt lon="2.667538" lat="39.770191"><ele>168.25</ele></trkpt>
   <trkpt lon="2.667767" lat="39.770246"><ele>168.25</ele></trkpt>
   <trkpt lon="2.667908" lat="39.770297"><ele>169.5</ele></trkpt>
   <trkpt lon="2.667967" lat="39.770338"><ele>171.0</ele></trkpt>
   <trkpt lon="2.667979" lat="39.770395"><ele>171.5</ele></trkpt>
   <trkpt lon="2.667885" lat="39.770612"><ele>167.25</ele></trkpt>
   <trkpt lon="2.667859" lat="39.770699"><ele>167.0</ele></trkpt>
   <trkpt lon="2.667863" lat="39.770763"><ele>168.0</ele></trkpt>
   <trkpt lon="2.667923" lat="39.770852"><ele>169.5</ele></trkpt>
   <trkpt lon="2.668252" lat="39.771141"><ele>173.0</ele></trkpt>
   <trkpt lon="2.668286" lat="39.771195"><ele>173.75</ele></trkpt>
   <trkpt lon="2.668310" lat="39.771470"><ele>173.25</ele></trkpt>
   <trkpt lon="2.668328" lat="39.771571"><ele>174.25</ele></trkpt>
   <trkpt lon="2.668374" lat="39.771665"><ele>176.0</ele></trkpt>
   <trkpt lon="2.668774" lat="39.772159"><ele>178.75</ele></trkpt>
   <trkpt lon="2.668927" lat="39.772317"><ele>179.25</ele></trkpt>
   <trkpt lon="2.669222" lat="39.772574"><ele>180.25</ele></trkpt>
   <trkpt lon="2.669631" lat="39.772894"><ele>182.25</ele></trkpt>
   <trkpt lon="2.669754" lat="39.773197"><ele>182.75</ele></trkpt>
   <trkpt lon="2.669829" lat="39.773297"><ele>183.5</ele></trkpt>
   <trkpt lon="2.669953" lat="39.773373"><ele>185.25</ele></trkpt>
   <trkpt lon="2.670257" lat="39.773474"><ele>187.0</ele></trkpt>
   <trkpt lon="2.670375" lat="39.773496"><ele>187.5</ele></trkpt>
   <trkpt lon="2.670574" lat="39.773497"><ele>189.5</ele></trkpt>
   <trkpt lon="2.670693" lat="39.773506"><ele>191.25</ele></trkpt>
   <trkpt lon="2.670800" lat="39.773541"><ele>190.75</ele></trkpt>
   <trkpt lon="2.671000" lat="39.773631"><ele>190.75</ele></trkpt>
   <trkpt lon="2.671136" lat="39.773708"><ele>190.75</ele></trkpt>
   <trkpt lon="2.671223" lat="39.773731"><ele>190.75</ele></trkpt>
   <trkpt lon="2.671534" lat="39.773738"><ele>194.5</ele></trkpt>
   <trkpt lon="2.671599" lat="39.773752"><ele>194.5</ele></trkpt>
   <trkpt lon="2.671809" lat="39.773868"><ele>193.25</ele></trkpt>
   <trkpt lon="2.671958" lat="39.773936"><ele>194.75</ele></trkpt>
   <trkpt lon="2.672087" lat="39.773965"><ele>195.25</ele></trkpt>
   <trkpt lon="2.672782" lat="39.774073"><ele>198.0</ele></trkpt>
   <trkpt lon="2.672885" lat="39.774104"><ele>199.75</ele></trkpt>
   <trkpt lon="2.672932" lat="39.774143"><ele>199.5</ele></trkpt>
   <trkpt lon="2.673030" lat="39.774252"><ele>198.75</ele></trkpt>
   <trkpt lon="2.673107" lat="39.774324"><ele>198.25</ele></trkpt>
   <trkpt lon="2.673203" lat="39.774380"><ele>198.5</ele></trkpt>
   <trkpt lon="2.673331" lat="39.774417"><ele>199.75</ele></trkpt>
   <trkpt lon="2.673501" lat="39.774450"><ele>201.0</ele></trkpt>
   <trkpt lon="2.673758" lat="39.774481"><ele>201.75</ele></trkpt>
   <trkpt lon="2.673978" lat="39.774488"><ele>202.75</ele></trkpt>
   <trkpt lon="2.674212" lat="39.774485"><ele>204.0</ele></trkpt>
   <trkpt lon="2.674309" lat="39.774468"><ele>204.25</ele></trkpt>
   <trkpt lon="2.674414" lat="39.774430"><ele>205.5</ele></trkpt>
   <trkpt lon="2.674657" lat="39.774312"><ele>207.5</ele></trkpt>
   <trkpt lon="2.674738" lat="39.774292"><ele>207.5</ele></trkpt>
   <trkpt lon="2.674842" lat="39.774278"><ele>208.0</ele></trkpt>
   <trkpt lon="2.675033" lat="39.774271"><ele>208.5</ele></trkpt>
   <trkpt lon="2.675170" lat="39.774256"><ele>209.25</ele></trkpt>
   <trkpt lon="2.675665" lat="39.774155"><ele>212.5</ele></trkpt>
   <trkpt lon="2.675820" lat="39.774140"><ele>213.25</ele></trkpt>
   <trkpt lon="2.675935" lat="39.774150"><ele>213.75</ele></trkpt>
   <trkpt lon="2.676008" lat="39.774179"><ele>213.75</ele></trkpt>
   <trkpt lon="2.676060" lat="39.774233"><ele>214.0</ele></trkpt>
   <trkpt lon="2.676092" lat="39.774315"><ele>214.0</ele></trkpt>
   <trkpt lon="2.676091" lat="39.774443"><ele>213.5</ele></trkpt>
   <trkpt lon="2.676101" lat="39.774582"><ele>213.25</ele></trkpt>
   <trkpt lon="2.676132" lat="39.774626"><ele>213.5</ele></trkpt>
   <trkpt lon="2.676180" lat="39.774648"><ele>214.25</ele></trkpt>
   <trkpt lon="2.676248" lat="39.774647"><ele>215.25</ele><sym>right_slight</sym></trkpt>
   <trkpt lon="2.676289" lat="39.774622"><ele>216.0</ele></trkpt>
   <trkpt lon="2.676308" lat="39.774573"><ele>217.0</ele></trkpt>
   <trkpt lon="2.676307" lat="39.774420"><ele>218.75</ele></trkpt>
   <trkpt lon="2.676327" lat="39.774207"><ele>219.5</ele></trkpt>
   <trkpt lon="2.676339" lat="39.774148"><ele>220.0</ele></trkpt>
   <trkpt lon="2.676378" lat="39.774056"><ele>220.75</ele></trkpt>
   <trkpt lon="2.676546" lat="39.773764"><ele>224.25</ele><sym>pass_place</sym><type>Shaping</type></trkpt>
   <trkpt lon="2.676564" lat="39.773704"><ele>224.5</ele></trkpt>
   <trkpt lon="2.676574" lat="39.773542"><ele>224.25</ele></trkpt>
   <trkpt lon="2.676650" lat="39.772492"><ele>221.0</ele></trkpt>
   <trkpt lon="2.676676" lat="39.772442"><ele>222.0</ele></trkpt>
   <trkpt lon="2.676733" lat="39.772402"><ele>222.5</ele></trkpt>
   <trkpt lon="2.676963" lat="39.772353"><ele>220.75</ele></trkpt>
   <trkpt lon="2.677064" lat="39.772353"><ele>220.75</ele></trkpt>
   <trkpt lon="2.677376" lat="39.772473"><ele>216.75</ele></trkpt>
   <trkpt lon="2.677605" lat="39.772524"><ele>215.0</ele></trkpt>
   <trkpt lon="2.678081" lat="39.772532"><ele>214.5</ele></trkpt>
   <trkpt lon="2.679014" lat="39.772692"><ele>208.25</ele></trkpt>
   <trkpt lon="2.679211" lat="39.772701"><ele>208.0</ele></trkpt>
   <trkpt lon="2.679698" lat="39.772702"><ele>207.5</ele></trkpt>
   <trkpt lon="2.679825" lat="39.772702"><ele>208.5</ele></trkpt>
   <trkpt lon="2.679911" lat="39.772721"><ele>208.75</ele></trkpt>
   <trkpt lon="2.679981" lat="39.772779"><ele>207.5</ele></trkpt>
   <trkpt lon="2.680034" lat="39.772887"><ele>206.0</ele></trkpt>
   <trkpt lon="2.680074" lat="39.772988"><ele>204.25</ele></trkpt>
   <trkpt lon="2.680137" lat="39.773069"><ele>203.0</ele></trkpt>
   <trkpt lon="2.680238" lat="39.773124"><ele>202.5</ele></trkpt>
   <trkpt lon="2.680342" lat="39.773135"><ele>202.5</ele></trkpt>
   <trkpt lon="2.680577" lat="39.773110"><ele>202.25</ele></trkpt>
   <trkpt lon="2.680682" lat="39.773105"><ele>202.5</ele></trkpt>
   <trkpt lon="2.680784" lat="39.773137"><ele>201.75</ele></trkpt>
   <trkpt lon="2.680884" lat="39.773214"><ele>200.5</ele></trkpt>
   <trkpt lon="2.680956" lat="39.773270"><ele>199.75</ele></trkpt>
   <trkpt lon="2.681042" lat="39.773302"><ele>199.5</ele></trkpt>
   <trkpt lon="2.681167" lat="39.773303"><ele>199.25</ele></trkpt>
   <trkpt lon="2.681484" lat="39.773265"><ele>197.75</ele></trkpt>
   <trkpt lon="2.681823" lat="39.773269"><ele>197.5</ele></trkpt>
   <trkpt lon="2.682169" lat="39.773370"><ele>194.75</ele></trkpt>
   <trkpt lon="2.683036" lat="39.773483"><ele>191.5</ele></trkpt>
   <trkpt lon="2.683158" lat="39.773499"><ele>191.5</ele></trkpt>
   <trkpt lon="2.683314" lat="39.773555"><ele>190.75</ele><sym>left_slight</sym></trkpt>
   <trkpt lon="2.683421" lat="39.773756"><ele>188.0</ele></trkpt>
   <trkpt lon="2.683486" lat="39.773829"><ele>187.75</ele></trkpt>
   <trkpt lon="2.683745" lat="39.773985"><ele>184.75</ele></trkpt>
   <trkpt lon="2.683859" lat="39.774013"><ele>184.75</ele></trkpt>
   <trkpt lon="2.684012" lat="39.774013"><ele>185.0</ele></trkpt>
   <trkpt lon="2.684381" lat="39.773970"><ele>184.5</ele></trkpt>
   <trkpt lon="2.684630" lat="39.773957"><ele>183.75</ele></trkpt>
   <trkpt lon="2.684999" lat="39.773981"><ele>184.0</ele></trkpt>
   <trkpt lon="2.685156" lat="39.774035"><ele>183.25</ele></trkpt>
   <trkpt lon="2.685407" lat="39.774269"><ele>179.25</ele></trkpt>
   <trkpt lon="2.685507" lat="39.774332"><ele>178.0</ele></trkpt>
   <trkpt lon="2.685590" lat="39.774353"><ele>177.75</ele></trkpt>
   <trkpt lon="2.685655" lat="39.774349"><ele>177.25</ele></trkpt>
   <trkpt lon="2.685734" lat="39.774318"><ele>177.25</ele></trkpt>
   <trkpt lon="2.685780" lat="39.774256"><ele>177.5</ele></trkpt>
   <trkpt lon="2.685857" lat="39.774060"><ele>178.0</ele></trkpt>
   <trkpt lon="2.685912" lat="39.774019"><ele>177.25</ele></trkpt>
   <trkpt lon="2.685979" lat="39.774014"><ele>175.5</ele></trkpt>
   <trkpt lon="2.686055" lat="39.774041"><ele>173.5</ele></trkpt>
   <trkpt lon="2.686082" lat="39.774104"><ele>172.75</ele></trkpt>
   <trkpt lon="2.686004" lat="39.774538"><ele>170.25</ele></trkpt>
   <trkpt lon="2.685977" lat="39.774574"><ele>169.75</ele></trkpt>
   <trkpt lon="2.685918" lat="39.774600"><ele>169.75</ele></trkpt>
   <trkpt lon="2.685846" lat="39.774600"><ele>170.75</ele></trkpt>
   <trkpt lon="2.685509" lat="39.774515"><ele>171.75</ele></trkpt>
   <trkpt lon="2.685401" lat="39.774516"><ele>171.0</ele></trkpt>
   <trkpt lon="2.685261" lat="39.774550"><ele>169.25</ele></trkpt>
   <trkpt lon="2.685135" lat="39.774614"><ele>168.0</ele></trkpt>
   <trkpt lon="2.684992" lat="39.774646"><ele>167.75</ele></trkpt>
   <trkpt lon="2.684371" lat="39.774647"><ele>166.25</ele></trkpt>
   <trkpt lon="2.684063" lat="39.774604"><ele>164.0</ele></trkpt>
   <trkpt lon="2.683887" lat="39.774556"><ele>163.5</ele></trkpt>
   <trkpt lon="2.683734" lat="39.774434"><ele>164.0</ele></trkpt>
   <trkpt lon="2.683657" lat="39.774400"><ele>164.25</ele></trkpt>
   <trkpt lon="2.683598" lat="39.774409"><ele>163.25</ele></trkpt>
   <trkpt lon="2.683549" lat="39.774449"><ele>161.75</ele><sym>right</sym></trkpt>
   <trkpt lon="2.683546" lat="39.774515"><ele>160.25</ele></trkpt>
   <trkpt lon="2.683690" lat="39.774633"><ele>159.5</ele></trkpt>
   <trkpt lon="2.683895" lat="39.774725"><ele>159.75</ele></trkpt>
   <trkpt lon="2.684135" lat="39.774798"><ele>158.0</ele></trkpt>
   <trkpt lon="2.684472" lat="39.774944"><ele>157.5</ele></trkpt>
   <trkpt lon="2.684621" lat="39.774966"><ele>156.5</ele></trkpt>
   <trkpt lon="2.685371" lat="39.774995"><ele>153.0</ele></trkpt>
   <trkpt lon="2.685539" lat="39.775023"><ele>152.25</ele></trkpt>
   <trkpt lon="2.685932" lat="39.775185"><ele>150.5</ele></trkpt>
   <trkpt lon="2.686340" lat="39.775472"><ele>147.5</ele></trkpt>
   <trkpt lon="2.686425" lat="39.775503"><ele>147.0</ele></trkpt>
   <trkpt lon="2.686498" lat="39.775505"><ele>146.0</ele></trkpt>
   <trkpt lon="2.686598" lat="39.775483"><ele>145.25</ele></trkpt>
   <trkpt lon="2.686729" lat="39.775422"><ele>145.25</ele></trkpt>
   <trkpt lon="2.686828" lat="39.775376"><ele>144.75</ele></trkpt>
   <trkpt lon="2.686891" lat="39.775332"><ele>144.5</ele></trkpt>
   <trkpt lon="2.686940" lat="39.775273"><ele>145.0</ele></trkpt>
   <trkpt lon="2.686993" lat="39.774992"><ele>141.75</ele></trkpt>
   <trkpt lon="2.687034" lat="39.774843"><ele>141.75</ele></trkpt>
   <trkpt lon="2.687074" lat="39.774757"><ele>141.0</ele></trkpt>
   <trkpt lon="2.687124" lat="39.774650"><ele>140.25</ele></trkpt>
   <trkpt lon="2.687288" lat="39.774372"><ele>138.5</ele></trkpt>
   <trkpt lon="2.687380" lat="39.774249"><ele>137.5</ele><sym>pass_place</sym><type>Shaping</type></trkpt>
   <trkpt lon="2.687383" lat="39.774246"><ele>137.5</ele></trkpt>
   <trkpt lon="2.687489" lat="39.774162"><ele>136.25</ele></trkpt>
   <trkpt lon="2.687561" lat="39.774138"><ele>135.5</ele></trkpt>
   <trkpt lon="2.687657" lat="39.774122"><ele>134.5</ele></trkpt>
   <trkpt lon="2.687770" lat="39.774129"><ele>133.0</ele></trkpt>
   <trkpt lon="2.687862" lat="39.774148"><ele>133.0</ele></trkpt>
   <trkpt lon="2.688001" lat="39.774223"><ele>130.75</ele></trkpt>
   <trkpt lon="2.688133" lat="39.774317"><ele>129.0</ele></trkpt>
   <trkpt lon="2.688278" lat="39.774388"><ele>128.5</ele></trkpt>
   <trkpt lon="2.688372" lat="39.774416"><ele>128.25</ele></trkpt>
   <trkpt lon="2.688509" lat="39.774426"><ele>127.75</ele></trkpt>
   <trkpt lon="2.688794" lat="39.774376"><ele>127.5</ele></trkpt>
   <trkpt lon="2.689006" lat="39.774355"><ele>126.75</ele></trkpt>
   <trkpt lon="2.689159" lat="39.774373"><ele>125.0</ele></trkpt>
   <trkpt lon="2.689376" lat="39.774429"><ele>124.25</ele></trkpt>
   <trkpt lon="2.689562" lat="39.774493"><ele>123.75</ele></trkpt>
   <trkpt lon="2.689676" lat="39.774533"><ele>124.0</ele></trkpt>
   <trkpt lon="2.689962" lat="39.774677"><ele>122.0</ele></trkpt>
   <trkpt lon="2.690094" lat="39.774766"><ele>121.0</ele></trkpt>
   <trkpt lon="2.690165" lat="39.774834"><ele>120.25</ele></trkpt>
   <trkpt lon="2.690255" lat="39.774919"><ele>120.0</ele></trkpt>
   <trkpt lon="2.690437" lat="39.775259"><ele>118.75</ele></trkpt>
   <trkpt lon="2.690568" lat="39.775459"><ele>116.75</ele></trkpt>
   <trkpt lon="2.690669" lat="39.775562"><ele>115.5</ele></trkpt>
   <trkpt lon="2.690775" lat="39.775629"><ele>114.5</ele></trkpt>
   <trkpt lon="2.690936" lat="39.775675"><ele>113.0</ele></trkpt>
   <trkpt lon="2.691059" lat="39.775710"><ele>111.5</ele></trkpt>
   <trkpt lon="2.691267" lat="39.775722"><ele>110.5</ele></trkpt>
   <trkpt lon="2.691445" lat="39.775699"><ele>110.0</ele></trkpt>
   <trkpt lon="2.691594" lat="39.775650"><ele>108.0</ele></trkpt>
   <trkpt lon="2.691743" lat="39.775545"><ele>107.0</ele></trkpt>
   <trkpt lon="2.692157" lat="39.775099"><ele>105.0</ele></trkpt>
   <trkpt lon="2.692263" lat="39.774917"><ele>104.0</ele></trkpt>
   <trkpt lon="2.692319" lat="39.774738"><ele>102.25</ele></trkpt>
   <trkpt lon="2.692321" lat="39.774348"><ele>100.75</ele></trkpt>
   <trkpt lon="2.692355" lat="39.774262"><ele>99.75</ele></trkpt>
   <trkpt lon="2.692416" lat="39.774177"><ele>98.75</ele></trkpt>
   <trkpt lon="2.692512" lat="39.774089"><ele>101.0</ele></trkpt>
   <trkpt lon="2.692698" lat="39.774009"><ele>99.0</ele></trkpt>
   <trkpt lon="2.692904" lat="39.773943"><ele>95.75</ele></trkpt>
   <trkpt lon="2.693121" lat="39.773929"><ele>92.75</ele></trkpt>
   <trkpt lon="2.693253" lat="39.773939"><ele>92.25</ele></trkpt>
   <trkpt lon="2.693353" lat="39.773956"><ele>92.0</ele><sym>stay_right</sym></trkpt>
   <trkpt lon="2.693419" lat="39.773990"><ele>93.0</ele></trkpt>
   <trkpt lon="2.693470" lat="39.774028"><ele>93.0</ele></trkpt>
   <trkpt lon="2.693676" lat="39.774270"><ele>90.75</ele></trkpt>
   <trkpt lon="2.693853" lat="39.774423"><ele>89.25</ele></trkpt>
   <trkpt lon="2.694037" lat="39.774517"><ele>88.5</ele></trkpt>
   <trkpt lon="2.694435" lat="39.774700"><ele>86.75</ele></trkpt>
   <trkpt lon="2.694519" lat="39.774757"><ele>87.0</ele></trkpt>
   <trkpt lon="2.694578" lat="39.774818"><ele>86.75</ele></trkpt>
   <trkpt lon="2.694776" lat="39.775101"><ele>83.75</ele></trkpt>
   <trkpt lon="2.694866" lat="39.775229"><ele>82.25</ele></trkpt>
   <trkpt lon="2.694957" lat="39.775294"><ele>81.5</ele></trkpt>
   <trkpt lon="2.695048" lat="39.775345"><ele>80.0</ele></trkpt>
   <trkpt lon="2.695180" lat="39.775384"><ele>78.75</ele></trkpt>
   <trkpt lon="2.695341" lat="39.775404"><ele>78.75</ele></trkpt>
   <trkpt lon="2.695514" lat="39.775387"><ele>80.25</ele></trkpt>
   <trkpt lon="2.695620" lat="39.775362"><ele>80.25</ele></trkpt>
   <trkpt lon="2.695778" lat="39.775275"><ele>80.0</ele></trkpt>
   <trkpt lon="2.695888" lat="39.775162"><ele>78.75</ele></trkpt>
   <trkpt lon="2.695952" lat="39.775042"><ele>78.25</ele></trkpt>
   <trkpt lon="2.695999" lat="39.774867"><ele>78.0</ele></trkpt>
   <trkpt lon="2.696047" lat="39.774758"><ele>77.25</ele></trkpt>
   <trkpt lon="2.696118" lat="39.774688"><ele>77.25</ele></trkpt>
   <trkpt lon="2.696187" lat="39.774661"><ele>77.75</ele></trkpt>
   <trkpt lon="2.696266" lat="39.774649"><ele>77.75</ele></trkpt>
   <trkpt lon="2.696729" lat="39.774674"><ele>74.75</ele></trkpt>
   <trkpt lon="2.697065" lat="39.774659"><ele>72.0</ele></trkpt>
   <trkpt lon="2.697231" lat="39.774628"><ele>71.0</ele></trkpt>
   <trkpt lon="2.697298" lat="39.774615"><ele>71.25</ele></trkpt>
   <trkpt lon="2.697660" lat="39.774548"><ele>70.5</ele></trkpt>
   <trkpt lon="2.697936" lat="39.774461"><ele>68.75</ele></trkpt>
   <trkpt lon="2.698067" lat="39.774416"><ele>68.5</ele></trkpt>
   <trkpt lon="2.698453" lat="39.774256"><ele>70.0</ele></trkpt>
   <trkpt lon="2.698577" lat="39.774244"><ele>68.25</ele></trkpt>
   <trkpt lon="2.698691" lat="39.774311"><ele>65.75</ele></trkpt>
   <trkpt lon="2.698727" lat="39.774390"><ele>64.25</ele></trkpt>
   <trkpt lon="2.698713" lat="39.774460"><ele>63.25</ele></trkpt>
   <trkpt lon="2.698648" lat="39.774518"><ele>62.25</ele></trkpt>
   <trkpt lon="2.697823" lat="39.774831"><ele>61.25</ele></trkpt>
   <trkpt lon="2.697441" lat="39.774882"><ele>63.0</ele></trkpt>
   <trkpt lon="2.697199" lat="39.774882"><ele>62.75</ele></trkpt>
   <trkpt lon="2.697090" lat="39.774914"><ele>62.5</ele></trkpt>
   <trkpt lon="2.697039" lat="39.774976"><ele>60.25</ele></trkpt>
   <trkpt lon="2.697036" lat="39.775042"><ele>58.5</ele></trkpt>
   <trkpt lon="2.697068" lat="39.775106"><ele>57.25</ele></trkpt>
   <trkpt lon="2.697110" lat="39.775132"><ele>57.0</ele></trkpt>
   <trkpt lon="2.697182" lat="39.775143"><ele>56.75</ele></trkpt>
   <trkpt lon="2.697421" lat="39.775127"><ele>54.25</ele></trkpt>
   <trkpt lon="2.697845" lat="39.775046"><ele>53.75</ele></trkpt>
   <trkpt lon="2.698541" lat="39.774834"><ele>53.75</ele></trkpt>
   <trkpt lon="2.698970" lat="39.774658"><ele>52.25</ele></trkpt>
   <trkpt lon="2.699259" lat="39.774504"><ele>50.25</ele></trkpt>
   <trkpt lon="2.699551" lat="39.774324"><ele>46.5</ele></trkpt>
   <trkpt lon="2.701260" lat="39.773120"><ele>36.0</ele><sym>pass_place</sym><type>Shaping</type></trkpt>
   <trkpt lon="2.701263" lat="39.773118"><ele>36.0</ele></trkpt>
   <trkpt lon="2.701847" lat="39.772382"><ele>32.75</ele></trkpt>
   <trkpt lon="2.701889" lat="39.772335"><ele>32.25</ele></trkpt>
   <trkpt lon="2.701942" lat="39.772261"><ele>31.75</ele></trkpt>
   <trkpt lon="2.702021" lat="39.772176"><ele>31.0</ele></trkpt>
   <trkpt lon="2.702183" lat="39.772073"><ele>29.75</ele></trkpt>
   <trkpt lon="2.702803" lat="39.771816"><ele>30.5</ele></trkpt>
   <trkpt lon="2.703008" lat="39.771743"><ele>30.5</ele></trkpt>
   <trkpt lon="2.703814" lat="39.771423"><ele>29.75</ele></trkpt>
   <trkpt lon="2.704291" lat="39.771234"><ele>28.75</ele></trkpt>
   <trkpt lon="2.704717" lat="39.771057"><ele>28.0</ele></trkpt>
   <trkpt lon="2.704909" lat="39.770977"><ele>28.0</ele></trkpt>
   <trkpt lon="2.705329" lat="39.770821"><ele>26.75</ele></trkpt>
   <trkpt lon="2.705529" lat="39.770735"><ele>26.75</ele></trkpt>
   <trkpt lon="2.705572" lat="39.770725"><ele>26.5</ele><sym>right_slight</sym></trkpt>
   <trkpt lon="2.705583" lat="39.770702"><ele>26.75</ele></trkpt>
   <trkpt lon="2.706200" lat="39.770175"><ele>29.5</ele></trkpt>
   <trkpt lon="2.706463" lat="39.769958"><ele>29.5</ele></trkpt>
   <trkpt lon="2.706724" lat="39.769769"><ele>28.25</ele><sym>right_slight</sym></trkpt>
   <trkpt lon="2.707180" lat="39.768645"><ele>30.0</ele></trkpt>
   <trkpt lon="2.707507" lat="39.767828"><ele>31.75</ele></trkpt>
   <trkpt lon="2.707828" lat="39.767027"><ele>34.25</ele></trkpt>
   <trkpt lon="2.707819" lat="39.766967"><ele>34.75</ele></trkpt>
   <trkpt lon="2.707814" lat="39.766901"><ele>35.0</ele></trkpt>
   <trkpt lon="2.707809" lat="39.766829"><ele>35.25</ele><sym>roundabout_e2</sym></trkpt>
   <trkpt lon="2.707782" lat="39.766804"><ele>35.25</ele></trkpt>
   <trkpt lon="2.707767" lat="39.766767"><ele>35.5</ele></trkpt>
   <trkpt lon="2.707768" lat="39.766741"><ele>35.75</ele></trkpt>
   <trkpt lon="2.707788" lat="39.766705"><ele>35.75</ele></trkpt>
   <trkpt lon="2.707819" lat="39.766681"><ele>35.75</ele></trkpt>
   <trkpt lon="2.707853" lat="39.766669"><ele>35.75</ele></trkpt>
   <trkpt lon="2.707898" lat="39.766665"><ele>36.0</ele></trkpt>
   <trkpt lon="2.707930" lat="39.766671"><ele>35.75</ele></trkpt>
   <trkpt lon="2.707966" lat="39.766687"><ele>35.75</ele></trkpt>
   <trkpt lon="2.707982" lat="39.766701"><ele>35.75</ele></trkpt>
   <trkpt lon="2.708004" lat="39.766735"><ele>35.5</ele></trkpt>
   <trkpt lon="2.708047" lat="39.766763"><ele>35.25</ele></trkpt>
   <trkpt lon="2.708113" lat="39.766806"><ele>34.5</ele></trkpt>
   <trkpt lon="2.708548" lat="39.766981"><ele>32.0</ele></trkpt>
   <trkpt lon="2.708936" lat="39.767131"><ele>30.0</ele></trkpt>
   <trkpt lon="2.709343" lat="39.767304"><ele>28.25</ele></trkpt>
   <trkpt lon="2.709659" lat="39.767432"><ele>27.25</ele></trkpt>
   <trkpt lon="2.709879" lat="39.767523"><ele>26.75</ele></trkpt>
   <trkpt lon="2.710296" lat="39.767705"><ele>26.75</ele></trkpt>
   <trkpt lon="2.710452" lat="39.767773"><ele>27.0</ele></trkpt>
   <trkpt lon="2.710957" lat="39.767992"><ele>26.75</ele></trkpt>
   <trkpt lon="2.710996" lat="39.768009"><ele>26.75</ele></trkpt>
   <trkpt lon="2.711252" lat="39.768121"><ele>26.75</ele></trkpt>
   <trkpt lon="2.711366" lat="39.768170"><ele>26.75</ele><sym>roundabout_e1</sym></trkpt>
   <trkpt lon="2.711384" lat="39.768154"><ele>26.75</ele></trkpt>
   <trkpt lon="2.711434" lat="39.768135"><ele>27.0</ele></trkpt>
   <trkpt lon="2.711489" lat="39.768141"><ele>27.0</ele></trkpt>
   <trkpt lon="2.711539" lat="39.768073"><ele>26.75</ele></trkpt>
   <trkpt lon="2.712789" lat="39.766367"><ele>33.0</ele></trkpt>
   <trkpt lon="2.712953" lat="39.766144"><ele>33.75</ele></trkpt>
   <trkpt lon="2.713023" lat="39.765980"><ele>34.75</ele><sym>left</sym></trkpt>
   <trkpt lon="2.713079" lat="39.765980"><ele>34.75</ele></trkpt>
   <trkpt lon="2.713481" lat="39.765979"><ele>35.0</ele></trkpt>
   <trkpt lon="2.713720" lat="39.766101"><ele>35.0</ele></trkpt>
   <trkpt lon="2.713868" lat="39.766204"><ele>34.5</ele></trkpt>
   <trkpt lon="2.713927" lat="39.766244"><ele>34.5</ele></trkpt>
   <trkpt lon="2.714190" lat="39.766353"><ele>34.0</ele></trkpt>
   <trkpt lon="2.714609" lat="39.766471"><ele>33.5</ele></trkpt>
   <trkpt lon="2.714695" lat="39.766505"><ele>33.0</ele><sym>right</sym></trkpt>
   <trkpt lon="2.714731" lat="39.766486"><ele>33.25</ele></trkpt>
   <trkpt lon="2.714782" lat="39.766443"><ele>33.5</ele></trkpt>
   <trkpt lon="2.714824" lat="39.766373"><ele>34.0</ele></trkpt>
   <trkpt lon="2.714825" lat="39.766186"><ele>34.0</ele><sym>left</sym></trkpt>
   <trkpt lon="2.715059" lat="39.766199"><ele>34.75</ele><sym>pass_place</sym><type>Via</type></trkpt>
  </trkseg>
 </trk>
</gpx>
